source,bd_uid,name,address,province,city,area,tel,poi_type,tag
baidu,e8f3b4d7fa9e292eb4265564,古兰古阆穆林清真餐厅,内东街状元坊2楼,四川省,南充市,阆中市,(0817)6332333,unknown,
baidu,3cd2b02fe87b3e742b3a9f4a,马记包子店(关王庙街店),文昌宫街39号,四川省,南充市,阆中市,"(0817)6960700,18783937630",unknown,
baidu,2443c0cf20fc6614c9c3db4f,小渔楼,双栅子街132号,四川省,南充市,阆中市,(0817)6350533,unknown,
baidu,86062f36bcbc8d3fee74f859,姜子牙美食城(文昌宫店),文昌宫街181号,四川省,南充市,阆中市,(0817)6238388,unknown,
baidu,670e0b48f810df3608f5eba2,聚龙砂锅居(阆中店),杨天井街108号,四川省,南充市,阆中市,13388236660,unknown,
baidu,04bdf4a3f816224c354aae23,春怡火锅(中华阆天城店),阆水中路194号,四川省,南充市,阆中市,(0817)6222612,unknown,
baidu,0481c0e71fe9b813d8d891f4,古城土菜馆,阆中古城上华街32号华光楼洞口,四川省,南充市,阆中市,18990820055,unknown,
baidu,3a59ae2a6f7a619c4c3a596f,阆中回乡源,王爷庙街92号,四川省,南充市,阆中市,(0817)6224266,unknown,
baidu,8115dc1dfb76ab7a38221cdb,古茗(东方广场店),东方广场北京街105号,四川省,南充市,阆中市,15708175782,unknown,
baidu,be9aeecde6312ee75abbbcb9,何氏家常菜馆(关王庙街店),农业银行阆中东风路分理处南门西北60米,四川省,南充市,阆中市,13084338111,unknown,
baidu,5388caa926c9f4f590114c86,银鲜牛肉面(东街小巷店),东街小巷47号,四川省,南充市,阆中市,13508090563,unknown,
baidu,7d816ad2c335fd66b320a80f,毛家巷老字号牛肉面,毛家巷69号,四川省,南充市,阆中市,15328860305,unknown,
baidu,86f37d5ec13d1df02cb908d4,刘老五鲜牛肉包子铺,礼拜寺街112号,四川省,南充市,阆中市,"13540592662,13990701228",unknown,
baidu,5b73efe219642d4bbda240ef,御品烤鸭店(文昌宫街店),文昌宫街10号,四川省,南充市,阆中市,17683236179,unknown,
baidu,81e20cd2ec2870051fe9992e,一品香烧烤(阆中店),白果树街81号(一品香烧烤),四川省,南充市,阆中市,(0817)6491581,unknown,
baidu,415b7710b1f3fc2c7069d3a6,李仙来川式烤肉(古城店),内东街七栋二楼,四川省,南充市,阆中市,(0817)6659558,unknown,
baidu,479b79d72faf0d52d8eced0c,茗洋鲜餐馆,关王庙街17号门面(烟草公司对面),四川省,南充市,阆中市,13890828598,unknown,
baidu,48864e7ea6fce72a72455b34,蜜雪冰城(阆中市东方广场店),郎家拐街东方广场北京街口,四川省,南充市,阆中市,13198829662,unknown,
baidu,36a4ddd12968629177026998,红筷子牛肉面,毛家巷21号,四川省,南充市,阆中市,13038204776,unknown,
baidu,7c72f198d26edd56cc06a4b3,蒋炸酱(内东街店),内东街93号附101号,四川省,南充市,阆中市,18086902557,unknown,
baidu,3a39e3c43417ca61e315f95a,东娃火锅(五丰商厦店),东街小巷46号2层,四川省,南充市,阆中市,13350265857,unknown,
baidu,8f7992642be116c8118824c3,麦当劳(阆中内东街店),内东街22号,四川省,南充市,阆中市,(0817)7951622,unknown,
baidu,001e8dc745397639d518b7cc,晓秧锅鲜货火锅·重庆老字号(阆中店),官菜园街俊豪阆中购物中心A栋1层1-11号,四川省,南充市,阆中市,(0817)6272566,unknown,
baidu,1a707bdcb737ba15fbf0cbf8,华莱士·全鸡汉堡(阆中保宁镇店),东坛井街2号,四川省,南充市,阆中市,(0817)6222412,unknown,
baidu,8be3c9450731d522343a714c,焱火冒菜,白果树街3号,四川省,南充市,阆中市,13208238015,unknown,
baidu,2ba587834d593e74d3ff2349,邓氏晶晨灌汤包(白果树街店),白果树街49号,四川省,南充市,阆中市,13989181462,unknown,
baidu,97b57c4ba87f2e4352e5c51f,南充米粉(天上宫街店),东坛井2号,四川省,南充市,阆中市,18781745666,unknown,
baidu,e3bd871cd67564f000ec011e,林华火锅米线,保宁街道东坛井街73号(中国建设银行斜对面),四川省,南充市,阆中市,13458279174,unknown,
baidu,40bcb7f253c9d354d3ff2341,书亦烧仙草(东方广场店),东方广场北京街4-105号,四川省,南充市,阆中市,4000857085,unknown,
baidu,3a2b5162d6eb7c0e5f0d02b4,阆之味牛肉面(杨天井店),杨天井街34号,四川省,南充市,阆中市,17501129920,unknown,
baidu,ddb1e23ae1a9bdf6a21de903,德克士(阆中店),东方广场4201,四川省,南充市,阆中市,(0817)6226488,unknown,
baidu,f42c41929e5b86fd734b87ae,廖记正宗军屯锅魁,南充市阆中市杨天井街阆师附小北侧,四川省,南充市,阆中市,,unknown,
baidu,b41c8cdcd784e118ca09f0b9,正新鸡排·炸鸡烧烤(文昌店),太平寺街18号,四川省,南充市,阆中市,15983763694,unknown,
baidu,80c4092076bf990ddbeced57,兄弟炸酱,太平寺街78号,四川省,南充市,阆中市,15181470288,unknown,
baidu,cce258973ca627e7220220f6,红高粱烤坊,四川省南充市阆中市杨天井街8号,四川省,南充市,阆中市,,unknown,
baidu,72deca3bbf446993fb2d61f6,金贝儿(内东街店),内东街3号古城东门入口,四川省,南充市,阆中市,(0817)6278222,unknown,
baidu,83324f7c0b2d887e3686f41f,陈多多·新式豆腐·鲜果茶(阆中东方广场店),东方广场3栋128号,四川省,南充市,阆中市,17882678808,unknown,
baidu,a5b55d974968e6d814c8f6d3,火道佳旋转小火锅,四川省南充市阆中市东方广场台北街123号,四川省,南充市,阆中市,13990749905,unknown,
baidu,634a3b032904bec89ff779dd,王肥肠(土酸菜干饭),四川省南充市阆中市保宁街道毛家巷41号,四川省,南充市,阆中市,13228263815,unknown,
baidu,d270c903e67ac6c12811d12b,华珍牛肉(大东街老店),四川省南充市阆中市上华街18号(华光楼脚下),四川省,南充市,阆中市,18080301039,unknown,
baidu,a526e3006594bf2459bbbc6b,雷仕动物奶油生日蛋糕(天上宫街店),天上宫街108号,四川省,南充市,阆中市,(0817)6226600,unknown,
baidu,28ea19b5905f6de6a4c7561c,良食小碗菜,四川省南充市阆中市东坛井街40号,四川省,南充市,阆中市,15881722986,unknown,
baidu,3f96c7dc72c4c99d1b94c6f5,假如似间咖啡(内东街店),内东街100号,四川省,南充市,阆中市,13631466368,unknown,
baidu,d82d6697b96fada5d518b723,福记粉面馆(东坛井街店),东坛井街1号,四川省,南充市,阆中市,(0817)6225877,unknown,
baidu,d17a1edf79c6c92d6140a94d,素珍牛肉,阆中市礼拜寺街186号,四川省,南充市,阆中市,13990834370,unknown,
baidu,35b3f2e0ee35f28bf32d838c,蒋炸酱(公园路店),公园路2号,四川省,南充市,阆中市,18086902557,unknown,
baidu,795b7f4df1dac15a88f15dbe,特色家常菜(阆中分店),保宁街道白果树街23号(邓胖子卤房),四川省,南充市,阆中市,15528804444,unknown,
baidu,9452191b179d122ec909f094,酥艺轩,太平寺街2号,四川省,南充市,阆中市,,unknown,
baidu,59a0693130728ac0250bd0bf,穆萨羊肉汤锅,毛家巷63号,四川省,南充市,阆中市,13398417981,unknown,
baidu,1a288350b0c77e65f90cadac,阆苑专业牛肉面,毛家巷85号,四川省,南充市,阆中市,13890837389,unknown,
baidu,f269f207bf57c287f02d83eb,小火车19元自助火锅,内东街东方广伦敦街7栋131号,四川省,南充市,阆中市,18081569815,unknown,
baidu,d4f5cb29a0e306f7b320a8fb,绝味鸭脖(东方广场店),阆中东方广场4栋143号,四川省,南充市,阆中市,18783901185,unknown,
baidu,b1c22677eccf439314764381,阆中醋坊(保宁醋直销店),大东街163号,四川省,南充市,阆中市,15906890700,unknown,
baidu,7474fee042b70220b45f1eca,文记泡椒粉面,白果树街2号,四川省,南充市,阆中市,13438753960,unknown,
baidu,9c56fc479e7c00a908ccdd1c,库迪咖啡(阆中东方广场店),东方广场3栋102号,四川省,南充市,阆中市,17761181889,unknown,
baidu,f7a00fc543c7104aa11de99b,艾米粥,四川省南充市阆中市文昌宫东巷52号,四川省,南充市,阆中市,17781282501,unknown,
baidu,e9eb8b7880e7c7e31ce99944,凉菜卤菜,南充市阆中市白果树街和谐小区(毛家巷)南侧约90米,四川省,南充市,阆中市,,unknown,
baidu,c619d940b467396e74026993,蔡大胖炸洋芋(阆中东方广场店),东方广场中心广场入口,四川省,南充市,阆中市,13198829662,unknown,
baidu,c8a12b69cbd7dcb3ca09f03b,银杏休闲茶楼(阆中步行街店),四川省南充市阆中市巴黎街东方广场3楼,四川省,南充市,阆中市,(0817)6236825,unknown,
baidu,be625bd26c33a151bd4842ce,古阆古味,下沙河街38号,四川省,南充市,阆中市,13989195568,unknown,
baidu,761e3e41c71a7da5f503b839,绝味鸭脖(郎家拐街店),郎家拐街143号,四川省,南充市,阆中市,18302337604,unknown,
baidu,0bade961398250f40782c2df,鑫记重庆鸡公煲,东方广场台北街2-111号,四川省,南充市,阆中市,17721802003,unknown,
baidu,90b0ba39eae5735914c8f66a,贵花姑娘特色羊肉米粉(白果树店),四川省南充市阆中市白果树街67号（白果树街）,四川省,南充市,阆中市,18990886105,unknown,
baidu,be27b8e73049d6d0ce04ef0f,西雅图·中国汉堡(阆中店),保宁街道张飞南路183号(阆中宾馆对面),四川省,南充市,阆中市,18181919949,unknown,
baidu,d858bbd3249d042378f79635,王氏炸酱面,张飞南路215号-217号,四川省,南充市,阆中市,13508087020,unknown,
baidu,b1dfe5caf43d4f48912ca33e,麻爪爪(阆中东方广场店),东方广场9栋108号,四川省,南充市,阆中市,,unknown,
baidu,ed677db1f5d12e1dca1b9534,辣妹子麻辣烫(东方广场店),东方广场台北街2-139号,四川省,南充市,阆中市,18990759314,unknown,
baidu,4c4699946bb31da7d72ce201,蒲记牛杂(毛家巷店),毛家巷10号,四川省,南充市,阆中市,18090541711,unknown,
baidu,b89247495f41b4b426e0a094,邓胖子卤房,白果树街1号,四川省,南充市,阆中市,(0817)6224814,unknown,
baidu,3451fac987d10e8b28201a07,土豆孃孃麻辣烫(文庙店),北街138号（文庙对面）,四川省,南充市,阆中市,13508083311,unknown,
baidu,208bd14024235943ed74f80b,元樽日式料理(阆中店),东方广场台北街132号(阿迪达斯对面)（岩义跆拳道）,四川省,南充市,阆中市,"(0817)6283299,18780906249",unknown,
baidu,50be0b62cd641ee3b9df8ff2,老北街100號油茶馓子,阆中古城北街144号,四川省,南充市,阆中市,18145070040,unknown,
baidu,3a4cb8e2f51a67840e3dda0e,绵阳米粉养身罐罐粥,南充市阆中市毛家巷和谐小区(毛家巷)南侧,四川省,南充市,阆中市,,unknown,
baidu,ba4aefbc8e297532efdfca79,酸菜豆花面,三岔路13号,四川省,南充市,阆中市,13550597721,unknown,
baidu,95ea1f50ae2daea7f7e73b27,蜀食一家五馅包(阆中店),南充市阆中市杨天井街阆师附小西北侧约70米,四川省,南充市,阆中市,,unknown,
baidu,ead33ed819810f8db75f1e62,白螺湾螺蛳粉(阆中店),伦敦街东方广场9号楼1楼107号,四川省,南充市,阆中市,15182981880,unknown,
baidu,6c355c05de1154ea077ce8c2,源之味牛肉面(五丰商厦店),四川省南充市阆中市大东街196号,四川省,南充市,阆中市,13990874255,unknown,
baidu,3ea2a999824f66e81b94c675,沪上阿姨鲜果茶(东方广场店),学府街东方广场108号,四川省,南充市,阆中市,13621069774,unknown,
baidu,f0bed73db130245f9868b4d6,金源羊肉汤(关王庙街店),太清宫街6号,四川省,南充市,阆中市,18990768201,unknown,
baidu,e45868d5cc5bcfc50782c2c1,红姐牛杂面,毛家巷23号,四川省,南充市,阆中市,15729600769,unknown,
baidu,3a5112057782cc32e5073859,何姐馄饨,王爷庙街5号,四川省,南充市,阆中市,15760576009,unknown,
baidu,ca0173ac614219d5b020a867,和味食堂,毛家巷16-18号,四川省,南充市,阆中市,13232030202,unknown,
baidu,e8ea9397e54f3dc92fb908d9,方酥锅盔(古城总店),"保宁街道阆中古城下华街11号（华光楼下行15米,大树旁)",四川省,南充市,阆中市,18381775191,unknown,
baidu,ccc7c768360420ec28b97c89,蒋炸酱(阆天城店),阆水中路117号附17-20号,四川省,南充市,阆中市,17746739918,unknown,
baidu,652d7b0f74c57a5b0aa8d4ba,随变冰淇淋超市,四川省南充市阆中市保宁街道东坛井16号,四川省,南充市,阆中市,13002820565,unknown,
baidu,832d0b7d649e94c15fbe868b,家福乐牛肉面,白果树街21号,四川省,南充市,阆中市,13551916052,unknown,
baidu,29074d94443f57d71ef74d90,刘三月饼,礼拜寺街170号（阆中古城内）,四川省,南充市,阆中市,0817-6224970,unknown,
baidu,2d6dffc514cc0fa3c91b95ca,合家(毛家巷三陈街九号居民小区店),南充市阆中市毛家巷三陈街九号居民小区东北侧约40米,四川省,南充市,阆中市,,unknown,
baidu,6d893f08592444a9ac080fb3,川魂帽牌货冒菜(东方广场店),东方广场台北街五号,四川省,南充市,阆中市,,unknown,
baidu,9e3f49855407086058f6bed2,灌汤狗不理,四川省南充市阆中市东坛井街1号,四川省,南充市,阆中市,,unknown,
baidu,4fa9dd096fa7d9b841d63e85,老观锅盔,南充市阆中市白果树街和谐小区(毛家巷)南侧约80米,四川省,南充市,阆中市,,unknown,
baidu,ba72545ea12bdb5ebfa82294,华利尔蛋糕(文昌宫街店),文昌宫街13号,四川省,南充市,阆中市,15983785204,unknown,
baidu,08e643d16c29b4d1eb56fa60,吴记鸵鸟蛋糕店(阆中分店),白果树街42-44号,四川省,南充市,阆中市,18990766179,unknown,
baidu,f08b0fb47b0df995246e980b,邓师傅小时候的味道(白果树街店),南充市阆中市白果树街和谐小区(毛家巷)南门西南侧约90米,四川省,南充市,阆中市,,unknown,
baidu,4729a24e8c1ecd552902e1d9,劲松牛肉拉面刀削面(古城南街店),南充市阆中市白果树街和谐小区(毛家巷)南侧约80米,四川省,南充市,阆中市,15680303403,unknown,
baidu,0b00669824252c412bb97ce7,凤姐牛杂(东方广场店),东方广场（学道街入口处，茶司汇对面）,四川省,南充市,阆中市,18990769978,unknown,
baidu,fa89ae9246d9f68af60e7747,阆中古城醇香牛肉,南充市阆中市安顺里街阆中古城,四川省,南充市,阆中市,18080301039,unknown,
baidu,95686fa4c20f7914725e80af,世纪华堂,太平寺街10号,四川省,南充市,阆中市,(0817)6304188,unknown,
baidu,c99caebea9bb30f9cc06a402,东方广场步行街,南充市阆中市悉尼街东方广场店,四川省,南充市,阆中市,,unknown,
baidu,e5507ca0fa0463900a5cb368,新世纪百货(阆中商都),郎家拐街广场路2号,四川省,南充市,阆中市,(0817)8017666,unknown,
baidu,a3d2b8cdeff2fe0d631809c7,俊豪阆中购物中心,四川省南充市阆中市广场路54号,四川省,南充市,阆中市,(0817)6226888,unknown,
baidu,ebf2218950386be394031928,沃尔玛购物广场(阆中商都新世纪百货店),郎家拐街54号,四川省,南充市,阆中市,(0817)6256197,unknown,
baidu,1eb9515ae86fa3493d9a5e97,如意超市,南充市阆中市杨天井街阆师附小,四川省,南充市,阆中市,,unknown,
baidu,d8455b49663b505154bfff1b,义乌特价小商品超市,四川省南充市阆中市天上宫街1号负1楼(阆中宾馆对面),四川省,南充市,阆中市,18086905540,unknown,
baidu,737c7b22d007fe9ee3110312,百家超市(翼德花园店),四川省南充市阆中市毛家巷和谐小区(毛家巷),四川省,南充市,阆中市,,unknown,
baidu,c3d36bf1ea64fd03d13ce38c,海澜之家(四川阆中太平寺街店),太平寺街82-85号,四川省,南充市,阆中市,(0817)6634989,unknown,
baidu,5803dd1f84b4e4ced72ce2b5,海澜之家(郎家拐街店),郎家拐街一楼38-42号,四川省,南充市,阆中市,(0817)6224882,unknown,
baidu,6f58f761ff9a16b304026f9f,天赐名典,四川省南充市阆中市保宁街道文昌宫街37号,四川省,南充市,阆中市,18181079123,unknown,
baidu,da203bcc77c5d328a8059d36,小跟班,南充市阆中市文昌宫街阆师附小,四川省,南充市,阆中市,,unknown,
baidu,b3584ee94a0bcc28b05c6a7e,莱啦(嘉陵江游船店),四川省南充市阆中市保宁街道太平寺街60号,四川省,南充市,阆中市,18048966192,unknown,
baidu,cc6acc12113ffefee856fa01,路路佳米奇代销店,南充市阆中市文昌宫街阆师附小东南侧,四川省,南充市,阆中市,,unknown,
baidu,b54ab855836d9e5949fd3f52,幻彩四季(嘉陵江游船店),四川省南充市阆中市太平寺街44号,四川省,南充市,阆中市,18048966033,unknown,
baidu,4de7238873d9d2131ce99963,零食有鸣(天上宫街店),保宁街道天上宫街51号,四川省,南充市,阆中市,18173816637,unknown,
baidu,f05bc098f51e8c3cfb22136b,名创优品(阆中保宁大东街店),保宁镇大东街1号,四川省,南充市,阆中市,4007005553,unknown,
baidu,0c8ca82c1444a9b040e19259,五丰珠宝,四川省南充市阆中市白果树街2号,四川省,南充市,阆中市,,unknown,
baidu,8db750cbefd173a9d12dd667,九点利时尚街(阆中步行街店),东方广场8号楼1层11室,四川省,南充市,阆中市,15181775276,unknown,
baidu,9cc0b57c1c002e6131870a8a,魅力坊(太平寺街店),四川省南充市阆中市文昌宫街47号,四川省,南充市,阆中市,,unknown,
baidu,1c25c1384876c111d518b734,清醇茶行,四川省南充市阆中市杨天井街3号,四川省,南充市,阆中市,15281714327,unknown,
baidu,66119d0e30a3642ea2a9346c,瑞亦雪亲人内衣,四川省南充市阆中市太平寺街61号,四川省,南充市,阆中市,,unknown,
baidu,dc854f3a3d36ab08725e80be,丫丫缘鞋店,四川省南充市阆中市文昌宫街28号,四川省,南充市,阆中市,,unknown,
baidu,06f3c58660aa4ca9ad080fe1,苏泊尔(阆中店),郎家拐2号新世纪百货阆中商都负一楼,四川省,南充市,阆中市,,unknown,
baidu,434c3c0e13a80e6079dbd272,闺蜜汇(太平寺街店),四川省南充市阆中市太平寺街12号,四川省,南充市,阆中市,18281771880,unknown,
baidu,876abae22292def2601c675d,万盛裤业(郎家拐街店),四川省南充市阆中市郎家拐街8号,四川省,南充市,阆中市,,unknown,
baidu,a8b476f03e18636c715e80f0,万昌家家康(郎家拐街店),南充市阆中市郎家拐街东方广场店东南侧,四川省,南充市,阆中市,,unknown,
baidu,e1d906ab84ca9bbdb21e3607,小银楼,四川省南充市阆中市文昌宫街12号,四川省,南充市,阆中市,,unknown,
baidu,7289d67e5567c03f734b8795,靓女坊(阆中一店),四川省南充市阆中市天上宫街138号,四川省,南充市,阆中市,,unknown,
baidu,6266349f91a8974d3fe23183,蓝天之韵,四川省南充市阆中市文昌宫街40号,四川省,南充市,阆中市,,unknown,
baidu,bc3df20d2a1e95d0a21de976,多可爱童装(太平寺街店),四川省南充市阆中市文昌宫32号,四川省,南充市,阆中市,,unknown,
baidu,f3ad5e193d9244bb00ec0124,百衣百顺(文昌宫街店),四川省南充市阆中市文昌宫街75号,四川省,南充市,阆中市,,unknown,
baidu,94e4ec6c501ebabb4afd3f92,一件也是批发价,南充市阆中市白果树街和谐小区(毛家巷)西北侧约50米,四川省,南充市,阆中市,,unknown,
baidu,03ad6008e9a3f7e21d580045,步驰鞋庄,南充市阆中市文昌宫街阆师附小东北侧约60米,四川省,南充市,阆中市,,unknown,
baidu,991b5aa0ef91e629b64f54a2,奥古斯都(太平寺街店),四川省南充市阆中市保宁街道太平寺街30,四川省,南充市,阆中市,,unknown,
baidu,d8a45d9f1dfdbf5590114c14,SMEN诗萌(郎家拐街店),四川南充市阆中市郎家拐街56~58号,四川省,南充市,阆中市,,unknown,
baidu,7528b36f4beb6f57fb2d61ce,七乐屋,四川省南充市阆中市天上宫街138号,四川省,南充市,阆中市,,unknown,
baidu,27f49fe5d47120d7b64f54d6,罗马名店(金地大厦店),四川省南充市阆中市郎家拐街46号,四川省,南充市,阆中市,,unknown,
baidu,1ad8d6ccc5f17e677c29bd14,夏娃之秀(天上宫街店),南充市阆中市太平寺街阆师附小东南侧约60米,四川省,南充市,阆中市,,unknown,
baidu,10f662a12ccd6b3d8b2fb54b,落脚点鞋业(文昌宫街店),四川省南充市阆中市文昌宫街101号,四川省,南充市,阆中市,,unknown,
baidu,e0766bf381b631512cb90888,明丰日用百货经营部,南充市阆中市文昌宫街阆师附小东北侧约30米,四川省,南充市,阆中市,13350658581,unknown,
baidu,ec47ab6aa16e125edeee8bf4,梦金园(太平寺街店),南充市阆中市太平寺街阆师附小南侧,四川省,南充市,阆中市,,unknown,
baidu,d074cb63213023deb726556b,荷花池服装批发城(五丰商厦店),太平寺街125号五丰商厦F2层,四川省,南充市,阆中市,,unknown,
baidu,179196977cb00e6406026f2c,绿景坊,南充市阆中市文昌宫南巷106号,四川省,南充市,阆中市,"13056424882,15882621272",unknown,
baidu,8120a16d7020a5ecd92f28af,君臣商店,南充市阆中市杨天井街阆师附小西北侧约40米,四川省,南充市,阆中市,,unknown,
baidu,429546ba984f0b87aeb22af6,杨天井商店,四川省南充市阆中市杨天井街7号,四川省,南充市,阆中市,(0817)6238326,unknown,
baidu,22ddd58468aa62438615410b,萱萱家,四川省南充市阆中市太平寺街13号,四川省,南充市,阆中市,13183755778,unknown,
baidu,661712b4511502425e0d02c7,第一集贸市场,礼拜寺街106号,四川省,南充市,阆中市,,unknown,
baidu,31ac3d84bdfe3fa9badf8fd3,公牛爱眼LED灯(文昌宫街店),南充市阆中市文昌宫街文昌小区(文昌宫街),四川省,南充市,阆中市,,unknown,
baidu,98e737583b9d4c084c6d466c,交电燃具(文昌小区店),四川省南充市阆中市文昌宫街23号,四川省,南充市,阆中市,(0817)5185842,unknown,
baidu,5e53af1abeabd05c4151c022,家宝电器商场(阆中市林业局北),四川省南充市阆中市新村路东段9号,四川省,南充市,阆中市,"(0817)6228666,(0817)6233596",unknown,
baidu,d643bd79660c002d9ff77912,快鱼(阆中嘉陵江山旅游度假区店),太平寺街22号,四川省,南充市,阆中市,4006699588,unknown,
baidu,9ceaae5804e9866317948eac,逸峰文具,太平寺街阆师附小旁边,四川省,南充市,阆中市,18990730118,unknown,
baidu,cd9b9a9f466a740fc356ac0f,阆州杨瓜子,太平寺街78号,四川省,南充市,阆中市,,unknown,
baidu,1246459a30429e912fb96de8,母婴达人国际孕婴童连锁(张飞南路店),南充市阆中市文昌宫街阆中师范附属实验小学校(感恩校区)西侧约50米,四川省,南充市,阆中市,,unknown,
baidu,6913052300cd9176725e8013,匡记眼镜(太平寺街店),太平寺街3号（德惠超市旁）,四川省,南充市,阆中市,"(0817)6231622,13990813234",unknown,
baidu,47f12eda4cf17c0378f796aa,新靓点服装店(阆中店),四川省南充市阆中市文昌宫街35号,四川省,南充市,阆中市,15182931056,unknown,
baidu,dae43aea6d1adbfa11882405,子叶眼镜(太平寺街店),太平寺街33号,四川省,南充市,阆中市,"(0817)5182826,15182930935",unknown,
baidu,c962233cef7383c95fbe8670,罗玛鲨鱼(太平寺街店),四川省南充市阆中市太平寺街54号,四川省,南充市,阆中市,13688226798,unknown,
baidu,c5fbc18c634022608f55ecf8,千里臣奶行(文昌宫店),四川省南充市阆中市文昌宫街55号,四川省,南充市,阆中市,13419110689,unknown,
baidu,34dc332c0e6a3240c42ba193,足力健老人鞋(文昌宫店),四川省南充市阆中市文昌宫街41号,四川省,南充市,阆中市,17383841018,unknown,
baidu,24c4ab64c8f0522ab34c4914,星光99自助女装,四川省南充市阆中市文昌宫街232号,四川省,南充市,阆中市,18113918179,unknown,
baidu,5b8044739c8ea9d631f71d07,iEF爱依服(太平寺街店),四川省南充市阆中市太平寺街70号,四川省,南充市,阆中市,,unknown,
baidu,73076b82ee70e0376268587f,新潮日杂,四川省南充市阆中市太平寺街13号,四川省,南充市,阆中市,(0817)6232049,unknown,
baidu,8aab6a74178bdb5ceaf85359,新东方时尚服装(文昌小区店),四川省南充市阆中市文昌宫街74号,四川省,南充市,阆中市,,unknown,
baidu,63fe555deefe959f38221cd3,阆中市休闲阅读体验区,南充市阆中市太平寺街东方广场店东南侧约60米,四川省,南充市,阆中市,,unknown,
baidu,df1a0e46f81b50f183a00c43,美·服装店,南充市阆中市文昌宫街阆师附小东侧约30米,四川省,南充市,阆中市,,unknown,
baidu,b9de6d9fcbb8c3542cb17e15,喜德盛自行车(张飞南路店),南充市阆中市张飞南路阆中市城东小学校西南侧约30米,四川省,南充市,阆中市,18113690334,unknown,
baidu,f8c254abd7179cc8b14c4967,香港鼎尚银饰(文昌宫街店),四川省南充市阆中市东风路22号,四川省,南充市,阆中市,15528848348,unknown,
baidu,072b304efd5de88723f01748,三商化妆品(文昌宫街店),南充市阆中市太平寺街阆师附小东南侧约50米,四川省,南充市,阆中市,,unknown,
baidu,c7ca078eedab3f98f7eafce9,欧芬蒂娜,南充市阆中市太平寺街阆师附小东南侧约50米,四川省,南充市,阆中市,,unknown,
baidu,8ed1368f7e6fc880d618b730,优裤汇,四川省南充市阆中市太平寺街74号,四川省,南充市,阆中市,,unknown,
baidu,71fdf6a13bf722f2badf8f12,童伴精品童装,南充市阆中市文昌宫街阆师附小东侧约30米,四川省,南充市,阆中市,,unknown,
baidu,0c6e5ed1b72b9d943ce2312d,女人坊品牌服饰折扣店,南充市阆中市文昌宫街阆师附小东南侧约30米,四川省,南充市,阆中市,,unknown,
baidu,ad411b6c801df68d35b06c2e,屈臣氏(俊豪商业街店),郎家拐街俊豪商业街A区一层A1-A5号,四川省,南充市,阆中市,(0817)6430808,unknown,
baidu,01f38bbf2700d10608ccdd71,熊乐园童车店,南充市阆中市文昌宫街阆师附小东北侧约40米,四川省,南充市,阆中市,,unknown,
baidu,9391fc503b9f9a0fb9df8f83,鑫鑫日用品,南充市阆中市文昌宫街文昌小区(文昌宫街),四川省,南充市,阆中市,15182925520,unknown,
baidu,81da5379a450304e843304a9,宏运箱包,南充市阆中市文昌宫街文昌小区(文昌宫街),四川省,南充市,阆中市,,unknown,
baidu,0bd1fc2f238b40c4bfa8222d,时代裤业,四川省南充市阆中市太平寺街2号,四川省,南充市,阆中市,13350669669,unknown,
baidu,3833bcb4837416b508f5eb03,绅士之光,南充市阆中市文昌宫街文昌小区(文昌宫街),四川省,南充市,阆中市,,unknown,
baidu,cd172deee50e943cc9fa5f09,NIKE(天上宫街店),东方广场2号楼19-20室,四川省,南充市,阆中市,(0817)8017696,unknown,
baidu,d326e9c0945c7b8c2afc485d,男之格,南充市阆中市文昌宫街阆师附小东北侧约40米,四川省,南充市,阆中市,13096139810,unknown,
baidu,adcc4998394216e81e580093,J&S(太平寺街店),南充市阆中市太平寺街阆师附小西南侧,四川省,南充市,阆中市,,unknown,
baidu,7b0dc71660740c4c59bbbc88,恒源祥鄂尔多斯羊绒,四川省南充市阆中市新村路东段308号,四川省,南充市,阆中市,,unknown,
baidu,3fd7237a2a958d97704b87e6,玉洁家居(文昌宫店),四川省南充市阆中市保宁街道文昌宫街45号,四川省,南充市,阆中市,(0817)6282788,unknown,
baidu,55e564101f78010ea8f0cddc,弘源日杂,南充市阆中市文昌宫街阆师附小东北侧约30米,四川省,南充市,阆中市,"15881723409,18145038587",unknown,
baidu,b6f572063d10a407a8059dfb,宏伟日杂,四川省南充市阆中市文昌宫街24号,四川省,南充市,阆中市,18990843287,unknown,
baidu,fd3d4f7ddd0a23f4db1318d3,纤梦家纺(文昌宫街店),四川省南充市阆中市文昌宫街24号,四川省,南充市,阆中市,,unknown,
baidu,0133cd242e241b05d82f28e4,老蔡床上用品,南充市阆中市文昌宫街阆师附小东南侧,四川省,南充市,阆中市,,unknown,
baidu,e6d0019ad02dbdff71210b0b,公共厕所,南充市阆中市东街小巷2号,四川省,南充市,阆中市,,unknown,
baidu,716a25ac64ea56930bccdde6,中国福利彩票(嘉陵江游船店),南充市阆中市白果树街和谐小区(毛家巷)西北侧约30米,四川省,南充市,阆中市,954168,unknown,
baidu,375a0c715afda827d4851fd9,艺影数码影像,四川省南充市阆中市太平寺街29号,四川省,南充市,阆中市,15328415777,unknown,
baidu,2d5b13c395e8bbda9f09f781,周易预测,南充市阆中市杨天井街阆师附小北侧,四川省,南充市,阆中市,13540582763,unknown,
baidu,0463b72e2dd9d612c9c3dbed,公共厕所,东方广场7号楼一层18室,四川省,南充市,阆中市,,unknown,
baidu,bac83b8ba964680526e0a01c,家乐生活馆,四川省南充市阆中市文昌宫街3号,四川省,南充市,阆中市,18990762016,unknown,
baidu,7881df5afa5a2c2ca21de92a,中国联通(东方广场主店),四川省南充市阆中市东方广场7-126号,四川省,南充市,阆中市,13350669899,unknown,
baidu,ff8c2afbbf51119f7f29bd3b,缝纫店,四川省南充市阆中市寓新街74号,四川省,南充市,阆中市,,unknown,
baidu,c8d3958df218fedf43afe660,宠物岛屿,东方广场4号楼二楼,四川省,南充市,阆中市,18382936655,unknown,
baidu,bdaa6a45e9975e4a25d2bb86,周易研究,南充市阆中市文昌宫街阆师附小东北侧约50米,四川省,南充市,阆中市,"13890820195,19949807495",unknown,
baidu,de95b02689b9a9c39ee321c4,公共厕所,南充市阆中市盐市口街82号,四川省,南充市,阆中市,,unknown,
baidu,60356e1d4b13cb85d6b74e24,虹欣萌宠生活馆,阆中市东坛井69号,四川省,南充市,阆中市,18141352007,unknown,
baidu,77c96e3e47c172fe3517dc7a,杨记锁业(五丰商厦店),太平寺街125号五丰商厦F1层,四川省,南充市,阆中市,(0817)6221856,unknown,
baidu,c889f3c4f5e1d68c17948e1d,都市新洗衣会所(文昌宫店),南充市阆中市关王庙街66号,四川省,南充市,阆中市,"(0817)6299168,13890899129",unknown,
baidu,cb87185a1daf3da64bcc4a42,经纬网络印章,南充市阆中市关王庙街三岔路小区东侧约100米,四川省,南充市,阆中市,,unknown,
baidu,f62d28ac4d49f3423ce2313a,十字绣装裱,南充市阆中市文昌宫东巷阆中师范附属实验小学校(感恩校区)北侧约100米,四川省,南充市,阆中市,,unknown,
baidu,af481371c9625742cd04ef8b,公共卫生间,南充市阆中市张飞南路阆中师范附属实验小学校(感恩校区)东北侧约110米,四川省,南充市,阆中市,,unknown,
baidu,974633ddd5d70a3e6140a96a,韵达速递(文昌宫街店),南充市阆中市文昌宫街阆中师范附属实验小学校(感恩校区)西侧约60米,四川省,南充市,阆中市,"13219130560,17683160560",unknown,
baidu,225a2ffc438260a3f4e73bb4,新颖相馆,四川省南充市阆中市通济渠街32号,四川省,南充市,阆中市,18382911911,unknown,
baidu,75cca3b5d469ff1e8715413d,公共厕所,财神楼街阆中古城,四川省,南充市,阆中市,,unknown,
baidu,ec8db5a663de64b1344aaeb2,如意装裱,四川省南充市阆中市白果树街40号,四川省,南充市,阆中市,(0817)6229310,unknown,
baidu,731a50073bceff28c27da28f,老实人保洁服务中心,南充市阆中市文昌宫街阆师附小东北侧约50米,四川省,南充市,阆中市,(0817)6235861,unknown,
baidu,12223feb1a164ed193114ce8,公厕,南充市阆中市盐市口街东方广场店,四川省,南充市,阆中市,,unknown,
baidu,38ebe70e38eb08d6c8213d09,蜀墨堂装裱店,南充市阆中市文昌宫东巷阆中市城东小学校西南侧约90米,四川省,南充市,阆中市,18681798388,unknown,
baidu,74d6ad55c58e74d415a19023,一帆图文广告,张飞南路392号下穿隧道公交站台旁农业银行斜对面多维初中部门口（小刀电动车旁）,四川省,南充市,阆中市,18990893755,unknown,
baidu,2826010e69d4562f2902e128,千玺婚礼设计,四川省南充市阆中市东方广场第五大道2楼217号,四川省,南充市,阆中市,18382080992,unknown,
baidu,6a60f33c27a3f08388b98847,苗圃·托管中心,南充市阆中市白果树街和谐小区(毛家巷),四川省,南充市,阆中市,,unknown,
baidu,0861105f6d1d974e88f15de4,骄阳兰多产后恢复中心(阆中临济堂街店),临济堂街7号,四川省,南充市,阆中市,(0817)6350337,unknown,
baidu,8a80aef630215c673f9a5e5a,农情暖域工会驿站(中国农业银行古城支行),四川省南充市阆中市太平寺街129号,四川省,南充市,阆中市,(0817)2464398,unknown,
baidu,6893ea96b8ed57547c29bd52,阆中古城-售票处,南充市阆中市阆水中路33号阆中古城内,四川省,南充市,阆中市,,unknown,
baidu,d39d9fa7e09b073849fc8d42,公厕,南充市阆中市南街阆中古城,四川省,南充市,阆中市,,unknown,
baidu,9330e95c086817e2c51b75a5,中国邮政(官菜园邮政所),新村路21号,四川省,南充市,阆中市,11185,unknown,
baidu,089fc2b6967f0235dc1e5217,手机维修之家,南充市阆中市伦敦街东方广场店,四川省,南充市,阆中市,18781754000,unknown,
baidu,9b04fdc2ad544ecf8bfc0676,阆中古城-游客中心,四川省南充市阆中市阆水中路33号,四川省,南充市,阆中市,(0817)6239899,unknown,
baidu,f85c34f7c7a427b56c47602d,万利印刷,四川省南充市阆中市保宁街道文昌宫东巷16-17-号,四川省,南充市,阆中市,,unknown,
baidu,090b14a63e279f2595f08c87,礼拜寺回民街宠物店,四川省南充市阆中市礼拜寺街160号,四川省,南充市,阆中市,13890715257,unknown,
baidu,7b8132336e041b5f1b11d517,不负卿汉服妆造,阆中古城下新街37号,四川省,南充市,阆中市,,unknown,
baidu,bafece78732d179545572649,圆通速递(阆中古镇步行街店),四川省南充市阆中市盐市口街13号,四川省,南充市,阆中市,(0817)6224390,unknown,
baidu,637f978954246f1ceb56fa9e,公共厕所,大东街116号,四川省,南充市,阆中市,,unknown,
baidu,384d03a8ac952616d3ff23bb,匠心李师制作维护中心,南充市阆中市伦敦街东方广场店,四川省,南充市,阆中市,,unknown,
baidu,01bb2ebcdb100712754ff14c,同桌印务,四川省南充市阆中市张飞南路355号,四川省,南充市,阆中市,,unknown,
baidu,67c95bcb0fdf840843afe633,中国福利彩票(公园路店),四川省南充市阆中市张宪街314号,四川省,南充市,阆中市,954168,unknown,
baidu,8c15262ec9865a1a33870a1d,手机快修,四川省南充市阆中市伦敦街7-122号,四川省,南充市,阆中市,18781754000,unknown,
baidu,c5a9859c6107fb7703ec011c,爱摄影,四川省南充市阆中市通济渠40号,四川省,南充市,阆中市,17390180827,unknown,
baidu,57bafe659a253e3a5fd4fe02,阆中名城信息服务中心,南充市阆中市张飞南路阆中师范附属实验小学校(感恩校区)东北侧约100米,四川省,南充市,阆中市,"13158526424,13198182657",unknown,
baidu,96a05417b4ca9dda6f3e1b4f,家电维修部,四川省南充市阆中市文明巷28号,四川省,南充市,阆中市,,unknown,
baidu,8722b60133fe0332acb22aad,郎家拐街社区便民服务大厅,四川南充市阆中市郎家拐街62号,四川省,南充市,阆中市,,unknown,
baidu,7d90b86b667f6e3201294f52,寿衣花圈,南充市阆中市毛家巷阆中市人民医院(古城院区)东北侧,四川省,南充市,阆中市,,unknown,
baidu,8eb795bd6c133ffed7b74e58,公共厕所,南充市阆中市米粮市街31号,四川省,南充市,阆中市,,unknown,
baidu,86085b5c60e5bcab9ff77958,恒美庆典,郎家拐街广场路2号新世纪百货F2,四川省,南充市,阆中市,,unknown,
baidu,69be9cf5f6603bb61e1d11a8,中国电信(新涛授权服务中心),四川省南充市阆中市张飞南路21号,四川省,南充市,阆中市,18990728181,unknown,
baidu,9dd4afc31eafb69372210b80,公共厕所,南充市阆中市机房街93号,四川省,南充市,阆中市,,unknown,
baidu,b788aa584932f9e4a6da3948,玫瑰情缘婚纱婚礼,南充市阆中市张飞南路阆中宾馆,四川省,南充市,阆中市,,unknown,
baidu,e94488c243946ed3d8ecedcb,公共厕所,南充市阆中市通济渠巷祥和小区(古莲池街)西北侧约100米,四川省,南充市,阆中市,,unknown,
baidu,0cc095b714cff6f348cc4aaa,中国联通讯捷宽带服务站,南充市阆中市三陈街九号居民小区西南侧,四川省,南充市,阆中市,,unknown,
baidu,4a4a22063c686ff39a00506f,报刊亭,南充市阆中市公园路阆中宾馆东北侧约70米,四川省,南充市,阆中市,,unknown,
baidu,2327126ab30010ed82a12e9f,三才堂专业算命取名馆,南充市阆中市三陈街阆中古城,四川省,南充市,阆中市,,unknown,
baidu,499cc95676ca0ca725e0a07a,寿终服务部,南充市阆中市毛家巷阆中市人民医院(古城院区)北侧,四川省,南充市,阆中市,,unknown,
baidu,aa501f173aa9b89ae6e96541,刘裁缝寿衣店,南充市阆中市三陈街九号居民小区南门西南侧约40米,四川省,南充市,阆中市,15882662458,unknown,
baidu,4c29af00113d3ee1db131868,小彭摩托车电动车三轮车维修中心,南充市阆中市三陈街49号,四川省,南充市,阆中市,,unknown,
baidu,22d0933de5d92132d23ce343,福满园殡葬用品,南充市阆中市毛家巷阆中市人民医院(古城院区)东北侧,四川省,南充市,阆中市,17313846015,unknown,
baidu,24adec49b8638085441a32be,长城印业,四川省南充市阆中市张飞南路401号,四川省,南充市,阆中市,(0817)6222222,unknown,
baidu,3e9f34f3832608c3018972d8,菜鸟驿站(南充财神楼街店),南充市阆中市财神楼街阆中古城,四川省,南充市,阆中市,951966,unknown,
baidu,5f76d6aba5a35bb6a2a934ed,华光楼码头-游船售票处,南充市阆中市阆水中路59号华光楼码头内,四川省,南充市,阆中市,,unknown,
baidu,dc2ae4185515bf8926e0a02f,奇趣异宠,南充市阆中市张飞南路阆中市城东小学校西侧约110米,四川省,南充市,阆中市,13179083332,unknown,
baidu,c82418f38a63e8b75fbe8686,郎家拐街社区党群服务中心,南充市阆中市三岔路小区北侧,四川省,南充市,阆中市,,unknown,
baidu,83afbc6d8ed17c5638221cfc,志愿服务站,南充市阆中市内东街状元小区(内东街)西门南侧,四川省,南充市,阆中市,,unknown,
baidu,a895bd4831d7e511266e984f,旅游服务站,四川省南充市阆中市保宁街道内东街13号,四川省,南充市,阆中市,,unknown,
baidu,e244f04fd39659e8f7e73b3d,好帮手家政保洁,四川省南充市阆中市三岔路小区西北侧约50米,四川省,南充市,阆中市,18180174267,unknown,
baidu,201d5cca8cdceb16e81e9704,啵啵手机维修服务,四川省南充市阆中市官菜园街50号,四川省,南充市,阆中市,18382950730,unknown,
baidu,859693afbf9e0386077ce893,强哥皮衣订做维修,四川省南充市阆中市通济渠44号,四川省,南充市,阆中市,,unknown,
baidu,573076c3e2bca3e338e4a6b1,申通快递(文昌宫营业部),南充市阆中市文昌宫街四川省阆中东风中学校西南侧约160米,四川省,南充市,阆中市,95543,unknown,
baidu,48505cbc19c356d66b49f32b,千家好帮厨,南充市阆中市财神楼街阆中古城,四川省,南充市,阆中市,,unknown,
baidu,9fa65043b6adc0d4fa0cadba,公共厕所,四川省南充市阆中市双栅子街3号,四川省,南充市,阆中市,,unknown,
baidu,b56453a2cb8739c13e9a5e4b,邓氏蔬菜配送中心,南充市阆中市礼拜寺横街阆中古城,四川省,南充市,阆中市,"15181767039,18280820235",unknown,
baidu,e39355cce704def7980050df,公厕,南充市阆中市双棚子街3号,四川省,南充市,阆中市,,unknown,
baidu,36061f0c64fe0c8aeb1e9705,公厕,南充市阆中市阆水中路99号附近,四川省,南充市,阆中市,,unknown,
baidu,810b1dc114af66ddbb17e741,公厕,南充市阆中市铁五显街阆中古城,四川省,南充市,阆中市,,unknown,
baidu,ac80afda32a9cebec3364421,公共厕所,四川省南充市阆中市油柿井街阆中市城北小学校南侧约160米,四川省,南充市,阆中市,,unknown,
baidu,d8c3f32a8518a2f5cf06a424,公共卫生间,南充市阆中市阆水中路73号,四川省,南充市,阆中市,,unknown,
baidu,9a302c28cbbcd74f2902e103,锦屏山景区游客中心,四川省南充市阆中市阆水中路33号,四川省,南充市,阆中市,,unknown,
baidu,bdc84846335f2783a3acc4e3,公厕,南充市阆中市阆水中路锦元张飞国际酒店西侧约50米,四川省,南充市,阆中市,,unknown,
baidu,a86958c627fc5e874002458b,佳艺广告,四川省南充市阆中市毛家巷72号,四川省,南充市,阆中市,"(0817)6224067,13038216806",unknown,
baidu,ca373e3f97504686a0acc496,万顺居房产,南充市阆中市白果树街和谐小区(毛家巷)西北侧,四川省,南充市,阆中市,,unknown,
baidu,4c3260cb28e9895f940319b1,荣汇安居房产,南充市阆中市杨天井街文昌小区(文昌宫街),四川省,南充市,阆中市,"15681098063,18582236281",unknown,
baidu,4abb8d54446d8b73b5f42f57,七彩丝印,四川省南充市阆中市临济堂街26号,四川省,南充市,阆中市,13990767774,unknown,
baidu,b50627d6e57ae3114c6d462f,彩桥房产,四川省南充市阆中市白果树街15号,四川省,南充市,阆中市,"13118264890,13698288873",unknown,
baidu,100c511cdb2c3fd0c91b951d,尹诚房产信息,文昌宫街阆师附小东北侧约40米,四川省,南充市,阆中市,13698294641,unknown,
baidu,8279013444bf220dc16c14d6,中国移动(张飞南路店),四川省南充市阆中市保宁街道张飞南路阆中宾馆隔壁,四川省,南充市,阆中市,,unknown,
baidu,52df855a983ed4d2c72ba150,煦日托管,南充市阆中市三陈街九号居民小区西侧约60米,四川省,南充市,阆中市,15215228403,unknown,
baidu,66bdbaf079c8e830a8059d5c,金银加工(纯银饰品旧料回收),四川省南充市阆中市白果树94号,四川省,南充市,阆中市,,unknown,
baidu,5c294bc0de1f664c31870a8d,道易堂,南充市阆中市大东街阆中古城,四川省,南充市,阆中市,15508111771,unknown,
baidu,b27b1e31a53b11c29fec2b48,新禧房产,南充市阆中市文昌宫街阆中市城东小学校西侧约160米,四川省,南充市,阆中市,,unknown,
baidu,aa239cef97c4701ef5c59cd6,中国移动通信(关王庙街店),南充市阆中市关王庙街三岔路小区东侧约180米,四川省,南充市,阆中市,,unknown,
baidu,d1f3fd73ad086dc042d63e01,索道风水观景台,南充市阆中市阆中古城内,四川省,南充市,阆中市,,unknown,
baidu,fd933662fa7677d2b817e73e,观光车江边停车场站,南充市阆中市阆水中路33号阆中古城内,四川省,南充市,阆中市,,unknown,
baidu,f5c2427b1313edc5c4f50d32,澜枫男士发型私人工作室,杨天井街37号,四川省,南充市,阆中市,"13612701486,15682186429",unknown,
baidu,818f5bab6db85b1d08ccdd06,雪之曼皮肤管理,东方广场3栋222号,四川省,南充市,阆中市,,unknown,
baidu,1378aa93db11c8b34c3a59fb,芭芭多芦荟美容(张飞南路店),张飞南路27号,四川省,南充市,阆中市,13698297657,unknown,
baidu,9d2bc2023d42e1749cf779ab,起点美发室,东街小巷19号,四川省,南充市,阆中市,17378889857,unknown,
baidu,fa9ad839ae8b626b4054d76e,阿军美容美发(东方广场店),东方广场悉尼街(杨天井和交接处),四川省,南充市,阆中市,15775875199,unknown,
baidu,2b435bd736d37ceb631809d8,美容养生会所,张飞南路259号,四川省,南充市,阆中市,,unknown,
baidu,a7807023c56ce8df0a5cb36e,铭媛科技美肤,通济渠75号,四川省,南充市,阆中市,,unknown,
baidu,6546506dbaad8a51601c6732,婉美纹绣美甲美睫,扬天井街38号,四川省,南充市,阆中市,15882026995,unknown,
baidu,d63292e976641e5a03ec0163,思缘美甲化妆会所(王爷庙店),王爷庙街10号,四川省,南充市,阆中市,"(0817)6234969,18090587887",unknown,
baidu,c928ba49de6e1a97d23ce371,靓颜美甲美睫(天上宫街店),东坛井街93号,四川省,南充市,阆中市,15882620797,unknown,
baidu,dbeb6f73ec5f87475d0d0226,柏颜美容,保宁街道通济渠巷105、107号,四川省,南充市,阆中市,,unknown,
baidu,965caa4baca138936c476051,思颜皮肤管理中心,新村路东段49号,四川省,南充市,阆中市,18111036224,unknown,
baidu,8681196d75e1bde19222e096,青炫美容养生会馆,新村路西段9号(新门牌93),四川省,南充市,阆中市,18990761399,unknown,
baidu,378dc264ecc89405081cc7a7,玉美人专业纹绣馆(雅丹宾馆店),天上宫街41号  玉美人,四川省,南充市,阆中市,15082487100,unknown,
baidu,66458420e970137e3a13fd93,克丽缇娜(商城路店),商城路西段3号（邮政对面）,四川省,南充市,阆中市,(0817)6262781,unknown,
baidu,7c6ba1d01ae47eb4a304649e,王小姐工作室(祥和小区店),通济渠街64,四川省,南充市,阆中市,18852113131,unknown,
baidu,124cd1ebe9d2e54081288a70,廖飞发艺工作室,公园路190号,四川省,南充市,阆中市,18081590893,unknown,
baidu,b120bd196f19c2c30b69d9df,汉芳美容(太平寺街店),保宁街道太平寺街13号,四川省,南充市,阆中市,(0817)6229766,unknown,
baidu,91b6b3600f26d8da8afc063e,丽颜坊(三号店),四川省南充市阆中市太平寺街73~75号,四川省,南充市,阆中市,,unknown,
baidu,41159cc8701ebcf2256e98f3,茜π科技美肤私人定制修复中心,广场路东方广场5栋219号,四川省,南充市,阆中市,,unknown,
baidu,e9c9722c99513d2a744ff13a,章飞一绝祛斑美容,南充市阆中市郎家拐街东方广场店,四川省,南充市,阆中市,,unknown,
baidu,b72dfd8d92a76de26ca3cc69,安斯尔美容美体,东方广场6号楼2层31-32室,四川省,南充市,阆中市,,unknown,
baidu,88d5ca7719dc78b91b94c6fc,博林斯专业祛斑中心(阆中店),四川省南充市阆中市毛家巷84号,四川省,南充市,阆中市,13550598287,unknown,
baidu,bdde662dbe36ccc314c8f69b,黎子美甲美睫(杨天井街店),杨天井街42号,四川省,南充市,阆中市,,unknown,
baidu,b9a02b29a0d095da71455bf1,胡贝儿形体礼仪女子学堂,南充市阆中市悉尼街东方广场店,四川省,南充市,阆中市,,unknown,
baidu,9fedcc6c0d0648e4441a32e1,名偶造型(二分店),四川省南充市阆中市杨天井街102号,四川省,南充市,阆中市,15196755393,unknown,
baidu,97e5ca3df5b3a1772b201a24,樊文花面部护理连锁(王爷庙街店),王爷庙街店,四川省,南充市,阆中市,13628096575,unknown,
baidu,060813994ecb3a7981288a1b,清清快剪,南充市阆中市文昌宫街阆师附小东北侧约60米,四川省,南充市,阆中市,,unknown,
baidu,fded477a32d7115cc7f50d59,貌姿颖健康洗护烫染店,四川省南充市阆中市白果树街87号,四川省,南充市,阆中市,13890833998,unknown,
baidu,a8240adf6ace8fccc3364445,每树美品(新村路店),南充市新村路东段53号,四川省,南充市,阆中市,17726369459,unknown,
baidu,d067ef04eeb6524e6ca3ccb5,迪宣养身纹绣(全国美妆连锁正品集合店),南充市阆中市文昌宫街阆师附小东北侧约40米,四川省,南充市,阆中市,,unknown,
baidu,fe48579803713abe4207c1b4,百变丝,毛家巷8号,四川省,南充市,阆中市,,unknown,
baidu,325804a4f66f0896b1077da8,发之彩发型创作室,南充市阆中市毛家巷和谐小区(毛家巷)南侧,四川省,南充市,阆中市,13890845646,unknown,
baidu,5d5f502ff1e339e1fda778f5,阆武男爵,东街小巷45号,四川省,南充市,阆中市,17721829364,unknown,
baidu,39a4daaf9ba1bbc3a8f0cdf1,美雅时尚短发,南充市阆中市毛家巷和谐小区(毛家巷)东侧约50米,四川省,南充市,阆中市,13890724317,unknown,
baidu,7d9260d302946240d8d891b8,精品秀,南充市阆中市东坛井街3号,四川省,南充市,阆中市,,unknown,
baidu,8fd82cf46cabb2adc71b7544,摩力坊,四川省南充市阆中市白果树街63号,四川省,南充市,阆中市,,unknown,
baidu,05115d69d35258fc6849f3fc,格色yy造型,四川省南充市阆中市三岔路23号,四川省,南充市,阆中市,13990705171,unknown,
baidu,beb754c294c359f8d72ce268,玉成美发,四川省南充市阆中市三陈街76号,四川省,南充市,阆中市,,unknown,
baidu,9aaebbfd2d935d057bf79619,灵感专业美容美发,南充市阆中市东坛井街和谐小区(毛家巷)东北侧约60米,四川省,南充市,阆中市,,unknown,
baidu,ac23e122e775007940ab9a3e,CC发型工作室,关王庙街179号,四川省,南充市,阆中市,"18689107686,18781719616",unknown,
baidu,60cadfad94f081c7c5effb67,发型频道(关王庙街店),四川省南充市阆中市关王庙街三岔路小区东侧约80米,四川省,南充市,阆中市,(0817)5183108,unknown,
baidu,c19aecb6fce843dd8d7727f5,名仕潮流,四川省南充市阆中市白果树街11号,四川省,南充市,阆中市,,unknown,
baidu,924acbf5371930068bb98888,秀妍美容养生馆,天马寺街57号,四川省,南充市,阆中市,"13990865202,15583658855",unknown,
baidu,f6720fc158415f5559bbbc70,幺幺发艺,南充市阆中市关王庙街阆中市城东小学校西侧约180米,四川省,南充市,阆中市,13990794612,unknown,
baidu,08e35601f264e1fe9d82ea75,爵士男士理容馆(阆中新村路店),新村路东段216、218号,四川省,南充市,阆中市,13108178852,unknown,
baidu,0cf3eacf12a3a417b31e3619,便民理发店,南充市阆中市财神楼街96号,四川省,南充市,阆中市,13688233010,unknown,
baidu,3d252fef62f2ef231df74dc8,首艺造型(公园路店),四川省南充市阆中市公园路南街109号,四川省,南充市,阆中市,(0817)6386606,unknown,
baidu,04db62d60c653171ea56fa4d,廖飞造型(三店),新村路9号,四川省,南充市,阆中市,18398458984,unknown,
baidu,17055c1884f3e73d82a12ed7,敏敏沙宣屋,四川省南充市阆中市三陈街54号,四川省,南充市,阆中市,,unknown,
baidu,d08a16e71c3104290ab93a03,天姿发裁轩,四川省南充市阆中市三陈街9号,四川省,南充市,阆中市,,unknown,
baidu,1d6e5248b88383a572210bb4,花岛美发,南充市阆中市三陈街九号居民小区南门西侧约80米,四川省,南充市,阆中市,,unknown,
baidu,5729b074ce4a74277bf79636,鑫美佳美容美发,南充市阆中市华市街阆中宾馆东侧约100米,四川省,南充市,阆中市,18781794563,unknown,
baidu,173714dccc4f90720b69d986,青松美容纹身,四川省南充市阆中市官菜园街8号,四川省,南充市,阆中市,15884718526,unknown,
baidu,5c862792e34bc9edc26c14c4,婉儿美发工作室,四川省南充市阆中市张飞南路600号,四川省,南充市,阆中市,13550583668,unknown,
baidu,1684b7ce10b8b3b8cc06a4fa,萍萍发屋,四川省南充市阆中市临济堂街32号,四川省,南充市,阆中市,13350261829,unknown,
baidu,1e712de5e693cbf2b64f5496,美琪美发,四川省南充市阆中市华市街小区西侧约60米,四川省,南充市,阆中市,13350648962,unknown,
baidu,c6ff17e515b10cf59e09f75d,绮绣美学·半永久纹眉(阆中店),通济渠巷54号,四川省,南充市,阆中市,17726376150,unknown,
baidu,515a4646ba48b046c8fa5fd2,刀廊美发(1店),四川省南充市阆中市官菜园街12号,四川省,南充市,阆中市,,unknown,
baidu,0bfc1805f361fa6295f08c8c,精剪烫染吧,四川省南充市阆中市管星街102号,四川省,南充市,阆中市,,unknown,
baidu,e9acd2970d77915f54bfff4c,墨魂刺青(阆中店),南充市保宁醋西路346号,四川省,南充市,阆中市,17313833173,unknown,
baidu,e286fa84fc52d510734b87af,金华专业理发,南充市阆中市何家巷56号,四川省,南充市,阆中市,,unknown,
baidu,674983bc7d61d1423f9a5e71,格丽舍美甲美睫,三岔路47号,四川省,南充市,阆中市,,unknown,
baidu,8d1aabca442edc4c31f71d39,色彩日记(新村路店),新村路中段368号,四川省,南充市,阆中市,(0817)6307387,unknown,
baidu,217eeb11e4c1dafe283a9f57,时尚造型,南充市阆中市华市街阆中宾馆东侧约80米,四川省,南充市,阆中市,,unknown,
baidu,c69e01d32a07c35d43ab9ad3,君情专业美发,四川省南充市阆中市寿山寺街43号,四川省,南充市,阆中市,,unknown,
baidu,30c6d5abd51d2d1fc056acb9,美其造型,南充市阆中市三岔路祥和小区(古莲池街)东侧约50米,四川省,南充市,阆中市,17828754571,unknown,
baidu,c3effaab1319410072455bb1,Y·J造型,顾家井巷283号,四川省,南充市,阆中市,,unknown,
baidu,3567e0125be22c10911fc948,剪吹染发焗油修面拉直发,南充市阆中市寿山寺街阆中市人民医院(古城院区)东南侧,四川省,南充市,阆中市,,unknown,
baidu,15394b1aa17224473310af9f,相约造型,南充市阆中市新村路东段春熙大酒店,四川省,南充市,阆中市,,unknown,
baidu,dd0e43171b7cbf62c8291537,美琪发屋(书院南街店),四川省南充市阆中市书院南街159号,四川省,南充市,阆中市,,unknown,
baidu,e05cbcd2b09d64f19fe321ad,豌豆潮色,新村路西段倍诺恩幼儿园斜对面,四川省,南充市,阆中市,"15508103223,19940939803",unknown,
baidu,bbc41c9ec90efd2ce6073833,华丽烫染风格,东园街阳光花园(公园路)东南侧约50米,四川省,南充市,阆中市,18781734270,unknown,
baidu,0c436860761ebc45f4eafc7c,果儿工作室专业烫染店,迎恩街34号,四川省,南充市,阆中市,,unknown,
baidu,b7822ef5989b44afe5e965c9,兔子丁丁(交通小区店),较场路东段235号,四川省,南充市,阆中市,,unknown,
baidu,c91ad47900c9b448734b8734,美仙理发店,阆南桥街81号,四川省,南充市,阆中市,18080319550,unknown,
baidu,aa49e26648e5aa419c09f78e,樊文花面部护理连锁(郎家拐店),郎家拐252号,四川省,南充市,阆中市,"(0817)6797766,13628096575",unknown,
baidu,13e7a457c78d3699a8f7299c,芦荟家园(阆中市店),阆家拐238号,四川省,南充市,阆中市,,unknown,
baidu,af271c7e13f746fc3a04b124,优资莱(张飞南路店),南充市阆中市张飞南路阆中市人民医院(古城院区)东北侧约60米,四川省,南充市,阆中市,(0817)6633774,unknown,
baidu,93021df481782a26d23ce3d3,星吧·天姿依迈绮(阆中店),新村路西段58号,四川省,南充市,阆中市,18681768441,unknown,
baidu,00cc9cdfda86470c5bf6be33,美之缘洗头会所,四川省南充市阆中市较场路东段219~221号,四川省,南充市,阆中市,13508083892,unknown,
baidu,41572e00c94282adb45f1e19,阆中古城,南充市阆中市阆水中路33号,四川省,南充市,阆中市,(0817)6239899,unknown,
baidu,987e53a3741827d6b6147fb2,澄清门,南充市阆中市阆水中路33号阆中古城旅游景区,四川省,南充市,阆中市,,unknown,
baidu,39ddc9a63bba64beebe5821a,阆中古城-状元坊,内东街3号,四川省,南充市,阆中市,"13699670220,15182963762",unknown,
baidu,d6e5d1e1f0e639cbc9e33c7e,阆中文庙,南充市阆中市北街157号,四川省,南充市,阆中市,(400)1009255,unknown,
baidu,35debf29e5a43e47a6da3938,中天楼,南充市阆中市武庙街100号,四川省,南充市,阆中市,4001009255,unknown,
baidu,e825e24766612b61adcb6613,威德牌坊,南充市阆中市北门井巷49号,四川省,南充市,阆中市,,unknown,
baidu,eae1501883f3e5ce9e95de7b,敌万楼,南充市阆中市市西街61号汉桓侯祠内,四川省,南充市,阆中市,(0817)6222293,unknown,
baidu,81af9c1db3be380908ccdddd,张飞庙,四川省南充市阆中市西街59号,四川省,南充市,阆中市,(0817)6222293,unknown,
baidu,4ce10ce6158be7a2441a3238,华光楼,南充市阆中市阆水中路33号阆中古城(东南角),四川省,南充市,阆中市,4001009255,unknown,
baidu,b9e5d0b8d799d8bf81a12e38,风水博物馆,四川省南充市阆中市大东街100号,四川省,南充市,阆中市,(0817)6388369,unknown,
baidu,f60cbe78a0a450d3b11e36fe,南门楼,南充市阆中市古城南街143号,四川省,南充市,阆中市,4001009255,unknown,
baidu,739f0443804fede12d473363,南津关古镇,四川省南充市阆中市阆水中路33号阆中古城旅游景区,四川省,南充市,阆中市,4001009255,unknown,
baidu,c21db9e5961eb78000ff2d38,贡院,南充市阆中市学道街78号,四川省,南充市,阆中市,4001009255,unknown,
baidu,8258a969361722d6dbd891c1,王皮影博物馆,四川省南充市阆中市大东街66号,四川省,南充市,阆中市,15108456455,unknown,
baidu,07d9bee91386d35f990050a0,阆中文昌宫,四川省南充市阆中市保宁街道张飞大道44号,四川省,南充市,阆中市,,unknown,
baidu,8eb48fa1d75933a5f32d8304,白塔,南充市阆中市七里开发区东山园林-阆中大佛寺,四川省,南充市,阆中市,(0817)6223884,unknown,
baidu,133628d258043843eb1e977c,笔向街李家大院,南充市阆中市笔向街30号,四川省,南充市,阆中市,,unknown,
baidu,840539254bc74eab87330466,张飞墓,南充市阆中市市西街61号汉桓侯祠内,四川省,南充市,阆中市,(0817)6222293,unknown,
baidu,3f324e76d79f2bb1102935ea,清真寺,南充市阆中市礼拜寺街21号,四川省,南充市,阆中市,,unknown,
baidu,182bf1ff6119d4958e772749,观星楼,南充市阆中市阆水中路33号阆中古城锦屏山内,四川省,南充市,阆中市,(0817)6331099,unknown,
baidu,f3cfb70ba26834c5471a3266,阆中市博物馆,南充市阆中市学道街101号,四川省,南充市,阆中市,(0817)6238028,unknown,
baidu,52781eeb5440adad1c38941d,贡院馆,南充市阆中市学道街78号贡院内,四川省,南充市,阆中市,,unknown,
baidu,36e76d314599d59ffea778ea,阆风亭,南充市阆中市阆水中路33号阆中古城锦屏山内,四川省,南充市,阆中市,,unknown,
baidu,2234ce87239aa6994afc8de5,锦屏山-观景台,南充市阆中市阆水中路33号阆中古城锦屏山内,四川省,南充市,阆中市,,unknown,
baidu,9e30e773a806270676e5b6e4,阆风堂,南充市阆中市油房街11号,四川省,南充市,阆中市,,unknown,
baidu,cb26f6db4baa1420441a3297,阆里古巷,四川省南充市阆中市内东街22号,四川省,南充市,阆中市,,unknown,
baidu,550fd5f95ecf827a931fc9dd,净圣庵,四川省南充市阆中市净圣庵街2号,四川省,南充市,阆中市,4001009255,unknown,
baidu,4d2d0925b90f1de92ce67b1e,天主教南充教区阆中市天主堂,南充市阆中市学道街18号,四川省,南充市,阆中市,(0817)6228400,unknown,
baidu,41281202cf3404de35b06cbf,川北道署,南充市阆中市阆水中路33号阆中古城内,四川省,南充市,阆中市,(0817)6543388,unknown,
baidu,abe1b090d02a5dbec5effbc9,火神楼,南充市阆中市屏江街12号,四川省,南充市,阆中市,4001009255,unknown,
baidu,f1139e046b0fc411ae045703,中国工农红军第四方面军总政治部旧址,南充市阆中市南街阆中古城,四川省,南充市,阆中市,,unknown,
baidu,fb13ce8cbf4d347938e4a6c6,川陕省阆中县苏维埃军区指挥部旧址,四川省南充市阆中市南街172-176,四川省,南充市,阆中市,4001009255,unknown,
baidu,30386145d2b09d6894ec84a2,杜少陵祠堂,南充市阆中市阆水中路33号阆中古城锦屏山内,四川省,南充市,阆中市,,unknown,
baidu,64917d680344f6c4ce04ef13,阆中民间博物馆,四川省南充市阆中市杜家井巷48号,四川省,南充市,阆中市,,unknown,
baidu,c8ecb77e646d4d1726e0a059,汉桓侯祠-大殿,南充市阆中市市西街61号汉桓侯祠内,四川省,南充市,阆中市,(0817)6222293,unknown,
baidu,b4d41f3c84f844ece856faa8,八仙洞,南充市阆中市阆水中路33号阆中古城锦屏山内,四川省,南充市,阆中市,(0817)6331099,unknown,
baidu,fef2843fa474ee71be4842e6,棂星门,南充市阆中市北街157号阆中文庙内,四川省,南充市,阆中市,,unknown,
baidu,6ce8904dfe142f169603196a,阆中古城-亲水平台,南充市阆中市阆水中路33号阆中古城内,四川省,南充市,阆中市,4001009255,unknown,
baidu,ef434345c837b22376e5b620,张宪祠,南充市阆中市阆水中路33号阆中古城锦屏山内,四川省,南充市,阆中市,(0817)6331099,unknown,
baidu,78e93fd2ade58ac12fb17e68,泮池,南充市阆中市北街157号阆中文庙内,四川省,南充市,阆中市,,unknown,
baidu,b7c7a992e55c88e202897279,阆中落下闳故居,南充市阆中市马王庙街20号,四川省,南充市,阆中市,(0817)6231159,unknown,
baidu,22264e4391bc52c2a5da3906,落下闳汉天文学宫,南充市阆中市礼拜寺横街阆中古城,四川省,南充市,阆中市,4001009255,unknown,
baidu,181653346479b707fb2d6107,清真巴巴寺,阆中市蟠龙路5号,四川省,南充市,阆中市,(0817)6267838,unknown,
baidu,2dea9bee8db388793b221c34,春节文化主题公园,南充市阆中市阆水中路33号阆中古城锦屏山旁,四川省,南充市,阆中市,,unknown,
baidu,5323adc5327fc48c9868b40b,中国工农红军第四方面军第三十三军军部旧址,四川省南充市阆中市学道街22号,四川省,南充市,阆中市,,unknown,
baidu,c99857c870cd70c8b1077d25,四川贡院书画中心,南充市阆中市学道街78号贡院内,四川省,南充市,阆中市,,unknown,
baidu,851b5940ba69764614948e3c,花果山自然园,南充市阆中市果山街沁园小区北侧约30米,四川省,南充市,阆中市,,unknown,
baidu,08f64632b2abdbca0b1cc7f1,阆中市文物保护中心,南充市阆中市学道街11号,四川省,南充市,阆中市,,unknown,
baidu,79622e432ae9a58a72210bc1,学署公园,南充市阆中市阆水中路33号阆中古城内,四川省,南充市,阆中市,,unknown,
baidu,6fc994e2b8285e13dbd89173,草堂园公园,南充市阆中市老城片区保宁醋西街,四川省,南充市,阆中市,4001009255,unknown,
baidu,f7f87ba2c05f552f07026fd6,大义千古馆,南充市阆中市市西街61号汉桓侯祠内,四川省,南充市,阆中市,(0817)6222293,unknown,
baidu,b8577e8146113069d8131885,牢狱,南充市阆中市学道街78号川北道署内,四川省,南充市,阆中市,(0817)6543388,unknown,
baidu,63b2c3bb22e23f527d29bdbb,中共川陕省阆中市委-川陕省阆中市苏维埃旧址,四川省南充市阆中市保宁镇古城南街33号,四川省,南充市,阆中市,,unknown,
baidu,d4fb90baad6c888aa1a9343d,醋州阆,南充市阆中市滨江路阆中古城,四川省,南充市,阆中市,,unknown,
baidu,b7021bf80b83d1f9f4e73b38,学院行署,南充市阆中市学道街84号,四川省,南充市,阆中市,,unknown,
baidu,99d366ab708cb05e882fb582,陕西会馆,南充市阆中市公园路180号,四川省,南充市,阆中市,,unknown,
baidu,05bd41d0c05540604107c1b5,黎宅,南充市阆中市学道街2号,四川省,南充市,阆中市,4001009255,unknown,
baidu,ccde143ce78d0cb31de9999b,大成殿,南充市阆中市北街157号阆中文庙内,四川省,南充市,阆中市,,unknown,
baidu,5a300be27d663e1943ab9a37,马家大院,南充市阆中市笔向街43号,四川省,南充市,阆中市,,unknown,
baidu,bced0e418a94faf2095cb324,左营街张氏宅,南充市阆中市左营街30号,四川省,南充市,阆中市,,unknown,
baidu,f7a981a5691222092811d12b,宜华木博馆,南充市阆中市阆水中路33号阆中古城内,四川省,南充市,阆中市,,unknown,
baidu,4bd94acb4ea31f2b9de32161,阆中之恋,南充市阆中市铁五显街阆中古城,四川省,南充市,阆中市,,unknown,
baidu,82cdb5ff9ba2e06bcac3db55,川陕革命根据地中共忠发市委忠发市苏维埃旧址,南充市阆中市净圣庵街34号,四川省,南充市,阆中市,,unknown,
baidu,7c9bc64cc58ac3b43c9a5ead,马哮溪公园,212国道,四川省,南充市,阆中市,,unknown,
baidu,647e24f015b5fae5eae582e2,德配天地,南充市阆中市北街157号,四川省,南充市,阆中市,,unknown,
baidu,39653843af36802c100daaa7,科考案件馆,南充市阆中市学道街78号贡院内,四川省,南充市,阆中市,4001009255,unknown,
baidu,7e09a97c627524f3f5c59c8b,收掌所,南充市阆中市学道街78号贡院内,四川省,南充市,阆中市,,unknown,
baidu,b7968e4a7fba2f36ffa77808,明远楼,南充市阆中市学道街78号贡院内,四川省,南充市,阆中市,,unknown,
baidu,9d39b39a6b791db7c9e33c00,大成门,南充市阆中市北街157号阆中文庙内,四川省,南充市,阆中市,,unknown,
baidu,72f7431b6ef21b3f2a3a9fdc,科举制度馆,南充市阆中市学道街78号贡院内,四川省,南充市,阆中市,,unknown,
baidu,5d0d17aa428acf66a20464da,文卷展室,南充市阆中市学道街78号川北道署内,四川省,南充市,阆中市,(0817)6543388,unknown,
baidu,95340438d505d88eeaf853b1,礼房,南充市阆中市学道街78号川北道署内,四川省,南充市,阆中市,,unknown,
baidu,c2ed074a5f08375f4e776e36,崇圣殿,南充市阆中市北街157号阆中文庙内,四川省,南充市,阆中市,,unknown,
baidu,5de8562504777596c6effb6e,弥封所,南充市阆中市学道街78号贡院内,四川省,南充市,阆中市,,unknown,
baidu,fcd27a2dd2ad47cd0b69d9b9,监试厅,南充市阆中市学道街78号贡院内,四川省,南充市,阆中市,,unknown,
baidu,ca5259d148e2cc9ac056ac3b,师爷展室,南充市阆中市学道街78号川北道署内,四川省,南充市,阆中市,(0817)6543388,unknown,
baidu,fd92fe6c40263d443fe231a6,西廊,南充市阆中市北街157号阆中文庙内,四川省,南充市,阆中市,,unknown,
baidu,514be5c0c4985441cae33cf0,圣域贤关,南充市阆中市北街157号阆中文庙内,四川省,南充市,阆中市,,unknown,
baidu,64915e2782a7b9ba9ff7795f,国学馆,南充市阆中市北街157号阆中文庙内,四川省,南充市,阆中市,,unknown,
baidu,f0bb6fa17949e5465d0d02cd,另一个地方·乡土文化中心,四川省南充市阆中市南街54号中院,四川省,南充市,阆中市,,unknown,
baidu,197aecf7abb4bf46eb12e478,书吏展室,南充市阆中市学道街78号川北道署内,四川省,南充市,阆中市,(0817)6543388,unknown,
baidu,0acfe3acbb05a19ccb213d2b,一眼万年博览馆,南充市阆中市铁五显街阆中古城,四川省,南充市,阆中市,,unknown,
baidu,6ee381fab0b44c5813293560,狱神祠,南充市阆中市学道街78号川北道署内,四川省,南充市,阆中市,(0817)6543388,unknown,
baidu,03c16cd984d644d995ca07b2,胥家古院,四川省南充市阆中市保宁办事处棉花巷19号,四川省,南充市,阆中市,(0817)6237768,unknown,
baidu,e1dfdd5dc8e65e8ebbbd6397,兵房,南充市阆中市学道街78号川北道署内,四川省,南充市,阆中市,(0817)6543388,unknown,
baidu,3d11e4ddf5193d8104026f6d,举人贡生馆,南充市阆中市学道街78号贡院内,四川省,南充市,阆中市,,unknown,
baidu,f42226a4ef3f6d4eefdfca70,吏房,南充市阆中市学道街78号川北道署内,四川省,南充市,阆中市,,unknown,
baidu,cb7aff58b2f80d9ef7b916af,衡文堂,南充市阆中市学道街78号贡院内,四川省,南充市,阆中市,4001009255,unknown,
baidu,3c3e7f30bcaa249787420e79,汉桓侯祠-东厢房,南充市阆中市市西街61号汉桓侯祠内,四川省,南充市,阆中市,,unknown,
baidu,880437e659865c7a047ce829,序馆,南充市阆中市学道街78号贡院内,四川省,南充市,阆中市,,unknown,
baidu,dea103bfd3861e82bca82207,墓亭,南充市阆中市市西街61号汉桓侯祠内,四川省,南充市,阆中市,(0817)6222293,unknown,
baidu,005bcd23c4e32c9c2b201a98,刑房,南充市阆中市学道街78号川北道署内,四川省,南充市,阆中市,,unknown,
baidu,a3a3f3cc738b7b3197f08c00,柏台亭,南充市阆中市学道街78号川北道署内,四川省,南充市,阆中市,(0817)6543388,unknown,
baidu,df3dfdd01dae2239b4265592,会经堂,南充市阆中市学道街78号贡院内,四川省,南充市,阆中市,,unknown,
baidu,6ad6136ab95cc4544107c1d5,阆中进士馆,南充市阆中市学道街78号贡院内,四川省,南充市,阆中市,,unknown,
baidu,7003ed55d0d3cfd74207c15c,盐房,南充市阆中市学道街78号川北道署内,四川省,南充市,阆中市,,unknown,
baidu,3fa4b9644742c22802897293,户房,南充市阆中市学道街78号川北道署内,四川省,南充市,阆中市,,unknown,
baidu,7eb57bd2b0faddf7ee74f83a,二堂,南充市阆中市学道街78号川北道署内,四川省,南充市,阆中市,(0817)6543388,unknown,
baidu,397695ab5e8aecb8ce04ef90,工房,南充市阆中市学道街78号川北道署内,四川省,南充市,阆中市,(0817)6543388,unknown,
baidu,645cdd746d72e0ec00ec0129,对读所,南充市阆中市学道街78号贡院内,四川省,南充市,阆中市,4001009255,unknown,
baidu,777817429e87c8ecbbbd63a0,智源溪,南充市阆中市北街157号阆中文庙内,四川省,南充市,阆中市,,unknown,
baidu,611213cbed51a32a740269d0,衙神祠,南充市阆中市学道街78号川北道署内,四川省,南充市,阆中市,(0817)6543388,unknown,
baidu,ae915df93c720152b64f549b,至公堂,南充市阆中市学道街78号贡院内,四川省,南充市,阆中市,4001009255,unknown,
baidu,598859cb92a4071188fc06ca,戒石坊,南充市阆中市学道街78号川北道署内,四川省,南充市,阆中市,(0817)6543388,unknown,
baidu,0e4d0d9ac1cb5d55b05c6add,东园,南充市阆中市市西街61号汉桓侯祠内,四川省,南充市,阆中市,(0817)6222293,unknown,
baidu,bb2e12f97df2bcc85ebe86f3,东庑,南充市阆中市北街157号阆中文庙内,四川省,南充市,阆中市,,unknown,
baidu,027057372f952040465726ce,取节轩,南充市阆中市学道街78号川北道署内,四川省,南充市,阆中市,(0817)6543388,unknown,
baidu,d457ea867d10636531f71dbb,扳倒井,南充市阆中市北街157号阆中文庙内,四川省,南充市,阆中市,,unknown,
baidu,6e72643ba697329e25d2bba9,杏坛,南充市阆中市北街157号阆中文庙内,四川省,南充市,阆中市,,unknown,
baidu,a1a7d79a8d22005bd12dd66a,三堂,南充市阆中市学道街78号川北道署内,四川省,南充市,阆中市,(0817)6543388,unknown,
baidu,44fbac74d468673d2cb96d5d,阆中状元馆,南充市阆中市学道街78号贡院内,四川省,南充市,阆中市,,unknown,
baidu,7b5fefc8a2bf6dfcf02d83e5,为世虎臣馆,南充市阆中市市西街61号汉桓侯祠内,四川省,南充市,阆中市,(0817)6222293,unknown,
baidu,db4c27b72c3d479946e274dc,进士英杰馆,南充市阆中市学道街78号贡院内,四川省,南充市,阆中市,4001009255,unknown,
baidu,c231a2fcdb283e6c5d17c35b,憩苑,南充市阆中市学道街78号川北道署内,四川省,南充市,阆中市,(0817)6543388,unknown,
baidu,2c2d2799e91f05002fb96d39,思豫仓,南充市阆中市阆水中路33号阆中古城内,四川省,南充市,阆中市,,unknown,
baidu,d0b8923fb9a659e1b5f42f38,分巡川北兵备道仪门,南充市阆中市阆水中路33号古城,四川省,南充市,阆中市,(0817)6543388,unknown,
baidu,fd132697b9829bf30c0a7064,圣迹馆,南充市阆中市北街157号阆中文庙内,四川省,南充市,阆中市,,unknown,
baidu,5e4e4edfb230126579dbd23c,东廊,南充市阆中市北街157号阆中文庙内,四川省,南充市,阆中市,,unknown,
baidu,a77bf0825bf59d1d0869d91b,承发房,南充市阆中市学道街78号川北道署内,四川省,南充市,阆中市,(0817)6543388,unknown,
baidu,ec3267d512e04abc2b11d12a,名官祠,南充市阆中市北街157号阆中文庙内,四川省,南充市,阆中市,,unknown,
baidu,3f04a8ec2d3c7b86a8175a66,土地祠,四川省南充市阆中市保宁街道学道街78号川北道署内,四川省,南充市,阆中市,(0817)6543388,unknown,
baidu,1d99831d439d0b61b2077d48,王皮影同辉数字文化科技馆,南充市阆中市大东街阆中古城,四川省,南充市,阆中市,,unknown,
baidu,b94183681f03ca4c2bd7abbd,华夏水博馆,四川省南充市阆中市保宁街道下新街61,四川省,南充市,阆中市,,unknown,
baidu,1cd9962c990ea88504026feb,天鉴在兹碑,南充市阆中市学道街78号川北道署内,四川省,南充市,阆中市,(0817)6543388,unknown,
baidu,7b01de33677c87fea0acc4bb,汉桓侯祠旅游咨询服务点,四川省南充市阆中市市西街59号,四川省,南充市,阆中市,,unknown,
baidu,02bbab5c726d5f11bda24092,魁文堂,四川省南充市阆中市礼拜寺横街3号,四川省,南充市,阆中市,,unknown,
baidu,37d0cacf501dbe9a9322e0a2,星座苑,南充市阆中市马王庙街20号,四川省,南充市,阆中市,(0817)6231159,unknown,
baidu,2d46c98b5a671b84ca1b955f,赵庐,南充市阆中市学道街93号,四川省,南充市,阆中市,,unknown,
baidu,1fdb116c6ee8e942715e80ea,川剧协会大阆舞厅,南充市阆中市太平寺街阆师附小西南侧约30米,四川省,南充市,阆中市,,unknown,
baidu,0ad60dd0de3013429de32197,盛世休闲醋足浴,大东街146号,四川省,南充市,阆中市,,unknown,
baidu,7367628744e41e43b7265539,好久不见·火塘民谣·音乐酒馆,阆水中路城南天下E区E8-2号,四川省,南充市,阆中市,13683465810,unknown,
baidu,e7c46a614d709999f90cad42,祺美嘉网咖广场(东方广场店),东方广场台北街,四川省,南充市,阆中市,(0817)6331999,unknown,
baidu,650d36e07f0e6def6b49f3a6,云之尚足浴会所,文昌宫街216号,四川省,南充市,阆中市,(0817)6656633,unknown,
baidu,f554a5625e62d74ea1a9342d,诺曼蒂电竞,东风路1号,四川省,南充市,阆中市,(0817)6280180,unknown,
baidu,c876dfac4bc3139c5e17c3e8,对奕24小时自助棋牌室,东方广场第五大道220号,四川省,南充市,阆中市,15181774225,unknown,
baidu,dbecea6a3a509b14d618b711,爹地宝贝(阆中店),"郎家拐街俊豪阆中购物中心2楼（原苏宁电器,沃尔玛扶梯口外）",四川省,南充市,阆中市,"(0817)6514998,15181799499",unknown,
baidu,bf1c00b91dc74315a1d23089,木子推理,郎家拐街200号安荣里,四川省,南充市,阆中市,,unknown,
baidu,78673336f1d88863b54f54b3,青苹果儿童乐园(伦敦街店),东方广场9号楼1层4室,四川省,南充市,阆中市,13881809678,unknown,
baidu,f606a8f88eb9da7471210b47,名门夜宴KTV,中华阆天城16号、17号楼101室,四川省,南充市,阆中市,(0817)6240888,unknown,
baidu,6cda741af9d167ffa4c75606,余生音乐清吧,白花庵街28号与双栅子街交叉口,四川省,南充市,阆中市,(0817)6630892,unknown,
baidu,95cd6efd8e99467b2fb90866,足浴坊,大东街146号,四川省,南充市,阆中市,,unknown,
baidu,c51cb2d89ce3308c0b69d9ce,侠·LIVE BAR,阆中古城状元街4号,四川省,南充市,阆中市,18380784966,unknown,
baidu,49ea91420a528992c61e5198,红品堂健康管理中心,关王庙街159号,四川省,南充市,阆中市,,unknown,
baidu,9af6292b8874c7d2095cb3b7,里外茶舍,内东街7号,四川省,南充市,阆中市,,unknown,
baidu,19a734c923b9bcedece4a5a7,人民广场,四川省南充市阆中市郎家拐街54号,四川省,南充市,阆中市,,unknown,
baidu,b506f76995b91f202ce67b5e,阆中市残联肖氏经穴推拿院,四川省南充市阆中市东街小巷15号,四川省,南充市,阆中市,"13118297273,13518285217",unknown,
baidu,3b4fa26bb5582ddc2b06ce1d,阆中市残联盲人专业按摩一所,南充市阆中市东街小巷阆中古城,四川省,南充市,阆中市,13540959403,unknown,
baidu,55b9efffc22bc6d2118824d4,福瑞经络调养中心,南充市阆中市文昌宫街阆中师范附属实验小学校(感恩校区)西北侧,四川省,南充市,阆中市,,unknown,
baidu,4f290b2474bef975fea77886,蕲艾艾灸馆,南充市阆中市张飞南路阆中师范附属实验小学校(感恩校区),四川省,南充市,阆中市,,unknown,
baidu,3b1e762d1240f6a614b54bdd,何氏专业推拿按摩,四川省南充市阆中市东街小巷25号,四川省,南充市,阆中市,,unknown,
baidu,d02203a94e33db6ac9c3dbc6,净耳堂阆中采耳文化时尚体验馆(第五大道店),东方广场北京街二楼,四川省,南充市,阆中市,"(0817)6230877,18781776708",unknown,
baidu,474bee19d0f4378aefe4a573,古城醋泡脚,大东街50号(土金钱庄客栈隔壁),四川省,南充市,阆中市,,unknown,
baidu,7f00f8b5cdf96fac1c38947a,客来舒心足浴,南充市阆中市白果树街和谐小区(毛家巷)西南侧约40米,四川省,南充市,阆中市,,unknown,
baidu,5a3047771d3f6f0c3310afaa,咖啡茶语棋牌,南充市阆中市天上宫街阆中师范附属实验小学校(感恩校区)西南侧约80米,四川省,南充市,阆中市,,unknown,
baidu,e5297985fe75f15043afe646,明星商务休闲会所,四川省南充市阆中市郎家拐街3号,四川省,南充市,阆中市,(0817)5187999,unknown,
baidu,408a7de3963f0439a5da3940,玖萱养生中心,南充市阆中市张飞南路阆中师范附属实验小学校(感恩校区),四川省,南充市,阆中市,,unknown,
baidu,54468e4996f87af0283a9f5b,康源养生磨坊,南充市阆中市毛家巷和谐小区(毛家巷),四川省,南充市,阆中市,,unknown,
baidu,52f82f6b2a15c6300f0e6bd6,金盛浴足中心,南充市阆中市张飞南路阆中师范附属实验小学校(感恩校区)东北侧约80米,四川省,南充市,阆中市,,unknown,
baidu,8a6a5d3fbbf90f9382288a0b,游客之家醋足浴,大东街64号,四川省,南充市,阆中市,15298220711,unknown,
baidu,55990a4a84669cb2a0acc456,曾氏推拿,四川省南充市阆中市东街小巷35号,四川省,南充市,阆中市,13989197072,unknown,
baidu,186a2d2a4a99d134373a7188,一品足轩(机房街店),机房街95号,四川省,南充市,阆中市,,unknown,
baidu,d2441df886c8e3d182a12ef7,康怡盲人按摩,毛家巷73号,四川省,南充市,阆中市,17628851171,unknown,
baidu,2736a4c70f451e0bf7eafc89,贡院广场,四川省南充市阆中市学道街12号,四川省,南充市,阆中市,,unknown,
baidu,25aa9e351b78e64909a8d471,悠雅居,通济渠巷36号,四川省,南充市,阆中市,"13890784889,18990765163",unknown,
baidu,861b3f3a03e5172c1c389473,丹妮按摩店,南充市阆中市大东街79号,四川省,南充市,阆中市,,unknown,
baidu,b2f05c3e0afb57a7a8f0cdff,尚雅茶坊,四川省南充市阆中市郎家拐东方广场1栋6楼,四川省,南充市,阆中市,(0817)6398298,unknown,
baidu,bc1e7030a89801e922026207,玩泥巴DIY陶艺手工体验馆,四川省南充市阆中市武庙街73号,四川省,南充市,阆中市,15883996121,unknown,
baidu,6b333ea5c52bf702fa42b262,予通网咖,四川省南充市阆中市东方广场纽约街二楼,四川省,南充市,阆中市,13890817327,unknown,
baidu,f6d429ee5587c4c2047ce85e,阆中丝绸广场,四川省南充市阆中市阆水中路阆中古城,四川省,南充市,阆中市,,unknown,
baidu,59b25e6652e2ee3090114c4d,皇朝商务娱乐会所,南充市阆中市阆水中路137号,四川省,南充市,阆中市,(0817)6557777,unknown,
baidu,c8a12b69cbd7dcb3ca09f03b,银杏休闲茶楼(阆中步行街店),四川省南充市阆中市巴黎街东方广场3楼,四川省,南充市,阆中市,(0817)6236825,unknown,
baidu,a99c2a2541a5da968bdb7322,漫古里足道,保宁街道,四川省,南充市,阆中市,,unknown,
baidu,5aea4a3c7c4a8cceb11e3658,聚贤茶楼(纽约街),东方广场4号楼2层39室,四川省,南充市,阆中市,,unknown,
baidu,cab2fed8a159f395f82d6124,盲人按摩,南充市阆中市寿山寺街阆中市人民医院(古城院区)南侧约70米,四川省,南充市,阆中市,15182921670,unknown,
baidu,8ade76d5169a82dd7adbd270,艺佳修脚灰指甲,四川省南充市阆中市张飞南路445号,四川省,南充市,阆中市,,unknown,
baidu,0d8aa34595e8c66c5e17c32b,万客来推拉按摩,南充市阆中市大东街阆中古城,四川省,南充市,阆中市,,unknown,
baidu,4e4c9b2acdef552c0bf5ebe2,大苗药热敷馆,南充市阆中市财神楼街阆中古城,四川省,南充市,阆中市,15880170916,unknown,
baidu,760db5ae38d7df080a5cb371,益仁堂专业修脚,四川省南充市阆中市公园路337号,四川省,南充市,阆中市,18141348188,unknown,
baidu,1af30d74ca4d2a51e507380c,艾上灸好,南充市阆中市张飞南路阆中市人民医院(古城院区)东北侧约60米,四川省,南充市,阆中市,,unknown,
baidu,2827737ab3ba91bba5da3915,犀牛广场,四川南充市阆中市滨江路8号,四川省,南充市,阆中市,,unknown,
baidu,d3d05f7a077f7c34c61e51c6,御茗香茶房,南充市阆中市毛家巷和谐小区(毛家巷)东侧约40米,四川省,南充市,阆中市,,unknown,
baidu,683dbd1eec6f43772e473349,思语茶楼,四川省南充市阆中市郎家拐街88号,四川省,南充市,阆中市,,unknown,
baidu,87957aa63c6803b3ce04ef79,阆中市公园路退休人员俱乐部,南充市阆中市公园路华市街小区西北侧约110米,四川省,南充市,阆中市,,unknown,
baidu,886b1d62b02523c038e4a6c6,棋牌室,四川省南充市阆中市书院南街21号,四川省,南充市,阆中市,15984850458,unknown,
baidu,56705c5cb67fa6be2a02e19b,同桌酒吧,南街与武庙街交叉口西南40米,四川省,南充市,阆中市,,unknown,
baidu,48efb5228864a8c82cb96d1a,柒月南山,南街203号,四川省,南充市,阆中市,15229210155,unknown,
baidu,2209a504d04fe5b882a12e8c,明楼茶坊,南充市阆中市悉尼街东方广场店,四川省,南充市,阆中市,,unknown,
baidu,e14ddfd298a23944902ca30c,阆情商务会所,太平寺街11,四川省,南充市,阆中市,,unknown,
baidu,5852f37d6c12366072455bff,聚格电竞,四川省南充市阆中市阆水东路96号,四川省,南充市,阆中市,17383617363,unknown,
baidu,486b48915d35471b1b11d5fa,时代金典KTV(滨江新天地店),阆水东路18号滨江新天地西北角,四川省,南充市,阆中市,(0817)6303333,unknown,
baidu,696e66c13a25288c9e82eaab,黄葛树老兵茶园,双栅子街10号原76号,四川省,南充市,阆中市,,unknown,
baidu,8c79329542f982403a13fd97,古城胜利巨幕影城,阆中古城西街76号(阆中中学对面原绸厂电影院),四川省,南充市,阆中市,(0817)6262688,unknown,
baidu,27ab914019cda6eec056ac8f,谜茶馆,南充市阆中市大清宫街三岔路小区东侧约160米,四川省,南充市,阆中市,15082766093,unknown,
baidu,3d42a8f7e2a97bcd853304a7,隆兴茶庄,南充市阆中市管星街88号,四川省,南充市,阆中市,,unknown,
baidu,e11ab640cb079b5d4e776e69,老王茶园,四川省南充市阆中市管星街96号,四川省,南充市,阆中市,,unknown,
baidu,59ad3a28427d46756140a965,大宇茶楼,四川省南充市阆中市保宁街道新村路33号,四川省,南充市,阆中市,18282067622,unknown,
baidu,7840e82e1b90c000c9fa5f37,百姓茶坊,南充市阆中市邱家巷阆中古城,四川省,南充市,阆中市,,unknown,
baidu,07aeddb976aebf74f32d8353,萍聚茶馆,四川省南充市阆中市书院南街182号,四川省,南充市,阆中市,15298206269,unknown,
baidu,51acb59994b1bba3e81e97f9,永发保健,四川省南充市阆中市张飞南路255号,四川省,南充市,阆中市,,unknown,
baidu,22640160549962f0d13ce38c,钰颜佳人美容院(阆中店),东坛井街56号,四川省,南充市,阆中市,"(0817)6389599,19960801252",unknown,
baidu,581d6bb9d7f8af21132935cd,芳华阁汉服工作室,阆中古城南街140号,四川省,南充市,阆中市,,unknown,
baidu,e767a61bd5b7cf2d6140a9d0,三生有幸遇见你·音乐酒吧,南街183号,四川省,南充市,阆中市,(0817)6688646,unknown,
baidu,31713ae42c52892d441a321f,古阆汉舍,南充市阆中市状元街21号,四川省,南充市,阆中市,18681770302,unknown,
baidu,d57eeaf82a8ed8042b11d18d,木木美容院,毛家巷39号,四川省,南充市,阆中市,"15583006667,18280836286",unknown,
baidu,6541d2070c6e9ad3d92f28d2,诚信醋疗之家,大东街126号,四川省,南充市,阆中市,,unknown,
baidu,d6cf29ec81aac0644e5547a5,小资生活美妆店(伦敦街店),伦敦街东方广场7栋126-127号,四川省,南充市,阆中市,(0817)6277955,unknown,
baidu,9c56fc479e7c00a908ccdd1c,库迪咖啡(阆中东方广场店),东方广场3栋102号,四川省,南充市,阆中市,17761181889,unknown,
baidu,c12cab0971f2da9782288aca,阆苑仙境大型移动实景演出,南津关古镇商业街13号（南津关古镇牌坊入口处）,四川省,南充市,阆中市,(0817)6695555,unknown,
baidu,ecebf89dd24b7221d5b74e28,世龙世家手足健康护理连锁(no·3108),公园路北街6号,四川省,南充市,阆中市,15082777757,unknown,
baidu,8fdb6b236747b2589222e0b1,富裕咖啡供销社,屏江街45号,四川省,南充市,阆中市,,unknown,
baidu,10ba3a7b36843fad4251c0d4,阆中太平商务酒店,太平寺街66号,四川省,南充市,阆中市,"(0817)6590366,13990842990",unknown,
baidu,f74246d29fb97463df1e5230,7天酒店(阆中古城中心店),新村路11号,四川省,南充市,阆中市,(0817)6524888,unknown,
baidu,c17abc69a158cde9d7851f94,阆中林锋酒店,郎家拐街46号,四川省,南充市,阆中市,(0817)6802777,unknown,
baidu,b3e25567ed33f2cc2102625b,哈啰酒店(阆中古城店),张飞南路15号,四川省,南充市,阆中市,"(0817)5185566,18215852113",unknown,
baidu,04371ef297d1d07c102935e6,阆中燕子民宿,白果树街毛家巷94号,四川省,南充市,阆中市,18381773323,unknown,
baidu,1a5dd4401d70e2193686f43e,阆中绿洲酒店,太平寺街63号301室,四川省,南充市,阆中市,(0817)6288808,unknown,
baidu,6deee308d3f6f26b29fc4821,阆中宾馆,张飞南路27号,四川省,南充市,阆中市,(0817)6230999,unknown,
baidu,787673faea766e09d7851f98,阆情酒店(阆中古城店),太平寺街11号,四川省,南充市,阆中市,(0817)6353855,unknown,
baidu,da1c1257ec252c913f9a5e58,阆中顺锋客栈,管星街79号,四川省,南充市,阆中市,17390829980,unknown,
baidu,99a8cecafdd7a78a430245ab,如家派柏·云酒店(阆中古城店),新村路东段151号,四川省,南充市,阆中市,(0817)6259888,unknown,
baidu,30b5375aed34163ec7effb61,苑仙宾馆(阆中古城壹号店),大东街184号,四川省,南充市,阆中市,18227378189,unknown,
baidu,bb1d38e46cfb4c540c0a702f,阆中金龙大酒店,商城路8号,四川省,南充市,阆中市,"(0817)6268222,(0817)6268333",unknown,
baidu,cde17269f7e887dcc2364473,阆中吴铭商务宾馆,文昌宫街2号,四川省,南充市,阆中市,(0817)8023566,unknown,
baidu,d60c71edee1d68f7704b874c,阆中锦元张飞国际酒店,阆水中路560号,四川省,南充市,阆中市,(0817)6269999,unknown,
baidu,e1ebe5b1575b192860180954,阆中影都宾馆,天上宫街63号,四川省,南充市,阆中市,15882676615,unknown,
baidu,d94b394c444f0fc7430245d1,城宇酒店(阆中古城店),郎家拐街通济渠巷12号,四川省,南充市,阆中市,(0817)6220239,unknown,
baidu,81eb46669dd16d8b58109392,一家小院客栈(阆中古城店),四川省南充市阆中市大东街153号,四川省,南充市,阆中市,"13990707164,18783914023",unknown,
baidu,ba17b6883e0ae704246e983f,阆中三陈府邸民宿,何家巷38号,四川省,南充市,阆中市,(0817)6275888,unknown,
baidu,655c4c92d7b1c87e38e4a64a,汉庭酒店(阆中古城店),张飞南路338号,四川省,南充市,阆中市,(0817)6593888,unknown,
baidu,0eeb82834b9c3a62f32d8305,阆中伊家宾馆,东门口金地大厦4楼,四川省,南充市,阆中市,"(0817)6229588,15583012989,18990861519",unknown,
baidu,9ff4c950ab9e6b0b9d95de37,王府宾馆(阆中古城店),王爷庙街5号,四川省,南充市,阆中市,(0817)6238183,unknown,
baidu,7c9f9fe6493afd0b6b49f38e,宁雅宾馆,南充市保宁街道张飞南路35号(距阆中古城600米),四川省,南充市,阆中市,17383870010,unknown,
baidu,2ca20928fa502963ddee8b07,阆中水码头客栈,四川省南充市阆中市下新街61号,四川省,南充市,阆中市,(0817)6233333,unknown,
baidu,fad41225a0510e38d618b712,花筑·庆功堂(阆中古城旗舰店),南充市古城县学坝街39号,四川省,南充市,阆中市,13550592616,unknown,
baidu,512a68a58ecc4f9b09b93ac3,阆中诚悦宾馆,杨天井街67号,四川省,南充市,阆中市,"13183759891,13198817029",unknown,
baidu,a9cc8e23dd808e185cbe8640,阆中金桥宾馆,太平寺街108号,四川省,南充市,阆中市,18160187900,unknown,
baidu,9b9d9c05899b08cff603b82e,阆中保宁醋大酒店,公园路63号,四川省,南充市,阆中市,(0817)5261666,unknown,
baidu,fac3ff890fa3837028d7ab7c,阆中金江宾馆,张飞南路40号,四川省,南充市,阆中市,19940931157,unknown,
baidu,c99721d37851c511c7f50dc2,阆中青柠酒店(古城店),中华阆天城17号第301号,四川省,南充市,阆中市,(0817)6368777,unknown,
baidu,af3afee651ce4dc2ab059d35,巴厘岛快捷酒店(阆中店),四川省南充市阆中市张飞南路397号,四川省,南充市,阆中市,,unknown,
baidu,1f0cb6fd7a11f7bac7f025d9,阆中新世界家庭客栈,大东街231号,四川省,南充市,阆中市,(0817)6224159,unknown,
baidu,688252be4e7dff0795ca0742,阆中杜家别院客栈,净圣奄街安顺里巷7号,四川省,南充市,阆中市,"(0817)3934022,13890880863",unknown,
baidu,4642844a81abe4dac9fa5f38,阆中百瑞宾馆,张飞路南段16号,四川省,南充市,阆中市,(0817)6063888,unknown,
baidu,33e735d89edd7cc536b06ce0,阆中市三联书院客栈,盐市口街39号,四川省,南充市,阆中市,(0817)6271666,unknown,
baidu,7cc609b6b3eec6e84107c153,阆中本源堂民宿,古城双栅子街68号,四川省,南充市,阆中市,"(0817)6234888,18980318811,18990793833",unknown,
baidu,b6b1c02dc1a4f9b5c6effb5e,阆中古阆客栈,四川省南充市阆中市净圣庵街29号状元坊,四川省,南充市,阆中市,18681746858,unknown,
baidu,a7adebd26a3645791ef74d14,揽江·江景客栈(阆中古城华光楼店),保宁街道阆水中路城南天下F区F-5号,四川省,南充市,阆中市,13508272118,unknown,
baidu,e54e5e502680d6257c29bdab,OYO老牌坊酒店(内东街店),四川省南充市阆中市内东街47号(近状元坊古城正门),四川省,南充市,阆中市,"(0817)6228888,13890890898",unknown,
baidu,a454e1989b612f9d17c8f666,亿鑫酒店(新村路东段店),新村路东段17号,四川省,南充市,阆中市,(0817)6797711,unknown,
baidu,c1859aefbfcc154fb320a83e,阆中土生金钱庄,大东街50号,四川省,南充市,阆中市,(0817)6221880,unknown,
baidu,f24d5be383d7989df4eafc74,阆中皇庭商务宾馆,张飞南路17号,四川省,南充市,阆中市,(0817)6235611,unknown,
baidu,592a0db33cfdaddafe0eb018,阆中圣锦酒店,公园路56号,四川省,南充市,阆中市,(0817)6231666,unknown,
baidu,f06d1f2bcc5bc6b185154175,阆中镇江楼客栈,古城区下沙河街11号,四川省,南充市,阆中市,(0817)6699777,unknown,
baidu,9c0accc3a9cde6e330621276,阆中鑫阳光客栈,四川省南充市阆中市管星街116号,四川省,南充市,阆中市,(0817)6229251,unknown,
baidu,8da03d4c407654ba2a02e1cd,杜家客栈,南城新街26号（杜家客栈内）,四川省,南充市,阆中市,(0817)6224436,unknown,
baidu,4f94e9f7e20094cc343a7101,阆中澜方·觅月精品客栈(古城店),状元坊内东街112号,四川省,南充市,阆中市,19938777557,unknown,
baidu,439c7f75022acc1581a12e2f,阆中水木民宿(古城店),大东街199号,四川省,南充市,阆中市,19960842825,unknown,
baidu,347ddf78a9264469b75f1e5d,阆中隆兴客栈,管星街108号,四川省,南充市,阆中市,18681741926,unknown,
baidu,d75fdb1a0e4f5adfb5f42f80,蓬莱观景露台民宿(阆中古城店),南充市大东街阆中市18号附6号,四川省,南充市,阆中市,16532800001,unknown,
baidu,3aa6cc5af58b1814f90cad77,阆中紫薇客栈,关王庙街114号,四川省,南充市,阆中市,"(0817)6225559,18990730686",unknown,
baidu,b23ed74c12d3dae99cf779ee,阆中陈家客栈,大东街61号,四川省,南充市,阆中市,17765563277,unknown,
baidu,93050599e627cb72abf0cdd5,西景里酒店(阆中古城店),阆水中路606号,四川省,南充市,阆中市,(0817)5262626,unknown,
baidu,0601ef49a7c4b1902fb96d99,阆中TOTO商务酒店(古城店),张飞南路213号,四川省,南充市,阆中市,"(0817)6368933,15328439056",unknown,
baidu,3989aeee0011f1413fe2318e,阆中温馨客栈,三陈街19号,四川省,南充市,阆中市,19114118328,unknown,
baidu,e7d0102ffd294aae9868b4d6,阆中阆缘客栈,郎家拐街122号,四川省,南充市,阆中市,18784283119,unknown,
baidu,d6ee8724e611b29ea8f0cd14,阆中名城宾馆(文昌宫东巷),四川省南充市阆中市张飞南路24号,四川省,南充市,阆中市,(0817)6228507,unknown,
baidu,812b935108d6a6e941d63e4c,阆中状元楼宾馆,古城盐市口街1号状元小区2楼,四川省,南充市,阆中市,18990867989,unknown,
baidu,c31b760e063848371994c68b,天伦客栈,四川省南充市阆中市三陈街14号,四川省,南充市,阆中市,17781288387,unknown,
baidu,b86e4cd101a40031c72ba14d,欢喜民宿(礼拜寺街分店),四川省南充市阆中市礼拜寺街22号,四川省,南充市,阆中市,,unknown,
baidu,60063841353a273fdc1e52c1,阆中花园客栈,南充市阆中市白果树街和谐小区(毛家巷),四川省,南充市,阆中市,18048418006,unknown,
baidu,dc677efad8e7e7a5306212c7,阆中别居一阁客栈,安顺里街,四川省,南充市,阆中市,13696018815,unknown,
baidu,6631c0edc476aaa4d7b74e5d,阆中鑫隆宾馆,四川省南充市阆中市朗家拐街151号-153号（郎家拐社区卫生服务中心对面）,四川省,南充市,阆中市,(0817)6272998,unknown,
baidu,69ef5f4775cb79b16118094e,管家珊珊民宿(关王庙街分店),四川省南充市阆中市保宁街道关王庙街10号,四川省,南充市,阆中市,,unknown,
baidu,6bf53161090c46a4a3acc4d4,双牛快捷宾馆,南充市张飞大道24号,四川省,南充市,阆中市,(0817)6688976,unknown,
baidu,6f3f80f3a218c6ddab175aa4,雅丹宾馆,四川省南充市阆中市天上宫街43号,四川省,南充市,阆中市,,unknown,
baidu,a276ba5538841ef36168582d,阆中武魁客栈,管星街78号,四川省,南充市,阆中市,15528848919,unknown,
baidu,bb5c5feffb7b90401ee99947,阆中古城邓家小院,四川省南充市阆中市大东街54号警号132号,四川省,南充市,阆中市,"(0817)5181771,15681053113",unknown,
baidu,0cd705692f02ac3a88db738a,阆中古城You家民宿(礼拜寺街分店),四川省南充市阆中市保宁街道礼拜寺街13号,四川省,南充市,阆中市,,unknown,
baidu,04bd1c043aac7ba417b54b76,方家旅馆,四川省南充市阆中市张飞南路39号,四川省,南充市,阆中市,(0817)5185177,unknown,
baidu,e03688e34715f84cc51b75d2,南充江景房看山看水公寓,白果树街15号(鱼翅广场玉台仙都),四川省,南充市,阆中市,,unknown,
baidu,481fb705a04e08626949f3dc,明星商务宾馆,四川省南充市阆中市郎家拐街3号古城中心区,四川省,南充市,阆中市,(0817)5187999,unknown,
baidu,09c7b4926c81336db13c81e4,南充没有故事的小姐姐公寓(3号店),南充阆中市张飞南路53号,四川省,南充市,阆中市,18181136663,unknown,
baidu,d72cac2baf62b9d03b221c52,金牌坊宾馆,南充市阆中市郎家拐街东方广场店东侧,四川省,南充市,阆中市,,unknown,
baidu,574366f6706c52ab8c1a894a,南充宁静·致远公寓,四川省南充市阆中市文昌宫街22号,四川省,南充市,阆中市,15181779159,unknown,
baidu,4105c4ae3689fab5f1193797,南充刘红燕公寓,四川省南充市阆中市官菜园街沃尔玛(东方广场店),四川省,南充市,阆中市,,unknown,
baidu,1df2a284e0d2ce769e82eafd,南充星空公寓(大东街分店),四川省南充市阆中市保宁街道大东街45号,四川省,南充市,阆中市,,unknown,
baidu,106e1b77bfeccbcd41afe6cb,皇室名居宾馆,四川省南充市阆中市张飞南路22号,四川省,南充市,阆中市,,unknown,
baidu,8bd7642fc94242f48e772795,苑城宾馆,南充市阆中市张飞南路阆中市城东小学校西侧约50米,四川省,南充市,阆中市,18990731169,unknown,
baidu,fb1321ac47a9b61a17b54be5,东威新能源(阆中专卖店),四川省南充市阆中市关王庙街19号,四川省,南充市,阆中市,,unknown,
baidu,a497f44686f06cb62b3a9fd4,小宋汽车服务部(江南店),江南镇张宪街68号,四川省,南充市,阆中市,15881740570,unknown,
baidu,d7e75fb8ca6f73a084154155,酷飞汽车服务会所,四川省南充市阆中市较场路西段3号,四川省,南充市,阆中市,18280836363,unknown,
baidu,123284e3f7d59d4c364aae56,冠腾机动车服务站,南充市阆中市保宁醋西路金地禹王宫小区西北侧约30米,四川省,南充市,阆中市,,unknown,
baidu,d4530669f973751bbadf8f5e,途虎养车工场店(阆中醋西路店),四川省南充市阆中市保宁醋西路45号,四川省,南充市,阆中市,17381265266,unknown,
baidu,0cc6004839b2b8eb5e17c3b0,万里车行(张飞南路店),四川省南充市阆中市张飞南路5号,四川省,南充市,阆中市,"15082495687,18780727188",unknown,
baidu,7a92c4d893e1d94b5fbe8637,车拓者汽车服务中心,书院街37号,四川省,南充市,阆中市,18990731595,unknown,
baidu,37ffcf03bcdbfc1bef74f879,万世通汽车一站式服务(阆水东路店),阆水东路113-117号,四川省,南充市,阆中市,"(0817)6686718,18990746900",unknown,
baidu,daf07e5fb1204a199603191a,牛氏车行,四川省南充市阆中市寿山寺街阆中市人民医院古城院区东南侧约30米,四川省,南充市,阆中市,15892447592,unknown,
baidu,c9640b3720354ad80d3dda51,名城配件批发,四川省南充市阆中市寿山寺东街186号,四川省,南充市,阆中市,(0817)6227329,unknown,
baidu,94727f8877750d7dc17da257,超越车品,南充市阆中市东江巷滨花小区西北侧约30米,四川省,南充市,阆中市,18581712170,unknown,
baidu,a716d3d8bd3c9784a80dd8c9,福莱士汽车美容养护中心,四川省南充市阆中市兴盛街77号,四川省,南充市,阆中市,15520891180,unknown,
baidu,f10d7add065e7a9b4e2fdf3e,驰晟汽修,张宪街122号,四川省,南充市,阆中市,18048418275,unknown,
baidu,6e5b84f65a9d7a0716764398,大汉汽车美容装饰,四川省南充市阆中市演武街186号,四川省,南充市,阆中市,(0817)6799505,unknown,
baidu,1963944ba54e3bfbf942b2bb,淘油集养车(金天地店),张飞南路与阆水中路交叉口北80米,四川省,南充市,阆中市,,unknown,
baidu,05258d683760552bc2f1cf74,平安车行(保宁醋西路店),四川省南充市阆中市寿山寺东巷22号,四川省,南充市,阆中市,,unknown,
baidu,470d1a53495e5f8a51e5c5d7,龙膜,南充市阆中市张飞南路河畔佳苑(阆水中路)西侧,四川省,南充市,阆中市,,unknown,
baidu,ef07a8bb2ebc3dbaad0457ec,福莱士专业快修保养,南充市阆中市四元东巷碧玉苑小区,四川省,南充市,阆中市,,unknown,
baidu,7290d2b549247e6c081cc791,匠人汽车生活馆,四川省南充市阆中市阆水东路65~66号,四川省,南充市,阆中市,17721801820,unknown,
baidu,e707a6fa3ca3c8523310af73,朝霞轮胎商行(保宁醋西路),保宁醋西路149-151号,四川省,南充市,阆中市,13989181599,unknown,
baidu,b71bf75d9b762d13b23c8194,朝阳轮胎(商城路东段),南充市阆中市商城路东段九龙佳园东北侧约30米,四川省,南充市,阆中市,"(0817)6283855,15984887268",unknown,
baidu,64756cf6773ff549ede4a5ca,威固隔热膜专营店,南充市阆中市保宁醋东路滨花小区西侧,四川省,南充市,阆中市,13508083569,unknown,
baidu,ff4a82f9000b77c3ed74f844,道圣康膜运营中心,南充市阆中市迎恩街信合小区西侧约100米,四川省,南充市,阆中市,,unknown,
baidu,8f2b49ef1cf37ff6c91b9518,骑士精典汽车装饰,保宁醋东路168-178号,四川省,南充市,阆中市,13508083569,unknown,
baidu,a0ef8750c0b55a51a9f0cdfb,鸿都汽贸,南充市阆中市顾家井巷乔登美语幼儿园东北侧约60米,四川省,南充市,阆中市,,unknown,
baidu,92fb258583a0b4dc740269ba,锐鑫汽车美容养护中心,四川省南充市阆中市阆水西路石钵巷尚客优酒店对面,四川省,南充市,阆中市,18990763427,unknown,
baidu,e8915627e596d1591e1d1195,电瓶修复中心,南充市阆中市保宁醋西路晨曦小区(保宁醋西路)东南侧约60米,四川省,南充市,阆中市,,unknown,
baidu,c2ccb0a5de3735b9fb0cadae,阆中市鸿都汽贸有限公司,南充市阆中市张飞北路阆中市中医医院,四川省,南充市,阆中市,(0817)6272022,unknown,
baidu,31fcfba725b11332ddee8baa,友联汽修厂,四川省南充市阆中市江南街道奎星街,四川省,南充市,阆中市,"13118263217,18783918856",unknown,
baidu,2760dc82556369e8e856faa5,博斯卡汽车服务,南充市阆中市阆水西路西江丽景,四川省,南充市,阆中市,15082768755,unknown,
baidu,6adab1c35e22ecef5cd4fe51,翔瑞汽车装饰,较场路西段72号,四川省,南充市,阆中市,13508086460,unknown,
baidu,72c669e2787a1966ddee8b87,车随我动汽车装饰,张宪街106号附近,四川省,南充市,阆中市,18784777713,unknown,
baidu,49a3fd8675ee1baeca291578,爱车之家汽车美容(张宪街店),四川省南充市阆中市张宪街221号,四川省,南充市,阆中市,18280836627,unknown,
baidu,8eb6de419ee59704c51e5159,福林汽修,奎星街与张宪街交叉口东南100米,四川省,南充市,阆中市,13568612293,unknown,
baidu,a622b59a09456b4aeb56fa0c,欣达汽修,南充市阆中市奎星街江南中学东侧约230米,四川省,南充市,阆中市,13540952306,unknown,
baidu,341df432a2d28d31f32d8327,康乐,南充市阆中市较场路西段人大小区,四川省,南充市,阆中市,,unknown,
baidu,94119ba2aa41b0f9b7265539,宏程汽修厂,四川省南充市阆中市江南镇奎星街,四川省,南充市,阆中市,18113925538,unknown,
baidu,4323e6e106a5afd6157643a5,米其林轮胎(安阁瑞大酒店北),四川省南充市阆中市张飞北路53号,四川省,南充市,阆中市,15983766029,unknown,
baidu,beb076bbf6db59df2b201a70,洗车贴膜,南充市阆中市张宪街江南中学东北侧约170米,四川省,南充市,阆中市,,unknown,
baidu,257aae3f0641bda9157643a3,鸿达轮胎服务中心(保宁醋东路店),四川省南充市阆中市醋东路24号,四川省,南充市,阆中市,15181792165,unknown,
baidu,a07da9c920437b7049fd3f3c,云起汽修,南充市阆中市奎星街江南中学东侧约190米,四川省,南充市,阆中市,18581705567,unknown,
baidu,50e7da4274c384482b3a9f74,冬阳汽车生活馆,四川南充市阆中市阆水东路65号,四川省,南充市,阆中市,,unknown,
baidu,8f03c297b8a1d28c5b109399,博世·凯派汽车养护中心,沙溪街道阆水东路滨江新天地负一楼(停车场内),四川省,南充市,阆中市,(0817)6226222,unknown,
baidu,f1199b7a9ccefec817948e74,通顺汽修,南充市阆中市演武街富强巷小区南侧,四川省,南充市,阆中市,"13340775783,13890407067",unknown,
baidu,c0c07241d95a0e9828b97c85,汽车保养快修,南充市阆中市聚龙路聚龙湾南侧,四川省,南充市,阆中市,15196765658,unknown,
baidu,225e85b8c4c536fff13cbaa9,昌凯汽车维修,四川省南充市阆中市奎星街18号,四川省,南充市,阆中市,,unknown,
baidu,298bea6c526ee9f525e0a012,金拇指爱车服务中心,四川省南充市阆中市沙溪街道凤翅大道,四川省,南充市,阆中市,13440165237,unknown,
baidu,bf28b577886b93b27dc87628,惠达高品质润滑油,南充市阆中市阆水东路金沙半岛-二期东侧约100米,四川省,南充市,阆中市,18990746900,unknown,
baidu,9dc8cbd9c8707625b64f54e9,福缘汽配,四川省南充市阆中市张宪街242号,四川省,南充市,阆中市,18681717191,unknown,
baidu,42605888c632538b95ca07d2,车无尘汽车美容,南充市阆中市奎星街与张宪街交叉路口往东南约270米,四川省,南充市,阆中市,,unknown,
baidu,af025e84211528b0ae04571c,友红车行,四川省南充市阆中市张宪街271号,四川省,南充市,阆中市,"18161466996,18781767261",unknown,
baidu,c2a0ca9bb27dc0fd373a71db,韩泰轮胎(阆中嘉陵江山旅游度假区店),南充市阆中市凤翅大道阆中汽车站东南侧约270米,四川省,南充市,阆中市,18682582877,unknown,
baidu,a35b13d13fa2062d5af6be7a,利达轮胎行,南充市阆中市张飞北路卓尚花园东侧约40米,四川省,南充市,阆中市,,unknown,
baidu,e9dfb41e56e8a8f50289727b,润滑油滤芯大全,四川省南充市阆中市环城北路73号,四川省,南充市,阆中市,13808277482,unknown,
baidu,693504ecbd490624c9e33cec,轮胎钣金喷漆,南充市阆中市奎星街江南中学东侧约230米,四川省,南充市,阆中市,13540952306,unknown,
baidu,90808e406ec6dcc517948e81,黑马汽修,南充市阆中市江南镇奎星街211-215号,四川省,南充市,阆中市,15828023142,unknown,
baidu,03c9aeb171cea78828d7abdc,赤兔马轮胎(阆中市江南镇奎星街店),南充市阆中市奎星街江南奎星小区北侧约290米,四川省,南充市,阆中市,13890841696,unknown,
baidu,71446b56ed0110bfc51b7513,阆中朝阳轮胎经营部(奎星街店),四川省南充市阆中市奎星街17号,四川省,南充市,阆中市,,unknown,
baidu,6f2a1d488a1030a2db13189c,惠城汽修,四川省南充市阆中市东岩路90号,四川省,南充市,阆中市,,unknown,
baidu,e40ecdfeaee281ce94ec8424,闽中宏大轮胎经营部,南充市阆中市阆水东路保宁醋小区东北侧约30米,四川省,南充市,阆中市,15775844777,unknown,
baidu,5ada703beebe91d586420eb2,洗车贴膜,南充市阆中市落下闳大道阆城·桃花源西北侧约60米,四川省,南充市,阆中市,,unknown,
baidu,fdc615fc242d13cf08f5eb62,聚点汽车装饰美容中心,落下闳大道北段336号金水湾5栋,四川省,南充市,阆中市,19960827907,unknown,
baidu,c208721714d52cf1f42310b2,捷诚汽修,四川省南充市阆中市东岩路50号,四川省,南充市,阆中市,"17746727553,18281701645",unknown,
baidu,5045dcf069045e047069d3a3,宇硕汽车脚垫厂,南充市阆中市张宪街江南中学东南侧约30米,四川省,南充市,阆中市,15833736905,unknown,
baidu,33ae9b3d9f30873c4054d794,普利司通轮胎(阆水东路店),四川省南充市阆中市保宁街道阆水东路162号,四川省,南充市,阆中市,,unknown,
baidu,4121f3cac1eb1b3a6d47602d,重庆汗血悍马三轮车专卖,四川省南充市阆中市凤翅大道宏凌山水城南侧约260米,四川省,南充市,阆中市,18980307898,unknown,
baidu,c695863ad3b831394207c18e,Hankookmasters洗车,南充市阆中市凤翅大道阆中汽车站东南侧约250米,四川省,南充市,阆中市,,unknown,
baidu,4803b1a5f846ca9c601c6716,倍耐力轮胎(拥军街店),四川省南充市阆中市保宁街道拥军街1号,四川省,南充市,阆中市,"(0817)6267824,13708275046",unknown,
baidu,526dcf861f2200e5ae0457ba,宏途轮胎经营部,四川省南充市阆中市落下闳大道北段671号,四川省,南充市,阆中市,15228925213,unknown,
baidu,ebbbc79ee056312b7ec87611,阆中市茂盛轮胎行,四川南充市阆中市拥军街9~11号,四川省,南充市,阆中市,13708275046,unknown,
baidu,cf86ddd7f87ebd74cb213d7a,许文汽车电器(阆中店),南充市阆中市奎星街江南奎星小区北侧约300米,四川省,南充市,阆中市,13990721745,unknown,
baidu,13bb0fa26138f13ec9c3db3b,杨氏轮胎经营部,南充市阆中市奎星街江南奎星小区北侧约290米,四川省,南充市,阆中市,13440159464,unknown,
baidu,290bb990c60eb4eb118824ed,玲珑轮胎卡客车轮胎店,南充市阆中市奎星街江南奎星小区北侧约290米,四川省,南充市,阆中市,13440159464,unknown,
baidu,29ae9289d9a340e3283a9f2f,正泰轮胎经营部,张飞北路447-453,四川省,南充市,阆中市,13880781848,unknown,
baidu,708c51c7776cc1c6f942b2cc,汽车电瓶空调装饰,四川省南充市阆中市张飞北路89号,四川省,南充市,阆中市,"(0817)6271889,13018123246",unknown,
baidu,321c63756d6ba5920b69d936,阆中市陈涵轮胎店,南充市阆中市凤翅大道与阆水东路交叉路口往西约250米,四川省,南充市,阆中市,,unknown,
baidu,10fd2500d03ac35595f08cf4,弘昌二手车,四川省南充市阆中市阆水东路敏捷天樾一期9号,四川省,南充市,阆中市,18909076096,unknown,
baidu,aaf675079ba98a0b40ab9a48,阆中凌氏车行(阆水西院店),南充市阆中市G212阆水西院,四川省,南充市,阆中市,"(0817)3932536,13508099122",unknown,
baidu,b15dadcd36753d7dad31e5dd,兴科汽车玻璃(铁塔花园店),四川省南充市阆中市保宁街道保宁醋西路40号,四川省,南充市,阆中市,"13909075337,15984833677,18909076896",unknown,
baidu,cd27b6d1406571a8c9c3db24,鸿运二手车(蟠龙路店),南充市阆中市蟠龙路蟠龙小区北侧约100米,四川省,南充市,阆中市,"13458266928,13980305149",unknown,
baidu,ac67fc6efc8503900b69d94d,特源电池修复,四川省南充市阆中市S302,四川省,南充市,阆中市,,unknown,
baidu,e856c94c15641b6c9cf77929,金坤汽车玻璃,南充市阆中市阆水东路东方怡园东侧约50米,四川省,南充市,阆中市,"13508270300,18113926345",unknown,
baidu,14b1925cab9a89def7eafc60,鸿运二手车交易中心,南充市阆中市奎星街,四川省,南充市,阆中市,,unknown,
baidu,d4d24961720ac67d912ca36e,回收匠二手车,四川省南充市阆中市阆山路明宇尚雅酒店旁,四川省,南充市,阆中市,13989199901,unknown,
baidu,c16534059628bc78ab175a21,阆中市人民医院(古城院区),四川省南充市阆中市张飞南路85号,四川省,南充市,阆中市,(0817)6222750,unknown,
baidu,820f489330be0141e6073861,阆中市三陈街社区卫生服务中心,南充市阆中市三陈街71、73号,四川省,南充市,阆中市,"(0817)6228840,(0817)6234627",unknown,
baidu,66ded4cd1cd764e70aa8d425,杨天井诊所,四川省南充市阆中市保宁街道杨天井街65号,四川省,南充市,阆中市,,unknown,
baidu,4ca4fb93db06996d71455bb2,医+医眼视光,四川省南充市阆中市张飞南路258号,四川省,南充市,阆中市,,unknown,
baidu,4db834ae5f7d32f8ddee8b1a,南充市医疗集团阆中中山医院,四川省南充市阆中市书院街190,四川省,南充市,阆中市,,unknown,
baidu,63d5db36e358b62ac16c142b,阆中市保宁街道郎家拐社区卫生服务中心,四川省南充市阆中市郎家拐街206号,四川省,南充市,阆中市,,unknown,
baidu,9478128c4dffe670400245a6,阆中鑫旭诊所,四川省南充市阆中市文昌宫东巷55-57号,四川省,南充市,阆中市,,unknown,
baidu,24fa8b335618346ca10464e2,廖玲华诊所,四川省南充市阆中市天上宫街62号,四川省,南充市,阆中市,,unknown,
baidu,402f2b2810214c32e6e965a5,顺康诊所(文昌宫东巷),四川省南充市阆中市张飞南路384号,四川省,南充市,阆中市,(0817)6232468,unknown,
baidu,e67e2c24f4785bf22cb90847,阆中琴忠诊所,南充市阆中市关王庙街三岔路小区东侧约180米,四川省,南充市,阆中市,,unknown,
baidu,d590711955798ee24e776ea3,益参诊所,四川省南充市阆中市毛家巷53号(阆中市中医院旁),四川省,南充市,阆中市,,unknown,
baidu,43b7e8891026c27358f6be5a,阆中市中医医院,四川省南充市三陈街7号,四川省,南充市,阆中市,(0817)6262973,unknown,
baidu,631c41573662867831f71d5a,阆中名城医院,南充市阆中市新村路东段22号,四川省,南充市,阆中市,,unknown,
baidu,a94ab9f918a8bff11ef74dce,九康堂大药房有限责任公司,四川省南充市阆中市郎家拐街54号古莲池街15号,四川省,南充市,阆中市,,unknown,
baidu,dc890f4f4f1401df28b97cfe,华医口腔医院,南充市阆中市新村路1号,四川省,南充市,阆中市,"(0817)6256166,(0817)6593666",unknown,
baidu,4dc848d7e7ed066bd1f49eea,明亮眼科视光诊所,四川省南充市阆中市张飞南路510号,四川省,南充市,阆中市,,unknown,
baidu,b9e5d0b8b55dbea581a12e5a,阆中市交通职工医院,四川省南充市阆中市阆天城1号楼221号,四川省,南充市,阆中市,(0817)6299666,unknown,
baidu,9c3d2f26b40b7a301c389448,阆中华祥医院,南充市阆中市寿山寺街阆中市人民医院(古城院区),四川省,南充市,阆中市,,unknown,
baidu,eb4881ea2b79238a9ee321ae,阆中吴铭诊所,四川省南充市阆中市保宁镇南街38号(古城南街186号),四川省,南充市,阆中市,13708275708,unknown,
baidu,bca20d35f907310e2806cedb,福音堂,南充市阆中市大步坎巷阆中市人民医院(古城院区)南侧约100米,四川省,南充市,阆中市,,unknown,
baidu,e1f2db948879aade4557267a,口腔门诊部,南充市阆中市三岔路25号,四川省,南充市,阆中市,,unknown,
baidu,dde8e7340975053640ab9a87,80-20齿科,四川省南充市阆中市三岔路1号,四川省,南充市,阆中市,(0817)6234618,unknown,
baidu,a53998b6e2fbce5bf4b91609,阆中市保宁社区卫生服务中心,四川省南充市阆中市普贤街15号,四川省,南充市,阆中市,,unknown,
baidu,6a059adce2b66df133169b0e,阆中仁人康诊所,四川省南充市阆中市保宁街道通济渠巷31号,四川省,南充市,阆中市,17726358653,unknown,
baidu,40e5f269af48312040ab9af7,西医内科,南充市阆中市南街阆中古城,四川省,南充市,阆中市,,unknown,
baidu,a6730d3f7f47787508ccddc1,全健医疗器械,南充市阆中市毛家巷阆中市人民医院(古城院区)西侧约30米,四川省,南充市,阆中市,,unknown,
baidu,7aea43b750ebe4e17c29bd5a,阆中市中医医院,四川省南充市阆中市张飞北路33号,四川省,南充市,阆中市,(0817)6262973,unknown,
baidu,95d9741cddc227e457bfff4f,阆中市仁康诊所,四川省南充市阆中市张飞南路17号,四川省,南充市,阆中市,,unknown,
baidu,f45001d6d467dee21fe999c1,医疗器械,南充市阆中市毛家巷阆中市人民医院(古城院区)西北侧,四川省,南充市,阆中市,,unknown,
baidu,9757a977d6464528a6da39a1,弘升十二店中医诊所,南充市阆中市古莲池街祥和小区(古莲池街),四川省,南充市,阆中市,,unknown,
baidu,2ad66e249802c4d8eaf8537b,阆中市三陈街社区卫生服务中心-急诊室,南充市阆中市三陈71号、73号阆中市三陈街社区卫生服务中心内,四川省,南充市,阆中市,,unknown,
baidu,8bf6525870f4b058c9fa5fa2,阆中市三陈街社区卫生服务中心-B超室,南充市阆中市三陈71号、73号阆中市三陈街社区卫生服务中心内,四川省,南充市,阆中市,,unknown,
baidu,1ba1d3cb9ac8ed736c3e1bb9,阆中市三陈街社区卫生服务中心-检验科,南充市阆中市三陈71号、73号阆中市三陈街社区卫生服务中心内,四川省,南充市,阆中市,,unknown,
baidu,f293dad076edac85843304a0,美德诊所(公园路店),南充市阆中市公园路华市街小区西北侧约160米,四川省,南充市,阆中市,,unknown,
baidu,b64d970bce932b393ce2314d,阆中柴军中医诊所,南充市阆中市大步坎巷阆中市人民医院(古城院区)南侧约100米,四川省,南充市,阆中市,,unknown,
baidu,b7e378bd45815fcbaeb22ad5,敖氏诊所,四川省南充市阆中市礼拜寺街33号,四川省,南充市,阆中市,"15348236271,18990867871",unknown,
baidu,83ffd53253d7d391354aaee9,新村诊所,南充市阆中市古莲池横街信合小区东南侧约80米,四川省,南充市,阆中市,,unknown,
baidu,28b23308a6daa33b9c09f7a6,阆中市三陈街社区卫生服务中心-中医治疗综合区,南充市阆中市三陈71号、73号阆中市三陈街社区卫生服务中心内,四川省,南充市,阆中市,,unknown,
baidu,3750f36267a1c94294ec843a,医疗器械,南充市阆中市张飞南路阆中市人民医院(古城院区)东北侧约30米,四川省,南充市,阆中市,15682196827,unknown,
baidu,0a4c85ebb389b2dec4f02572,阆中骨科医院,南充市阆中市保宁醋西路64号,四川省,南充市,阆中市,(0817)6252990,unknown,
baidu,e5800f7290693f147f29bd3d,麒麟牙科,四川省南充市阆中市保宁街道书院街4号,四川省,南充市,阆中市,,unknown,
baidu,ca549c8a53cb48470782c293,阆中市杜华昌诊所,张飞南路548号,四川省,南充市,阆中市,,unknown,
baidu,edd64ce1462779923fe231dd,樊刚骨科,四川省南充市阆中市保宁醋西路202-204号,四川省,南充市,阆中市,18990769932,unknown,
baidu,966391774771b37dafee7a34,阆中市中医医院体检中心,南充市阆中市毛家巷和谐小区(毛家巷)东南侧,四川省,南充市,阆中市,,unknown,
baidu,3ef0ebb816f26cd5a6da3980,阆中樊恩胜医院,南充市阆中市公园路南街26号,四川省,南充市,阆中市,,unknown,
baidu,895e701098372811adb22a40,银杏堂诊所,南充市阆中市大步坎巷阆中古城,四川省,南充市,阆中市,18990131301,unknown,
baidu,62fc61285441eba10bccdd95,普贤路社区卫生服务站,四川省南充市阆中市商城路东段24号,四川省,南充市,阆中市,(0817)6266267,unknown,
baidu,3c3fb65b9a162fb4c5f50d06,阆中仁华医院,四川省南充市阆中市张飞北路12号,四川省,南充市,阆中市,,unknown,
baidu,d037f7075ea072d917c8f635,颐养骨,南充市阆中市华市街小区西侧约70米,四川省,南充市,阆中市,,unknown,
baidu,c1f0ba3499f68c65b9df8f03,巴山传统火罐康复馆,四川省南充市阆中市寿山寺东街188号,四川省,南充市,阆中市,13981683946,unknown,
baidu,b07a5ec1c4222d5ae81e97ee,华市街诊所,四川省南充市阆中市华市街14号,四川省,南充市,阆中市,13990793133,unknown,
baidu,bd80542b252d4064ed74f8d5,中医康复门诊,南充市阆中市寿山寺街阆中市人民医院(古城院区)东南侧,四川省,南充市,阆中市,,unknown,
baidu,7edc906d03e95f3d9de321e7,牟家牙科,四川省南充市阆中市商城路东段3号,四川省,南充市,阆中市,,unknown,
baidu,08463b3e56b6955dd5b74ed3,阿哥与格格原生社,南充市阆中市学道街57号,四川省,南充市,阆中市,,unknown,
baidu,852b5e4ef2dc7dce84330491,苟氏诊所,南充市阆中市寿东巷粮库小区东北侧约70米,四川省,南充市,阆中市,15387609967,unknown,
baidu,cb9707dd9e3825acad080f4c,王培杰诊所,南充市阆中市大步坎巷阆中古城,四川省,南充市,阆中市,,unknown,
baidu,56c1e4cb350f4a26c42ba1b3,风湿专科,南充市阆中市田家巷阆中古城,四川省,南充市,阆中市,,unknown,
baidu,f7d5b0c134c57cf3fda7782c,莨菪诊所,四川省南充市阆中市公园路北街35号,四川省,南充市,阆中市,13568612008,unknown,
baidu,c869d8773699cd8e3686f412,阆中市公园路社区卫生服务站,南充市阆中市公园路南街华市街小区北侧约130米,四川省,南充市,阆中市,,unknown,
baidu,67b12c3793cad021cd04ef3a,阆中市陈大庆康复疼痛诊所,南充市阆中市书院南街阆中市城东小学校东北侧约60米,四川省,南充市,阆中市,,unknown,
baidu,32adbc51520aa1ae8f1a89a6,杏林诊所(公园路店),四川省南充市阆中市公园路268号,四川省,南充市,阆中市,13508087776,unknown,
baidu,514d05bcdf8223782902e122,弘升大药房(连锁第22店),四川省南充市阆中市毛家巷7-15号,四川省,南充市,阆中市,"(0817)6261150,13890719199",unknown,
baidu,af43e0230ed7f48417b54b8c,老百姓大药房(一店),四川省南充市阆中市保宁街道内东街10号,四川省,南充市,阆中市,18275877731,unknown,
baidu,cdbb42fccc9c08e2f822138f,阆中市第三人民医院-阆中市精神卫生中心,四川省南充市阆中市蟠龙路43号,四川省,南充市,阆中市,,unknown,
baidu,9e7a22d1c1a35ad054bfffea,全心百信大药房(三陈街店),南充市阆中市三陈街九号居民小区西侧约100米,四川省,南充市,阆中市,,unknown,
baidu,6aba68ee9f36b01c40024564,阆中九五医院,四川省南充市阆中市阆水东路15号,四川省,南充市,阆中市,,unknown,
baidu,5251fa55473033ec42d63e15,蓓蓓中医诊所,四川省南充市阆中市南津关古镇商业街21号,四川省,南充市,阆中市,,unknown,
baidu,56ffec1acb11fbd51f1d11f3,弘升大药房(东坛井街店),南充市阆中市东坛井街1号,四川省,南充市,阆中市,"(0817)6261150,13890719199",unknown,
baidu,b21851abbf76483a79dbd27f,德善医院,四川省南充市阆中市阆水东路279号,四川省,南充市,阆中市,"(0817)3933000,(0817)3933006,(0817)3933999",unknown,
baidu,f258ecf2cb1df0f040024563,阆中市康福大药房(天上宫街店),四川省南充市阆中市天上宫街2号,四川省,南充市,阆中市,(0817)6238005,unknown,
baidu,f630188eb7995514b23c819b,弘升大药房(no.5店),四川省南充市阆中市大东街183号,四川省,南充市,阆中市,18582116277,unknown,
baidu,acfda48c225011f0c7f50d30,弘升大药房(no.8店),南充市阆中市三陈街53号,四川省,南充市,阆中市,(0817)5180993,unknown,
baidu,49f588eb549bb93100ff2d75,老百姓大药房(三陈街店),南充市阆中市三陈街九号居民小区西侧约90米,四川省,南充市,阆中市,,unknown,
baidu,168531ee80be81b025e0a096,弘升大药房(连锁七店),四川省南充市阆中市张飞南路214号，216号,四川省,南充市,阆中市,(0817)5180993,unknown,
baidu,172e333693335cfa3b221c00,南充兴平连锁药店(14店),四川省南充市阆中市公园路344号,四川省,南充市,阆中市,(0817)6264896,unknown,
baidu,5f737348a750476342d63ee4,老百姓大药房(公园路店),四川省南充市阆中市公园路3号,四川省,南充市,阆中市,,unknown,
baidu,34059f97b97a5b5571455b21,阆中市江南社区卫生服务中心,四川省南充市阆中市阆南桥街63号,四川省,南充市,阆中市,"(0817)6330030,(0817)6330082",unknown,
baidu,71a91649a31182ed213bf2ff,三陈街社区卫生服务中心核酸采样点,南充市阆中市三陈街九号居民小区南门西侧约80米,四川省,南充市,阆中市,,unknown,
baidu,81d6a509a93a2d436e20b922,弘升大药房(阆中市非税收人监管中心北),南充市阆中市官菜园街57、59号,四川省,南充市,阆中市,(0817)6232703,unknown,
baidu,54a67805d3775f093a13fd1b,匠心中草药加工坊,南充市阆中市三陈街九号居民小区,四川省,南充市,阆中市,,unknown,
baidu,2df8c1f99f848e5df03cbab2,兴平药房(新村路东段),四川省南充市阆中市张飞南路华为授权服务中心张飞南路店旁,四川省,南充市,阆中市,(0817)6255928,unknown,
baidu,4d1a37ca004a9e14c5effba4,弘升大药房(鸿运小区南),大步坎巷46,四川省,南充市,阆中市,13989194670,unknown,
baidu,da4b28314872d9fe29fc481f,听觉有道助听器连锁(阆中张飞南路旗舰中心),四川省南充市阆中市张飞南路126号,四川省,南充市,阆中市,"(0817)6250177,17398130629",unknown,
baidu,8f69b07f0547e6eaa7c7562f,修正堂大药房(阆中一店),四川省南充市阆中市保宁街道张飞南路100号,四川省,南充市,阆中市,15508104827,unknown,
baidu,3912b95b57d413129d9d6895,老百姓大药房(张飞南路店),南充市阆中市张飞南路阆中市人民医院(古城院区)东侧约30米,四川省,南充市,阆中市,,unknown,
baidu,06fcfed97c2a53b2c3364420,中药馆,南充市阆中市张飞南路阆中市人民医院(古城院区)东侧,四川省,南充市,阆中市,,unknown,
baidu,f832801ec8753511fe0eb084,保元堂大药房(寿山寺街店),南充市阆中市张飞南77号、81号,四川省,南充市,阆中市,18349850267,unknown,
baidu,174ebc21e7ea86f875e5b662,四川和泰药房(二店),四川省南充市阆中市公园路325号,四川省,南充市,阆中市,,unknown,
baidu,c16534056e57947aab175add,兴平药品(连锁98店),四川省南充市阆中市张飞南路93号,四川省,南充市,阆中市,,unknown,
baidu,552b6f2862fc3fe78c55ec5d,惠民大药房(兴平店),张飞南路156号,四川省,南充市,阆中市,,unknown,
baidu,464164884e2a31a5e6e9657f,康身保健,南充市阆中市公园路296号,四川省,南充市,阆中市,13219116006,unknown,
baidu,8741d17e4d5a716b40ab9a13,名城药房(金水湾店),南充市江南办事处阆南桥街金水湾小区1-5号,四川省,南充市,阆中市,"(0817)6331389,13699697520",unknown,
baidu,df7b2ce76b2c3986220220da,和谐口腔诊所,四川省南充市阆中市关王庙街16号,四川省,南充市,阆中市,"15894177999,17781113328",unknown,
baidu,ca77bfb4a016c78777026963,自然之声助听器(阆中店),四川省南充市阆中市张飞南路199号(义乌特价小商品超市旁边),四川省,南充市,阆中市,13659086867,unknown,
baidu,e307eb2393a3ff8934b06c06,爱之声丹麦瑞声达助听器(阆中验配中心),南充市阆中市张飞南路109号,四川省,南充市,阆中市,(0817)6658568,unknown,
baidu,a9be25a6269e3aed373a7129,乐泰亮甲(嘉陵江游船店),四川省南充市阆中市张飞南路596号,四川省,南充市,阆中市,,unknown,
baidu,a34378f608f5063b17c8f6c5,皓博教育(天上宫街),四川省南充市阆中市太平寺街12号,四川省,南充市,阆中市,,unknown,
baidu,d21f2b69116a901d09ccdd67,凸分教育,四川省南充市阆中市郎家拐街62号,四川省,南充市,阆中市,,unknown,
baidu,7d0c7d1d62873386e6e965f9,戴氏教育(阆中总校),四川省南充市阆中市张飞南路374号,四川省,南充市,阆中市,(0817)6222228,unknown,
baidu,28e700f10f3a2102095cb3dd,阆师附小,四川省南充市阆中市太平寺街34号,四川省,南充市,阆中市,(0817)6222877,unknown,
baidu,177a880cd240c9972fe67be8,爱育幼童(东方广场店),四川省南充市阆中市纽约街3号,四川省,南充市,阆中市,(0817)6533311,unknown,
baidu,b8a7d4ddf2e450cb095cb35f,星起点舞蹈,南充市阆中市郎家拐街77号广场路口小区内2楼,四川省,南充市,阆中市,,unknown,
baidu,ef329728c55518ecc356ac92,金凤凰教育(阆中校区),四川省南充市阆中市张飞南路177号阆中宾馆3层,四川省,南充市,阆中市,(0817)6231555,unknown,
baidu,b59ee02e7205e96fbda240d5,首越培训,南充市阆中市张飞南路阆中师范附属实验小学校(感恩校区),四川省,南充市,阆中市,"15183568868,18608179821",unknown,
baidu,4e4e897bae81897bd2f49eef,美丽俏佳人职业培训学校(阆中校区),保宁街道张飞南路131号,四川省,南充市,阆中市,,unknown,
baidu,7fc188bac10066fc77026908,金脑壳全脑潜能训练中心(老城校区),南充市阆中市张飞南路阆中师范附属实验小学校(感恩校区),四川省,南充市,阆中市,4006758868,unknown,
baidu,ca38f5d92869de296fc02caa,5伽国际舞蹈工作室,四川省南充市阆中市白果树街19号,四川省,南充市,阆中市,"17781155737,18784739130",unknown,
baidu,ea0fa0814c8a0dd41df74d4a,琴韵阁古筝艺术中心,四川省南充市阆中市毛家巷71号,四川省,南充市,阆中市,18181061093,unknown,
baidu,e157a749db827c16c8213d05,小新星英语学校(张飞南路辅路店),四川省南充市阆中市张飞南路542号2层,四川省,南充市,阆中市,(0817)6235667,unknown,
baidu,634d1276d045de9bd23ce30c,优学园,南充市阆中市田家巷阆中古城,四川省,南充市,阆中市,,unknown,
baidu,e83cba368f4d91e322f017b9,方舟教育,南充市阆中市张飞南路阆中市城东小学校西侧约50米,四川省,南充市,阆中市,,unknown,
baidu,0040de83c2f14700f32d833e,儿童之星,南充市阆中市新村路东段阆中名城医院南侧约30米,四川省,南充市,阆中市,,unknown,
baidu,f4a33da9c332ed0a3010afdd,阆中市第一幼儿园,四川省南充市阆中市白果树街63号,四川省,南充市,阆中市,(0817)6220152,unknown,
baidu,9107044575433034ae045704,阆中市体育舞蹈学校,四川省南充市阆中市北门井巷4号3单元,四川省,南充市,阆中市,(0817)6247733,unknown,
baidu,ed6c6b2050a43114fa42b2df,吉他之声(信合小区店),四川省南充市阆中市油柿井街2号,四川省,南充市,阆中市,18284586737,unknown,
baidu,be946dd0065dee33882fb52e,阆中怡学自习室,新村路东段1号4楼,四川省,南充市,阆中市,,unknown,
baidu,c77604f1aa87d29fa2a934f1,来说口才,南充市阆中市顾家井巷第五幼儿园西南侧约80米,四川省,南充市,阆中市,(0817)6255188,unknown,
baidu,ed3c101390e4781d601c678c,阆中师范附属实验小学校(感恩校区),四川省南充市阆中市天上宫街4号,四川省,南充市,阆中市,(0817)6222877,unknown,
baidu,ec2617b53a5256e3e115f9be,四艺画室,南充市阆中市通济渠巷祥和小区(古莲池街)西北侧约90米,四川省,南充市,阆中市,,unknown,
baidu,81d6a509a93b2d436e20b9dd,四川省阆中东风中学校,四川省南充市阆中市书院街1号,四川省,南充市,阆中市,"(0817)6238210,(0817)6262863",unknown,
baidu,2ed79f606458fc9e704b87c9,远飞助学培训学校,公园路26号,四川省,南充市,阆中市,,unknown,
baidu,318135677ac4149d60180929,中英绘本馆,南充市阆中市悉尼街东方广场店,四川省,南充市,阆中市,,unknown,
baidu,c6f339aa249f8ca2cb213d44,阆中市实验小学(左营街),南充市阆中市左营街31号,四川省,南充市,阆中市,,unknown,
baidu,b8e4154eb58fe67c97ec8449,佳佳舞蹈(顾家井校区),南充市阆中市顾家井巷东港花园(保宁醋东路)西侧约80米,四川省,南充市,阆中市,13990701087,unknown,
baidu,03514bd199792ccf246e984e,考舍,南充市阆中市阆水中路33号阆中古城内,四川省,南充市,阆中市,,unknown,
baidu,941b92c6d3c18a98a20464dc,阆中市民族小学校,南街64号,四川省,南充市,阆中市,,unknown,
baidu,74c933fb7b41795d9e82eadc,四川省阆中师范学校,四川省南充市阆中市张飞南路748号,四川省,南充市,阆中市,(0817)6222861,unknown,
baidu,3da907f30b74e850b320a8dd,阆中市第四幼儿园,四川省南充市阆中市新村路横街71号,四川省,南充市,阆中市,,unknown,
baidu,5294d57805ec891c601c6751,陵江艺术中心,四川省南充市阆中市迎恩街16号,四川省,南充市,阆中市,13508083330,unknown,
baidu,0dce3193af2a76412cb96d52,吾友居自习室,张飞南路6号7楼,四川省,南充市,阆中市,17508175587,unknown,
baidu,08fc93dfc202fd929b68b4dd,阆中市多维外国语学校,四川省南充市阆中市顾家井巷17号,四川省,南充市,阆中市,,unknown,
baidu,7d2ed691246f28bea5da3901,阆中市第三幼儿园,四川省南充市阆中市北街71号,四川省,南充市,阆中市,,unknown,
baidu,3dd72e56edcd0e8631f71dab,阆升教育,南充市阆中市碧玉街碧玉苑小区东侧约70米,四川省,南充市,阆中市,,unknown,
baidu,41c2ce52774d01bc990050e7,尚才教育,四川省南充市阆中市商城路西段40号小江南食府南充3层,四川省,南充市,阆中市,(0817)6234466,unknown,
baidu,154fa16a918c2e32ab175af0,天恒·研学基地,四川省南充市阆中市新生巷1号,四川省,南充市,阆中市,18990898210,unknown,
baidu,d52831f9ac81e3a42efaa704,四川省阆中中学(古城校区),四川省南充市阆中市西街90号,四川省,南充市,阆中市,(0817)6231569,unknown,
baidu,59163fd598d1a023b0077d8f,第五幼儿园,四川省南充市阆中市东园街134号,四川省,南充市,阆中市,15387610288,unknown,
baidu,6508f1e9547259756ca3cc63,阆中市乐雅幼儿园,四川省南充市阆中市新村路东段24号,四川省,南充市,阆中市,(0817)6491999,unknown,
baidu,5be466c5c3f77cb7cc06a407,阆中市特殊教育学校,四川省南充市阆中市蟠龙路特42号,四川省,南充市,阆中市,13350668359,unknown,
baidu,b4e52f729eeb234fcae33c4e,乔登美语幼儿园,四川省南充市阆中市保宁醋西街16号3栋,四川省,南充市,阆中市,,unknown,
baidu,d3c80ce892a663773a13fd89,阆中市图书馆,四川省南充市阆中市张飞南路748号,四川省,南充市,阆中市,(0817)2793950,unknown,
baidu,13627852a60de476902ca3de,四艺画室,四川省南充市阆中市张飞北路277号,四川省,南充市,阆中市,"13088138692,18599919133",unknown,
baidu,c6d97343076232de4207c183,阆中市山鹰职业技术学校,南充市阆中市新村路东段普贤路4号居民小区东南侧约50米,四川省,南充市,阆中市,,unknown,
baidu,7bfa08fc431e287c25d2bbdd,阆中外国语实验幼儿园,四川省南充市阆中市醋西路16号,四川省,南充市,阆中市,(0817)6253859,unknown,
baidu,e591248b3382aa3cca09f0ae,奎星街济政驾校,四川省南充市阆中市奎星街,四川省,南充市,阆中市,,unknown,
baidu,fe84da990fe82a3e0289726b,鼓动阆中阆中总店,四川省南充市阆中市内东街52号,四川省,南充市,阆中市,,unknown,
baidu,96bb44c2f1212f3fe31103a9,维也纳博文教育,四川省南充市阆中市商城路西环广场2~6号,四川省,南充市,阆中市,(0817)6261199,unknown,
baidu,72aa2513f70b1644077ce8dc,阆中市规划设计院,南充市阆中市商城路东段224号,四川省,南充市,阆中市,(0817)6268653,unknown,
baidu,458ea4173ce21306eaf85315,阆中市城北小学校,四川省南充市阆中市迎恩街168号,四川省,南充市,阆中市,,unknown,
baidu,3f4cb530e3e747c81911d515,倍诺恩幼儿园,四川省南充市阆中市新村路西段98号,四川省,南充市,阆中市,18326460008,unknown,
baidu,e5e65e0a6583efaba6da396f,四川省落下闳及春节文化研究所,南充市阆中市书院街四川省阆中东风中学校南侧约50米,四川省,南充市,阆中市,,unknown,
baidu,881a28e7c930e244f942b2dd,阆中市实验小学(第二教学区),四川省南充市阆中市合壁井巷15号,四川省,南充市,阆中市,,unknown,
baidu,dabe50dad67cee8f5fbe860c,阆中卫校,四川省南充市阆中市寓思园街22-24附近,四川省,南充市,阆中市,,unknown,
baidu,f500d5e1cb455e9942e192bf,江南中学,四川省南充市阆中市张宪街153号,四川省,南充市,阆中市,(0817)6330326,unknown,
baidu,795b1f5cf5bac6e82a06ce45,名师堂教育,南充市阆中市文明巷金鼎上城小区,四川省,南充市,阆中市,"0817-5262997,13458400007,13890790815",unknown,
baidu,64918a34d8268e01ad0457b7,阆中嘉陵江山旅游度假区托儿服务点,南充市阆中市北街145号,四川省,南充市,阆中市,,unknown,
baidu,46605e6c47440e06f6c59c8e,阆中金算盘会计培训,南充市阆中市较场路西段天汉明珠金水城垣,四川省,南充市,阆中市,,unknown,
baidu,553e5a262f33272ad0ff2363,辣味研究所,四川省南充市阆中市北街13号,四川省,南充市,阆中市,,unknown,
baidu,c2efeb5fd3ac596857bfff51,奋发托育,南充市阆中市碧玉街碧玉苑小区,四川省,南充市,阆中市,,unknown,
baidu,53cebd503c2a4a622a02e1dc,前程幼儿园,四川省南充市阆中市张飞北路334号,四川省,南充市,阆中市,13890732329,unknown,
baidu,e66b3b1fdf7d4fb76140a960,阆中市梦迪国际幼稚园,四川省南充市阆中市阆水西路105号西江丽景1栋1号,四川省,南充市,阆中市,(0817)6351577,unknown,
baidu,4fcd1515ae2e33e3b320a8af,阆中市历史文化名城研究会,南充市阆中市一元街邮电小区(一元街)东北侧,四川省,南充市,阆中市,,unknown,
baidu,e345486c02c08163f4e73bbb,阆中市农广校,四川省南充市阆中市张飞北路267号,四川省,南充市,阆中市,,unknown,
baidu,237b52381e47ab4909b93ae4,四川阆中,南充市阆中市张飞北路瑞德苑东北侧约30米,四川省,南充市,阆中市,,unknown,
baidu,e68459f911b81cbfbbbd630b,秀才馆,南充市阆中市学道街78号贡院内,四川省,南充市,阆中市,4001009255,unknown,
baidu,e208510f205bbdc58e772708,状元英杰馆,南充市阆中市学道街78号贡院内,四川省,南充市,阆中市,,unknown,
baidu,2d5c1d51c2476e9ebda24011,遇见竹间堂,四川省南充市阆中市四元街9号,四川省,南充市,阆中市,18086926080,unknown,
baidu,b292b3aa9a9c5f55be4842dc,国土勘测规划院,四川省南充市阆中市保宁醋西路20号,四川省,南充市,阆中市,(0817)6252359,unknown,
baidu,a364d37d85ea844ffda778ac,古城东门,阆中3路;阆中4路,四川省,南充市,阆中市,,unknown,
baidu,da8b278968f998e440e1920b,停车场,南充市阆中市天上宫街阆中师范附属实验小学校(感恩校区)南侧约70米,四川省,南充市,阆中市,,unknown,
baidu,a54131d5c716db6c14948e7f,人民广场,阆中3路;阆中4路,四川省,南充市,阆中市,,unknown,
baidu,045feb7748190ebe8bfc0672,俊豪阆中购物中心-地下停车场,南充市阆中市郎家拐街52号,四川省,南充市,阆中市,,unknown,
baidu,11c6f523040c3ea8b917e70b,观光车秦家大院站,南充市阆中市阆水中路33号阆中古城内,四川省,南充市,阆中市,,unknown,
baidu,4b76d838a32364479de3212d,一桥古城入口,阆中10路;阆中5路;阆中8路,四川省,南充市,阆中市,,unknown,
baidu,210d742bda0da35eeedfcafc,观光车下沙河街站,南充市阆中市阆水中路33号阆中古城内,四川省,南充市,阆中市,,unknown,
baidu,e6e79ffeb7f7c1d7c71b75c5,观光车中天楼站,南充市阆中市阆水中路33号阆中古城内,四川省,南充市,阆中市,,unknown,
baidu,2729a27dc9c726b6b64f54ee,华光楼码头,南充市阆中市阆水中路59号,四川省,南充市,阆中市,(0817)6637877,unknown,
baidu,75036835d218f0ae5e0d0221,中国石油加油站(环城路站),南充市阆中市张飞南路2号(近阆水中路),四川省,南充市,阆中市,"(0817)6252143,13458273160",unknown,
baidu,376650cfdaeae572b6f42fbb,阆中古城-地上停车场,南充市阆中市阆水中路99号古城停车场内,四川省,南充市,阆中市,,unknown,
baidu,206f51a89ece94f63686f429,阆中古城-大灯笼地上停车场,南充市阆中市阆水中路阆中古城,四川省,南充市,阆中市,,unknown,
baidu,a23ce4958c3998d88a36ee26,阆中宾馆-停车场,南充市阆中市张飞南路159号,四川省,南充市,阆中市,(0817)6230999,unknown,
baidu,e1fca290ac73ad4fce04ef31,市人民医院,中医医院七里分院-张飞北路中医院;阆中10路;阆中4路;阆中5路;阆中6路;阆中8路;阆中古城机场公交专线,四川省,南充市,阆中市,,unknown,
baidu,0501561b1261106af11937f4,阆师附小,阆中3路;阆中4路,四川省,南充市,阆中市,,unknown,
baidu,fab242f3a0e742f9c5effb95,观光车张飞庙站,南充市阆中市阆水中路33号阆中古城内,四川省,南充市,阆中市,,unknown,
baidu,94e4a28da484457838221caa,和谐小区(毛家巷)-停车场,南充市阆中市毛家巷和谐小区(毛家巷),四川省,南充市,阆中市,,unknown,
baidu,1db6821b245f81ee128824d7,停车场,南充市阆中市天上宫街12号(老干局院内),四川省,南充市,阆中市,,unknown,
baidu,f6b0cc2582e816196e20b9d7,张飞南路下穿隧道,中医医院七里分院-张飞北路中医院;阆中10路;阆中5路;阆中6路;阆中8路,四川省,南充市,阆中市,,unknown,
baidu,f805894fec5f33e4f503b813,观光车贡院站,南充市阆中市阆水中路33号阆中古城内,四川省,南充市,阆中市,,unknown,
baidu,fda941f9856500342eb908db,停车场,南充市阆中市文昌宫东巷阆中师范附属实验小学校(感恩校区)西北侧约50米,四川省,南充市,阆中市,,unknown,
baidu,b49e43f853f981bf71455bfd,酒店专用停车场,南充市阆中市太平寺街阆师附小东南侧约50米,四川省,南充市,阆中市,,unknown,
baidu,3660dd4a9b190f14dbd89154,东街小巷路北侧临时停车点,南充市阆中市东街小巷东方广场店东南侧约80米,四川省,南充市,阆中市,,unknown,
baidu,0f1bf476cdef0409b21e363b,关王庙街十号小区东南侧-停车场,南充市阆中市关王庙街阆中市城东小学校西侧约150米,四川省,南充市,阆中市,,unknown,
baidu,e89c556244ba50da54bfff53,阆中丽景商务大酒店-停车场,南充市阆中市张飞南路27号,四川省,南充市,阆中市,,unknown,
baidu,6e1cd185ac3957ea35b06c1a,停车场,南充市阆中市文昌宫东巷阆中师范附属实验小学校(感恩校区)西北侧约120米,四川省,南充市,阆中市,,unknown,
baidu,d24e48eb119944b7afee7add,阆中天恒燕泰保宁坊酒店(阆中古城店)-地上停车场,南充市阆中市阆水中路29号阆中古城,四川省,南充市,阆中市,,unknown,
baidu,c29290bef2018d48d2ff23c6,公园路西,阆中3路,四川省,南充市,阆中市,,unknown,
baidu,bf18247f4bb8054a1d580004,古城西门地上停车场,南充市阆中市犀牛巷凤凰楼小区西北侧约70米,四川省,南充市,阆中市,,unknown,
baidu,7f2be06949227338c41b75a0,东风中学,阆中2路,四川省,南充市,阆中市,,unknown,
baidu,2f2e2706aa4ca9adc27da25b,阆中宾馆-停车场,四川省南充市阆中市张飞南路177号,四川省,南充市,阆中市,,unknown,
baidu,954f518274ffca5bb13c812b,古城北门,阆中3路;阆中4路,四川省,南充市,阆中市,,unknown,
baidu,fac40db1108286d997031956,停车场,南充市阆中市关王庙街阆中市城东小学校西侧约60米,四川省,南充市,阆中市,,unknown,
baidu,cdcf76afc071c83b81288a14,古莲池街路南侧临时停车点,南充市阆中市古莲池街祥和小区(古莲池街)西南侧,四川省,南充市,阆中市,,unknown,
baidu,831668ac39954ae09e95dedb,九龙池,阆中-二十桩;阆中-二十桩[井溪];阆中7路;阆中8路,四川省,南充市,阆中市,,unknown,
baidu,5d0bf480fd9faecbc9291550,阆中百瑞宾馆-停车场,南充市阆中市华市街5号,四川省,南充市,阆中市,,unknown,
baidu,d1547032a9a8e1bd07026f4f,巴厘岛快捷酒店(阆中店)-停车场,四川省南充市阆中市张飞南路47号,四川省,南充市,阆中市,,unknown,
baidu,8c28a7f77a460f34eaf85304,新村路东段北侧临时停车点,南充市阆中市新村路东段普贤路4号居民小区东南侧约70米,四川省,南充市,阆中市,,unknown,
baidu,f4bbf4508c511d43c16c1448,阆天城北,阆中10路;阆中5路;阆中8路,四川省,南充市,阆中市,,unknown,
baidu,da080c6948c55c7c3a04b1a6,关王庙街十号小区-停车场,南充市阆中市关王庙街三岔路小区东侧约200米,四川省,南充市,阆中市,,unknown,
baidu,4b9063af0acb58fc0bccdd5b,阆中名城医院-停车场,南充市阆中市新村路东段阆中名城医院,四川省,南充市,阆中市,,unknown,
baidu,2fb57ea2635ba4af931fc988,南津关古镇-地上停车场,南充市阆中市阆南桥街江南中学北侧约250米,四川省,南充市,阆中市,,unknown,
baidu,493fa38c02d9a5c854bfffc2,犀牛码头,南充市阆中市阆水中路犀牛广场(阆中古城西),四川省,南充市,阆中市,,unknown,
baidu,84475d92ed0ea57c1c389417,鸿运小区(寿山寺街)-停车场,寿山寺街10号,四川省,南充市,阆中市,,unknown,
baidu,5610c2cb4070e79815c905f3,南津关码头,南充市阆中市江南街道张宪街南津关码头(锦屏苑附近),四川省,南充市,阆中市,,unknown,
baidu,d15cc3d9ef2ebae9adcb66a0,新村路东,阆中2路,四川省,南充市,阆中市,,unknown,
baidu,e1d8b4e427781c46d618b730,中国石油加油站(张飞南路站)西北侧临时停车点,南充市阆中市张飞南路2号(近阆水中路),四川省,南充市,阆中市,,unknown,
baidu,120f2dcd36d1011616a1909f,阆天城东,阆中6路,四川省,南充市,阆中市,,unknown,
baidu,693587e003e76d3b4557266c,嘉陵江二桥,阆中3路,四川省,南充市,阆中市,,unknown,
baidu,89a6468d7681af63b1077d97,新村路中,阆中3路;阆中4路,四川省,南充市,阆中市,,unknown,
baidu,855acbb62193635cbb17e74b,西城1966文化创意产业园-停车场,南充市阆中市阆水中路阆中古城,四川省,南充市,阆中市,,unknown,
baidu,2b433168eaaa7c539c09f729,停车场,南充市阆中市古莲池街信合小区西南侧约110米,四川省,南充市,阆中市,,unknown,
baidu,aca710ce8e10f3a92806ce93,阆中金龙大酒店-停车场,南充市阆中市商城路东段8号金龙大酒店,四川省,南充市,阆中市,,unknown,
baidu,c3c5b45e0bfc0cbbf4231013,停车场,南充市阆中市蒸馍巷阆中市城东小学校东南侧约60米,四川省,南充市,阆中市,,unknown,
baidu,96647ff676a0cc62c7f50df0,停车场,南充市阆中市保宁醋西路粮库小区东南侧约60米,四川省,南充市,阆中市,,unknown,
baidu,ba111f6ada1f78e89222e0ad,阆中锦元张飞国际酒店-地上停车场,南充市阆中市犀牛广场8号锦元张飞国际酒店,四川省,南充市,阆中市,,unknown,
baidu,c3ef679b17638ba72a02e1ae,公园路东,阆中3路,四川省,南充市,阆中市,,unknown,
baidu,5e9a17fed07049da1188241a,民政局宿舍小区,阆中2路,四川省,南充市,阆中市,,unknown,
baidu,8494ab2c51ab96672cb17eeb,普贤路南,阆中2路,四川省,南充市,阆中市,,unknown,
baidu,95b0d0628c04654ea7c75620,四川省阆中东风中学校-停车场,四川省南充市阆中市书院街1号,四川省,南充市,阆中市,,unknown,
baidu,a9f485121d128739f7e73bca,公园路北街西侧-停车场,南充市阆中市公园路北街阆中市城东小学校东侧约60米,四川省,南充市,阆中市,,unknown,
baidu,c0cc170a22da0ab5b05c6a60,阆中市新村路30号石油小区(新村路东段)西南侧-停车场,南充市阆中市新村路横街信合小区东侧约70米,四川省,南充市,阆中市,,unknown,
baidu,8f18bfd2d01ab82a6c4760fd,阆中市民政办公大楼-停车场,南充市阆中市书院街温馨小区(书院街)东南侧约80米,四川省,南充市,阆中市,,unknown,
baidu,77d61ccfe6dd7e25c7f50d5f,白塔-地上停车场,四川省南充市阆中市锦山路大佛寺旅游景区,四川省,南充市,阆中市,,unknown,
baidu,c855f0a5f5f93a4e80a00c95,天象广场南,阆中10路;阆中3路;阆中7路,四川省,南充市,阆中市,,unknown,
baidu,e42b938f545e34148b2fb56a,阆天城南,阆中4路,四川省,南充市,阆中市,,unknown,
baidu,a52b59ac2c3a34312802e1fc,新村路横街北侧临时停车点,南充市阆中市新村路横街阆中市第四幼儿园南侧约70米,四川省,南充市,阆中市,,unknown,
baidu,28816653bc5b7f32b34c4939,普贤路4号居民小区北侧-停车场,南充市阆中市普贤街普贤路4号居民小区北侧,四川省,南充市,阆中市,,unknown,
baidu,2c29948d7ad39755734b8786,游客接待中心,阆中4路,四川省,南充市,阆中市,,unknown,
baidu,cd80d1a708fa2d04fa0cadc1,普贤路口,阆中10路;阆中2路;阆中7路,四川省,南充市,阆中市,,unknown,
baidu,cbbfe9320e7f3d1f0582c203,阆天城东(二桥头),中医医院七里分院-张飞北路中医院;阆中6路,四川省,南充市,阆中市,,unknown,
baidu,26b7a53584c7f6a138221cfa,阆中中天酒店(古城店)-停车场,南充市阆中市保宁醋西路178号,四川省,南充市,阆中市,,unknown,
baidu,d4c4fe5716bfb15bad080fe3,信合小区-停车场,油柿井街12号,四川省,南充市,阆中市,,unknown,
baidu,7a5ef98ef25c21e60ab93a31,停车场(新村路东段),南充市阆中市新村路东段阆中名城医院西侧约130米,四川省,南充市,阆中市,,unknown,
baidu,8aa901be88f328b1da2f28e0,阆苑生态城,阆中2路,四川省,南充市,阆中市,,unknown,
baidu,26a651b466cf4b00b13c81c5,金地禹王宫小区-停车场,南充市阆中市保宁醋西路279号,四川省,南充市,阆中市,,unknown,
baidu,9aed7c17a551db643a13fd6c,汇梦家苑宾馆-停车场,四川省南充市阆中市保宁醋西路1号,四川省,南充市,阆中市,,unknown,
baidu,3e931e60484c7a2e901fc939,海伊能源充电站(滨江新天地地下站),四川省南充市阆中市保宁街道阆水东路150号滨江新天地(地下停车场入口50米),四川省,南充市,阆中市,13408288585,unknown,
baidu,f1b74080b9fe02208bf15d56,阿富尔连锁酒店(阆中雨豪店)-停车场,南充市阆中市寓思园街27号,四川省,南充市,阆中市,,unknown,
baidu,229467b82f2b130c6f3e1bb0,信合小区东侧-停车场,南充市阆中市新村路东段信合小区东侧约40米,四川省,南充市,阆中市,,unknown,
baidu,4f7f869630c5a0368f55ec6c,锦山花园(寿山寺东街)-停车场,南充市阆中市寿山寺东街16号,四川省,南充市,阆中市,,unknown,
baidu,586267ca0c2c33b5d1f49e03,四川省阆中师范学校-停车场,四川省南充市阆中市张飞南路748号,四川省,南充市,阆中市,,unknown,
baidu,e9fca99538475ded8bfc066b,阆苑生态住宅城-停车场,南充市阆中市书院街27号,四川省,南充市,阆中市,,unknown,
baidu,6074845823d750daa1d2307e,龙熙顺景-停车场,南充市阆中市张飞北路龙熙顺景,四川省,南充市,阆中市,,unknown,
baidu,bd6af2341c977f9f71210b35,安居小区(公园路)-停车场,南充市阆中市保宁镇公园路53号,四川省,南充市,阆中市,,unknown,
