source,bd_uid,name,address,province,city,area,tel,poi_type,tag
baidu,d6ee8724ccb1d8f9a9f0cd91,力力餐厅(前门店),鲜鱼口大街78号（近南晓顺胡同）,北京市,北京市,东城区,(010)67019791,unknown,
baidu,5320fd16db8e0e2922022064,护国寺小吃(前门店),前门大街2号一层109号,北京市,北京市,东城区,13910898126,unknown,
baidu,f9558838d9abd9f86b49f394,河沿肉饼Beijing Pie(前门店),煤市街与排子胡同交叉口北8米,北京市,北京市,西城区,(010)87856100,unknown,
baidu,6fddd7fd40aa1e663517dc43,诺亚餐厅,大栅栏街道粮食店街11号,北京市,北京市,西城区,13691518177,unknown,
baidu,cde9e2c7b39ecfade81e9742,鲜鱼口老字号美食街,前门大街近大栅栏商业街,北京市,北京市,东城区,,unknown,
baidu,8d960e6f898074dd97ec8422,老北京炸酱面(金诚店),粮食店街37号,北京市,北京市,西城区,"(010)63162588,15011589310",unknown,
baidu,c5e0d6862966e5686f3e1b0a,人民咖啡馆(前门店),前门大街81号,北京市,北京市,西城区,"(010)83168321,13466616884",unknown,
baidu,0fdfca017a09864602294f85,品馥阁,前门大街鲜鱼口新潮胡同,北京市,北京市,东城区,13717578170,unknown,
baidu,3f826ed38637195fd0f49eef,京城九门轩烤鸭店(前门店),粮食店街17号1层,北京市,北京市,西城区,13552874970,unknown,
baidu,3a2b152b54024c5f2efaa76e,京城壹号·铜锅涮肉(前门店),前门大街91号二层（前门盛世烤鸭楼上）,北京市,北京市,东城区,13261038682,unknown,
baidu,92b806d20f8c0ae779b55c4a,都一处烧麦馆(前门店),前门街道前门大街38号(大栅栏东口),北京市,北京市,东城区,15711355878,unknown,
baidu,e57bc9cdc92c3d7f3617dccf,百年前门铜锅涮肉(大栅栏2店),大栅栏街16号,北京市,北京市,西城区,"13611267430,13611294186,17813716330",unknown,
baidu,251374c946afc826a01de9a4,鸿益楼(粮食店街店),粮食店街8号(前门地铁站I西南口步行400米),北京市,北京市,西城区,(010)63031103,unknown,
baidu,2a579ed8d230f7cb306212a3,聚盈烤鸭家常菜(粮食店街店),粮食店街23号,北京市,北京市,西城区,15501175381,unknown,
baidu,bbd36ef15ddccb96cbfa5f4e,红螺食品(前门大街店),前门大街109号(珠市口地铁站A西北口步行340米),北京市,北京市,东城区,18601270233,unknown,
baidu,c01e339445e60656b21e3648,蟹黄灌汤包(鲜鱼口老字号美食街店),前门大街21号(美食街店),北京市,北京市,东城区,,unknown,
baidu,09185c56d2017e44f1193721,全聚德(前门店),前门大街30号,北京市,北京市,东城区,"(010)65112418,(010)67011379,4007001864",unknown,
baidu,716aae1600ab00078f1a89ee,邂逅前门·北京特产,大栅栏街道前门大街48号,北京市,北京市,东城区,18618481243,unknown,
baidu,5a746632dab9996646e274d3,京都老北京涮肉(前门店),粮食店街12号,北京市,北京市,西城区,"13811597869,18518657626",unknown,
baidu,8a4e84804595970ff4eafcc2,蜀盛缘家常菜,北京市西城区粮食店街21号,北京市,北京市,西城区,"13520669145,15956666545",unknown,
baidu,e9aacc7df244f4d672455b07,馄饨侯(前门店),前门大街40号,北京市,北京市,东城区,15530091024,unknown,
baidu,d82d6697d9b4cdbfd518b754,锦芳小吃外卖(鲜鱼口店),鲜鱼口街鲜鱼口85号,北京市,北京市,东城区,(010)67022283,unknown,
baidu,a13342c98c94d52608ccdd53,东来顺(前门大街店),前门大街32号,北京市,北京市,东城区,(010)83172726,unknown,
baidu,eef2d528a9e05abe3ae4a6e3,康师傅私房牛肉面(前门店),北京市西城区大栅栏街1号2号楼一、二层2,北京市,北京市,西城区,(010)83150275,unknown,
baidu,91fc768129cf5bed1229356e,峨嵋酒家(前门鲜鱼口店),鲜鱼口74号,北京市,北京市,东城区,(010)65113266,unknown,
baidu,6deee308fe6fcd7328fc4890,天兴居(鲜鱼口街店),鲜鱼口街81-83号,北京市,北京市,东城区,(010)67116865,unknown,
baidu,00f1c7fba77cbd06c056ac3b,德克士(前门店),大栅栏街道前门大街大栅栏1号(近康师傅私房牛肉面),北京市,北京市,西城区,4006639797,unknown,
baidu,b952084f4a7acdc03ce231e1,多美奇(粮食店街店),粮食店街2号（六必居对面),北京市,北京市,西城区,15910710513,unknown,
baidu,5608c0b6cd526d8e283a9fc8,健山羊蝎子牛肉饼(前门老店),粮食店街27号,北京市,北京市,西城区,15011109390,unknown,
baidu,28e700f17cbf3618085cb3b4,东来顺(大栅栏店),大栅栏商业街7号吉龙老栅栏商城2楼,北京市,北京市,西城区,(010)63165836,unknown,
baidu,c8b5cdeffa88ad1a120daaa1,惠临家常菜川菜(前门大街店),前门粮食店街47号(珠市口地铁站A西北口步行270米),北京市,北京市,西城区,13911058793,unknown,
baidu,28434cfecbfa272df8dc85a4,便宜坊烤鸭店(鲜鱼口店),鲜鱼口街65-77号,北京市,北京市,东城区,(010)67132536,unknown,
baidu,f15bb8c1a0a20edff02d832b,米线研究所(前门店),粮食店街45号—1幢,北京市,北京市,西城区,15510177111,unknown,
baidu,18a67730d6f02e201894c6fe,紫光园(前门大栅栏店),大栅栏街31号一层、二层2-9号,北京市,北京市,西城区,(010)63156929,unknown,
baidu,d800201dd4af52bb9c09f7ed,福盛永老北京炸酱面·卤煮,鲜鱼口街80号,北京市,北京市,东城区,13717777273,unknown,
baidu,93df0dc371262c32892fb5ed,金糕张(鲜鱼口街店),鲜鱼口72号,北京市,北京市,东城区,15101063937,unknown,
baidu,902e0a36333c544330169b88,北京久元餐饮有限公司,北京市东城区鲜鱼口街92号,北京市,北京市,东城区,13520974967,unknown,
baidu,be54cde942f1064179f79686,爆肚冯(廊房二条店),廊房二条56号,北京市,北京市,西城区,(010)63083296,unknown,
baidu,625c9722665b0d64d8131898,宫廷香酥牛肉饼(前门大街店),廊房头条与煤市街交叉口东80米,北京市,北京市,东城区,17710251377,unknown,
baidu,014e663beb79b66f9e9d685e,汉裳茶亭(前门店),前门大街65,北京市,北京市,东城区,18614047996,unknown,
baidu,b02a7aef664b4dbd2fb908c6,新成炸酱面馆(鲜鱼口店),鲜鱼口胡同72号,北京市,北京市,东城区,(010)67057066,unknown,
baidu,ddb8b0b1b3b07d974251c0bb,沪上阿姨鲜果茶(大栅栏店),大栅栏商业街18号,北京市,北京市,西城区,18810056850,unknown,
baidu,95104c68bca7ad2779dbd2fe,黄焖鸡过桥米线(前门店),粮食店街45号,北京市,北京市,西城区,18311090789,unknown,
baidu,0764688db528e6dfab0dd8c0,前门卤煮,北京市东城区鲜鱼口老字号美食街前门大街,北京市,北京市,东城区,,unknown,
baidu,c407e1b5861074b7c27da263,京城·八卦炉烤肉,北京市东城区鲜鱼口老字号美食街前门大街,北京市,北京市,东城区,,unknown,
baidu,b3148fa383321fb814948e12,Grid Coffee(前门大街店),前门大街94号（珠市口地铁站A西北口步行280米）,北京市,北京市,东城区,17813654238,unknown,
baidu,5e369ed3f6e31cbec4f025ca,赵记爆肚,北京市东城区鲜鱼口老字号美食街前门大街,北京市,北京市,东城区,,unknown,
baidu,8fe218bfeee7011d095cb352,杨氏橘红(前门大街店),前门大街131号,北京市,北京市,东城区,18612956562,unknown,
baidu,26d3ba76a683d674b13c816e,麦蒂奇生日甜点(前门店),大栅栏街18号1幢1层02,北京市,北京市,西城区,13267389412,unknown,
baidu,be45efbc78a3a2f51fe9991f,岳小姐的茶,大栅栏商业街与门框胡同交叉口东60米,北京市,北京市,西城区,,unknown,
baidu,b15a1a451a8872fa9703191d,林子肉饼,东城区鲜鱼口老字号美食街前门大街,北京市,北京市,东城区,13693362205,unknown,
baidu,5594cb37f33418d784154165,宾馆饭店,北京市东城区前门大街,北京市,北京市,西城区,,unknown,
baidu,a99140a81eeb9c7d78b55ca7,荷喜牛轧糖(前门大街店),前门大街131号(珠市口地铁站A西北口步行250米),北京市,北京市,东城区,13717663702,unknown,
baidu,34e73a449f4148c1a8f0cd82,提督·TIDU(北京坊店),北京市西城区廊房头条21号院W9楼4层01号,北京市,北京市,西城区,(010)83155166,unknown,
baidu,1b811ecb1845bc6a52e5c58d,铃木食堂(杨梅竹店),杨梅竹斜街1014,北京市,北京市,西城区,(010)63135409,unknown,
baidu,6ec22ea372511742734b87a4,大栅栏食代,前门大栅栏美食城,北京市,北京市,西城区,18611885257,unknown,
baidu,79eb2868ba11d6a684154195,锦绣庄,北京市西城区施家胡同锦绣庄,北京市,北京市,西城区,(010)63180028,unknown,
baidu,0a1a653545e28cf1077ce851,京城御酥,大栅栏16号,北京市,北京市,西城区,17801731785,unknown,
baidu,28393ed89a24bb53d23ce36d,传承手工酥糖,大栅栏街17号,北京市,北京市,西城区,,unknown,
baidu,59d59dab01d916e1f5c59c8a,素虎(前门店),前门西大街正阳市场3号楼（老舍茶馆旁）,北京市,北京市,西城区,(010)63010212,unknown,
baidu,d0b8923fddc135fbb5f42f3b,利群烤鸭店(前门店),北翔凤胡同11号,北京市,北京市,东城区,(010)67055578,unknown,
baidu,a5ef680f2089dbceb9df8f72,泰丰楼(前门西大街店),北京市西城区大栅栏街道前门西大街2号楼,北京市,北京市,西城区,(010)63023174,unknown,
baidu,87248d96adb01eaa2806cecc,宫门口馒头铺(创始人总店),香厂路1号,北京市,北京市,西城区,"13269371015,13621098963",unknown,
baidu,e0fcdbbc1cc74a332bb97c40,庆祥斋糕点厂(留学路店),留学路76号,北京市,北京市,西城区,13910767296,unknown,
baidu,98b1231d0621d3c76e20b9cf,朱炳仁·铜(鲜鱼口老字号美食街店),北京市东城区前门大街71号一、二层,北京市,北京市,东城区,18210301498,unknown,
baidu,44c6a80b10baa75f5e0d0233,1796商场(大栅栏店),大栅栏商业街18号,北京市,北京市,西城区,,unknown,
baidu,ba4d3b2203451da446e2740f,前门82号老奶油蛋糕(起源店),前门大街80号,北京市,北京市,东城区,13520742577,unknown,
baidu,8d47b68d26c02251d13ce39d,北京坊,煤市街与廊房头条交叉口东北角,北京市,北京市,西城区,"13717878814,15920368630",unknown,
baidu,edcbf41cc9a6b622b817e7d0,大栅栏西街商业步行街,大栅栏西街110号,北京市,北京市,西城区,,unknown,
baidu,2ad32cc3af60c5969d95de70,瑞蚨祥(大栅栏店),大栅栏街5号,北京市,北京市,西城区,,unknown,
baidu,44caafb3a96746f5740269a4,前门步行街,北京市东城区前门大街,北京市,北京市,东城区,,unknown,
baidu,64a37e89086737dac356ac45,世纪华联超市(粮食店街店),北京市西城区粮食店街25号,北京市,北京市,西城区,13121883518,unknown,
baidu,dbf656f423305a7e5cbe86da,便民超市,北京市西城区前门大街,北京市,北京市,西城区,18910332012,unknown,
baidu,886e68aa0939059d9e95defa,天顺生活超市(前门店),北京市西城区粮食店街39号,北京市,北京市,西城区,13581794886,unknown,
baidu,89c9792077cac0cbc61b75c0,鑫隆平价超市(大栅栏购物街店),大栅栏街18号大栅栏购物中心大栅栏食品商场F1,北京市,北京市,西城区,,unknown,
baidu,af624db4610d1c27aeb22a55,百雀羚(前门旗舰店),前门大街66号（正阳美术馆对面）,北京市,北京市,东城区,13911060362,unknown,
baidu,b129e36d7930ee1f5d17c3e5,水果超市,粮食店街52号,北京市,北京市,西城区,15945719877,unknown,
baidu,8c279c5d58fafd97e6e9650c,植物医生(前门大街店),前门大街步行街67号,北京市,北京市,东城区,4008105889,unknown,
baidu,ab96470f727546ce8605bf8b,平价超市,北京市西城区门框胡同32号,北京市,北京市,西城区,,unknown,
baidu,f8934cd1bc9e437578b55c94,正兴德茶庄(前门店),大栅栏街3号（东来顺东隔2家）,北京市,北京市,西城区,,unknown,
baidu,d584529f44455050a8059d33,盛锡福(大栅栏街店),前门大街57号(前门地铁站I西南口步行340米),北京市,北京市,东城区,,unknown,
baidu,2fd2beab807ce54b7adbd270,马聚源(前门总店),大栅栏街8号2楼,北京市,北京市,西城区,,unknown,
baidu,5a6ecf45241f0e8ae115f90c,RELX悦刻(大栅栏店),北京市西城区前门大栅栏街7号,北京市,北京市,西城区,18611625711,unknown,
baidu,6764bd13a3b8171b047ce87d,千锤百炼银匠铺(前门大街店),小江胡同1号前门大街(前门地铁站I西南口步行370米),北京市,北京市,西城区,,unknown,
baidu,7991df46bf79c8c92fb90843,北京特产,北京市西城区珠宝市街前门大街,北京市,北京市,西城区,,unknown,
baidu,daae02c075cd3af2f942b27c,北京礼物(前门店),前门大街133号,北京市,北京市,东城区,13466338642,unknown,
baidu,a1246178149f81342afc48a8,蔚徕J酒店商品部(前门天街店),北京市西城区珠宝市街前门大街,北京市,北京市,西城区,,unknown,
baidu,972317f50cd61e0403ec01ce,礼尚朝,北京市东城区前门大街,北京市,北京市,东城区,,unknown,
baidu,f70d2be65accccdeb75f1e75,水果园特产(前门店),粮食店街39号,北京市,北京市,西城区,"13581794886,15090030688",unknown,
baidu,d4e0c30fdeac8770c9c3db47,东方旗忆,粮食店街与大栅栏街交叉口东南40米,北京市,北京市,东城区,,unknown,
baidu,c8b5cdeffdb8ac1a130daa51,永安路百货商场,永安路143号（前门建国饭店旁）,北京市,北京市,西城区,"(010)63036289,(010)63036566",unknown,
baidu,def0a90a388dbe032cb96dfa,PAGEONE(北京坊店),前门北京坊东区E1楼（近北京坊）,北京市,北京市,西城区,(010)63183761,unknown,
baidu,4be1a21aaaa155f53a13fd2b,大栅栏商业街区,廊房二条56号,北京市,北京市,西城区,15810019063,unknown,
baidu,627a0ed252bd54154f3a593a,来得福便民超市(前门店),北京市西城区粮食店街32号,北京市,北京市,西城区,18311087678,unknown,
baidu,fddc55d538b04cf1badf8f06,乾坤空间QianKunSpace,杨梅竹斜街26号,北京市,北京市,西城区,"(010)63135597,18611609968",unknown,
baidu,1c1bf7d2a58434a68505bf77,MUJI无印良品(北京坊店),北京市西城区廊房头条21号院2号楼B1层,北京市,北京市,西城区,(010)83156166,unknown,
baidu,a8e5d4403b1718cd7f29bd72,罗森便利店(前门大街店),前门大街116号,北京市,北京市,东城区,13911102239,unknown,
baidu,4bfc2aec673bba1832f71dc1,万龙时装店,北京市西城区珠宝市街36号,北京市,北京市,西城区,,unknown,
baidu,38d3097151c7d1be2a06ce71,前门食品商场,前门大街与施家胡同交叉口东20米,北京市,北京市,东城区,,unknown,
baidu,4e2310d2ac8a831e80288a5e,鑫利服装店,北京市西城区珠宝市街47号,北京市,北京市,西城区,,unknown,
baidu,99ed8df93cc473146c3e1bec,吉龙商城,大栅栏街7号,北京市,北京市,西城区,,unknown,
baidu,8df9b7c4db5fb654c51e5133,兆亿,北京市东城区前门大街41号,北京市,北京市,东城区,,unknown,
baidu,6f0938674bdcdfefacee7a1d,董氏国货,北京市西城区大栅栏7号,北京市,北京市,西城区,,unknown,
baidu,e0313a14af894b284207c1c1,天桥市集,北京市西城区华严路2号,北京市,北京市,西城区,13801125630,unknown,
baidu,d6c5d99143838df130169b67,大方百货商店,前门东大街2号楼,北京市,北京市,东城区,15678784545,unknown,
baidu,d1d8e3b23d85c6dd4d2fdfb9,六必居(前门店),粮食店街3号,北京市,北京市,西城区,(010)63035109,unknown,
baidu,9ee7cc7872973f6917c905b2,张一元(前门店),前门大街86号,北京市,北京市,东城区,(010)67019371,unknown,
baidu,dfc496b604c511b68936ee49,大栅栏食品商场,大栅栏街18号大栅栏购物中心,北京市,北京市,西城区,,unknown,
baidu,4eded8699d4bed0727e0a0b1,谢馥春(前门店),前门大街64号,北京市,北京市,东城区,13521510036,unknown,
baidu,98b1231d0621d3c76e20b9cf,朱炳仁·铜(鲜鱼口老字号美食街店),北京市东城区前门大街71号一、二层,北京市,北京市,东城区,18210301498,unknown,
baidu,72e57fd7a79456b6f8dc8577,张一元(总店),大栅栏街22号,北京市,北京市,西城区,"(010)63010553,(010)63034001",unknown,
baidu,18638a8c95b5c41686420e05,前门中轴线文创,云居胡同1号,北京市,北京市,西城区,,unknown,
baidu,0bca1020acb4ee26c17da2c8,步瀛斋(前门总店),大栅栏街8号,北京市,北京市,西城区,(010)63035955,unknown,
baidu,aa40108b9e62260cc5effb70,中国书店(前门大街店),前门大街86号,北京市,北京市,东城区,(010)67020783,unknown,
baidu,764672e5eee910b495ec84be,新华书店(大栅栏店),大栅栏街11号,北京市,北京市,西城区,,unknown,
baidu,2e8da968d15f9977d2ff23a2,红星二锅头(前门大街店),前门大街103号,北京市,北京市,东城区,(010)63158869,unknown,
baidu,73ef5c0fa9007752ab175a99,摩登红人(前门大街店),前门大街67号(庆丰包子铺对面),北京市,北京市,东城区,15010210920,unknown,
baidu,564ba258e6824b5a0f0a7029,懿菲(前门店),前门大街61-63号(前门地铁站I西南口步行340米),北京市,北京市,东城区,13520761822,unknown,
baidu,5ff8b337ab51ca04e81e979e,中国第一瓶二锅头酒诞生地,粮食店街40号,北京市,北京市,西城区,(010)63158869,unknown,
baidu,0e885089fa61fddee812e43a,穿越元明清,北京市东城区前门大街,北京市,北京市,东城区,13121727761,unknown,
baidu,8112d935f2088daef02d83e7,鲜果园水果干果(粮食店街店),粮食店街46号-2,北京市,北京市,西城区,15090035169,unknown,
baidu,c5ddcc086cd319dfd8131845,大明眼镜(晨光店),大栅栏街16号,北京市,北京市,西城区,15311796560,unknown,
baidu,500de441843d21fc3310aff2,北京集章文创中心,北京市西城区珠宝市街34号,北京市,北京市,西城区,15510452829,unknown,
baidu,07ba60a592c7cee58b2fb575,书香世业,南晓顺胡同5-2(前门地铁站G东南口步行490米),北京市,北京市,东城区,18510080960,unknown,
baidu,0c8679101b1dc1028bfc068e,京扇子(前门旗舰店),前门大街35号,北京市,北京市,东城区,17600969377,unknown,
baidu,c7b471909a6bed81a11de9ce,亨利老表店,前门大栅栏4号老表店(前门地铁站I西南口步行360米),北京市,北京市,西城区,17316220828,unknown,
baidu,dcd269f7465acb864c3a59bd,故宫文创体验馆,北京市东城区前门东路得丰西巷33号,北京市,北京市,东城区,,unknown,
baidu,90e08d1574b20a784251c065,前门大栅栏胡同,北京市西城区前门大街大栅栏街6号,北京市,北京市,西城区,,unknown,
baidu,a3ad9f495a4760fbf7231089,大栅栏五百年历史长廊,北京市西城区大栅栏街18号大栅栏购物中心1层,北京市,北京市,西城区,,unknown,
baidu,c76e5a3d65c2bb1da21de914,山楂常老北京山楂坊(大栅栏门框胡同店),门框胡同32号,北京市,北京市,西城区,19801058915,unknown,
baidu,fe0bb0e8fd5c743b54bfffc5,鸢花书房(北京店),北京市东城区长椿街感化胡同3号院8号楼地下一层智能方809室,北京市,北京市,东城区,,unknown,
baidu,93a87b5bd0216ec926e0a0c5,张一元(大栅栏西街店),大栅栏西街1号,北京市,北京市,西城区,(010)63010348,unknown,
baidu,f3c2373ca8dfd54bd22dd670,内联升鞋店(大栅栏店),大栅栏街34号,北京市,北京市,西城区,(010)63029959,unknown,
baidu,b3c7970a0d10647b4bcc4a15,中华老字号(前门大街店),北京市东城区鲜鱼口老字号美食街前门大街(前门地铁站G东南口步行410米),北京市,北京市,东城区,,unknown,
baidu,0da5c3cb467441b05cd4fecb,ALOOOOOHA VINTAGE(北京旗舰店),前门北京坊西区W3一楼（大栅栏街道煤市街廊房头条21号院）,北京市,北京市,西城区,18696697082,unknown,
baidu,8cba4bb085891c9dac0457ab,天马服装折扣店(第一分店),北京市东城区前门大栅栏街19号,北京市,北京市,西城区,13521889543,unknown,
baidu,337407586838749a3c9a5ef6,吴裕泰(大栅栏店),大栅栏西街108号,北京市,北京市,西城区,18501992826,unknown,
baidu,39cb918fa9f53b601d1d11c0,前门大街-自动售卖机,北京市东城区云居胡同与珠宝市街交叉路口东北侧前门大街内,北京市,北京市,东城区,,unknown,
baidu,fd286a21233b18f5eaf853fd,皮具箱包,北京市西城区珠宝市街前门大街,北京市,北京市,西城区,,unknown,
baidu,95ca20a6e54cdaa52eb17eb5,PATEK PHILIPPE百达翡丽(北京源邸店),北京市东城区东华门街道前门东大街23号前门23号1号楼,北京市,北京市,东城区,,unknown,
baidu,00f1c7fbc1a8d361c156ac8a,GIANT捷安特(珠市口西大街店),珠市口西大街120号,北京市,北京市,西城区,010-87815590,unknown,
baidu,80904f038df502ad32f71d1a,翰墨林,北京市东城区前门大街86号,北京市,北京市,东城区,,unknown,
baidu,2590e88df80bdf5eb6147f10,中草藥香囊,北京市西城区大栅栏街道大栅栏街11号,北京市,北京市,西城区,,unknown,
baidu,dc5cb59e5d905dddb04c490d,美利达自行车(天桥直营店),福长街21号,北京市,北京市,西城区,(010)68016789,unknown,
baidu,e16dae1a5dd6564e74026948,观自在宝石阁,珠宝市街28号,北京市,北京市,西城区,18301586482,unknown,
baidu,1ebf0e09e4c77f99d4851fc1,四季服装,大栅栏街18号大栅栏购物中心大栅栏食品商场F1,北京市,北京市,西城区,,unknown,
baidu,bbad8193db8e78b80bf5ebc5,洗手间,北京市东城区小江胡同1号附近,北京市,北京市,东城区,,unknown,
baidu,b1030125aab9053a6f3e1b33,男厕,北京市西城区大齐家胡同前门大街,北京市,北京市,西城区,,unknown,
baidu,d4073762f2aa1db4b6147f01,前门商业区服务中心,北京市东城区前门大街96号,北京市,北京市,东城区,,unknown,
baidu,9640861e9611d50ef02d83c7,前门游客服务中心,北京市东城区前门大街,北京市,北京市,东城区,,unknown,
baidu,f828b98a0a5ab8c3b35c6ad3,曲艺非遗体验馆,北京市东城区前门大街48号,北京市,北京市,东城区,,unknown,
baidu,9a8662b5271d103b1fe999e3,中国邮政(前门邮政所),前门大街98号前门,北京市,北京市,东城区,(010)67018027,unknown,
baidu,ecd9256b573b1efb0ab93aa6,青堂瓦舍三庆园舞台京剧写真(前门店),大栅栏商业街18三庆园店内（前门地铁站I西南口步行440米）,北京市,北京市,西城区,13031116795,unknown,
baidu,c3b3d1056ab7396929b97caa,大观楼影城-售票处,大栅栏街36号,北京市,北京市,西城区,,unknown,
baidu,eacaedf3f195fb9ea8f0cd9c,大北照相馆(前门大街店),前门大街2号,北京市,北京市,东城区,(010)67032661,unknown,
baidu,b6c814cfcc1b17fd6240a991,大栅栏街道北京坊商圈党群服务中心,北京市西城区廊房头条17号,北京市,北京市,西城区,(010)83156966,unknown,
baidu,29089c8658c8a1b0d6b74e14,铛铛车-售票处,前门大街与步行街交叉口北80米,北京市,北京市,东城区,,unknown,
baidu,e378e691cfb2d756d72ce2e1,中国福利彩票(粮食店街店),粮食店街14号,北京市,北京市,西城区,954168,unknown,
baidu,3f76abc4668c8dadf03cbafd,中国邮政未来邮局(大栅栏琉璃厂支局),铁树斜街59号,北京市,北京市,西城区,11185,unknown,
baidu,1684198fe735070579b55cf4,快速公交售票处,北京市东城区前门东大街天安门,北京市,北京市,东城区,,unknown,
baidu,983f4a567d016b32b54f54f3,中欣卡售卡大厅,北京市东城区珠市口东大街14号中欣银宝通大厦,北京市,北京市,东城区,,unknown,
baidu,d37fbabda84d9b2c343a71e1,天安门西红墙1号安检,北京市西城区中华路4号,北京市,北京市,西城区,,unknown,
baidu,29c69d1c450bc2240c0e6b64,打磨场,北京市东城区西打磨厂街前门大街,北京市,北京市,东城区,,unknown,
baidu,c039baf385d5c917b45f1ed4,中国邮政(天安门邮政所),北京市东城区东华门街道新大路6号院,北京市,北京市,东城区,11185,unknown,
baidu,fcf6b3506917d54928201a6f,中华遗嘱库(北京第一登记中心),西交民巷73号,北京市,北京市,西城区,,unknown,
baidu,b543a23e43f7bbf6d1ff2341,天桥剧场-售票处,北纬路30号(天桥地铁站A西北口步行180米),北京市,北京市,西城区,,unknown,
baidu,4719883af39afc7df423109b,大家的家北京友谊城心社区,北京市西城区西经路11号,北京市,北京市,西城区,"18600370588,4009919321",unknown,
baidu,2e00c5ddf3b85362d7851f2f,公共厕所,北京市西城区前门合德缘宾馆(施家胡同北),北京市,北京市,西城区,,unknown,
baidu,ac74e9b0ee2296d1fda7787f,公厕,北京市西城区,北京市,北京市,西城区,,unknown,
baidu,5c56edd6188c1024a1d23072,公共厕所,北京市西城区大齐家胡同14号,北京市,北京市,西城区,,unknown,
baidu,b3aa435d99ab597515764359,公厕,蔡家胡同5号,北京市,北京市,西城区,,unknown,
baidu,596680033059f9e34354d7c5,来电共享充电宝(四季民福烤鸭店前门大栅栏店),北京市西城区大栅栏商业街18号1796商场,北京市,北京市,西城区,4008845966,unknown,
baidu,e54cb0a8434547aea1d230d8,公共厕所,北京市东城区大江胡同与南晓顺胡同交叉路口往北约50米,北京市,北京市,东城区,,unknown,
baidu,5b12bb72cc499c3cae04575c,惟民画像,小江胡同1号,北京市,北京市,西城区,,unknown,
baidu,44243da87af4a8da4d776e6a,中国体育彩票(煤市街店),北京市西城区煤市街130号,北京市,北京市,西城区,18510296211,unknown,
baidu,3b1ca35c7211fcf5f4e73bf7,公厕,北京市东城区前门大街133号,北京市,北京市,东城区,,unknown,
baidu,b5c7bdd9f4fe7c66ad045730,街电(三庆园),北京市西城区前门大栅栏街18号三庆园戏曲博物馆,北京市,北京市,西城区,4006868588,unknown,
baidu,bb71ef889785c9d5e9f853c1,怪兽充电(便宜坊鲜鱼口店),北京市东城区鲜鱼口街65-77号,北京市,北京市,东城区,4006703303,unknown,
baidu,0c57938c4df2318a3010af06,公厕,北京市东城区前门大街72-82附近,北京市,北京市,东城区,,unknown,
baidu,8413d40864b55f2b4151c0a7,刘老根大舞台售票处(小江胡同),前门东路小江胡同34号(珠市口地铁站C东南口步行410米),北京市,北京市,东城区,,unknown,
baidu,c7d24cbfb5130e86c4f025e2,街电(红达悦宾馆),北京市西城区粮食店街59号,北京市,北京市,西城区,4006868588,unknown,
baidu,8b51fd1c4afc9bc0f82213c6,老根山庄·宴会厅(北京总店),北京市东城区前门街道小江胡同34号,北京市,北京市,东城区,,unknown,
baidu,db1f39d48aa84911f4c59cb1,公共卫生间,前门西河沿街与煤市街交叉口东40米,北京市,北京市,西城区,,unknown,
baidu,401ca061d37a59eac6effb46,公共卫生间,煤市街98城堡附近,北京市,北京市,西城区,,unknown,
baidu,c83f68e3a3da54b55a109318,男厕,粮食店街67号,北京市,北京市,西城区,,unknown,
baidu,be9b4de4aa219c921e5800a8,前门/大栅栏寄存点,北京市西城区大栅栏街道珠宝市街17号,北京市,北京市,西城区,,unknown,
baidu,5a36fa5a41fb766b081cc778,公共厕所,北京市东城区长巷三条48号,北京市,北京市,东城区,,unknown,
baidu,3a2dda099d4ff1a7e3110325,公厕,北京市东城区前门大街甲2号中国铁道博物馆正阳门展馆,北京市,北京市,东城区,,unknown,
baidu,8507ca713a00a6070869d94b,烁点光源广告图文,前门公交站东(廊房二条),北京市,北京市,西城区,,unknown,
baidu,e5b61eb407c3cab2babd639f,公共厕所,北京市西城区廊房三条51号东,北京市,北京市,西城区,,unknown,
baidu,d10d80b49ed56c7ba2a93423,献血点(前门箭楼),北京市西城区前门箭楼南侧,北京市,北京市,西城区,4006012320,unknown,
baidu,8a4b1bdead8575da9f82eabb,来电共享充电宝(前门故事餐厅),北京市西城区煤市街大栅栏39号西门,北京市,北京市,西城区,4008845966,unknown,
baidu,8570b26cfc9cef6022f0177f,中国福利彩票(小力胡同店),北京市西城区小力胡同连升商务酒店,北京市,北京市,西城区,(010)63020297,unknown,
baidu,fe796bb7668a8b7ef4e73bef,公共厕所,北京市东城区长巷二条41号,北京市,北京市,东城区,,unknown,
baidu,7c56247b9eb09b54f90cadd9,依丽洁洗衣店(煤市街店),煤市街146号(珠市口地铁站A西北口步行470米),北京市,北京市,西城区,18510430982,unknown,
baidu,705ff73a5a11c11a3617dcb8,公共厕所(小力胡同2号旁),北京市西城区前门连升商务酒店(小力胡同西),北京市,北京市,西城区,,unknown,
baidu,75d0989fe1e00e58f50e779d,公共厕所,北京市西城区取灯胡同前门大街,北京市,北京市,西城区,,unknown,
baidu,2192d00ea5f79294badf8f2f,公共厕所,北京市东城区长巷二条45号,北京市,北京市,东城区,,unknown,
baidu,0a9641db8e70b209c51e51e8,来电共享充电宝(局气前门店),北京市西城区廊房头条13号院5号楼3层(北京坊东区E14号楼3层),北京市,北京市,西城区,4008845966,unknown,
baidu,a2c84d3e46296a28eb56fa9b,中国移动(煤市街店),北京市西城区煤市街105号,北京市,北京市,西城区,"18201092999,18801251788",unknown,
baidu,90e5fd3fa56bc77120026278,公共厕所(煤市街103北),煤市街103号北,北京市,北京市,西城区,,unknown,
baidu,925c550fb8e627cc5b3ac8bc,公共厕所(掌扇胡同29对),北京市掌扇胡同29号对,北京市,北京市,西城区,,unknown,
baidu,435d7aeaa36df44b5abbbcc1,公共卫生间,北京市东城区前门北京市公安局西南(前门东大街),北京市,北京市,东城区,,unknown,
baidu,1fa1b63e37f719f16240a979,公共厕所,北京市排子胡同24号东,北京市,北京市,西城区,,unknown,
baidu,7bc63a04ea24d36acc06a4b1,公共厕所,北京市东城区西打磨厂街232号,北京市,北京市,东城区,,unknown,
baidu,bb143bc5604e3ff8a8175a14,星鸿图文快印,珠市口东大街16号劳动保障大厦一层,北京市,北京市,东城区,13671360207,unknown,
baidu,5be1b135d03bd5ff2dfaa7c7,博艺图文快印店,博兴胡同2号,北京市,北京市,西城区,,unknown,
baidu,924789c915aef3b50b69d983,公共厕所,北京市东城区西半壁街贯通现代酒店正门东侧约70米,北京市,北京市,东城区,,unknown,
baidu,f1dd16081b43992b01294f2c,公共厕所,北京市西草市东街16号,北京市,北京市,东城区,,unknown,
baidu,2fd5df4dbfb481f08a36ee52,宾朋缘图文快印,北京市西城区煤市街153号,北京市,北京市,西城区,15510066387,unknown,
baidu,341c35dee344abc0e6073872,公共厕所,北京市东城区长巷二条45号,北京市,北京市,东城区,,unknown,
baidu,71d61938e5b2f533ddee8bed,无包游天安门寄存点,北京市西城区前门西后河沿街11号,北京市,北京市,西城区,13501345004,unknown,
baidu,73cf246632d9c2e2e81e97b2,公共厕所,北京市东城区长巷五条前门大街,北京市,北京市,东城区,,unknown,
baidu,2fd2beaba928ca2c7adbd2c3,公共卫生间,北京市西城区前门欣燕都酒店(前门天街店)北,北京市,北京市,西城区,,unknown,
baidu,680fb70347c55ee28bb9882d,公共厕所,北京市东城区长巷四条12号,北京市,北京市,东城区,,unknown,
baidu,8fd589fb69988d31f7e73b52,怪兽充电(北京特产超市煤市街),北京市西城区煤市街欣燕都酒店(前门天街店)东北1门北侧约70米,北京市,北京市,西城区,4006703303,unknown,
baidu,b533ea4adb13a23f4f6d46c0,公共厕所,群智巷14号,北京市,北京市,东城区,,unknown,
baidu,a2715866851163be71210b39,公共厕所,北京市东城区群智巷25号,北京市,北京市,东城区,,unknown,
baidu,afca0a6190c1915873210bf1,怪兽充电(平价超市),北京市西城区前门西大街正阳市场1号楼前门西后河沿街,北京市,北京市,西城区,4006703303,unknown,
baidu,8bea002098a14aa649fc8d5e,公厕,北京市东城区大江胡同前门大街,北京市,北京市,东城区,,unknown,
baidu,2791d213123509223a04b1b2,海友酒店(前门大栅栏店)-大堂,北京市西城区煤市街大力胡同20号,北京市,北京市,西城区,,unknown,
baidu,0034053be53f6d055fd4fe76,北平花园宴会厅,煤市街与廊房头条交叉口东北角北京坊西区5号楼4层401号,北京市,北京市,西城区,,unknown,
baidu,0d0c6481304dc221adcb6653,公共厕所,北京市西城区前门海友酒店(北京前门大力胡同店),北京市,北京市,西城区,,unknown,
baidu,746da1428679dae3f12d832c,公共厕所,北京市西城区校尉营胡同前门大街,北京市,北京市,西城区,,unknown,
baidu,632ec7eae42b7bd49222e0c2,广场东侧路北3号安检,北京市东城区东长安街辅路,北京市,北京市,东城区,,unknown,
baidu,f4a33da9c97fd3773010af13,公共厕所,北京市东城区东交民巷30号小区西北侧,北京市,北京市,东城区,,unknown,
baidu,c55fc2a0b0dd0e4d57bfff86,中国联通(厂甸营业厅),北京市西城区大栅栏街道和平门外厂甸胡同9号,北京市,北京市,西城区,010-63011313,unknown,
baidu,d01acf92cd8fbf28c356ac4f,公共厕所,北京市东城区广场东侧路中国国家博物馆,北京市,北京市,东城区,,unknown,
baidu,facb585d0d3a7bd4f7e73b7d,天安门东红墙2号安检,北京市东城区东长安街,北京市,北京市,东城区,,unknown,
baidu,b1a0223d188d44330f0e6be0,公厕,广场东侧路中国国家博物馆,北京市,北京市,东城区,,unknown,
baidu,d8104af9f4f5d289da131855,中国国家博物馆-安检处,东长安街16号天安门广场东侧中国国家博物馆内,北京市,北京市,东城区,,unknown,
baidu,ec1b3a9223fc99fb5a3ac8bd,四联美发(前门店),前门大街77号,北京市,北京市,东城区,(010)67059866,unknown,
baidu,ed462b2228dcd3132bb97c62,痘院长·祛痘·皮肤管理(桥湾店),南桥湾街金鱼池中街2号院1号楼1层1-2号,北京市,北京市,东城区,13401057246,unknown,
baidu,628833fd8741c3ed1f389443,阿伟造型(煤市街店),煤市街153号,北京市,北京市,西城区,13436550118,unknown,
baidu,224fb8061b7064d4fe0eb011,梦妍清雅美发店,大力胡同32号,北京市,北京市,西城区,17601633114,unknown,
baidu,3299828503a9813976e5b677,再清椿美容(磁器口店),天坛街道金鱼池中街2号院底商11-40号(近桥湾地铁站D口),北京市,北京市,东城区,(010)67031887,unknown,
baidu,e75764f704f5dd099b68b473,潮匠接发,珠市口东大街天鼎文创园东外118号,北京市,北京市,东城区,15910766749,unknown,
baidu,08622b8f3b8239b64d776e22,卓锦万代兰·美容·SPA(崇文门店),新怡家园5号楼底商,北京市,北京市,东城区,(010)67062072,unknown,
baidu,d90c0e95123b026d29201a59,E-Turn科技美肤中心,北京市东城区东兴隆街58号北京汇413室,北京市,北京市,东城区,18611413167,unknown,
baidu,61031ab6aa24ddb714948e0a,宗林接发(珠市口店),珠市口东大街346号北一门金霖酒店南楼四层4123室,北京市,北京市,东城区,13269886651,unknown,
baidu,5e722df604f818adae080f06,闪亮美发,前门西大街4号楼104室,北京市,北京市,西城区,13661030044,unknown,
baidu,583d3db1ddde422f26d2bb5c,红叶造型,天桥街道虎坊桥1号可新可鲜生活超市内,北京市,北京市,西城区,18510937211,unknown,
baidu,d69bb6f8a5afcfd0c6effb53,西贝凯森(陶然亭店),太平街6-16,北京市,北京市,西城区,(010)59361306,unknown,
baidu,c49a8ca0f954e568cc06a417,兰建理发店(樱桃斜街店),樱桃斜街125号,北京市,北京市,西城区,,unknown,
baidu,46887281d4b815b9da2f288f,祥茹玉美疗机构(崇文门新世界店),东兴隆街北京汇五层531室,北京市,北京市,东城区,18301376526,unknown,
baidu,1c004216374a44682911d16c,um悦造型(天桥店),福长街35号天桥小区西区底商,北京市,北京市,西城区,18701310029,unknown,
baidu,2884d95cb9cd8e0f8bb9889d,启日升美发店,铁树斜街63号,北京市,北京市,西城区,18800102610,unknown,
baidu,ffd6d4039c68869617b54bdc,美人岛美容美发(永安路百货商场店),永安路143-5号,北京市,北京市,西城区,13691012127,unknown,
baidu,fb4ea78644a910c443ab9ac9,贝黎诗SPA(东方广场店),东长安街1号东方广场东方新天地P-W-APT-05号铺（东方君悦酒店西）,北京市,北京市,东城区,(010)85186999,unknown,
baidu,dff58ec370f25b0037b06cf2,韩国EG痘敏修护专研店·屏障管理(崇文门店),广渠门内大街121号搜宝崇文6层6-04（靠近磁器口地铁站F出口、普仁医院）,北京市,北京市,东城区,"(010)84430700,18519936606",unknown,
baidu,5e3ab554d4f3bcecc61b750e,爱秀造型(天桥店),福长街39号,北京市,北京市,西城区,,unknown,
baidu,adcf5b2e69382801a0a93487,漂亮心得美容spa(崇文门店),西花市大街96号,北京市,北京市,东城区,,unknown,
baidu,78bc278c1cc14759f50e7796,Kitty·喵·KT·喵自助美甲美睫工作室(崇文门总店),东兴隆街58号崇文门北京汇5层525（近宁波银行，招商银行）,北京市,北京市,东城区,13901293698,unknown,
baidu,ad293d32c340ce2285420eb1,焕颜百丽(搜秀城店),崇文门外大街搜秀城5楼南侧02,北京市,北京市,东城区,13011012702,unknown,
baidu,4f1c5673af11c1ec16c905aa,紫琪尔胸部养护中心(崇文门店),北京市东城区东兴隆街新怡家园8号楼04室,北京市,北京市,东城区,(010)67085465,unknown,
baidu,0dfcf35e3e9203494251c0c5,斯馨美甲美睫(崇文门新世界店),东打磨厂街2号一层底商（中国工商银行旁）,北京市,北京市,东城区,"13121572531,18801280531",unknown,
baidu,fb5358b5fa1581fbb11e366e,菲琳形象设计沙龙(天桥店),天桥市场斜街37号,北京市,北京市,西城区,"13241498488,13426079811",unknown,
baidu,b8dc0aada8fced16ac31e55c,懿颜轩养生护肤造型(北纬路店),北纬路77号,北京市,北京市,西城区,(010)83166951,unknown,
baidu,53d7de7cd1db5552fea77839,北京三甲医学护肤品,前门大街北,北京市,北京市,东城区,,unknown,
baidu,7be6e70152b1f528f4b91646,化蝶汇(前门大街店),南晓顺胡同5号-14(前门地铁站G东南口步行480米),北京市,北京市,东城区,13011115630,unknown,
baidu,b292b3aaecad354fbe4842cb,妍美造型(永安路店),虎坊桥永安路104号（前门建国饭店斜对面）,北京市,北京市,西城区,,unknown,
baidu,790912c1120553ea88b9885c,2M2肌本科技美肤中心(京能四合上院店),山西街6号院1号楼一层108,北京市,北京市,西城区,15810072280,unknown,
baidu,fe2198f7706929c21c58004d,日置名媛(东方新天地店),东长安街1号东方广场平台层PW2座01-05单元,北京市,北京市,东城区,,unknown,
baidu,02e09d2d85786b36744ff116,莎蔓莉莎美容会所(崇文门新景会所),广渠门内大街西花市南里西区12号楼3单元底商,北京市,北京市,东城区,(010)67147519,unknown,
baidu,7e090cb7a0ba8e58fb2d6181,东方唯尔美发造型(前门店),金庄路西荣阁A座1层,北京市,北京市,东城区,,unknown,
baidu,436009fd66a1a7538f1a89cc,春旭然理发店,北京市西城区石头胡同4号,北京市,北京市,西城区,,unknown,
baidu,9ba31dc285abafdba5c756be,丝域养发馆(崇文门新怡家园店),崇文门外街道崇文门东打磨厂街新怡家园北门5号楼底商44号,北京市,北京市,东城区,"15127038735,15712833923",unknown,
baidu,a08d2032344950f795f08c05,子时刺青·皮秒洗纹身(TATTOO),东兴隆街56号北京商界A段7层708室,北京市,北京市,东城区,15811128818,unknown,
baidu,d0bcee17106d46dc3617dc74,晴子日式美甲美睫(天桥北里店),天桥斜街19号,北京市,北京市,西城区,"17600998617,18612300502",unknown,
baidu,4462019ef432e9ea465726ba,木己skin care问题肌·痘肌管理中心,东兴隆街58号,北京市,北京市,东城区,15117934546,unknown,
baidu,4edf9fbf5f05e68dcc06a4c1,永琪美容美发(虎坊桥店),南横东街1-11号（近陶然北岸）,北京市,北京市,西城区,(010)51251007,unknown,
baidu,982d31c3633be7fc2efaa71b,妍色美甲美睫(崇文门店),东兴隆街9号新怡家园底商,北京市,北京市,东城区,13552723351,unknown,
baidu,a0e39f69156b53149a00501a,米娜护肤造型(崇文门店),崇文门外大街44号大康大厦负一层米娜护肤造型,北京市,北京市,东城区,13269667288,unknown,
baidu,2ef61fac5e1c30a2c51e5155,钰凤轩造型(陶然北岸·韵竹园店),琉璃街162-1号,北京市,北京市,西城区,13282970077,unknown,
baidu,00f1c7fbbd43c706c056acfe,四联美发(王府井店),王府井大街188号,北京市,北京市,东城区,,unknown,
baidu,9c6287dd2968d0c3465726b6,和寿堂·艾灸·推拿按摩减肥中心(新世界店),崇文门外街道东兴隆街58号北京汇商界二期508室532室,北京市,北京市,东城区,18600079350,unknown,
baidu,2c72d698ac6b055c28201a80,Halo美甲美睫(中信城店),米市胡同中信禧园北区底商1-14号,北京市,北京市,西城区,15801101387,unknown,
baidu,35ee9f682559d91032f71d05,悦卉美甲美睫(天桥店),天桥斜街14号,北京市,北京市,西城区,13141210508,unknown,
baidu,919b80138a6146a09ff77919,木北造型(国瑞购物中心店),崇文门外大街18号国瑞城购物中心2F,北京市,北京市,东城区,,unknown,
baidu,d2c418e8de24135654bfff04,胡萍6362工作室(北京汇店),崇文门外街道东兴隆街58号北京汇4层405室,北京市,北京市,东城区,13691234855,unknown,
baidu,04bd6e8445b09711cae33c0a,迪薇尔·Skin·SPA(东方广场店),东方新天地LG负一层第三区CC32（大食代旁边）,北京市,北京市,东城区,,unknown,
baidu,abb4f46045af05749122e0f9,J美学沙龙(崇文门店),北京市东城区崇文门外街道东兴隆街56号,北京市,北京市,东城区,,unknown,
baidu,7d5f3a0a6cbd64522db908f8,木北造型(宣武门店),宣武门东大街24号宣武门商务酒店1楼,北京市,北京市,西城区,(010)83166178,unknown,
baidu,077f28814b8b9df8e215f920,艺得通理发店,铁树斜街110号,北京市,北京市,西城区,15101028097,unknown,
baidu,9df17fe0813725feb65f1e35,怡瑞造型(陶然店),南横东街陶然,北京市,北京市,西城区,,unknown,
baidu,f0ce6d90637be36bb726557c,懿颜轩养生护肤造型(宣武门店),西草厂街沃尔玛向东150米,北京市,北京市,西城区,(010)53652167,unknown,
baidu,be54cde97cd8004179f79699,永琪美容美发(崇文门店),西花市大街和西花市西街交叉口东行80米,北京市,北京市,东城区,(010)67135929,unknown,
baidu,84b183cfb112059cacee7a5e,尚舍造型(宣武门店),椿树街道宣武门外大街椿树园小区15号楼底商1-8号(沃尔玛超市东侧150米),北京市,北京市,西城区,13001036803,unknown,
baidu,047a988dd2b9e99f96ca074f,艺贝造型,北京市东城区金鱼池巷金鱼池东区1号楼,北京市,北京市,东城区,,unknown,
baidu,f861a1b65eeeb65dc26c14fb,常·BEAUTY Salon(崇文门新世界店),东兴隆街58号MIX北京汇三层317室,北京市,北京市,东城区,15810914471,unknown,
baidu,13c84d40300665db102935c2,纯美美甲美睫(北京汇店),崇文门北京汇613,北京市,北京市,东城区,18801189752,unknown,
baidu,2d701a62672a4a8795f08c4c,爱秀造型(西花市店),崇文门大街88号底商,北京市,北京市,东城区,,unknown,
baidu,ddb5ee5835d5e33f6fc02cc8,靓甲宝贝美甲美睫(新怡店),东打磨厂街22号,北京市,北京市,东城区,(010)67112621,unknown,
baidu,f9baa2cd679e4a54283a9f79,WL科技净肤美白连锁(崇文门店),崇文门新世界写字楼B座619,北京市,北京市,东城区,(010)57195779,unknown,
baidu,679980a39376f8bf8e7727b2,铭+造型(东兴隆街店),崇文门外街道东兴隆街北京商界底商中厅105室,北京市,北京市,东城区,13220137862,unknown,
baidu,1f17840830dcc4c7a1acc4dd,慧慧的嫁妆日式美甲美睫手足护理专业店(崇文门店),西花市大街84号新景家园北门底商,北京市,北京市,东城区,18210666387,unknown,
baidu,954d77af6033d5b9e115f991,Dy Hair salon·彬尚美业(天桥店),南纬路盛景嘉园小区3-14号,北京市,北京市,西城区,"(010)63587911,(010)83133234",unknown,
baidu,05dfb48d2d20d9c12102625b,国伟(金鱼池东区店),北京市东城区金鱼池巷金鱼池东区-1-5号楼,北京市,北京市,东城区,,unknown,
baidu,b54c51016ec4f66a46572670,鑫梦幻发艺(西晓市街店),金鱼池中街2号院11-19室,北京市,北京市,东城区,13161361355,unknown,
baidu,16f081c7ce35446421022087,花开陌尚生态减肥(天坛新世界店),崇文门外大街5号新世界太华公寓,北京市,北京市,东城区,18911176274,unknown,
baidu,d49dddd003d9818f45e274a0,一月美甲·美睫工作室(崇文门北京汇店),东兴隆街58号北京汇6层628室,北京市,北京市,东城区,,unknown,
baidu,72250ea3d8ff2619b45f1e14,艺尚美甲美睫,东打磨厂街与新怡家园西路交叉口东北40米新活馆F1,北京市,北京市,东城区,18311412863,unknown,
baidu,a670da77677ab252fb2213ce,tenplus时装美甲美睫(王府中环店),王府井大街269号王府中环西座三层扶梯309b（thewoodscafe旁）,北京市,北京市,东城区,15600251792,unknown,
baidu,318b83ac5eca88bfbadf8ffb,妆甲兵美甲美睫·纹绣·皮肤管理(崇文门店),崇文门外大街搜秀城3层379号,北京市,北京市,东城区,13522056503,unknown,
baidu,4a4889cc4ef9d194b45f1ef1,涵艺美发工作室(天桥北里南区店),天桥市场斜街11号(天桥地铁站A西北口步行340米),北京市,北京市,西城区,15910933215,unknown,
baidu,11f1173f9ee9703d40ab9ac5,F P梵珀巴黎轻奢美发沙龙(全国总店),东方新天地平台层PW-APT03（君悦大酒店平台层西20米）,北京市,北京市,东城区,,unknown,
baidu,ac3341f20762d23f15948ea9,CHANG BEAUTY发型工作室,东兴隆街58号MIX北京汇商界ll317室,北京市,北京市,东城区,15810914471,unknown,
baidu,2c7237f0e803528e9ef77955,瑞伊耳洞饰品(三里屯店),"工体北路三里屯SOHO,2号楼,2层2205",北京市,北京市,东城区,18911709662,unknown,
baidu,3f0a7cb6ed72502b364aaedd,ManiQ日式美甲美睫充电站(崇文门店),北京市东城区东兴隆街58号北京汇732室,北京市,北京市,东城区,,unknown,
baidu,5ce16e008ed95d1c1c389454,93号院博物馆,北京市西城区铁树斜街93号院,北京市,北京市,西城区,(010)83197501,unknown,
baidu,c9b5fb91d49345bc5d0d0262,天安门广场,北京市东城区东长安街,北京市,北京市,东城区,(010)63095745,unknown,
baidu,917f34f352aa87c25ebe8678,正阳桥,北京市东城区前门大街,北京市,北京市,东城区,(010)63788689,unknown,
baidu,b378ce7612c63a384bcc4a7f,长春别墅,北京市东城区长巷头条路33号,北京市,北京市,东城区,,unknown,
baidu,17bb760f2e99a0e596ca07e2,国家自然博物馆,北京市东城区天桥南大街126号,北京市,北京市,东城区,"(010)67024431,(010)67027702",unknown,
baidu,844a750e243807a06268585e,琉璃厂古文化街,北京市西城区南新华街与小沙土园胡同交叉路口往北约100米(厂甸市场北侧约100米),北京市,北京市,西城区,15810887412,unknown,
baidu,db1f39d42752aa6ff5c59cd1,中国国家博物馆,北京市东城区东长安街16号,北京市,北京市,东城区,(010)65116400,unknown,
baidu,65e1ee886c885190f60e77ff,天安门,北京市东城区长安街,北京市,北京市,东城区,010-86409660,unknown,
baidu,45ef9a2b5508cbfda2d230e6,天坛公园,北京市东城区天坛东里甲1号,北京市,北京市,东城区,(010)67028866,unknown,
baidu,ff623f5c680f57aae856fa77,关帝庙,北京市东城区南晓顺胡同前门大街,北京市,北京市,东城区,,unknown,
baidu,dfe7d4e88ccc3f7f4e3a5974,前门,北京市东城区前门大街,北京市,北京市,东城区,,unknown,
baidu,660c392abe08f032a8175a72,三里河公园,北京市东城区南芦草园胡同与群智胡同交叉口东50米,北京市,北京市,东城区,,unknown,
baidu,6deee3086a48396a28fc48e0,正阳门-箭楼,北京市东城区前门大街2号前门商业区A2地块,北京市,北京市,东城区,,unknown,
baidu,bb172eb330f6148d3b221c95,颜料会馆,青云胡同22号,北京市,北京市,东城区,15901256552,unknown,
baidu,bd3a171eb7eed6bc1d5800ca,纪晓岚故居,北京市西城区珠市口西大街241号(陕西巷南口),北京市,北京市,西城区,(010)63036712,unknown,
baidu,49d9593819fba243c71e51e0,祈年殿,北京市东城区天坛东路甲1号天坛公园内,北京市,北京市,东城区,(010)67028866,unknown,
baidu,6f6159345b82af53f50e7730,红星源升号博物馆,北京市西城区前门大街99号,北京市,北京市,西城区,"(010)63158869,010-63158896",unknown,
baidu,dffd46421aee09b33c9a5e3f,东单公园,北京市东城区大华路4号,北京市,北京市,东城区,(010)85113016,unknown,
baidu,9b798fdc65d958d940024503,勅建火神庙,北京市西城区琉璃厂东街29号,北京市,北京市,西城区,,unknown,
baidu,0adce3e2302d4a7880a00c0b,普度寺,南池子大街与普渡寺前巷交叉口东100米,北京市,北京市,东城区,(010)85112897,unknown,
baidu,770ebe9fe989419013293501,铛铛车,前门大街正阳桥遗址考古放舱,北京市,北京市,东城区,,unknown,
baidu,fcbac554208b610aabf72942,法原博物馆Fayuan museum,北京市东城区前门东路大江胡同85号吉州会馆内,北京市,北京市,东城区,18601956912,unknown,
baidu,1944ed2bbb16cb85dbecedee,正阳门,北京市东城区长安街天安门内,北京市,北京市,东城区,(010)63159185,unknown,
baidu,6ed3083a402ae8b72b3a9fd1,北京警察博物馆,北京市东城区东交民巷36号,北京市,北京市,东城区,(010)85225019,unknown,
baidu,6904912a808a05a901294f71,护国观音寺,北京市西城区大栅栏街道樱桃斜街4号,北京市,北京市,西城区,15181820036,unknown,
baidu,e78b84f6e7fae9d643afe67e,胭脂胡同,前门外大栅栏观音寺以西、珠市口西大街以北、铁树斜街以南,北京市,北京市,西城区,,unknown,
baidu,a0284307c6d5ceb9430245bc,前门公园,北京市东城区前门大街天安门,北京市,北京市,东城区,,unknown,
baidu,a2d874602cf1a88de111034a,樱桃百花园,北京市西城区小沙土园胡同百花园(东南园东100米),北京市,北京市,西城区,,unknown,
baidu,2cf20108be26bce0e5e965f3,月亮湾公园,北京市西城区前门西河沿街7号附近,北京市,北京市,西城区,,unknown,
baidu,5eb2874892eafa60b34c4906,太庙,北京市东城区劳动人民文化宫东门,北京市,北京市,东城区,(010)65116776,unknown,
baidu,925c550fb66919cc5a3ac80f,台湾会馆,北京市东城区前门东路大江胡同114号,北京市,北京市,东城区,(010)67025001,unknown,
baidu,2a408a06a3b32a4b400245f9,中国法院博物馆,北京市东城区东华门街道正义路4号,北京市,北京市,东城区,(010)67557825,unknown,
baidu,8d36eb1fd24950738505bf69,先农坛,北京市西城区东经路21号,北京市,北京市,西城区,(010)63172150,unknown,
baidu,6d2df9c9681ca9702fb96d42,广东惠州会馆,北京市东城区草厂七条12号,北京市,北京市,东城区,,unknown,
baidu,44ef1fdf12b8ae4ce215f9e5,中国公路零公里点,北京市东城区前门东大街全国人大东侧约200米,北京市,北京市,东城区,,unknown,
baidu,0d393abe595602a303ff2d56,中国铁道博物馆(正阳门馆),北京市东城区前门大街甲2号,北京市,北京市,东城区,"(010)65253176,(010)67051638",unknown,
baidu,4ae2adcf574bcd2b38221c66,天安门广场-国旗,北京市东城区景山前街4号天安门广场内,北京市,北京市,东城区,,unknown,
baidu,f113efd4cf577ba882a12e2e,铁山寺,北京市东城区珠市口东大街219号,北京市,北京市,东城区,,unknown,
baidu,dffd4642d04ab3b23d9a5ee0,斋宫,北京市东城区天坛东路甲1号天坛公园内,北京市,北京市,东城区,(010)67028866,unknown,
baidu,63107a0b1e4697194354d7a0,毛世来故居,北京市西城区培英胡同29号,北京市,北京市,西城区,,unknown,
baidu,e85e2527153d842d94f08cb8,午门,北京市东城区景山前街4号,北京市,北京市,东城区,4009501925,unknown,
baidu,fa38758dfefeafdce9f853ce,福德禅林,北京市东城区罗家井胡同21号,北京市,北京市,东城区,,unknown,
baidu,e2c734e489d8d15d15a190d1,中山公园,北京市东城区中华路4号,北京市,北京市,东城区,(010)66055431,unknown,
baidu,16cc540a36b7dce115a190e7,中国电影诞生地,北京市西城区大栅栏西街110号大栅栏西街商业,北京市,北京市,西城区,,unknown,
baidu,4f25a5d46c066695223bf216,北京基督教会珠市口堂,北京市西城区前门大街129号珠市口路口西南角,北京市,北京市,西城区,(010)63016678,unknown,
baidu,161a0ed2fc8a03505cd4fe01,中国钱币博物馆,北京市西城区西交民巷17号,北京市,北京市,西城区,"(010)66024178,(010)66081385",unknown,
baidu,66397b247463ca9a1994c6a8,北京湖广会馆,虎坊路3号,北京市,北京市,西城区,(010)56533456,unknown,
baidu,2bb54e31c13a3470bda24091,北京古代建筑博物馆,北京市西城区东经路21号,北京市,北京市,西城区,"(010)63172150,(010)83163391",unknown,
baidu,8d7e3a66a340c4f04d55475e,吴越钱氏宗祠,北京市东城区薛家湾胡同39号,北京市,北京市,东城区,,unknown,
baidu,ddb3ca1f45d0df1fa8059d73,王瑶卿故居,北京市西城区煤市街培英胡同20号,北京市,北京市,西城区,,unknown,
baidu,9650da9e8e88aa222cb17ee1,南池子美术馆,北京市东城区普渡寺西巷21号,北京市,北京市,东城区,(010)65281891,unknown,
baidu,4eea5ab87122e5673913fd73,西交民巷近代银行建筑群,北京市西城区西交民巷56号,北京市,北京市,西城区,,unknown,
baidu,9c9de1d4e6eebdc124d2bb99,盐业银行旧址(北京坊),北京市西城区前门西河沿街7号,北京市,北京市,西城区,,unknown,
baidu,2bbad00161fcd2c488b9886e,原麦加利银行,北京市东城区东交民巷39号,北京市,北京市,东城区,,unknown,
baidu,6cb6cb3a65c37be3f32d83ca,察哈尔兴业银行旧址,北京市西城区西河沿街91号,北京市,北京市,西城区,,unknown,
baidu,ae60b36c5f2c4bf7c61e51b3,老北京传统商业博物馆,北京市西城区大栅栏街道前门西大街正阳市场3号楼老舍茶馆2层,北京市,北京市,西城区,(010)63036830,unknown,
baidu,03c2e8cee69cfaa02dfaa738,梅兰芳祖居,北京市西城区铁树斜街101号,北京市,北京市,西城区,,unknown,
baidu,bf29b70254d57ce708b93ab2,交通银行旧址,北京市西城区前门西河沿街9号,北京市,北京市,西城区,,unknown,
baidu,aed2c692e8bfe18a1a94c650,安徽泾县会馆,北京市东城区长巷头条60号,北京市,北京市,东城区,,unknown,
baidu,89927283d9f1db9bfea77822,天桥街道学雷锋志愿服务主题公园,北京市西城区校尉营胡同16号,北京市,北京市,西城区,,unknown,
baidu,96e0df3084be9daaab0dd807,源顺镖局,北京市东城区西半壁街13号,北京市,北京市,东城区,,unknown,
baidu,ac11cb4f31cc27064bcc4a25,旌德会馆,北京市东城区大江胡同19号,北京市,北京市,东城区,,unknown,
baidu,46fb7cadd046b93229fc48f3,毛主席纪念堂,北京市东城区前门东大街,北京市,北京市,东城区,,unknown,
baidu,0ef36e057c37b43359bbbc8a,梁诗正旧居,北京市西城区杨梅竹斜街25号,北京市,北京市,西城区,,unknown,
baidu,f4a1a00548daefba4251c041,湖北麻城会馆,北京市东城区草厂头条24号,北京市,北京市,东城区,,unknown,
baidu,38797530940b7ce40c0e6b49,宜兴会馆,北京市西城区校尉营胡同44号,北京市,北京市,西城区,,unknown,
baidu,2d7c4bb693d3b20528201abf,福建汀州会馆北馆,北京市东城区长巷二条48号,北京市,北京市,东城区,,unknown,
baidu,09d4ba7251fc6f6ee812e493,前门清真寺,北京市西城区杨威胡同9号,北京市,北京市,西城区,,unknown,
baidu,c6888ca917c497aecac3db2e,江西新建会馆,北京市东城区长巷头条长春别墅,北京市,北京市,东城区,,unknown,
baidu,2f0c10dc1ed4bb62f4eafc16,国家非物质文化遗产皮影,北京市西城区东南园头条琉璃厂古文化街,北京市,北京市,西城区,,unknown,
baidu,9a08d44292b0002c100daa30,中国冠帽文化博物馆,北京市东城区前门大街57号,北京市,北京市,东城区,,unknown,
baidu,0bca4a363d23a26a41d63ed7,北京老字号济安堂旧址,北京市西城区杨梅竹斜街前门大街,北京市,北京市,西城区,,unknown,
baidu,522dc93b10790d8a59bbbc4e,唐万善寺故址,珠市口西大街133号,北京市,北京市,西城区,,unknown,
baidu,bd78e6137bc25544ab175a51,鸿庆楼旧址,北京市东城区新潮胡同6号,北京市,北京市,东城区,,unknown,
baidu,ef6fb52ac412fcb1ce04ef89,大江胡同32号四合院,北京市东城区大江胡同32号,北京市,北京市,东城区,,unknown,
baidu,2f02eb0a6dbdaf681d1d11d5,京奉铁路正阳门东车站旧址,北京市东城区前门中国铁道博物馆正阳门展馆,北京市,北京市,东城区,(010)67051638,unknown,
baidu,eb74c6571f22c8b5f4eafc54,寒鸣堂,北京市东城区粉厂胡同53号,北京市,北京市,东城区,,unknown,
baidu,f4549acdc8a2077fae080fd5,五人上书,北京市东城区前门台湾会馆(前门东路西),北京市,北京市,东城区,,unknown,
baidu,b5ab77f46b6c567ceb56faef,武圣祠,北京市东城区前门长春别墅西(前门东路西),北京市,北京市,东城区,,unknown,
baidu,daaf3d1b8fdade76067ce8f2,义丰泰,前门大街64号太平洋咖啡2层,北京市,北京市,东城区,,unknown,
baidu,05fd562f74411bef7adbd236,中华汇业银行(北京分行旧址),北京市西城区西交民巷56号,北京市,北京市,西城区,,unknown,
baidu,a4817bb26c8b70a83362127a,雷音禅林,北京市东城区北芦草园胡同23号,北京市,北京市,东城区,,unknown,
baidu,06d612f38e124d74f6c59c75,西竺庵,北京市东城区南芦草园胡同30号,北京市,北京市,东城区,,unknown,
baidu,136427a51da534e1eb12e4ae,湖北孝感会馆,北京市东城区草厂七条14号,北京市,北京市,东城区,,unknown,
baidu,9de6d68d8b0217f2704b8736,北京警察博物馆北京公安史,北京市东城区东交民巷北京警察博物馆,北京市,北京市,东城区,,unknown,
baidu,619a49cace7df25959bbbcdc,中外珐琅美术馆(北京坊店),北京市西城区北京坊W5号楼2层,北京市,北京市,西城区,16621040336,unknown,
baidu,1b6609d5a33fef171b11d511,西竺禅林,北京市东城区群智巷1号,北京市,北京市,东城区,,unknown,
baidu,bc13b6ad11fd62023586f41b,柳祖祠,北京市东城区刘老根会馆附近东北方向90米,北京市,北京市,东城区,,unknown,
baidu,a54f6001bff6b735f33cba68,莆仙会馆,北京市西城区河沿街192号,北京市,北京市,西城区,,unknown,
baidu,1d1c0658548e4cf1c4f50d9b,粤东会馆旧址,北京市东城区西打磨厂街90号,北京市,北京市,东城区,,unknown,
baidu,24c558b6b3a6dcf11f3894a2,普贤庵,北京市东城区锦绣四条41号,北京市,北京市,东城区,,unknown,
baidu,86f93409ee9bacf5f603b863,啸林山房,北京市西城区琉璃厂东街琉璃厂古文化街,北京市,北京市,西城区,,unknown,
baidu,41d55e79335a7e582fb17e21,中央银行旧址,北京市西城区西交民巷17号(羊毛胡同),北京市,北京市,西城区,,unknown,
baidu,e94d3688d5b564bfb817e74a,灵应三官庙,北晓顺胡同1号,北京市,北京市,东城区,,unknown,
baidu,1b726dca0e55858c05026fa9,广东平镇会馆,北京市东城区冰窖斜街15号,北京市,北京市,东城区,,unknown,
baidu,9bf31af68d8157386f3e1b54,故宫模型,北京市东城区前门东大街20号北京规划展览馆3楼,北京市,北京市,东城区,,unknown,
baidu,5a3399f273b43bbd0682c297,李洪春故居,北京市东城区前门街道草厂三条16号,北京市,北京市,东城区,,unknown,
baidu,7df3f44a16425ad214c8f699,同兴和木器店旧址,北京市东城区金鱼池中区3号,北京市,北京市,东城区,,unknown,
baidu,870b68dd7e2456db82288aa0,风入松京剧文化体验基地,北京市西城区板章胡同5号,北京市,北京市,西城区,,unknown,
baidu,7f8b9176287c885988db73ba,沉香博物馆,北京市东城区西兴隆街前门大街,北京市,北京市,东城区,,unknown,
baidu,e49da0d10371300ffa42b26f,湖北黄安会馆,北京市东城区新革路1号,北京市,北京市,东城区,,unknown,
baidu,fa4d5d2ca45c081f601c6754,湖南辰沅会馆,北京市东城区草厂八条27号,北京市,北京市,东城区,,unknown,
baidu,6f107204fda0245a2e4733c1,北京湾铜雕,北京市东城区前门东大街20号北京规划展览馆1楼,北京市,北京市,东城区,,unknown,
baidu,a73a152d5f676a0b725e8043,正阳桥疏渠记方碑,北京市东城区红庙街前门大街,北京市,北京市,东城区,,unknown,
baidu,78af4f29779dd63c4054d729,房山林啸,北京市西城区琉璃厂东街琉璃厂古文化街,北京市,北京市,西城区,,unknown,
baidu,58d7b93d3a66b4813010af8f,赣宁会馆,北京市西城区校尉营胡同20号,北京市,北京市,西城区,,unknown,
baidu,071154061f71f9405d17c33f,北京市西城区普查登记文物婺源会馆,北京市西城区大栅栏大耳胡同6号,北京市,北京市,西城区,,unknown,
baidu,7462df388f0675ac2efaa7bc,芜湖会馆,北京市东城区长巷三条43号,北京市,北京市,东城区,,unknown,
baidu,46bab6d514355db5220262e4,敕建崇祯观,北京市东城区西兴隆街209号,北京市,北京市,东城区,,unknown,
baidu,e3115570f3780aff1d580037,云吉班旧址,北京市西城区陕西巷52号(近上林仙馆),北京市,北京市,西城区,,unknown,
baidu,a32669de76150bb1e6073876,前门清真寺-东北1门,北京市西城区茶儿胡同前门大街,北京市,北京市,西城区,,unknown,
baidu,cf4f1fadcf73567f78f796f2,丰城会馆,北京市东城区得丰东巷37号,北京市,北京市,东城区,,unknown,
baidu,4db192fdb00497990d3dda53,前门大街-16号,北京市东城区前门大栅栏名创优品,北京市,北京市,东城区,,unknown,
baidu,7a852a90587aadc8c61b751a,东交民巷,北京市东城区东交民巷北京新侨诺富特饭店东侧,北京市,北京市,东城区,,unknown,
baidu,1ac4eb1c4547ff2a0e0a7042,延寿楼,北京市西城区佘家胡同1号院,北京市,北京市,西城区,,unknown,
baidu,51fd113e72fbcbc76ca3cc56,余大亨银号,北京市西城区施家胡同前门大街,北京市,北京市,西城区,,unknown,
baidu,0ce65c2df95d8b402c4733b8,老舍茶馆(前门店),前门西大街正阳市场3号楼,北京市,北京市,西城区,"(010)63036506,(010)63036830",unknown,
baidu,8068b53a821126e25cd4fe33,夜莺聚场,三井胡同26号,北京市,北京市,西城区,15120033076,unknown,
baidu,df50eea7ce268a23f21937b0,93号院非遗工坊,铁树斜街93号院93号博物馆院内,北京市,北京市,西城区,"13811121541,18610417085",unknown,
baidu,e281724088fd85d840e19290,长庚剧社,香厂路6号平房,北京市,北京市,西城区,18701076567,unknown,
baidu,e56bf5e3f6ca8b5d0782c254,华夏良子·足道SPA艾灸(崇文门店),东兴隆街56号北京商界A座B1楼,北京市,北京市,东城区,"(010)67019988,(010)67029886",unknown,
baidu,71f13143ef6539f700ec01f4,樱桃茶院,樱桃斜街24号,北京市,北京市,西城区,13911165988,unknown,
baidu,c343744b353041e8a21de954,白夜电竞(磁器口店),崇文门外大街44号大康大厦地下1层,北京市,北京市,东城区,15611188137,unknown,
baidu,c3d89eda0a4d037d16764331,长藤密室(崇文门店),崇文门外大街40号搜秀购物广场7楼A区,北京市,北京市,东城区,17127318273,unknown,
baidu,f9588f25419ebf12d3f49e03,阿里山广场,北京市东城区小江胡同1号,北京市,北京市,东城区,,unknown,
baidu,34553f8921fd72de0ab93a55,曼联梦剧场(北京坊店),煤市街廊房头条21号院北京坊西区W9楼,北京市,北京市,西城区,(010)63158086,unknown,
baidu,62e73ed2045c20be9e9d680b,三庆园,北京市西城区大栅栏街18号6幢,北京市,北京市,西城区,(010)66551266,unknown,
baidu,b71b251503f3942e2fb96d26,天乐园大戏楼,鲜鱼口街68号,北京市,北京市,东城区,010-67093380,unknown,
baidu,f26d38778b9944ac9a0050d8,Blue Note Beijing,前门东大街23号BlueNoteBeijing,北京市,北京市,东城区,13910902913,unknown,
baidu,2fe42587f0bc856df33cba00,听海阁相声会馆,珠市口东大街甲16号天鼎218文化金融园N5单元（停车场北门右侧50米）,北京市,北京市,东城区,15321839115,unknown,
baidu,9046df55eddf47522bb97c4c,刘老根文化广场,前门东路小江胡同38号,北京市,北京市,东城区,"010-67015789,010-67055518",unknown,
baidu,39c900a388cc4321aaf729dd,77'BEER GIRL,前门大街139,北京市,北京市,东城区,,unknown,
baidu,42ab13d4c7f0778bc7f50dc8,大栅栏街道爱心互助浴池,北京市西城区前门大力宾馆(天安门店),北京市,北京市,西城区,,unknown,
baidu,db8dd765c15579c76e20b9ef,前门啤酒花园广场,前门东路与鲜鱼口街交叉路口往西南约100米,北京市,北京市,东城区,,unknown,
baidu,1a0e7175502a8d3a9de32115,燕家2号(大栅栏西街商业店),大栅栏西街燕家胡同2号,北京市,北京市,西城区,18510017091,unknown,
baidu,bb1d38e47c543c540c0a7054,大观楼电影院,前门大街大栅栏街36号,北京市,北京市,西城区,,unknown,
baidu,9695ea62990089d42fb17e3a,保利国际影城(北京天安门CINITY店),煤市街廊房头条交叉口东北角北京坊东区B1-B2层,北京市,北京市,西城区,,unknown,
baidu,6401c4df78989604047ce895,BEER+GIRL,北京市东城区前门大街,北京市,北京市,东城区,,unknown,
baidu,7cfbd7f8e2a85afa40024574,中和戏院,大齐家胡同前门大街,北京市,北京市,西城区,,unknown,
baidu,532fc058d4d46c57a11de98f,魔杰电竞馆(前门东大街店),前门东大街23号,北京市,北京市,东城区,,unknown,
baidu,5cf916e712da4c5015a19098,廊房(北京坊),北京市西城区廊房头条胡同21号W1号楼B1层(22:00后从W2号楼南面电梯下),北京市,北京市,西城区,,unknown,
baidu,f6c2798a1acaeef68d1a8960,疆进酒·OMNI SPACE,天桥南大街9号天桥艺术中心地下一层B-103,北京市,北京市,西城区,13241688210,unknown,
baidu,594470c64aa3f2a7f5c59c5e,夜莺剧场,北京市西城区大栅栏街道三井胡同23号,北京市,北京市,西城区,15120033076,unknown,
baidu,a5ef680f22f2ddceb9df8fcb,脚病治疗中心,虎坊路街17号,北京市,北京市,西城区,"(010)63546662,(010)63546663",unknown,
baidu,77a24e0cdb5134aa3a04b1c7,大碗茶,北京市西城区前门西大街正阳市场3号楼(近老舍茶馆),北京市,北京市,西城区,(010)63036830,unknown,
baidu,625703dbdc9928bed13ce3cb,十条TIAO,北京市东城区西兴隆街40号,北京市,北京市,东城区,,unknown,
baidu,785c10b86e32578286420e41,北京天桥艺术中心,天桥南大街9号楼,北京市,北京市,西城区,4006353355,unknown,
baidu,c4f07d89265e4e905c0d0270,青春鼓曲社,前门大街大北照相馆B1-B105,北京市,北京市,东城区,,unknown,
baidu,d09d163ea03be65f95f08cec,北京坊西广场,北京市西城区廊房头条13号,北京市,北京市,西城区,,unknown,
baidu,8a0ba5e29bb89106adb22aea,游京记·国风小楼,北京市西城区门框胡同17号,北京市,北京市,西城区,,unknown,
baidu,ad90203c203456de6f3e1bd9,銮庆18号会馆,北京市东城区銮庆胡同南18号,北京市,北京市,东城区,,unknown,
baidu,979a209632811fd5f7eafc6f,天桥剧场,北京市西城区北纬路30号,北京市,北京市,西城区,(010)83156338,unknown,
baidu,e6ee2fd275341f482b11d101,北京音乐厅,西长安街街道北新华街1号(近西长安街),北京市,北京市,西城区,(010)66513145,unknown,
baidu,7c34d3a453ab0da85bf6be43,玉壶春茶社,青竹巷与抬头巷交叉口东北方向40米,北京市,北京市,西城区,13501361255,unknown,
baidu,f1a185c12ff6647cc72ba1b1,老舍剧场,前门西大街95号,北京市,北京市,西城区,,unknown,
baidu,01946d0551763c4540e19256,传奇奢华影城(新活馆店),东打磨厂街7号新活馆B1层,北京市,北京市,东城区,(010)67085771,unknown,
baidu,476dd72692c3d3d883288a8d,茶香一号,北京市东城区前门街道小江胡同34号,北京市,北京市,东城区,,unknown,
baidu,ddf2f8beaf2ff4a2f7eafc2a,八间坊轰趴民宿会议聚会,樱桃斜街29号,北京市,北京市,西城区,,unknown,
baidu,8affc02e33b9aebe0b69d99a,中山公园音乐堂,西长安街中山公园内,北京市,北京市,东城区,(010)65598285,unknown,
baidu,d626f7d8da408cb66fa3ccd1,苏斌油画工作室,北京市西城区茶儿胡同37号,北京市,北京市,西城区,,unknown,
baidu,caabb8e824b4a29a5abbbc52,老电影茶座(大栅栏西街商业店),北京市西城区大栅栏街36号,北京市,北京市,西城区,,unknown,
baidu,c416f196197ca615b54f5445,幕秀影院(哈德门中心店),崇文门外大街哈德门广场西塔1号楼B1层1001号,北京市,北京市,东城区,(010)67102261,unknown,
baidu,1774c3bde4b8b0439f09f708,燕茗轩,北京市西城区铁树斜街东南园小区南门东南侧约100米,北京市,北京市,西城区,"13120110088,13269080852",unknown,
baidu,8dedd60efd5b2ea2d2f49e5a,盛永斋茶艺馆,北京市西城区大栅栏街道杨梅竹斜街63号,北京市,北京市,西城区,(010)63084861,unknown,
baidu,8f4fdd057c510db25d0d024b,天缘茶舍,北京市丰台区丰管路5号院盛鑫嘉园5号楼二层201室,北京市,北京市,丰台区,13901216212,unknown,
baidu,a9e8302c18ef58efd0ff2383,秋夜京梦-沉浸剧场,前门西大街正阳市场3号楼老舍茶馆二楼非遗厅和艺苑厅,北京市,北京市,西城区,,unknown,
baidu,b0366186e0cbf824adb22a63,祥义号银作局(绸缎店),大栅栏街1号1幢-1,北京市,北京市,西城区,"(010)63037020,13671264263",unknown,
baidu,7524cb4f34b6f72d04026fcb,吴裕泰(前门大街店),前门大街42号（鲜鱼口东口）,北京市,北京市,东城区,(010)67023869,unknown,
baidu,66e37bb4cfc6ccac88db736c,隐巷晚·MusicBar·LiveHouse,门框胡同27号,北京市,北京市,西城区,"13240471565,17634441204",unknown,
baidu,c5e0d6862966e5686f3e1b0a,人民咖啡馆(前门店),前门大街81号,北京市,北京市,西城区,"(010)83168321,13466616884",unknown,
baidu,ce45b76ca974e8bfb2077dd5,将将堂书法篆刻工作室,杨梅竹斜街43号,北京市,北京市,西城区,13910867301,unknown,
baidu,caaa8d45ed51de6abca822ae,赵春香微妙艺术馆,赵锥子胡同24号,北京市,北京市,西城区,"13436841923,18614077821",unknown,
baidu,5e9880430459454428b97cbb,VOYAGE COFFEE(三里河公园店),长巷五条19号3幢1层,北京市,北京市,东城区,13126500068,unknown,
baidu,37987a799828ae94b35c6a14,如愿宫灯,樱桃斜街27号,北京市,北京市,西城区,18810811699,unknown,
baidu,fc0d710949cb148d4e6d46a8,BERRY BEANS(大栅栏店),樱桃斜街23-25号,北京市,北京市,西城区,13811156224,unknown,
baidu,70c5dbf761eda0288605bf01,弄堂SPACE,北京市西城区仁寿路16号,北京市,北京市,西城区,18868984102,unknown,
baidu,a88131e1d301fbb9c26c14bc,北京市东城区前门街道市民活动中心,右安门内大街右安门紫金印象,北京市,北京市,东城区,,unknown,
baidu,bdd60bb4823576ccf4e73be6,宣南书店·咖啡厅·下午茶(琉璃厂店),小安澜营二条4号,北京市,北京市,西城区,18500550818,unknown,
baidu,bee1a3920f9fc54d88fc06e9,魁德社,北京市西城区延寿街甲5号,北京市,北京市,西城区,(010)63179884,unknown,
baidu,56ebe896c1f343414e5547b9,如家派柏云酒店(北京前门步行街店),北京市西城区粮食店街31号,北京市,北京市,西城区,(010)63036198,unknown,
baidu,5a2ff71365b9f0b88af15d84,希岸酒店(北京天安门前门步行街店),前门大街72号,北京市,北京市,东城区,"(010)52172021,13611214663",unknown,
baidu,c5ec0576a4a585c2cafa5f63,喆啡酒店(北京天安门广场前门大街地铁站店),前门珠市口粮食店街39号,北京市,北京市,西城区,"(010)63037720,18701030173",unknown,
baidu,e5b56a25d77dd422ca09f052,懿庭臻舍酒店(北京天安门广场店),北京市东城区布巷子胡同26号,北京市,北京市,东城区,(010)67019899,unknown,
baidu,2e00c5ddeabe7a05d7851f06,北京天马宾馆,大栅栏街10号,北京市,北京市,西城区,(010)67235735,unknown,
baidu,c2f4428641a3f5d0344aaec0,全季酒店(北京前门地铁站店),大栅栏西街15号,北京市,北京市,西城区,(010)63018889,unknown,
baidu,d83e8d1fdcfa63b4cae33c06,北京前门四合院漫心府,北京市东城区大江胡同120号,北京市,北京市,东城区,(010)67188828,unknown,
baidu,07c0966efab697574d55471e,前门宾馆(北京前门大栅栏店),北京市西城区前门煤市街杨梅竹斜街9号,北京市,北京市,西城区,(010)63036543,unknown,
baidu,210a5cf32422e88c78f7969a,速8酒店(北京前门大栅栏店),北京市西城区大栅栏西街56号,北京市,北京市,西城区,(010)63135895,unknown,
baidu,98d5e0f9696bc50d9cec2bf1,白玉兰酒店(北京天安门广场前门店),大栅栏西街12号,北京市,北京市,西城区,"(010)63014351,(010)63032354",unknown,
baidu,84e56206f4499a2d17948e04,懿庭臻舍酒店(北京前门步行街店),前门大街143号,北京市,北京市,西城区,(010)59006499,unknown,
baidu,afd1d0e5d3092c42bea240e8,汉庭酒店(北京前门店),北京市东城区长巷五条1号甲1号,北京市,北京市,东城区,(010)67056668,unknown,
baidu,9bca05fae769f2395fd4fe17,新升宾馆(北京大栅栏西街店),大栅栏西街朱家胡同6号,北京市,北京市,西城区,(010)63035584,unknown,
baidu,0e5f3d7824399d802d4733c5,琳宜精选酒店(北京天安门广场前门店),大栅栏粮食店街17号,北京市,北京市,西城区,(010)83160226-0,unknown,
baidu,e812b970a4ce4e5ab05c6a21,桔子酒店(北京天安门广场大栅栏店),大栅栏西街11号,北京市,北京市,西城区,(010)63108856,unknown,
baidu,182f55611126eea1283a9f83,城市便捷酒店(北京前门大栅栏店),北京市西城区前门煤市街小椿树胡同14、16号,北京市,北京市,西城区,"(010)56884666,18500216788",unknown,
baidu,b8ddf22257bd96e8871541c3,宜必思酒店(北京天安门广场店),大栅栏街25号,北京市,北京市,西城区,(010)63151718,unknown,
baidu,4d8d875e8949120a81288a39,时光漫步酒店(北京天安门广场前门地铁站店),小齐家胡同18号,北京市,北京市,西城区,(010)63187789,unknown,
baidu,d81089f28ba5aaaa76e5b63d,如家派柏·云酒店(北京天安门广场大栅栏西街店),大栅栏西街86号,北京市,北京市,西城区,(010)63155619,unknown,
baidu,d068655bfd2027dba204643d,如家精选酒店(北京天安门广场前门大栅栏步行街店),大栅栏街32号,北京市,北京市,西城区,(010)63013011,unknown,
baidu,0a46dc0f116ad04730621206,京文宾馆(北京前门店),前门大栅栏北火扇胡同2号,北京市,北京市,西城区,(010)63031857,unknown,
baidu,7d5f3a0a6d0b63522cb90806,北京前门长得福精品酒店,前门珠宝市街31号,北京市,北京市,西城区,(010)63036011,unknown,
baidu,32ab091870438d37c6effb9b,秋果溪院(北京天安门广场前门店),粮食店街13号,北京市,北京市,西城区,"(010)63038879,18535741915",unknown,
baidu,0fe97227b9d4e766902ca357,速8精选酒店(北京天安门广场前门步行街店),粮食店街65号,北京市,北京市,西城区,(010)83169220,unknown,
baidu,3616d5505280a1ccd618b774,格林豪泰酒店(北京前门大栅栏店),北京市西城区大栅栏西街56号,北京市,北京市,西城区,"(010)63156115,(010)63156117",unknown,
baidu,2df3b2987291fe5690114c15,7天连锁酒店(北京天安门广场店),北京市西城区大栅栏街15号,北京市,北京市,西城区,(010)63159992,unknown,
baidu,aa235bc9705697f6b23c819e,7天优品酒店(北京天安门广场店),大栅栏西街16号,北京市,北京市,西城区,(010)63157778,unknown,
baidu,06ebe02ee9061b3a06fef5be,潮漫酒店(北京天安门广场店),大栅栏街21号,北京市,北京市,西城区,(010)63014688,unknown,
baidu,04359a0904940f9430621265,全季酒店(北京前门大街珠市口店),珠市口东大街16号,北京市,北京市,东城区,(010)67029918,unknown,
baidu,e42d8010b6e5309a4307c1b0,北京前门大街CitiGO欢阁酒店(北京天安门广场店),前门大街112号,北京市,北京市,东城区,(010)67020588,unknown,
baidu,27d9748e23ec09a38e55ecf1,希岸Deluxe酒店(北京天安门珠市口地铁站店),珠市口东大街346号,北京市,北京市,东城区,"(010)67016661,(010)67016667",unknown,
baidu,73e5519f9296a9693010afe3,前介·酒店(北京天安门广场珠市口地铁站店),前门大街109号,北京市,北京市,西城区,(010)63041688,unknown,
baidu,35debf299b1b505da7da39e3,欣燕都连锁酒店(北京前门天街店),珠市口西大街83号,北京市,北京市,西城区,(010)63025603,unknown,
baidu,40e840145bad5b4841d63e87,北京祥伦·舍酒店(北京天安门广场前门步行街店),粮食店街63号,北京市,北京市,西城区,(010)63047007,unknown,
baidu,dc0f0adc64e60b21f922139c,贯通现代酒店(北京前门店),珠市口西半璧街1号,北京市,北京市,东城区,(010)67072299,unknown,
baidu,4ce10ce66096f0b8441a323d,北京贵宾楼饭店,东长安街35号,北京市,北京市,东城区,(010)65137788,unknown,
baidu,669775d035a11b42fd0eb03d,北京东方君悦大酒店,东长安街1号东方君悦大酒店1层,北京市,北京市,东城区,(010)65109000,unknown,
baidu,e6144a35da83f5c02202204c,北京万豪行政公寓,北京市东城区霞公府街1号北京饭店正后面1楼,北京市,北京市,东城区,(010)65649999,unknown,
baidu,6d1d4973c7061397b11e3604,橙芷·秋果酒店(北京天安门广场店),长巷二条1号1层101号2层3层,北京市,北京市,东城区,(010)67010788,unknown,
baidu,884fdbb209cc47df2dfaa713,北京金霖酒店,珠市口东大街346号,北京市,北京市,东城区,(010)67010006,unknown,
baidu,372efa86f4ea26dcabf0cd3d,皓阳心晴酒店(北京前门大栅栏步行街店),大栅栏街33号,北京市,北京市,西城区,(010)63153335,unknown,
baidu,34b2bafdbc866320b320a871,朗丽兹酒店(北京天安门广场前门地铁站店),前门西河沿39号,北京市,北京市,西城区,(010)63032201,unknown,
baidu,a1418eb403447d66ebe582d7,北京新侨饭店,北京市东城区崇文门西大街1号,北京市,北京市,东城区,(010)65133366,unknown,
baidu,5dad5dd36551255136b06c51,维斯特酒店(北京前门大栅栏店),大栅栏西街41号,北京市,北京市,西城区,(010)63030952,unknown,
baidu,78bd50f7c2f0ad4231870a06,隐沫酒店(北京天安门广场前门店),大栅栏街道大栅栏西街55号（近珠市口地铁站A口）,北京市,北京市,西城区,"(010)63028699,13269234061",unknown,
baidu,4fc3161a65325ab03a13fdd8,合德缘四合院酒店(北京天安门广场珠市口地铁站店),北京市西城区前门煤市街施家胡同11号,北京市,北京市,西城区,"(010)63186228,18310417792",unknown,
baidu,b3aa435db1b4711215764359,北京金顺精品酒店,煤市街施家胡同32号,北京市,北京市,西城区,(010)63015589,unknown,
baidu,0dd795df38ff4c1f901fc997,汉庭酒店(北京天安门广场前门店),前门门框胡同30号,北京市,北京市,西城区,(010)63018898,unknown,
baidu,a510ef0a3955403a3310afd1,速8精选酒店(前门大街珠市口地铁站C口店),西草市东街14号,北京市,北京市,东城区,(010)67072387,unknown,
baidu,2b47374a48a203732b201aa8,观旗宾馆(北京天安门广场店),北京市西城区前门西大街1号,北京市,北京市,西城区,(010)63038489,unknown,
baidu,2dd97fee42a2286d1d1d114b,桔子水晶酒店(崇文门店),北京市东城区崇文门外大街114号,北京市,北京市,东城区,(010)52246060,unknown,
baidu,480ac9fbacdd9eb7ad31e5fd,北京京韵十七筑四合院酒店,北京市西城区前门大栅栏街道排子胡同38号,北京市,北京市,西城区,(010)63152598,unknown,
baidu,881a28e7bb4af45ef942b23d,北京东方饭店,北京市西城区万明路11号,北京市,北京市,西城区,(010)63014466,unknown,
baidu,02931ca50b6e69ef00ec01ad,北京前门扇酒店,北京市北火扇胡同10号,北京市,北京市,西城区,(010)63010080,unknown,
baidu,1c1e4d80ea82ced72eb96d4c,鑫源华酒店(北京天安门广场大栅栏商业街店),煤市街140号,北京市,北京市,西城区,(010)83197833,unknown,
baidu,f26bb18b1169303922f0175c,如家华驿酒店(北京天安门大栅栏店),前门煤市街大力胡同17号,北京市,北京市,西城区,(010)63028558,unknown,
baidu,925c550f804f0fab5a3ac806,北京崇文门饭店,北京市东城区崇文门西大街2号,北京市,北京市,东城区,(010)65122211,unknown,
baidu,637df60a4c201a6b40afe62f,北京前门富力智选假日酒店,北京市西城区南纬路36号,北京市,北京市,西城区,(010)83157777,unknown,
baidu,81d6a509bf4f3b596e20b907,北京内蒙古大厦,北京市东城区崇文门内大街2号,北京市,北京市,东城区,(010)65186666,unknown,
baidu,d0b8923fcbb54ffbb5f42f07,北京香江意舍(天安门王府井店),北京市东城区南河沿大街南湾子胡同1号,北京市,北京市,东城区,(010)65127788,unknown,
baidu,d6848a668bedeaa0c2364478,皓阳欣悦酒店(北京前门大栅栏店),培智胡同10号,北京市,北京市,西城区,(010)63159880,unknown,
baidu,cb4ca489a8300330843304f2,聚兴源宾馆(北京前门大栅栏店),煤市街博兴胡同8号东,北京市,北京市,西城区,(010)63162878,unknown,
baidu,9ad894059ca93bc0220262ab,皓阳文化酒店(北京前门大栅栏西街店),大栅栏西街53号,北京市,北京市,西城区,(010)83197867,unknown,
baidu,dbf4d6eede92be336fa3cc06,北京新世界中心同派酒店,崇文门外大街3-5号新世界百货崇文店综合馆F1,北京市,北京市,东城区,(010)67081188,unknown,
baidu,4aef36d896407661ca2915d3,北京前门十二间四合院,煤市街西河沿大街100号,北京市,北京市,西城区,13011293239,unknown,
baidu,fd007c5e7cba1775a8f7290b,北京宣武门商务酒店,北京市西城区宣武门东大街24号邻近SOGO崇光百货,北京市,北京市,西城区,(010)63014499,unknown,
baidu,742eb4f928d92f0b4d776e46,鑫珠佳宾馆(北京前门大栅栏西街店),前门大栅栏朱家胡同15号,北京市,北京市,西城区,(010)63182118,unknown,
baidu,f7dda7f701216f62354aae93,海友酒店(北京前门大栅栏店),大力胡同20号,北京市,北京市,西城区,(010)63085317,unknown,
baidu,9f50ea32935f550b57bfff23,北京天宝珠宾馆,大栅栏珠宝市街35号,北京市,北京市,西城区,(010)83151971,unknown,
baidu,28e700f1ef07c101095cb3e5,北京华宇苑宾馆,北京市西城区粮食店街23号,北京市,北京市,西城区,(010)63135886,unknown,
baidu,ceece3e3746308858f55ec14,惠廉君宾馆(北京天安门广场店),粮食店街37号,北京市,北京市,西城区,(010)63162588,unknown,
baidu,ae0a26e3b781735109b93aaf,北京温馨如家宾馆有限公司前门分店,北京市西城区粮食店街17号二层,北京市,北京市,西城区,,unknown,
baidu,266840ff2e67da35dbecedd8,北京京韵·十七筑特色民宿(13号店),北京市西城区大栅栏街道西河沿街90号,北京市,北京市,西城区,,unknown,
baidu,98c8bffbd0fbcc4bd8d89112,前进旅馆(弓子胡同),北京市西城区西河沿弓字胡同41号,北京市,北京市,西城区,,unknown,
baidu,0ca7a99745d389f40b69d9c0,北京维斯旅馆,北京市东城区长巷二条16号,北京市,北京市,东城区,(010)52889014,unknown,
baidu,f4f0743e5e823b40d9d89190,洋气dan公寓(朱家胡同分店),北京晋绛旅馆(朱家胡同),北京市,北京市,西城区,(010)56320606-17574880,unknown,
baidu,de422c275377a759f603b847,不知道的家公寓(刷子市胡同1号分店),北京市刷子市胡同二一八社区美华世纪大厦,北京市,北京市,东城区,(010)56320606-28366759,unknown,
baidu,5594cb37f33418d784154165,宾馆饭店,北京市东城区前门大街,北京市,北京市,西城区,,unknown,
baidu,65ad412487d7a564c9291507,懿庭臻舍酒店(北京前门步行街店)-大堂,北京市东城区前门大街143号,北京市,北京市,东城区,,unknown,
baidu,7e18c4d5f87301a0f1193737,北京皇家驿栈餐厅(前门店),北京市东城区鲜鱼口街87号,北京市,北京市,东城区,4000159010,unknown,
baidu,42091aea026a369f1b11d5ba,全季酒店(北京前门大街珠市口店)-大堂,北京市东城区珠市口东大街16号,北京市,北京市,东城区,(010)67029918,unknown,
baidu,a6b8ab9a4b5a3477077ce8e6,京华客栈,北京市西城区大栅栏西街48号,北京市,北京市,西城区,,unknown,
baidu,98d65993f4d44c90d03ce3a4,橙芷秋果酒店(北京天安门广场店)-大堂,北京市东城区长巷二条1号,北京市,北京市,东城区,,unknown,
baidu,1adfbc23589fccbf770269d8,漫心酒店(北京前门四合院店)-大堂,北京市东城区大江胡同120号,北京市,北京市,东城区,,unknown,
baidu,80b7d5bf502cbed61b94c6ce,派柏·云酒店(北京大栅栏店)-大堂,北京市西城区大栅栏西街86号,北京市,北京市,西城区,,unknown,
baidu,0cf76cca01044d8fe9f853c8,京东养车(磁器口店),珠市口东大街5号1层1-6室,北京市,北京市,东城区,18612009280,unknown,
baidu,224594f0136f628ee812e42d,四远驰名,北京市西城区廊房二条前门大街,北京市,北京市,西城区,,unknown,
baidu,d6ee8724856c119da8f0cde6,北京长安保时捷中心(长安店),北京市东城区东长安街10号长安俱乐部首层,北京市,北京市,东城区,4008726087,unknown,
baidu,5428ce67a37273f29de3215c,格兰傲途汽车保养有限公司(宣武门庄胜广场店),北京市西城区宣武门外大街6号庄胜崇光百货本馆B2,北京市,北京市,西城区,18610409272,unknown,
baidu,c5e84ac18e5ec96d72210b28,宝妈租车(前门大栅栏店),北京市西城区煤市街88-1号,北京市,北京市,西城区,"13366323268,18914018400",unknown,
baidu,c538dd3212879f91fea778d0,一嗨租车(珠市口地铁站便捷点),东城区珠市口地铁站C口侧,北京市,北京市,东城区,17710250443,unknown,
baidu,537a86d4f5f4e8685a3ac82b,辣妈租车,北京市西城区北火扇胡同前门大街,北京市,北京市,西城区,,unknown,
baidu,391e5aac63992cafe9f853a2,京喜多多24小时自助洗车店-富力中心店,富力摩根中心停车场B3,北京市,北京市,西城区,13436862588,unknown,
baidu,c13e2b158e512de231870ade,北京鹏祥路巡汽车装饰中心(西城区粉房琉璃街店),琉璃街160-12号,北京市,北京市,西城区,"(010)51255491,18911612360",unknown,
baidu,513ab6dbe5505870eedfcae3,洗涮涮汽车养护装饰中心,天桥南里3号(天桥地铁站D西南口步行390米),北京市,北京市,西城区,13041205551,unknown,
baidu,655723adf8f3319645e2747a,丰豫洗车,太平街9号高丽旁边停车场内,北京市,北京市,西城区,,unknown,
baidu,04d3d931e6144b0f3c9a5e5f,北京长安街仰望体验展厅,北京市东城区东长安街1号东方新天地,北京市,北京市,东城区,,unknown,
baidu,1b3c826ba004dc656ca3cc3c,北京京粤缘汽车维修,太平街6号富力·摩根中心E座F1层,北京市,北京市,西城区,13661346592,unknown,
baidu,e551c28312c2fbfd0aa8d426,固驰顺淼汽车贴膜改色·隐形车衣·玻璃贴膜,磁器口大街111号,北京市,北京市,东城区,18500157588,unknown,
baidu,a41e82ea8f348cd0ae080f7b,远航汽车北京王府井喜悦零售中心,北京市东城区王府井大街301号北京王府井喜悦购物中心1层G1F-03~04号,北京市,北京市,东城区,19726933488,unknown,
baidu,679c98bfdc5763013517dc97,海鸥配件中心,北京市东城区王府井大街218号东方广场西3楼第6层,北京市,北京市,东城区,,unknown,
baidu,e423b9278be30d9f14b54b4a,TRIPALS汽车养护体验中心(北京王府井喜悦购物中心店),王府井喜悦购物中心b3层,北京市,北京市,东城区,18518411809,unknown,
baidu,1cc94e5463e0550225d2bb81,维勒仕汽车养护中心STEK隐形车衣,大纱帽胡同北京万豪行政公寓B3停车场,北京市,北京市,东城区,18518411809,unknown,
baidu,7157663a1df5c3dd4e2fdfb8,Auto Garage车酷洗车保养·隐形车衣,东长安街1号东方广场P3停车场C1区,北京市,北京市,东城区,,unknown,
baidu,229e39fb5460e65fe8e582d0,JEEP(工美大厦王府井店),北京市东城区王府井大街255号东安市场4层,北京市,北京市,东城区,,unknown,
baidu,1d49e59441384aad950319a7,中联桂政国际汽车贸易有限公司,北京市东城区东长安街702~703号,北京市,北京市,东城区,(010)65252288,unknown,
baidu,924f48ad5b3a8cd152e5c5a8,美孚(富力·摩根中心店),北京市西城区燕京北街富力摩根中心,北京市,北京市,西城区,4008206130,unknown,
baidu,caf1a0613ee335ab8f55ec43,嘎嘎租车(桥湾店),北京市东城区大市胡同东3号院,北京市,北京市,东城区,,unknown,
baidu,e7dc3606a63d543a32870af1,嘎嘎租车(崇文门店),北京市东城区崇文门西大街4号,北京市,北京市,东城区,,unknown,
baidu,a980d05a3923f7e27bf7962f,元康明叉车吊车出租公司,北京市西城区太平街6号6层E-711,北京市,北京市,西城区,4009736817,unknown,
baidu,a10ec869fdf5de2a471a32d2,北京前门国医堂(前门西大街店),北京市西城区前门西大街正阳市场3号楼1层,北京市,北京市,西城区,(010)53605858,unknown,
baidu,2a64d1cff79513cceae582b9,北京同仁堂中医医院,北京市东城区西打磨厂街46号,北京市,北京市,东城区,"(010)67019022,(010)67019102",unknown,
baidu,1a2c3ead3f20cce586420ecc,大栅栏社区卫生服务中心-发热门诊,西城区煤市街152号,北京市,北京市,西城区,18910616597,unknown,
baidu,593850fbbe030f44df1e52ff,同仁堂(大栅栏店),大栅栏街24号,北京市,北京市,西城区,"(010)63014883,(010)63028447,(010)63031155",unknown,
baidu,9f97b1c5daae047ab64f545a,大栅栏社区卫生服务中心,北京市西城区煤市街152号,北京市,北京市,西城区,(010)63030548,unknown,
baidu,dfced03b6e910ebb7ab55c9b,广誉远(前门店),北京市东城区前门大街66号,北京市,北京市,东城区,,unknown,
baidu,afacca903d8b442a72210bac,北京三仁医疗美容门诊部,北京市东城区珠市口东大街11号一层108室,北京市,北京市,东城区,,unknown,
baidu,f6d3df761e44cd13770269e2,同仁堂医馆(大栅栏店),北京市西城区前门大栅栏26号(同仁堂药店西),北京市,北京市,西城区,(010)63031155,unknown,
baidu,08fc93dfccf9eb889a68b482,德寿堂中医诊所,北京市西城区珠市口西大街175号德寿堂药店,北京市,北京市,西城区,(010)63032093,unknown,
baidu,5ce2637d99fa2148ae31e5c8,北京市宣武中医医院,北京市西城区万明路13号,北京市,北京市,西城区,(010)83776388,unknown,
baidu,4ea3f2f1b2f82db3afcb66f4,北京市东城区天坛社区卫生服务中心,北京市东城区粉厂胡同57号,北京市,北京市,东城区,"(010)67073272,(010)67074337",unknown,
baidu,02359578e0cd958d2cb17e02,西城区北火扇社区卫生服务站,北京市西城区弓子胡同前进旅馆东门西南侧约70米,北京市,北京市,西城区,,unknown,
baidu,87248d967294ffce2806ced7,首都医科大学附属北京友谊医院-医疗保健中心,永安路95号首都医科大学附属北京友谊医院西城院区,北京市,北京市,西城区,,unknown,
baidu,803708f1754d600401897227,首都医科大学附属北京友谊医院-门诊,北京市西城区永安路95号,北京市,北京市,西城区,,unknown,
baidu,37b8dcf56574c18ada2f2875,北京晶珠中医医院,北京市东城区精忠街5号,北京市,北京市,东城区,"(010)56190107,(010)56245699",unknown,
baidu,8980583c7571942b2d4733ef,北京耀东门诊部,北京市东城区崇文门外大街3号新世界中心写字楼B座五层(新世界百货综合馆五层),北京市,北京市,东城区,(010)67085075,unknown,
baidu,112cc1734570d5433904b1f2,北京市规划展览馆-医疗点,北京市东城区前门东大街20号规划展览馆内(老火车站东侧),北京市,北京市,东城区,,unknown,
baidu,87742429acbfb52d5b3ac8e5,北京幸福医疗美容医院,北京市东城区金鱼池西街与珠市口东大街交叉口西南方向60米,北京市,北京市,东城区,(010)67029850,unknown,
baidu,08f1f1f5497d56b788db7327,首都医科大学附属北京友谊医院-急诊,北京市西城区永安路95号,北京市,北京市,西城区,(010)63138325,unknown,
baidu,1a56f8acf35f9cf90782c222,北京市东城区前门街道前门社区卫生服务站,北京市东城区草厂六条4号,北京市,北京市,东城区,(010)67024016,unknown,
baidu,2f1956003015ca6da2d230fb,北京立奥医疗美容门诊部,北京市东城区珠市口东大街13号一层一区,北京市,北京市,东城区,,unknown,
baidu,b1ea841ef32488fec9e33cc4,首都医科大学附属北京友谊医院-住院服务中心,北京市西城区永安路95号,北京市,北京市,西城区,,unknown,
baidu,850815e172a1118243e192f9,北京国龙中医医院,北京市东城区珠市口东大街155号,北京市,北京市,东城区,(010)67038284,unknown,
baidu,e578b7b6893d22b8220262cc,北京同仁堂中医医院-综合楼,北京市东城区西打磨厂街46号,北京市,北京市,东城区,,unknown,
baidu,18c9d3f5af1cc6fc97ec8404,北京市东城区天坛街道金鱼池社区卫生服务站,北京市东城区天坛街道天坛路金鱼池小区西区13楼1单元101-102室,北京市,北京市,东城区,(010)67023088,unknown,
baidu,b1c556e8e519e171b4265538,北京同仁堂中医医院-门诊,北京市东城区西打磨厂街46号,北京市,北京市,东城区,,unknown,
baidu,05fff4a459ddb3de7c29bd4a,北京市西城区大栅栏街道石头胡同社区卫生服务站,北京市西城区陕西巷84号,北京市,北京市,西城区,,unknown,
baidu,be54cde97fc1014179f796f6,北京医院,北京市东城区东单大华路1号,北京市,北京市,东城区,"(010)65282171,(010)85132266",unknown,
baidu,aa150f32a89351f24c3a592d,北京港澳国际医务诊所,北京市东城区东长安街1号东方广场W3座平台层,北京市,北京市,东城区,(010)85412788,unknown,
baidu,1c6c79d36598381dddee8b75,北京古仁堂大药房(前门大街店),北京市东城区前门大街14号,北京市,北京市,东城区,15901092810,unknown,
baidu,72d47eadc5b6a3d915a1900e,首都医科大学-附属北京友谊医院门急诊大楼,北京市西城区永安路95号,北京市,北京市,西城区,,unknown,
baidu,4b9870464dff8c4a0bccdd84,惠幼齿科·正畸中心(鑫王冠店),珠市口东大街6号一层6-7,北京市,北京市,东城区,(010)68829008,unknown,
baidu,b0b40e6bfb76c9f5bda24005,北京市宣武中医医院-门诊,北京市西城区万明路甲8号,北京市,北京市,西城区,,unknown,
baidu,e6ee2fd2e55bef512b11d1c8,首都医科大学附属北京友谊医院,北京市西城区永安路95号,北京市,北京市,西城区,(010)63138585,unknown,
baidu,36ac12967a2a66e8ed74f883,北京博惠门诊部,北京市东城区珠市口东大街6号珍贝大厦2层,北京市,北京市,东城区,4000890999,unknown,
baidu,72e57fd73addc3d2f8dc85d0,医技楼,北京市西城区永安路95号西院1层457室,北京市,北京市,西城区,,unknown,
baidu,4059eb2954665fff3913fd31,首都医科大学附属北京友谊医院-发热门诊,西城区永安路95号,北京市,北京市,西城区,,unknown,
baidu,61f51fedead71a548c77270b,北京关继波中医门诊部,北京市东城区珠市口东大街4号楼,北京市,北京市,东城区,(010)66079239,unknown,
baidu,88d5cc80726117b6c056accc,北京市西城区天桥街道仁民路社区卫生服务站,北京市西城区华仁路12号,北京市,北京市,西城区,(010)63150749,unknown,
baidu,b9e5d0b89ec7a3bd81a12ee8,北京医院-门诊部,北京市东城区大华路1号,北京市,北京市,东城区,(010)85133211,unknown,
baidu,2253dff1ad6d59e26c3e1b4b,北京中西医结合学会名家传承工作办公室,北京市西城区前门西后河沿街老舍茶馆(前门店),北京市,北京市,西城区,,unknown,
baidu,f9fd606278017a060f0e6bff,北京急救中心,北京市西城区前门西大街103号,北京市,北京市,西城区,(010)66013877,unknown,
baidu,eec63c7a4e24d477cf06a449,德诚堂,北京市西城区前门西大街55号,北京市,北京市,西城区,,unknown,
baidu,82e715d29a9fddc0bfa2408b,爱康国宾(北京磁器口分院),北京市东城区珠市口东大街6号珍贝大厦F2,北京市,北京市,东城区,4000890999,unknown,
baidu,2fd2beab3f3f7c2f7adbd2d0,北京同仁医院-门诊,北京市东城区东交民巷1号,北京市,北京市,东城区,(010)58266699,unknown,
baidu,74ab2ae1262b09271c3894dd,北京市西城区大栅栏街道东琉璃厂社区卫生服务站,北京市西城区大栅栏街道藏家桥胡同7号,北京市,北京市,西城区,,unknown,
baidu,5e53af1a33d35f224151c027,首都医科大学附属北京同仁医院(西区)-急诊,北京市东城区东交民巷1号同仁医院急诊部2F层202,北京市,北京市,东城区,(010)58266699,unknown,
baidu,dffd631c504d65a539221ce2,北京茗视光眼科(崇文门院区),北京市东城区崇文门外大街16号便宜坊大厦16-17层,北京市,北京市,东城区,010-86391718,unknown,
baidu,6879c04aa2040873a8f7291c,泰禾医疗,北京市东城区祈年大街18号3号楼,北京市,北京市,东城区,(010)51078798,unknown,
baidu,4ef008a3894b27b69d95def1,首都医科大学附属北京同仁医院(西区),北京市东城区东交民巷1号,北京市,北京市,东城区,(010)58266699,unknown,
baidu,b7d2423f6fd15e7e09b93ae0,百康药房(珠市口分店),北京市东城区天坛街道珠市口东大街甲16号世纪天鼎购物广场F1,北京市,北京市,东城区,,unknown,
baidu,d6df91c121670373f7b916c4,北京市普仁医院,北京市东城区崇文门外大街100号,北京市,北京市,东城区,(010)87928000,unknown,
baidu,ef703bf4597937a7b75f1e2d,首都医科大学附属北京同仁医院,北京市东城区东交民巷1号,北京市,北京市,东城区,(010)58269911,unknown,
baidu,108b1cea7a0f7db53586f416,北京市惠民医药卫生事业发展基金会北京炎黄中医医院,北京市东城区天坛路55号元隆大厦五层,北京市,北京市,东城区,"(010)65133046,(010)65133049",unknown,
baidu,beabdbf48f1eb3817069d3c8,北京市第二医院,北京市西城区宣武门内大街油坊胡同36号,北京市,北京市,西城区,(010)66061122,unknown,
baidu,14c11559fa8e92ce30169ba2,北京天桥医院门诊大楼,北纬路11号北京天桥医院内,北京市,北京市,西城区,,unknown,
baidu,750ec1659110ed2a4d3a598e,北京医院-体检中心,北京市东城区东单大华路1号北京医院体检楼,北京市,北京市,东城区,(010)58115125,unknown,
baidu,407ae2d03ca97b570c0e6bde,北京同仁堂中医医院-住院部,北京市东城区西打磨厂街46号4号楼4012室,北京市,北京市,东城区,,unknown,
baidu,46cac9d296d422e6c33644e2,中药饮片精品店,大栅栏街18号大栅栏购物中心大栅栏食品商场F1,北京市,北京市,西城区,,unknown,
baidu,a2784453d6ceda53dbeced8c,东城区中医药特色健康管理社区,北京市东城区西晓市街锦江之星珠市口店东侧,北京市,北京市,东城区,,unknown,
baidu,860236a122b465423b221cbf,九安医疗器械,北京市西城区永安路天桥小区-东区,北京市,北京市,西城区,,unknown,
baidu,5a7a66570ff3e58925e0a019,北京市东城区性病艾滋病防治所,北京市东城区西晓市街16号,北京市,北京市,东城区,,unknown,
baidu,ef83de6a8cbb140a734b87ad,首都医科大学附属北京友谊医院-北大厅,北京市西城区永安路95号首都医科大学附属北京友谊医院,北京市,北京市,西城区,,unknown,
baidu,1f2d5eeb53e407c344e27475,初心大药房(大栅栏店),北京市西城区棕树斜街85号,北京市,北京市,西城区,13810301238,unknown,
baidu,11cb2cf949ec2987631c67b6,紧急救援站,北京市西城区天桥市场中街北京天桥艺术大厦,北京市,北京市,西城区,,unknown,
baidu,5698e0c84baaa8730c0a708e,北京市宣武区中医医院体检中心,北京市西城区万明路13号,北京市,北京市,西城区,,unknown,
baidu,8669a389a7d645bd9222e0fa,首都医科大学附属北京友谊医院-病案科,北京市西城区永安路95号,北京市,北京市,西城区,,unknown,
baidu,44f555c232e86c87fa0cad5a,自然之声助听器(天桥店),北京市西城区福长街天桥小区-西区,北京市,北京市,西城区,18614012869,unknown,
baidu,0dc3d82dd862417575e5b6c7,同仁堂(打磨厂店),北京市东城区西打磨厂街3号楼一层打磨厂同仁堂健康专柜,北京市,北京市,东城区,,unknown,
baidu,206c077e06d83ed18b2fb5f1,北京市东城区中贝中医药研究所,北京市东城区祈年大街珍贝大厦,北京市,北京市,东城区,,unknown,
baidu,b0d056f29767c767cac3dbcb,桂芸堂平价药店,北京市西城区樱桃斜街34号,北京市,北京市,西城区,,unknown,
baidu,b339e019749adfcc283a9f6b,北京友谊医院人人健康学校,北京市西城区天桥街道永安路95号首都医科大学附属北京友谊医院门急诊大楼F7层中厅,北京市,北京市,西城区,,unknown,
baidu,247046c865c6addfcac3db15,中天宝康蜂产品,北京市西城区天桥市场斜街天桥小区-东区,北京市,北京市,西城区,,unknown,
baidu,3357ba080621c5e1c9c3db00,海王星辰健康药房(福长街店),北京市西城区福长街13号,北京市,北京市,西城区,13161053787,unknown,
baidu,bf29b702590c6f8009b93ac4,同仁堂(崇文门店),北京市东城区-崇文门外大街42号,北京市,北京市,东城区,(010)67158347,unknown,
baidu,85663f50d7438b31b2077d60,献血点(天桥友谊医院),西城区永安路友谊医院东公交站西南侧,北京市,北京市,西城区,4006012320,unknown,
baidu,631373f61a152f3448cc4a47,正济堂药品连锁超市(天桥店),北京市西城区福长街31号,北京市,北京市,西城区,,unknown,
baidu,44b034cda751060e0bf5eb9c,北京市宣武中医医院-发热门诊,西城区万明路13号,北京市,北京市,西城区,(010)83776351,unknown,
baidu,f087a4d5279f962988fc0620,御草堂健康管理(天坛店),北京市东城区天坛路金鱼池小区,北京市,北京市,东城区,,unknown,
baidu,eac44f469f0f0b2e04026f87,颗粒药房,北京市东城区西打磨厂街北京同仁堂中医医院,北京市,北京市,东城区,,unknown,
baidu,7b2124ff1e911476246e9833,诚意药业,北京市西城区珠市口西大街120号太丰惠中大厦F1,北京市,北京市,西城区,,unknown,
baidu,d922fc4c00aa31c6f4e73bb8,北京同仁堂中医医院-发热门诊,东城区西打磨厂街46号,北京市,北京市,东城区,,unknown,
baidu,b7a58f022cf96cb8c1f1cf94,健康管理,北京市西城区抄手胡同2号,北京市,北京市,西城区,,unknown,
baidu,509cd1720f25ada6a1a93483,泰康拜博口腔(北京总院店),祈年大街18号院兴隆国际大厦4-5号楼,北京市,北京市,东城区,010-81909588,unknown,
baidu,49b082e886133d6f38e4a63c,北京齿康达口腔门诊部,北京市东城区天坛路金鱼池西区19号楼5号底商,北京市,北京市,东城区,(010)67015261,unknown,
baidu,915b8e25d952b9326140a9be,前门大药房出租轮椅,北京市东城区前门大街广和楼,北京市,北京市,东城区,,unknown,
baidu,cb4fd146408ecc589c9d68f1,北京市崇文区结核病防治所,北京市东城区西晓市街16号,北京市,北京市,东城区,(010)67055670,unknown,
baidu,a36555ae967f29bb7f29bdc3,香厂路社区,北京市西城区仁民路华仁路小区南1门西南侧约30米,北京市,北京市,西城区,(010)83366117,unknown,
baidu,37d60a4656f3cf601e1d11e4,瑞达口腔门诊(福长街店),北京市西城区福长街41号,北京市,北京市,西城区,(010)83136339,unknown,
baidu,8ab280245c3d2b9bdbd89179,龙果草堂,北京市西城区琉璃厂东街21号,北京市,北京市,西城区,13366698626,unknown,
baidu,3ac6c617690983c326e0a079,中国疾病预防控制中心(南纬路),南纬路27号,北京市,北京市,西城区,(010)12320,unknown,
baidu,65d6498491c5d80495ca0711,北京刘增顺口腔诊所,北京市西城区福长街43号天桥北里6号楼3单元203室,北京市,北京市,西城区,(010)83133454,unknown,
baidu,9499b846a7e1343521022063,东城区疾控南部分中心结防所,北京市东城区西晓市街16号,北京市,北京市,东城区,,unknown,
baidu,7fa934cec62715a849fd3fd2,声望听力飞利浦助听器(天桥店),北京市西城区永安路12号底商,北京市,北京市,西城区,010-83133790,unknown,
baidu,fc98496489e3e7ddfea77803,神州鸿声听力助听器(天桥店),北京市西城区福长街1号(友谊医院向东50米路南)左点听大夫,北京市,北京市,西城区,"(010)83136048,13269870557",unknown,
baidu,0d264bfdb9362045c27da2ad,千锋教育(北京东城校区),北京市东城区金鱼池中区24号数智大厦,北京市,北京市,东城区,15317202820,unknown,
baidu,fd4227fa8743663cc42ba1f8,荣宝斋教育(前门大街),北京市东城区前门大街127号,北京市,北京市,东城区,13366148180,unknown,
baidu,33fa8b727b15a79cd6b74e7d,HICOOL商学院,北京市东城区前门东路36号院15号楼,北京市,北京市,东城区,,unknown,
baidu,4e607df2e73b27d682288ad3,琴盒里的猫音乐社,北京市东城区珠市口东大街346号4幢1层08室,北京市,北京市,东城区,"13269678638,13717588488",unknown,
baidu,179583182c13584c4c6d46d8,北京劝业场,北京市西城区廊房头条17号,北京市,北京市,西城区,,unknown,
baidu,ba9e4983f1673f3d43e19216,百草书院,北京市东城区前门街道大江胡同30号,北京市,北京市,东城区,,unknown,
baidu,f2fa730c430feb7007026f39,香港中文大学北京中心,北京市东城区前门东路36号院15号楼,北京市,北京市,东城区,,unknown,
baidu,42a1ae2530c3dc0eee74f8e9,壹号画院,北京市东城区銮庆胡同23号,北京市,北京市,东城区,18511156691,unknown,
baidu,86c43c4a6c157a0e6f4760f6,环宇优教艺术,北京市西城区南新华街13号北门,北京市,北京市,西城区,"13581510068,18910053836",unknown,
baidu,ad5cf7a88bb579b8eedfca49,欧莱雅培训中心,北京市东城区祈年大街18号兴隆国际大厦8楼,北京市,北京市,东城区,,unknown,
baidu,30c726a64986283a4351c045,华夏书画社,北京市西城区琉璃厂西街2号,北京市,北京市,西城区,(010)63177287,unknown,
baidu,35a7dd0aefee6d0032f71db8,西城区椿树少年宫,北京市西城区培英胡同22号,北京市,北京市,西城区,,unknown,
baidu,488aba83d89105ff54bfff1d,北京市第十一中学(金鱼池校区),北京市东城区金鱼池西街1号,北京市,北京市,东城区,(010)67023669,unknown,
baidu,ffd6d40371bb738f16b54b98,北京市前门外国语学校,北京市东城区前门东大街甲14号,北京市,北京市,东城区,(010)67023169,unknown,
baidu,af7f64eb4b37ce22441a3258,皓目篮球训练营,珠市口东大街甲16号天鼎218文化金融园,北京市,北京市,东城区,18301173043,unknown,
baidu,0b1ff820ea60c34af50e771b,北京市西城区实验幼儿园分园(施家分园),北京市西城区施家胡同7号,北京市,北京市,西城区,(010)63173491,unknown,
baidu,5ca3884eed659afbc9fa5fb2,前门小学寄宿部,北京市东城区崇文门西河沿甲211号,北京市,北京市,东城区,(010)65112230,unknown,
baidu,267ea63b9160e9515cbe86e7,康乐里小学(大栅栏校区),北京市西城区棕树斜街26号,北京市,北京市,西城区,,unknown,
baidu,ee1a6c36753b51feb9df8fa1,阅读家LAB,北京市东城区前门大街88号102,北京市,北京市,东城区,(010)68104193,unknown,
baidu,1800a0b9b3cc6c91b320a8b6,北京市东城区崇文少年宫(国瑞城店),北京市东城区国瑞北路15号,北京市,北京市,东城区,,unknown,
baidu,b358bbf862f52633ca2915fc,乐博乐博机器人(崇文门校区),北京市东城区东打磨厂街7号宝鼎中心A座新活馆F3,北京市,北京市,东城区,"15810068915,18931699025",unknown,
baidu,8d45edd6d1858acb882fb5e9,合一书院国际幼儿园,北京市东城区中芦草园胡同5-7号（三里河公园）,北京市,北京市,东城区,15011264901,unknown,
baidu,767d995bbe4c0740dc1e5266,北京市西城区红墙意识教育基地,北京市西城区牛录胡同（电报大楼南，西单地铁站D东南口步行310米）,北京市,北京市,西城区,,unknown,
baidu,02d01fc6dcd82f4972210b44,声能量小提琴工作室(崇文门店),北京市东城区东兴隆街58号北京汇707室,北京市,北京市,东城区,13466722868,unknown,
baidu,d6ee87244b6857e0a8f0cde6,炭儿胡同小学,北京市西城区炭儿胡同11号,北京市,北京市,西城区,(010)63044156,unknown,
baidu,d6df91c1973f9d17f7b91633,中央文史研究馆,北京市东城区东大街11号,北京市,北京市,东城区,,unknown,
baidu,e56bf5e305507a440782c2e6,北京市西城区西柳树井幼儿园,北京市西城区西柳树井幼儿园位于西大街111号，珠市口地铁站A西北口步行430米,北京市,北京市,西城区,(010)63035395,unknown,
baidu,c78f34b55eaebf90b6147fd7,居岩美学培训,东打磨厂街7号宝鼎中心B座1039,北京市,北京市,东城区,13801335559,unknown,
baidu,1767a91c8f58d4361df74de1,北京师范大学附属中学,北京市西城区南新华街18号,北京市,北京市,西城区,(010)63030007,unknown,
baidu,08fc93df23cb1e919a68b499,前门小学,北京市东城区崇文门西河沿甲211号,北京市,北京市,东城区,(010)67016684,unknown,
baidu,3a9e3eae3ac7f0dd8936eef2,前门幼儿园,北京市东城区草厂九条35号(桥湾地铁站B东北口步行230米),北京市,北京市,东城区,,unknown,
baidu,d03908434eb10be51b94c61a,Saturn钢琴工作室,北京市东城区东兴隆街58号北京汇七楼738室,北京市,北京市,东城区,17615102033,unknown,
baidu,eb950d1157f11c52a5da397f,金融街惠泽幼儿园(前门园),北京市西城区樱桃斜街57号,北京市,北京市,西城区,18500469810,unknown,
baidu,1020060fe3ad6aa61894c6e6,北京育才学校,北京市西城区太平街12号,北京市,北京市,西城区,(010)52829888,unknown,
baidu,4edf9fbff0fa1394cd06a499,北京市第十一中学附属精忠街小学,北京市东城区精忠街11号,北京市,北京市,东城区,(010)67021505,unknown,
baidu,11a8c12a8a2b9e368bf15d6a,初音教育(西城校区),北京市西城区斜街36号(天桥小区东区底商),北京市,北京市,西城区,18511856343,unknown,
baidu,0b1f6e681061dbf2f50e779a,雅马哈卡瓦依·钢琴电钢琴·姜杰城音乐舞蹈培训学校(台基厂店),东打磨厂街7号宝鼎中心A座新活馆F3,北京市,北京市,东城区,,unknown,
baidu,fe178ddd3e97652a8bb988a0,大栅栏宣教室,北京市西城区前门西河沿街北京第一实验小学前门分校正门南侧约60米,北京市,北京市,西城区,,unknown,
baidu,919e7164f1267d7a770269e5,东城区青少年法制教育实践基地,北京市东城区正义路正金银行旧址,北京市,北京市,东城区,,unknown,
baidu,6aaaa98c06c494ea81288a5d,北斗星爱涂艺术(崇文门教学部),东打磨厂街7号新活馆3层,北京市,北京市,东城区,13661176281,unknown,
baidu,6c2167015b41c8b309b93a01,北京市第四十三中学,北京市西城区后孙公园胡同37号,北京市,北京市,西城区,(010)63033002,unknown,
baidu,ee8b3c122d6685392e473358,前门小学走读部,北京市东城区东兴隆街27号新怡家园9号,北京市,北京市,东城区,,unknown,
baidu,d53de30d775245d7bca24079,北京市第一六一中学(永安路校区),北京市西城区永安路寿长街1号,北京市,北京市,西城区,(010)83329550,unknown,
baidu,23418fcf3f51735f88db73f4,北京市西城区椿树地区社区教育学校,和平门外东街甲1号(和平门地铁站C2东南口步行120米),北京市,北京市,西城区,,unknown,
baidu,4edca3ffc02268c554bfffe8,北京市九十六中学(北校区),北京市东城区崇文门西小街3号,北京市,北京市,东城区,(010)67014822,unknown,
baidu,2848ffd6940b880f49cc4a98,北京市第九十六中学(南校区),北京市东城区新世界家园甲5号（磁器口地铁站A西北口步行390米）,北京市,北京市,东城区,(010)67080846,unknown,
baidu,f18886b844edfb36157643cc,商务部幼儿园,北京市东城区台基厂三条2号,北京市,北京市,东城区,(010)65247694,unknown,
baidu,bd1c314804f9587879dbd20b,红色摇篮,北京市西城区珠市口西大街前门大街,北京市,北京市,西城区,,unknown,
baidu,b35cc5d45a76cc5a74026966,北京市西城区大栅栏大安澜营幼儿园,北京市西城区大安澜营胡同13号,北京市,北京市,西城区,,unknown,
baidu,1822cc2e57458db82d473320,苏州大学北京研究院,北京市东城区西打磨厂街92号,北京市,北京市,东城区,13350231831,unknown,
baidu,f696f3c2f9c232eb1b11d5e6,北京师范大学附属中学(西区),北京市西城区南新华街15号,北京市,北京市,西城区,,unknown,
baidu,002318edd07aafc871455bdc,北京第一实验小学(虎坊桥校区),北京市西城区梁家园胡同5号,北京市,北京市,西城区,(010)52990921,unknown,
baidu,06d2dffd11eb40f688f15d3b,北京市第三十一中学,北京市西城区西绒线胡同33号,北京市,北京市,西城区,"(010)66011125,(010)66055746",unknown,
baidu,edee42456509e92bafee7a9e,北京市自忠小学(长安校区),北京市西城区东绒线胡同41号,北京市,北京市,西城区,(010)66004202,unknown,
baidu,8867cf80b4ac9f5efbf0cb27,北京师范大学附属中学(南校区),北京市西城区太平街西巷4号,北京市,北京市,西城区,(010)83193000,unknown,
baidu,e2f56bcc7d9a297bda2f2896,北京市西城区大栅栏幼儿园,北京市西城区小沙土园胡同12号,北京市,北京市,西城区,,unknown,
baidu,33fa2e7100b40612f32d83c3,辽宁大学中国商务发展研究院(北京),北京市东城区西打磨厂街206号,北京市,北京市,东城区,,unknown,
baidu,a9ed4641d1cd7989d0ff238f,中国盲文图书馆,北京市西城区太平街甲-6号,北京市,北京市,西城区,"4006107868,83190888",unknown,
baidu,72f3e97b55438d1e102935ea,北京画店,琉璃厂西街44号,北京市,北京市,西城区,010-63187640,unknown,
baidu,9dbb1fddf042d5e451e5c503,北京汇文实验中学,北京市东城区后沟胡同乙2号,北京市,北京市,东城区,(010)65243696,unknown,
baidu,290427f98543be76d23ce329,孙元书画·书法·国画(崇文门校区),东兴隆街北京商界A座B段355,北京市,北京市,东城区,(010)63039122,unknown,
baidu,71f0a65663f8178151e5c50d,北京市西城区京华实验学校(宣学部),北京市西城区前门西大街137号,北京市,北京市,西城区,,unknown,
baidu,dffd4642d2e3b1b23c9a5e3b,顺城街第一小学,北京市西城区前门西大街135号(宣武门地铁站B东北口步行130米),北京市,北京市,西城区,(010)66015829,unknown,
baidu,8225095b7512559951e5c575,金宝贝早教(崇文门中心),北京市东城区崇文门外大街18号国瑞购物中心三层,北京市,北京市,东城区,18211128428,unknown,
baidu,9fbfeef2c820f745ece4a599,金台书院小学,北京市东城区东晓市大街203号（桥湾地铁站C东南口步行320米）,北京市,北京市,东城区,,unknown,
baidu,d59629e105757dad00ff2dad,东城区前门街道图书馆,北京市东城区西打磨厂街62号前门街道市民活动中心一层,北京市,北京市,东城区,(010)67013810,unknown,
baidu,2b2f99c330b75f567c29bdd6,崇文回民幼儿园,北京市东城区东八角胡同16号(桥湾地铁站B东北口步行130米),北京市,北京市,东城区,,unknown,
baidu,047329369b1578329de321d5,马德印国澍书画院,北京市西城区万源夹道3-1号(万源夹道3号门北侧约3米处),北京市,北京市,西城区,"13651333860,13691369598",unknown,
baidu,7b5611c6678b62f41fe99970,前门小学,北京市东城区东兴隆街27号新怡家园9号,北京市,北京市,东城区,(010)67016684,unknown,
baidu,5fc9226e9b509f0d9a0050cd,北京市崇文区实验幼儿园,北京市东城区前门街道奋章胡同53号,北京市,北京市,东城区,,unknown,
baidu,59a888fc343d949e704b87fb,北京市第四十三中学(东区),北京市西城区后孙公园胡同3号,北京市,北京市,西城区,,unknown,
baidu,41190f9c616d90a650e5c550,北京遗嘱订立中心,北京市珠市东城区珠市口东大街4-7号,北京市,北京市,东城区,(010)67013553,unknown,
baidu,27ab48067dbaee8c077ce85c,中首科北京耳聋耳鸣研究院,天坛路金鱼池西区19-11号(近天坛北门),北京市,北京市,东城区,,unknown,
baidu,ba3b1eb1d1dc6135f4eafce7,北京艾阅迪英文原版图书馆(崇文门馆),东打磨厂街7号宝鼎中心A座新活馆F2,北京市,北京市,东城区,"19910214001,19910274001",unknown,
baidu,80e38051761a03cdac080f93,国家博物馆趣味亲子课堂,东长安街16号,北京市,北京市,东城区,,unknown,
baidu,558580181dd92fb6774ff17e,中国乡村振兴研究院,北京市东城区珠市口东大街前门大街,北京市,北京市,东城区,,unknown,
baidu,6205d324d9712d40c91b95fe,北京市东城区中藏医药研究院,北京市东城区精忠街5号,北京市,北京市,东城区,,unknown,
baidu,d3e47edded7b40a4bea2401a,前门幼儿园-草厂九条小学,北京市东城区草厂九条35号,北京市,北京市,东城区,,unknown,
baidu,552dee4e2096daf8f03cba37,大栅栏街道前门西河沿社区图书分馆民俗图书馆,北京市西城区西河沿街228号,北京市,北京市,西城区,010-63027910,unknown,
baidu,c53d6c6a18569067430245e9,国发智库研究院,北京市西城区珠市口西大街120号,北京市,北京市,西城区,,unknown,
baidu,22c3b14cf7c034bfe111035f,和平门中学,南新华街15-2号附近,北京市,北京市,西城区,,unknown,
baidu,0bc8f9b705c019338c77275b,纪府书房,珠市口西大街241号(陕西巷南口)纪晓岚故居,北京市,北京市,西城区,(010)63036712,unknown,
baidu,7cc78b1b52e23e7f6ca3cc84,北京信息职业技术学院成教部,北京市西城区前孙公园胡同28号,北京市,北京市,西城区,,unknown,
baidu,9b9c7f41e976e37882a12e69,西河沿八十五,北京市西城区前门西河沿街前门大街,北京市,北京市,西城区,,unknown,
baidu,66be54f30864f6b2f4e73ba0,问古斋书画研究中心,北京市西城区琉璃厂西街40号,北京市,北京市,西城区,18660669068,unknown,
baidu,2cc3c8e822cda5d64d2fdfe6,北京市电子工业学校,北京市西城区南新华街前孙公园胡同28号(虎坊桥地铁站A西北口步行490米),北京市,北京市,西城区,,unknown,
baidu,a05bcfe232bcdd0a46572687,国家基层治理研究院,北京市东城区西打磨厂街92号,北京市,北京市,东城区,,unknown,
baidu,c5cb487320fb5eb77ec87622,北京友谊托育中心,东经路6号院1号楼,北京市,北京市,西城区,17600433326,unknown,
baidu,b1bc93861c96a285d518b7d5,北京华夏京都书画研究院外联部,北京市西城区大栅栏街道大安澜营胡同31号,北京市,北京市,西城区,,unknown,
baidu,ca2438d96b5a72cad72ce239,燕赵武术馆(崇文门店),东打磨厂街7号新活馆3层中庭,北京市,北京市,东城区,13581724212,unknown,
baidu,4097613b843aa39796ec847e,喜开路高尔夫健康沙龙,前门东大街3号首都大酒店B座B1层,北京市,北京市,东城区,,unknown,
baidu,a3e8341c81207a954afd3fe6,北京市西城区实验幼儿园,北京市西城区南新华街21号(和平门地铁站D2西南口步行430米),北京市,北京市,西城区,,unknown,
baidu,3df824917378750c31870a8b,北京市西城区长安幼儿园分园(和平门分园),北京市西城区前门西大街77号(和平门地铁站B2东北口旁),北京市,北京市,西城区,(010)63108201,unknown,
baidu,43cb81b273c05aafeb56fa3e,中国食品药品检定研究院,北京市东城区天坛西里2号院2号,北京市,北京市,东城区,(010)67095114,unknown,
baidu,282ceaba7c3a572aa21de940,中国医学科学院药物研究所,北京市西城区南纬路甲2号,北京市,北京市,西城区,(010)63036794,unknown,
baidu,05c1309fd3fb292a15c90547,大栅栏街道综合文化中心益民书屋,杨梅竹斜街甲125号,北京市,北京市,西城区,,unknown,
baidu,76a44d29df215c9c3913fd4a,停车场,北京市西城区珠宝市街前门大街,北京市,北京市,西城区,,unknown,
baidu,897506e88004b9ad31f71dc3,大栅栏,2路;5路;48路;59路;93路;120路;137路;141路;622路;夜18路;夜2路,北京市,北京市,东城区,,unknown,
baidu,47090609a803b30b6d20b98c,前门大街南侧停车场,北京市东城区果子胡同前门大街,北京市,北京市,东城区,,unknown,
baidu,46bbd03bfee4bbfe14c8f687,北京大栅栏-接送点,北京市西城区大栅栏附近,北京市,北京市,西城区,,unknown,
baidu,c8c0f68ee187f3487adbd20c,大栅栏,2路;5路;48路;59路;66路;93路;120路;141路;622路;夜18路;夜2路,北京市,北京市,西城区,,unknown,
baidu,12edc079337966ca96ca075f,过街楼,23路;57路;夜10路内环;夜7路,北京市,北京市,东城区,,unknown,
baidu,5a7bc528806666d4d22dd667,前门,2路;5路;48路;59路;66路;93路;120路;141路;622路;八达岭长城景区直达车;八达岭长城颐和园旅游直通车;观光2线;快速公交1线;慕田峪旅游专线;夜18路;夜2路,北京市,北京市,西城区,,unknown,
baidu,045b04dfde0839c8a6da39eb,北京坊-地下停车场,北京市西城区前门西河沿街北京坊,北京市,北京市,西城区,,unknown,
baidu,0ad513bdf03d7222882fb510,珠市口,地铁7号线;地铁8号线,北京市,北京市,东城区,,unknown,
baidu,d19fe31720cb0bff9e82eaf4,北京旅游集散中心(前门中心店)-天安门发车中心,北京市东城区前门西大街甲1号,北京市,北京市,东城区,,unknown,
baidu,8d0658549b0c105878dbd2de,前门,地铁2号线内环;地铁2号线外环;地铁8号线,北京市,北京市,东城区,,unknown,
baidu,e2d3b67fba89677458109330,煤市街南口,北京市西城区培英胡同1号(欣燕都酒店东南),北京市,北京市,西城区,,unknown,
baidu,7f41b0de6010676995f08cf3,丰泽园饭店(珠市口总店)-地上停车场,北京市西城区珠市口西大街83号,北京市,北京市,西城区,,unknown,
baidu,c11a80543983cb6f5b109346,前门东,8路;9路;44路内环;44路外环;142路;622路;首都机场大巴北京西站线;夜18路;夜2路;夜5路,北京市,北京市,东城区,,unknown,
baidu,0b66b423114ccd2202897298,前门西,9路;22路;44路内环;67路;137路;142路;332路;夜5路,北京市,北京市,西城区,,unknown,
baidu,9ec8f5976e26341ca2acc4c3,天安门广场东,观光2线,北京市,北京市,东城区,,unknown,
baidu,85d652b79611af4bc6effbed,西城区正阳市场-地上停车场,前门西大街正阳市场1-4号楼前,北京市,北京市,西城区,,unknown,
baidu,61d897c47480a61374026987,天鼎218文化金融园-地上停车场,北京市东城区东半壁街中欣银宝通大厦西北门西南侧约70米,北京市,北京市,东城区,,unknown,
baidu,c3a538daa4e64ecdd4851f54,成都美食(煤市街店)北侧停车场,北京市西城区大栅栏街道煤市街128号,北京市,北京市,西城区,,unknown,
baidu,a84241ee88c2db1ec5effb1a,珠市口南,2路;59路;93路;120路;141路;622路;夜2路,北京市,北京市,东城区,,unknown,
baidu,9a6587ccccaea46a81288a2e,桥湾,地铁7号线,北京市,北京市,东城区,,unknown,
baidu,6859ae53d6b15c7ba7c75663,速8精选酒店(北京人民大会堂前门店)西南侧-停车场,北京市西城区甘井胡同前门大街,北京市,北京市,西城区,,unknown,
baidu,a8003a3498071e2059bbbccb,板章路,5路;23路;48路;57路;夜10路外环;夜18路;夜7路,北京市,北京市,西城区,,unknown,
baidu,30a352ef2982565749fc8d66,前门,2路;5路;8路;22路;48路;59路;67路;82路;93路;120路;137路;141路;332路;599路;622路;长安街夜景观光巴士;大美中轴线观光巴士;高铁专线1路;观光2线;快速公交1线;慕田峪旅游专线;前门故宫环线观光巴士;前门,北京市,北京市,东城区,,unknown,
baidu,8c757c61e9a24c3fc8213d4a,速8酒店(北京前门大栅栏店)-停车场,北京市西城区朱家胡同前门大街,北京市,北京市,西城区,,unknown,
baidu,94771c7f7504b298a21de968,煤市街南口,5路;48路;66路;夜18路,北京市,北京市,西城区,,unknown,
baidu,ce721b7b680f86e22811d15d,刘老根大舞台站自行车租赁点,北京市东城区前门台湾会馆东南(前门东路),北京市,北京市,东城区,,unknown,
baidu,631c0dfe0d3f27424d55477c,正义路,8路;9路;141路;599路;622路;首都机场大巴北京西站夜航线;首都机场大巴北京西站夜航延长线;夜18路;夜5路,北京市,北京市,东城区,,unknown,
baidu,0e723fc91a7cb4b501897225,珠市口,前门观光铛铛车,北京市,北京市,东城区,,unknown,
baidu,7bc293146e1dba271b11d5e1,出租车扬招站,北京市东城区前门东大街23号院4号楼,北京市,北京市,东城区,,unknown,
baidu,177511cef310ea11a8059d81,停车场,北京市东城区长巷三条前门大街,北京市,北京市,东城区,,unknown,
baidu,7bc52c489cbff29c601c6767,天安门广场西,观光2线,北京市,北京市,东城区,,unknown,
baidu,7058d8da1f5923640e3dda87,中国工商银行(北京正阳门支行)北侧-地上停车场,北京市东城区前门东大街北京人人大酒店北门西南侧,北京市,北京市,东城区,,unknown,
baidu,d5740f7b48be73387ab55c6e,国家电网充电站(大栅栏北京坊B3停车场),北京市西城区煤市街东北角北京坊地下三层停车场,北京市,北京市,西城区,95598,unknown,
baidu,8d0688dd1a67569b3010af81,门框胡同站,北京市西城区,北京市,北京市,西城区,,unknown,
baidu,07762b8f3043b11f6849f395,东城三里河,23路;57路;137路;夜10路内环;夜10路外环;夜7路,北京市,北京市,东城区,,unknown,
baidu,cd2187088664240ed2f49e8f,珠市口西,23路;57路;夜10路内环;夜7路,北京市,北京市,西城区,,unknown,
baidu,453ac92dfe531d422911d1de,和平门,地铁2号线内环;地铁2号线外环,北京市,北京市,西城区,,unknown,
baidu,26d4a4a4c12825e1cac3db60,虎坊桥,地铁7号线,北京市,北京市,西城区,,unknown,
baidu,dcd094dcadf125d936b06c9e,天桥,地铁8号线,北京市,北京市,东城区,,unknown,
baidu,10dbf9809dfe1838fbf0cb0c,国家电网充电站(大栅栏北京坊B4停车场站),北京市西城区煤市街北京坊地下四层停车场内,北京市,北京市,西城区,95598,unknown,
baidu,4b435c38d04524beabf0cddd,人民大会堂宾馆-地上停车场,北京市西城区西交民巷中国全国人民代表大会常务委员会-人大办公楼,北京市,北京市,西城区,,unknown,
baidu,2d025b13cf6a0770b8bd6389,前门西,5路;9路;22路;44路外环;67路;142路;332路;901路快车;901路快车[东岭直达];901路快车[换乘直达];901路直达快车区间;夜5路,北京市,北京市,西城区,,unknown,
baidu,940aeb3c98d5a0218a2fb5de,天安门东,地铁1号线八通线,北京市,北京市,东城区,,unknown,
baidu,002975204d3b1e9b9968b4de,天安门西,地铁1号线八通线,北京市,北京市,西城区,,unknown,
baidu,a603c50d19ee92c6fadc85cb,北京天桥艺术中心-地下停车场,北京市西城区天桥南大街9号,北京市,北京市,西城区,,unknown,
baidu,699b8124705b6a8f75e5b6d1,车辇胡同路南侧-停车场,北京市西城区车辇胡同欣燕都酒店(前门天街店)东北2门东北侧约40米,北京市,北京市,西城区,,unknown,
baidu,041bebdeaa0da484a3acc48b,天安门东,1路;2路;52路;82路;120路;夜1路,北京市,北京市,东城区,,unknown,
baidu,2f174c5c978b4a6708ccdd0f,全国人大机关办公楼-停车场,北京市西城区前门西大街1号,北京市,北京市,西城区,,unknown,
baidu,744c902f6296ed724afc8dce,过街楼,23路;57路;夜10路外环;夜7路,北京市,北京市,东城区,,unknown,
baidu,8a2136c86a9760502ce67b66,前门西大街小区-东北侧地上停车场,北京市西城区前门西大街小区,北京市,北京市,西城区,,unknown,
baidu,a8e23c622c11486eae045714,天安门西,1路;5路;52路;观光2线;夜1路,北京市,北京市,西城区,,unknown,
baidu,9f5c0a9e1dc559654e2fdf41,磁器口,地铁5号线;地铁7号线,北京市,北京市,东城区,,unknown,
baidu,1f7f3d0b961641927269d3de,崇文门,地铁2号线内环;地铁2号线外环;地铁5号线,北京市,北京市,东城区,,unknown,
baidu,e8054480e72546eda2a934a6,中国集邮总公司-接送点,北京市东城区中国集邮总公司附近,北京市,北京市,东城区,,unknown,
baidu,44dae61997b1534316a1902b,王府井,地铁1号线八通线;地铁8号线,北京市,北京市,东城区,,unknown,
baidu,4605ae4cd4ca6294364aae2f,前门23号-接送点,北京市东城区前门23号附近,北京市,北京市,东城区,,unknown,
baidu,5508504dbe076bb6c6f0258b,茅台博物馆-地下停车场,北京市东城区南池子大街138号,北京市,北京市,东城区,,unknown,
baidu,ecbee3cbbcebc593deee8b22,北京市前门外国语学校西南侧-地上停车场,北京市东城区崇文门西河沿前门大街,北京市,北京市,东城区,,unknown,
baidu,730d71e145e2c2fa9e82ea05,二一八社区-停车场,北京市东城区西草市东街甲34号二一八社区,北京市,北京市,东城区,,unknown,
baidu,b71196efe692c9fbed74f821,国瑞购物中心-地下停车场,北京市东城区崇文门外大街18号国瑞购物中心内近西花市大街,北京市,北京市,东城区,,unknown,
baidu,014c1ea53436460cc16c14ec,金鱼池中街1号院-地下停车场,北京市东城区金鱼池中街1号,北京市,北京市,东城区,,unknown,
baidu,c03a5db123cf4ce3283a9fcf,估衣会馆-停车场,大市胡同11号,北京市,北京市,东城区,,unknown,
baidu,8731ce0a02e2567db020a821,中国集邮有限公司(珠市口东大街)-地下停车场,北京市东城区东大街17号,北京市,北京市,东城区,,unknown,
baidu,d9452cc8a2abab754054d75b,首都医科大学附属北京同仁医院-地上停车场,北京市东城区崇文门内大街首都医科大学附属北京同仁医院,北京市,北京市,东城区,,unknown,
baidu,538300116f2a781d240bd0de,宣武门,地铁2号线内环;地铁2号线外环;地铁4号线大兴线,北京市,北京市,西城区,,unknown,
baidu,6548089732fc7ec840024505,金鱼池中街1号院1号楼-停车场,北京市东城区,北京市,北京市,东城区,,unknown,
baidu,d2bae5a69b799790631c67e0,菜市口,地铁4号线大兴线;地铁7号线,北京市,北京市,西城区,,unknown,
baidu,fea9ae8d2662e9714251c070,板章路,5路;23路;夜10路内环;夜18路;夜7路,北京市,北京市,西城区,,unknown,
baidu,3a5ad8710b1c32d5c4f50dad,珠市口东大街辅路北侧临时停车点,北京市东城区珠市口东大街前门大街,北京市,北京市,东城区,,unknown,
baidu,86acfd2856567a447dc87686,中国工商银行(北京珠市口支行)东侧-地上停车场,北京市东城区草厂三条前门大街,北京市,北京市,东城区,,unknown,
baidu,2373a34701b790abb320a888,西兴隆街路北侧临时停车点,北京市东城区西兴隆街前门大街,北京市,北京市,东城区,,unknown,
baidu,02c50b1612ef5f20e111032f,中欣银宝通大厦-内部地下停车场,北京市东城区珠市口东大街14号,北京市,北京市,东城区,,unknown,
baidu,804550b06d9df2f22b06ce1a,金鱼池西街-停车场,北京市东城区金鱼池西街北京市第十一中学东门东北侧约30米,北京市,北京市,东城区,,unknown,
baidu,843062b12dc4728cf92213b8,全国人大机关办公楼-停车场,北京市西城区前门西大街1号(西交民巷),北京市,北京市,西城区,,unknown,
baidu,457841ce26efe1378f55ece7,全国人大-地下停车场,北京市西城区前门西大街1号,北京市,北京市,西城区,,unknown,
baidu,932a7fd566f33de6ad31e528,灵佑胡同2号院西侧停车场,北京市西城区留学路106号,北京市,北京市,西城区,,unknown,
baidu,c1f65c96db92fd8ad13ce36f,中国工商银行(北京大栅栏支行)西北侧-停车场,北京市西城区石头胡同客来宾馆东南门南侧约90米,北京市,北京市,西城区,,unknown,
baidu,7cd49acb661bd5a149cc4ab8,以岭大厦-接送点,北京市东城区京港大厦附近,北京市,北京市,东城区,,unknown,
baidu,8e9781c1d10bc059283a9fd9,中国国家博物馆-接送点,北京市东城区中国国家博物馆附近,北京市,北京市,东城区,,unknown,
baidu,e60dc700354dc03500ec0114,太丰惠中大厦-接送点,北京市西城区太丰惠中大厦附近,北京市,北京市,西城区,,unknown,
baidu,005cabf6f24836ead7851f4f,停车场,北京市西城区铺陈市胡同前门大街,北京市,北京市,西城区,,unknown,
baidu,b3f4568d2b1f8f4c81288a12,金鱼池小区西北侧-停车场,北京市东城区西晓市街前门大街,北京市,北京市,东城区,,unknown,
baidu,4032256eedb74e5a88b9885d,享能汽车充电站,北京市东城区铺陈市胡同69号,北京市,北京市,东城区,,unknown,
baidu,28ad112afd50d5c9b04c4905,万明路,夜10路外环;夜18路;夜7路,北京市,北京市,西城区,,unknown,
baidu,b874560e0500884ad8d891d1,中国青年杂志社-停车场,北京市东城区崇文门西河沿甲215号,北京市,北京市,东城区,,unknown,
baidu,fbdfe560ded09c0cb9df8f87,金鱼池中街-停车场,北京市东城区金鱼池中街1号院东2门南侧约50米,北京市,北京市,东城区,,unknown,
baidu,9f3d86eaa6f2a93e9cec2bbd,北京市东城区人民检察院-地下停车场,北京市东城区珠市口东大街103号,北京市,北京市,东城区,,unknown,
baidu,2098675234346e496cc02c95,北京市人民政府天安门地区管理委员会(东交民巷)-内部专用地上停车场,北京市东城区东交民巷前门观旗宾馆(前门东店)西北侧约240米,北京市,北京市,东城区,,unknown,
baidu,a3a68e25f86443b53a04b120,西后河沿21号,北京市西城区前门西后河沿街前门大街,北京市,北京市,西城区,,unknown,
baidu,3c44a2fb6df6e66fc8213d88,北京市东城区人民政府前门街道办事处-地下停车场,北京市东城区北桥湾街天都京港大厦东门北侧约80米,北京市,北京市,东城区,,unknown,
