source,bd_uid,name,address,province,city,area,tel,poi_type,tag
baidu,f91c65512b8a086f32870ac0,外滩社区食堂,九江路218弄,上海市,上海市,黄浦区,13621664962,unknown,
baidu,48eb00589c246ab42ee67b8f,新旺茶餐厅(汉口店),山东中路311号黄浦市民健身中心A-1(近汉口路),上海市,上海市,黄浦区,(021)63605008,unknown,
baidu,dc70affd302269012fb17ea9,潘小烧·云南烧烤(外滩店),九江路168号礼和大楼沿街1楼2号铺（距南京东路站7号口200米）,上海市,上海市,黄浦区,15216694695,unknown,
baidu,f3c2373cad70de4bd32dd691,上海姥姥家常饭馆(福州路店),福州路70号（福州路与四川中路交叉口）,上海市,上海市,黄浦区,(021)63216613,unknown,
baidu,ec06e06dc0a7acc9b8bd6338,渝囡囡·沪式火锅(外滩店),江西中路255号二楼,上海市,上海市,黄浦区,18800292925,unknown,
baidu,d7675bc951936c7fd7851faa,江西中路200号食堂,上海市黄浦区外滩街道江西中路200号,上海市,上海市,黄浦区,13764442659,unknown,
baidu,fec0e60da69baa83f8f0cbeb,壹家菜馆·本帮菜(外滩南京商务楼店),九江路230号的,上海市,上海市,黄浦区,18717935986,unknown,
baidu,d1baa795e8c43880df1e52d3,南门涮肉(上海四店),四川中路166号（四川中路与福州路交叉口东南角）,上海市,上海市,黄浦区,(021)68787779,unknown,
baidu,5c56edd674c63443a0d23091,成隆行·蟹王府(九江路店),九江路216号（近河南中路与九江路交叉口）,上海市,上海市,黄浦区,"(021)63212010,(021)63218811",unknown,
baidu,bdf45fa1216a79651d1d1174,外滩往事民国上海菜(黄浦店),四川中路218号,上海市,上海市,黄浦区,13761759405,unknown,
baidu,bf460f716afd164409b93a14,Manner Coffee(汉口路店),汉口路126号,上海市,上海市,黄浦区,15221688436,unknown,
baidu,fb324204b8693d8e04fef5aa,玺炖·中国铁锅炖(南京东路店),九江路291号（南京东路地铁站3号口）,上海市,上海市,黄浦区,13023226001,unknown,
baidu,f3d5c1de4bcb3a298c1a89b8,燃计沙茶皇·香港沙茶火锅(人广旗舰店),汉口路309号一层A104室,上海市,上海市,黄浦区,(021)63088820,unknown,
baidu,05b0b1c48913de0cd42ce290,大壶春(四川中路店),上海市黄浦区四川中路136号,上海市,上海市,黄浦区,(021)63130155,unknown,
baidu,1eeed5464dd0eaebb4147f90,庄氏隆兴·蟹樽小笼(外滩店),四川中路156号,上海市,上海市,黄浦区,(021)63231018,unknown,
baidu,e3f5794420483d38ad080f56,胡子大厨·超级小炒肉(黄浦宏伊广场店),南京东路299号宏伊国际广场B1（地铁站3口旁）,上海市,上海市,黄浦区,19370658751,unknown,
baidu,51aa7fc2e28674f42d4733b5,滇牛云南酸菜牛肉火锅(人民广场店),九江路295号,上海市,上海市,黄浦区,18521710562,unknown,
baidu,c4d801e0e0206c006f3e1b36,永丰面馆(汉口路店),汉口路320号,上海市,上海市,黄浦区,(021)31615653,unknown,
baidu,374b6cb9f17c9f49c7f50dda,邵记澳门鱼翅(南京东路店),南京东路139号美伦大楼三楼M305,上海市,上海市,黄浦区,13817864960,unknown,
baidu,2153decc33140b18336212c6,南麓·浙里(外滩店),四川中路216号,上海市,上海市,黄浦区,"(021)63231797,(021)63232757",unknown,
baidu,e6a1524b984825ba14b54b18,星巴克(久事大厦店),四川中路213号102室,上海市,上海市,黄浦区,(021)63307956,unknown,
baidu,d9be009f46bea8ea9403199d,THE PRESS(申报馆店),外滩街道汉口路309号申报馆1楼A1-03(山东中路口),上海市,上海市,黄浦区,17621872430,unknown,
baidu,10606372b91ffb389a00503a,御延公馆·上海菜(南京东路店),南京东路299号宏伊广场六层S-601单元,上海市,上海市,黄浦区,"(021)53096668,15316786903",unknown,
baidu,962947e31908cc953617dc18,太二酸菜鱼(宏伊国际广场店),南京东路299号宏伊国际广场5层S-507、S-508单元,上海市,上海市,黄浦区,4006092822,unknown,
baidu,f2174f4ab76e792393114c15,Maki House寿司(宏伊国际广场店),南京东路299号宏伊广场6楼s603,上海市,上海市,黄浦区,(021)63307608,unknown,
baidu,62a53f84b7fb9f9b5fd4fe26,锦江都城经典酒店新城外滩酒店-酒吧,上海市黄浦区外滩街道江西中路180号,上海市,上海市,黄浦区,,unknown,
baidu,97c4bffbe143b3b3f7eafc04,金时代顺风港湾(南京东路店),南京东路299号宏伊国际广场7楼,上海市,上海市,黄浦区,"(021)63617177,(021)63617178",unknown,
baidu,41baee005d280f5ee812e49b,鲜得来排骨年糕(山西南路店),山西南路19号,上海市,上海市,黄浦区,13817184972,unknown,
baidu,d117f58c7480e76328201ae7,毒蛇面馆(外滩店),上海市黄浦区九江路287号,上海市,上海市,黄浦区,13524335508,unknown,
baidu,09185c56d7367b44f11937d8,Wagas沃歌斯(宏伊国际广场店),九江路288号一层,上海市,上海市,黄浦区,(021)33665026,unknown,
baidu,6f3efeddfe2d6f816018096a,CoCo都可(宏伊广场店),南京东路299号B1,上海市,上海市,黄浦区,15692106247,unknown,
baidu,b7021bf866e7cce3f4e73b3a,麦当劳(黄浦悦荟广场店),外滩街道南京东路353号悦荟广场1层(近河南中路),上海市,上海市,黄浦区,(021)20779185,unknown,
baidu,d249ce24dc8713030482c253,小杨生煎(宏伊广场店),南京东路299号宏伊国际广场地下一层B-107A单元,上海市,上海市,黄浦区,(021)53513890,unknown,
baidu,ef042b97c34fba7b2fb90825,和府捞面(宏伊广场店),南京东路299号宏伊广场地下一层B114单元,上海市,上海市,黄浦区,18262505300,unknown,
baidu,b596a8fed6fd0acddb2f284c,舅醉家,山东中路255号（地铁2号线南京东路站3号口出左转200米）,上海市,上海市,黄浦区,19102167178,unknown,
baidu,bb1d38e46aa64e540c0a706a,萨莉亚意式餐厅(悦荟广场店),南京东路353号6层606B,上海市,上海市,黄浦区,(021)53865570,unknown,
baidu,0fa64f5c6f402ca1f6c59c2b,上海沪渔先餐饮管理有限公司,上海市黄浦区河南中路308号1-4层之底层,上海市,上海市,黄浦区,,unknown,
baidu,368815e381859fcf9f82ead0,巴比馒头(江西中路店),江西中路267-1号,上海市,上海市,黄浦区,15021016112,unknown,
baidu,11e53e492291ecde52e5c5c7,卢师傅老上海小吃(南京东路店),南京东路61号外滩地下美食街B1室,上海市,上海市,黄浦区,13816758933,unknown,
baidu,aa1035b996f299b2e311033b,上上谦火锅(南京东路步行街店),南京东路300号恒基名人购物中心5楼,上海市,上海市,黄浦区,(021)63152876,unknown,
baidu,457623a966b78d21fa0cad63,大龙六方·贵州酸汤牛肉火锅(上海首店),"南京东路299号宏伊国际广场4层（电梯直达右手边,毗邻粤来记）",上海市,上海市,黄浦区,(021)63351777,unknown,
baidu,626459ff0a7c9541f82d618b,味爱海鲜火锅烤肉自助(外滩南京东路店),南京东路299号宏伊国际广场5层（山葵爱鳗鱼旁边）,上海市,上海市,黄浦区,17134008800,unknown,
baidu,59b5b37ed75cb94a96f08c71,温州海鲜面(四川中路店),四川中路200-2号,上海市,上海市,黄浦区,18221208957,unknown,
baidu,daa395ae3d38e5449ff77971,重庆高老九火锅(上海旗舰店),"九江路399号华盛大厦2楼（近上海置地广场,近地铁2号线南京东路站4号出口）",上海市,上海市,黄浦区,(021)63309993,unknown,
baidu,10319e548c4754329d09f7c7,House of Blues&Jazz(福州路店),福州路60号（近四川中路）,上海市,上海市,黄浦区,"(021)63232779,(021)64375280",unknown,
baidu,179883d6327086d49f09f7d1,上海清真洪长兴餐饮食品有限公司,上海市黄浦区外滩街道南京东路257号,上海市,上海市,黄浦区,,unknown,
baidu,d697fec429fc320fafee7ae9,外滩小吃,九江路206号,上海市,上海市,黄浦区,13621664962,unknown,
baidu,0523635f38c7bfea01897278,裕兴记(外滩店),四川中路410号南京路步行街路口50米,上海市,上海市,黄浦区,"(021)68886981,13482777707",unknown,
baidu,d19988321a1a151f88f15d94,超级鸡车(南京东路店),南京东路299号宏伊国际广场B1层,上海市,上海市,黄浦区,,unknown,
baidu,949b42034a34eb9eae31e5f7,SHANGSHEN DINING&BAR上申餐厅,外滩街道汉口路309-2申报馆一楼（正门在山东中路）,上海市,上海市,黄浦区,"(021)58396927,(021)63336313",unknown,
baidu,787ce2abc4accb435b109326,星巴克咖啡(申大厦店),汉口路266号申大厦102单元,上海市,上海市,黄浦区,(021)63292758,unknown,
baidu,f5d7d912d53201a54c3a59e6,静笃草堂(南京东路店),南京东路139号美伦大楼6层,上海市,上海市,黄浦区,"15300711560,15317577757",unknown,
baidu,4c45d60ebbfc44214bcc4a2a,沈家门海鲜(外滩店),江西中路120号中门,上海市,上海市,黄浦区,"13052526115,15601706115",unknown,
baidu,3b91d29503b8bb17e5e96587,星巴克(浦汇大厦店),福州路318号,上海市,上海市,黄浦区,(021)53095035,unknown,
baidu,8ff1c418b43d76d2e50738c4,星巴克(老介福店),南京东路233号南京商务楼1楼,上海市,上海市,黄浦区,(021)63353572,unknown,
baidu,2dc40f385027a2601b11d5fd,DQ·蛋糕·冰淇淋(宏伊广场店),南京东路299号地下一层B-105单元,上海市,上海市,黄浦区,,unknown,
baidu,83390dd78c25e89d1188249d,哈茶福(上海宏伊国际店),南京东路299号宏伊国际广场F1层(南京东路地铁站3号口旁),上海市,上海市,黄浦区,18327131057,unknown,
baidu,24c18e46d4165ebbae045798,星巴克(悦荟店),南京东路353号1楼118-119a室,上海市,上海市,黄浦区,(021)63350502,unknown,
baidu,3b138f430d0eecbea0acc407,星巴克(宏伊广场店),南京东路299号2楼S-215单元,上海市,上海市,黄浦区,(021)53862373,unknown,
baidu,ec776cf284b87bb0a0d230ab,万岛日本料理铁板烧(外滩店),延安东路222号外滩中心地下1层（延安东路门外侧下扶梯）,上海市,上海市,黄浦区,18901727578,unknown,
baidu,d16f9c613bb77526c336446d,沪西老弄堂面馆(广东路店),广东路500号世界贸易大厦1楼02室（近福建中路门）,上海市,上海市,黄浦区,19822793703,unknown,
baidu,0257aad434e6e95448cc4ab2,M Stand(宏伊国际广场店),南京东路299号宏伊国际广场一层S-110B/111单元（一楼中庭扶梯旁）,上海市,上海市,黄浦区,,unknown,
baidu,675028f53ef317fcfb2d6100,红烧牛肉面黄焖鸡米饭,四川中路200号,上海市,上海市,黄浦区,15237468881,unknown,
baidu,a0c35074c267c262f603b86d,LuckHaHa好运椰·椰子水(上海宏伊广场店),宏伊国际广场B1,上海市,上海市,黄浦区,,unknown,
baidu,764672e5f22414b494ec84c5,肯德基(曼克顿店),南京东路463-477号（曼克顿广场一楼）,上海市,上海市,黄浦区,(021)33040438,unknown,
baidu,f266e64e9da6b4169a0050a6,Manner Coffee(黄浦体育馆店),山东中路311号A楼底层A-3号,上海市,上海市,黄浦区,16621025221,unknown,
baidu,120cddcac981bb7fabf0cd56,Manner Coffee(宏伊广场店),南京东路299号B1层B-123-A,上海市,上海市,黄浦区,"13795314146,15221688946",unknown,
baidu,068ead525613bba4dc1e52cf,开心丽果鲜榨果汁(宏伊广场店),南京东路299号宏伊广场B1层,上海市,上海市,黄浦区,,unknown,
baidu,618174a42e2330fa0bf5ebb7,鄰里·手打柠檬茶,南京东路299号地下一层B-122B单元B1-b122b,上海市,上海市,黄浦区,13166303108,unknown,
baidu,d770f617bf6b5d65b05c6ad8,MOI KAVA咖啡厅,上海市九江路168号礼和洋行2楼,上海市,上海市,黄浦区,,unknown,
baidu,c696bc201a09bf0993114c7f,和气桃桃(宏伊广场店),南京东路299号宏伊广场B1层B113,上海市,上海市,黄浦区,,unknown,
baidu,d0251b1ce063738c0e3dda95,PRESS RELEASE,福建中路207号(山东中路与汉口路交叉口东南20米),上海市,上海市,黄浦区,,unknown,
baidu,b7018ec28426f90000ff2d7c,煌上煌酱鸭(宏伊广场店),南京东路宏伊广场负一楼B-118,上海市,上海市,黄浦区,18879223807,unknown,
baidu,b7bb6f8d40826e8021f017ee,上海燃计餐饮管理有限公司,上海市黄浦区汉口路申报馆旧址,上海市,上海市,黄浦区,,unknown,
baidu,533867ea19346ed6882fb536,小谷邨·蒸的麻辣烫(南京路店),上海市黄浦区南京东路299号宏伊国际广场B1层109~112号,上海市,上海市,黄浦区,,unknown,
baidu,28e700f172dc3c18085cb391,邵万生食品公司(南京东路店),外滩街道南京东路414号(近山西南路),上海市,上海市,黄浦区,(021)63226969,unknown,
baidu,fce118fb4b6f0cb5afee7ae9,云上云源生态云南菜,上海市黄浦区南京东路233号南京大厦5楼505铺位,上海市,上海市,黄浦区,15921702874,unknown,
baidu,271de82c674b87867bb55c7d,上海谭浩餐饮管理有限公司九江路分公司,上海市黄浦区南京东路299号地下一层B-111单元,上海市,上海市,黄浦区,,unknown,
baidu,30e2581b02abb95e4e776e8c,椿风·养身茶饮(宏伊国际广场店),南京东路299号宏伊国际广场地下一层,上海市,上海市,黄浦区,,unknown,
baidu,76e2ac0a42f4f50dae080f19,墨笛植造所(南京东路店),南京东路139号美伦大楼M402（林肯爵士乐上海中心旁）,上海市,上海市,黄浦区,19916511739,unknown,
baidu,303bf2b25fde18e1704b8734,正宗兰州牛肉面(四川中路店),四川中路152号,上海市,上海市,黄浦区,17621009295,unknown,
baidu,218c7cee03346e26eaf85378,新世界大丸百货,上海市黄浦区南京东路228号,上海市,上海市,黄浦区,(021)69788888,unknown,
baidu,3798643a6b9d300dd2f49efc,宏伊国际广场(南京东路店),上海市黄浦区南京东路299号,上海市,上海市,黄浦区,(021)63521555,unknown,
baidu,77d4e63d2d31f51d5e17c3a9,上海悦荟广场,上海市黄浦区南京东路353号,上海市,上海市,黄浦区,(021)63535353,unknown,
baidu,9e4dcfe515e492234054d77d,恒基名人购物中心,南京东路300号,上海市,上海市,黄浦区,"(021)33302099,4009998043",unknown,
baidu,d74fc4c7b1b618a6bbbd63b1,上海三由,河南中路320号,上海市,上海市,黄浦区,,unknown,
baidu,8dcce13051d8c93fd4b74e8e,老上海特产超市(十六分店),河南中路372号,上海市,上海市,黄浦区,13917389990,unknown,
baidu,dfec636242e49d266fc02cbc,华润万家(新世界大丸百货店),上海市黄浦区南京东路228号新世界大丸百货B2,上海市,上海市,黄浦区,(021)80162068,unknown,
baidu,fa55e4ee8c3832508505bf90,回力(河南中路店),上海市黄浦区河南中路344号,上海市,上海市,黄浦区,13162822608,unknown,
baidu,3bf702ec287f2427da2f285e,上海国际收藏品公司(泗泾路店),泗泾路22号1楼,上海市,上海市,黄浦区,(021)63367750,unknown,
baidu,99f7ccefa2445f058605bf95,名创优品(宏伊国际广场南京东路店),上海市黄浦区南京东路288号宏伊国际广场B1-B101商铺,上海市,上海市,黄浦区,4007005553,unknown,
baidu,0842508824f4e6ae4afd3fad,7-11便利店(汉口店),汉口路99号,上海市,上海市,黄浦区,(021)63012917,unknown,
baidu,c4e5a76349b27594220262fe,MUJI无印良品(上海南京东路悦荟店),悦荟广场1-2楼,上海市,上海市,黄浦区,(021)63338908,unknown,
baidu,fa59df48918de31ae6e965b3,罗森便利店(金融广场店),外滩街道汉口路300号1层02单元(电梯楼层),上海市,上海市,黄浦区,(021)63752698,unknown,
baidu,b04fdb03d68243bb4207c169,泡泡玛特POPMART(全球旗舰店),南京东路299号宏伊国际广场F1泡泡玛特全球旗舰店,上海市,上海市,黄浦区,4000232233,unknown,
baidu,d26d1d71d49ba0affa0cadfd,可的便利店(九河店),河南中路330号,上海市,上海市,黄浦区,(021)63295324,unknown,
baidu,05dd7d5f39233e18ac080f93,GAP(宏伊国际广场店),上海市黄浦区南京东路299号宏伊国际广场3楼L3-S311,上海市,上海市,黄浦区,(021)63225353,unknown,
baidu,2fa4a443f01623b38a36eeef,Joy&Mario(宏伊国际广场店),南京东路299号宏伊国际广场F3,上海市,上海市,黄浦区,,unknown,
baidu,367c821cee5d9ed7b01e3611,中央商场(南京东路店),上海市黄浦区南京东路100号惠罗商厦F1,上海市,上海市,黄浦区,(021)63309323,unknown,
baidu,a514f646935bc8f509b93aa8,三星旗舰体验店(外滩店),上海市黄浦区南京东路299号(南京东路地铁站出入口步行60米),上海市,上海市,黄浦区,"(021)61259250,(021)61259252",unknown,
baidu,224cd85a788600983a13fdec,REMAX(宏伊国际广场店),南京东路299号宏伊国际广场F2,上海市,上海市,黄浦区,,unknown,
baidu,a4b844d2fd9d1add85420e93,Flower&Say(宏伊国际广场店),南京东路宏伊国际广场S-312/313号,上海市,上海市,黄浦区,,unknown,
baidu,dbb2734fef1f53a7be4842cb,ASUCH,富民路215号,上海市,上海市,黄浦区,,unknown,
baidu,e27a55bb2a2a7d303fe231b2,吉祥杂货店(泗泾路店),上海市黄浦区泗泾路泗泾小区南侧,上海市,上海市,黄浦区,,unknown,
baidu,480e8d6c84b0a309c9c3db32,Bluerider Art画廊,上海市黄浦区四川中路133号F102室,上海市,上海市,黄浦区,,unknown,
baidu,20e28aa1f46ec41106fef5aa,TOY+SWAP(宏伊国际广场店),南京东路299号宏伊国际广场F1,上海市,上海市,黄浦区,,unknown,
baidu,2ad95237ae95b47e3fe231f0,艾格维蔓服饰AGwm(河南中路店),河南中路154号,上海市,上海市,黄浦区,,unknown,
baidu,e083465415a817d088b988c5,荣耀(宏伊国际广场店),南京东路299号宏伊国际广场5楼（VIVO专卖店隔壁）,上海市,上海市,黄浦区,95030,unknown,
baidu,a45b47fb24f68b76d518b729,R Aylin卿琳珠宝,汉口路309号申报馆旧址315室,上海市,上海市,黄浦区,18616550135,unknown,
baidu,8e75ed6128e354954151c0fc,181,上海市黄浦区四川中路小汇丰大楼,上海市,上海市,黄浦区,,unknown,
baidu,5b418eff1e567a5742e192bc,UTTER DRIVE VOGUE(宏伊国际广场南京东路店),上海市黄浦区南京东路288号宏伊国际广场(南京东路店)F4,上海市,上海市,黄浦区,,unknown,
baidu,8eb5a25c47bf91bbc1f1cf48,宏伊国际广场(二号线南京东路站三出口),上海市黄浦区外滩街道南京东路299号-4-f,上海市,上海市,黄浦区,,unknown,
baidu,1257e2f99d2b8e049122e004,照相器材,上海市黄浦区河南中路泗泾小区,上海市,上海市,黄浦区,,unknown,
baidu,4848541827b3333eb11e3680,iQOO手机专柜(南京东路店),上海市黄浦区南京东路299号宏伊国际广场F5,上海市,上海市,黄浦区,,unknown,
baidu,56f1c005249b712614c8f625,PUFFWATT,上海市黄浦区南京东路288号宏伊国际广场(南京东路店)F5,上海市,上海市,黄浦区,,unknown,
baidu,720c997892e5f44543e192e1,阿迪达斯(外滩店),南京东路233号南京大楼1楼,上海市,上海市,黄浦区,(021)63169120,unknown,
baidu,fc5b8b77c3f2967726d2bb53,书说恩典翻经书殿,上海市黄浦区九江路205号,上海市,上海市,黄浦区,(021)63293799,unknown,
baidu,edc4aa73f242f3f43c9a5e33,乐元素,上海市黄浦区外滩街道宏伊国际广场写字楼27楼乐元素,上海市,上海市,黄浦区,,unknown,
baidu,c978b9929ed99355fda778a2,上海牌手表(河南中路旗舰店),河南中路328号(南京东路地铁站3号口步行220米),上海市,上海市,黄浦区,13162627133,unknown,
baidu,07c3e01ed42f56e614c8f6eb,卡罗林眼镜工厂店(南京东路店),南京东路299号宏伊国际广场4层415商铺,上海市,上海市,黄浦区,,unknown,
baidu,b14b3e0d53944b89e5073829,TOMMY SHIJIA(宏伊国际广场店),九江路280号,上海市,上海市,黄浦区,,unknown,
baidu,36dacff9e3376600f9dc85fa,安踏(南京东路店),南京东路160号（近江西中路）,上海市,上海市,黄浦区,13601972513,unknown,
baidu,8ad97cfd645ced3931870a35,威德钻石(南京东路店),汉口路300号解放日报大厦1801室（南京东路地铁站3号口步行约3分钟）,上海市,上海市,黄浦区,"(021)63219306,13916634455",unknown,
baidu,51a711d5a5a4d8ec96ca0748,TOP TOY(上海外滩潮玩梦工厂店),南京东路139号外滩中央一楼Z101+二楼Z201、204,上海市,上海市,黄浦区,15586359869,unknown,
baidu,47bd10727f5b7859a7c756d4,手手仓库GALLERY,上海市黄浦区江西中路170号,上海市,上海市,黄浦区,18217456472,unknown,
baidu,fa7da3e8751b0c7b43d63ef1,中国黄金(上海旗舰店),河南中路99号（一兆韦德旁）,上海市,上海市,黄浦区,(021)63779999,unknown,
baidu,d5464cf81f55232bfca77881,全家便利店(福州店),福州路53号,上海市,上海市,黄浦区,(021)63210554,unknown,
baidu,c4d200d04a44b7c32b06ce7f,上海国拍沪牌标书购买网点(总店),上海市黄浦区福州路上海国际商品拍卖有限公司,上海市,上海市,黄浦区,4001155136,unknown,
baidu,c01d28f2b809ebcb55bfff21,华为旗舰店(上海南京东路),上海市黄浦区南京东路233号1-3层,上海市,上海市,黄浦区,4006084456,unknown,
baidu,9077648c0598a96a4f6d46ae,广宇工贸有限公司,上海市黄浦区河南中路178号底层,上海市,上海市,黄浦区,,unknown,
baidu,a3f21eeed441755d2eb17ef1,外文书店(福州路店),福州路390号,上海市,上海市,黄浦区,"(021)23204888,(021)23204910",unknown,
baidu,1985175531747efbfd0eb07f,蒸汽熊猫(宏伊国际广场南京东路店),上海市黄浦区南京东路288号宏伊国际广场(南京东路店)F5,上海市,上海市,黄浦区,,unknown,
baidu,e3e1ac14db134d6f1fe99952,天玺烟酒,上海市黄浦区九江路大生大楼西南侧,上海市,上海市,黄浦区,15900671828,unknown,
baidu,112f3fe3b1418394130daa2c,美珍香(南京东路宏伊国际广场店),上海市黄浦区南京东路288号宏伊国际广场(南京东路店)F1,上海市,上海市,黄浦区,18502139068,unknown,
baidu,4747cde9a0287333f90cad6b,华星烟酒专卖店,上海市黄浦区河南中路新泰大楼,上海市,上海市,黄浦区,,unknown,
baidu,07fdef14091ccaff882fb5c9,华为专柜(上海外滩店),上海市黄浦区南京东路299号宏伊国际广场商场F5,上海市,上海市,黄浦区,17317377771,unknown,
baidu,fbba8c27c9545ba5b020a84e,全家便利店(南京东路二店),南京东路324弄19,上海市,上海市,黄浦区,4008200996,unknown,
baidu,bcaa4e6daa311b4b2811d100,福川烟杂商店(福州路88号大楼店),福州路89号福州路88号大楼F1层,上海市,上海市,黄浦区,,unknown,
baidu,9e5859441ae16921d5b74e6b,Apple 南京东路,上海市黄浦区南京东路300号,上海市,上海市,黄浦区,4006639988,unknown,
baidu,08f564bc02842a29f7e73b10,阿努比斯(宏伊国际广场店),南京东路299号S-413,上海市,上海市,黄浦区,,unknown,
baidu,04c82c2e64caac27ad045719,果甘王(宏伊国际广场店),南京东路299号宏依广场负一楼,上海市,上海市,黄浦区,13918733685,unknown,
baidu,61b5e5e4394920c1a6da39e0,FLD福卢设计,上海市黄浦区江西中路181号-16楼,上海市,上海市,黄浦区,19117130278,unknown,
baidu,956e47943ec07a448c772740,小宇名烟,上海市黄浦区江西中路136号,上海市,上海市,黄浦区,,unknown,
baidu,de0f40db6d6a3555c9291537,小天才(外滩店),南京东路299号宏伊广场5层电扶梯旁,上海市,上海市,黄浦区,4006103999,unknown,
baidu,285f477e144bf325eee4a5f0,卢雅珠宝,上海市黄浦区泗泾路22号,上海市,上海市,黄浦区,18901658168,unknown,
baidu,14dba9cc3c17466658f6bee8,大鹏烟酒行,上海市黄浦区外滩街道泗泾路30号,上海市,上海市,黄浦区,15002181314,unknown,
baidu,111be81ccdb2bab98a36ee10,上裳品工厂店(河南中路店),河南中路152号,上海市,上海市,黄浦区,,unknown,
baidu,36f1277e838b5dd5fa0cad2f,SUPERS手机回收(南京东路宏伊国际广场店),南京东路299号宏伊国际商城5楼（近荣耀专卖店）,上海市,上海市,黄浦区,,unknown,
baidu,ff2117db585ea882f7eafc70,座椅,南京东路299号宏伊国际广场F2,上海市,上海市,黄浦区,,unknown,
baidu,571a1d7dae9bd2daa4c756b4,座椅,南京东路299号宏伊国际广场F6,上海市,上海市,黄浦区,,unknown,
baidu,842ebffe81cc824fb21e36de,公共厕所,上海市黄浦区汉口路交通银行(上海市分行营业部)西北侧约50米,上海市,上海市,黄浦区,,unknown,
baidu,e21bbe5b766942d8ede4a5ed,华东建筑设计院图文,汉口路151号地下室,上海市,上海市,黄浦区,13621747413,unknown,
baidu,b0d056f265d1f17fcac3db59,中国邮政(外滩邮政支局),江西中路148号(豫园地铁站6号口步行490米),上海市,上海市,黄浦区,(021)63211612,unknown,
baidu,067f00a2cf9f2a0bd72ce2ee,高级裁缝师工作室,江西中路246号207室(南京东路地铁站2号口步行350米),上海市,上海市,黄浦区,13621976768,unknown,
baidu,39cc41194f72ab72ddee8bd5,扶梯,上海市黄浦区2号线vs10号线地铁站南京东路站B2,上海市,上海市,黄浦区,,unknown,
baidu,d3692af4b9f573520bf5eb0c,兴科印务打印复印(汉口路店),外滩街道四川中路200号106室打印复印专拍证照(钟表店),上海市,上海市,黄浦区,,unknown,
baidu,7bfa272d9dfdcd5efbdc850e,外滩街道社区党群服务中心,泗泾路31号,上海市,上海市,黄浦区,(021)63298379,unknown,
baidu,3e22c23ca19ad938abf7295d,中国联通(汉口路营业厅),上海市黄浦区南京东路街道九江路283号,上海市,上海市,黄浦区,021--60752097,unknown,
baidu,c50f8c47745c6444b020a8ad,宏伊国际广场(南京东路)-公共厕所,上海市黄浦区南京东路299号,上海市,上海市,黄浦区,,unknown,
baidu,8911ce6994fc65239c09f77e,公共厕所(悦荟广场),南京东路353号悦荟2层,上海市,上海市,黄浦区,,unknown,
baidu,dd256da59b965488940319de,其新图文社,四川中路200-4森联木业108室,上海市,上海市,黄浦区,(021)63214169,unknown,
baidu,ce5eb428bf39e6ec9403197e,手机维修(河南中路店),上海市黄浦区河南中路148号,上海市,上海市,黄浦区,15800326674,unknown,
baidu,a60d154880cde8e1246e9889,中国体育彩票(黄浦市民健身中心A楼店),汉口路340号(南京东路地铁站4号口步行170米),上海市,上海市,黄浦区,95086,unknown,
baidu,69009bc47304b64383a00c66,广告制作,上海市黄浦区江西中路福州大楼,上海市,上海市,黄浦区,,unknown,
baidu,1d2b6778fcb7b91e220220d7,中通快递(泗泾路店),上海市黄浦区泗泾路中山小区西北侧约120米,上海市,上海市,黄浦区,13795294161,unknown,
baidu,8c447826dd444c61028972fd,宏达刻字社(山东中路店),山东中路180号（南京东路地铁站3号口步行340米),上海市,上海市,黄浦区,13564824205,unknown,
baidu,f157d7333ffe3cfd8f55ecf6,京东快递(江西中路店),江西中路135弄1-13号泗泾小区,上海市,上海市,黄浦区,,unknown,
baidu,d284b5d96e88561b7bf79612,唯而美图文广告(河南中路店),河南中路148号泗泾路路口(靠近广东路外滩中心)（靠近福州路外滩中心）,上海市,上海市,黄浦区,,unknown,
baidu,5cd4dd05c2d763c6fb2d61fa,休息区,上海市黄浦区南京东路299号宏伊国际广场F4,上海市,上海市,黄浦区,,unknown,
baidu,28b5e349345dbbc23c9a5e64,方快-照相馆(恒基名人店),南京东路300号恒基名人广场三楼,上海市,上海市,黄浦区,18516714969,unknown,
baidu,a04f5c73167a2f45ae080f7a,乐合喜剧售票处,南京路300号恒基名人购物中心F5,上海市,上海市,黄浦区,13310108927,unknown,
baidu,01855a91ac4f68dfebe582a9,中国体育彩票(中央大厦店),上海市黄浦区四川中路321号中央大厦一楼,上海市,上海市,黄浦区,95086,unknown,
baidu,6bc961c8a09ab487a4c75643,厉峰客户服务中心,上海市黄浦区南京东路299号宏伊十层零三室,上海市,上海市,黄浦区,,unknown,
baidu,5e5dfa17166e16a535b06c48,中国电信(外滩店),上海市黄浦区南京东路299号宏伊国际广场F5（味爱旁）,上海市,上海市,黄浦区,17717473777,unknown,
baidu,d85f62a74ca512cdf42310b9,王开摄影·亲子儿童(南京东路旗舰店),南京东路378号,上海市,上海市,黄浦区,15901717523,unknown,
baidu,66623c7088b23596c4f50dfa,UNIVERSAL CENTER,上海市黄浦区南京东路288号宏伊国际广场(南京东路店)F5,上海市,上海市,黄浦区,,unknown,
baidu,ffcf90682f9aab1ab05c6ae1,黄浦江游船旅游票务,中山东二路157号,上海市,上海市,黄浦区,(021)33310365,unknown,
baidu,28b0bf9bf27a4a0b1894c63d,新世界大丸百货-会员中心,上海市黄浦区南京东路228号新世界大丸百货F6,上海市,上海市,黄浦区,,unknown,
baidu,4555c84c26d1c7239de3212b,无障碍洗手间(宏基广场),南京东路300号恒基名人购物中心F6,上海市,上海市,黄浦区,,unknown,
baidu,43fb14e415671b1081288a36,上海艾迪逊酒店·宴会厅,南京东路199号上海艾迪逊酒店5楼（近酒店东门下车点）,上海市,上海市,黄浦区,(021)53689999,unknown,
baidu,a7defdd3a855d045bb17e799,客梯,上海市黄浦区外滩街道南京东路361-、369号,上海市,上海市,黄浦区,,unknown,
baidu,c5a23218ec16021e990050b5,直梯(客梯),南京东路299号宏伊国际广场F1,上海市,上海市,黄浦区,,unknown,
baidu,6e5de150b357f47d76e5b6d4,JUST·FOTO大头贴(恒基名人购物中心店),南京东路恒基名人购物中心4楼温禾牛旁,上海市,上海市,黄浦区,,unknown,
baidu,f61fc7312e8902669ff7795a,自动拍照机,上海市黄浦区2号线vs10号线地铁站南京东路站B1,上海市,上海市,黄浦区,,unknown,
baidu,0402d6ac36080d52c42ba176,公共厕所,中山东一路159号(外滩),上海市,上海市,黄浦区,,unknown,
baidu,5e3f487119620d002fe67b24,沪奢奢侈品黄金回收鉴定中心(华盛大厦店),上海市黄浦区山西南路金融广场,上海市,上海市,黄浦区,,unknown,
baidu,6be26b203c31cf2386420e48,新世界大丸百货-收银台,上海市黄浦区南京东路228号新世界大丸百货F6,上海市,上海市,黄浦区,,unknown,
baidu,90a203effe5ec526bb17e7ec,户外职工爱心接力站·上海联通九江路营业厅,上海市黄浦区四川中路324号(南京东路地铁站7号口步行410米),上海市,上海市,黄浦区,(021)61132783,unknown,
baidu,0828c52c13798c23250bd028,扶梯,上海市黄浦区2号线vs10号线地铁站南京东路站B2,上海市,上海市,黄浦区,,unknown,
baidu,ee35c83cf575379426d2bbcc,直梯(货梯),南京东路299号宏伊国际广场B2,上海市,上海市,黄浦区,,unknown,
baidu,2cff53f5d9e49cb72b3a9f8b,直梯(货梯),南京东路299号宏伊国际广场F3,上海市,上海市,黄浦区,,unknown,
baidu,625bb4bd542254e026d2bb5e,直梯(货梯),南京东路299号宏伊国际广场F6,上海市,上海市,黄浦区,,unknown,
baidu,dbcf84dcb9fa485615764384,悦荟mosaic-母婴室,南京东路830号B馆L4,上海市,上海市,黄浦区,,unknown,
baidu,4ae41837767014d2cf06a41d,公共厕所(中山东一路421号外滩),中山东一路357号,上海市,上海市,黄浦区,,unknown,
baidu,7215a8b0661ac9a9c51e51d0,外滩观光隧道-售票处,上海市黄浦区中山东一路351号B1层,上海市,上海市,黄浦区,(021)58886000,unknown,
baidu,c91c2807f51191fdeb12e4b5,扶梯,上海市黄浦区2号线vs10号线地铁站南京东路站B2,上海市,上海市,黄浦区,,unknown,
baidu,e3529a8826263dd031f71d3f,新世界大丸百货-收银台,上海市黄浦区南京东路228号新世界大丸百货F1,上海市,上海市,黄浦区,,unknown,
baidu,13ab2774e816f797704b8770,新世界大丸百货-收银台,上海市黄浦区南京东路228号新世界大丸百货F4,上海市,上海市,黄浦区,,unknown,
baidu,977dfc943b54e72a744ff1c3,劳动者港湾(中国建设银行上海第五支行),上海市黄浦区四川中路321号中央大厦5楼,上海市,上海市,黄浦区,,unknown,
baidu,d219bb1d2bb69ef5f50e7749,公共厕所,上海市黄浦区山东北路49号,上海市,上海市,黄浦区,,unknown,
baidu,330e7592d6428e5321f01726,新世界大丸百货-收银台,上海市黄浦区南京东路228号新世界大丸百货F5,上海市,上海市,黄浦区,,unknown,
baidu,cf059fbd462e952ee215f9ce,扶梯,上海市黄浦区2号线vs10号线地铁站南京东路站B2,上海市,上海市,黄浦区,,unknown,
baidu,06f9a5ed91c5fd2ea1d23085,楼梯,上海市黄浦区2号线vs10号线地铁站南京东路站B2,上海市,上海市,黄浦区,,unknown,
baidu,ee148fa8cb80a456b5f42f91,楼梯,上海市黄浦区2号线vs10号线地铁站南京东路站B2,上海市,上海市,黄浦区,,unknown,
baidu,adbab2e2a9ddd42bf603b88a,扶梯,上海市黄浦区2号线vs10号线地铁站南京东路站B2,上海市,上海市,黄浦区,,unknown,
baidu,6a64156f1fc88497130daacc,新世界大丸百货-收银台,上海市黄浦区南京东路228号新世界大丸百货F2,上海市,上海市,黄浦区,,unknown,
baidu,472586481ee5dec7611c6732,楼梯,上海市黄浦区2号线vs10号线地铁站南京东路站B2,上海市,上海市,黄浦区,,unknown,
baidu,3b76feec6d88f3a316c905b1,楼梯,上海市黄浦区2号线vs10号线地铁站南京东路站B1,上海市,上海市,黄浦区,,unknown,
baidu,597600fc5c9a1672c7f50d36,外滩轮渡口-轮渡售票处,中山东二路75号金陵东路渡口,上海市,上海市,黄浦区,,unknown,
baidu,9ee392b80745c33fbbbd6304,公共厕所,福州路556号(近浙江中路),上海市,上海市,黄浦区,,unknown,
baidu,e9af164ed5ff0c76f82d6142,浦江游览外滩游船-售票处,上海市黄浦区中山东二路491号,上海市,上海市,黄浦区,15900470688,unknown,
baidu,8d8d8950663be07107fef5c9,扶梯,上海市黄浦区2号线vs10号线地铁站南京东路站B1,上海市,上海市,黄浦区,,unknown,
baidu,3387b91b97e27513bda24003,楼梯,上海市黄浦区2号线vs10号线地铁站南京东路站B1,上海市,上海市,黄浦区,,unknown,
baidu,b0984f59048d805eb05c6a1a,扶梯,上海市黄浦区2号线vs10号线地铁站南京东路站B1,上海市,上海市,黄浦区,,unknown,
baidu,2d2ae2c390e139803fe23189,新世界大丸百货-收银台,上海市黄浦区南京东路228号新世界大丸百货F4,上海市,上海市,黄浦区,,unknown,
baidu,3b31f752c7c0dfc8283a9f14,新世界大丸百货-收银台,上海市黄浦区南京东路228号新世界大丸百货B1,上海市,上海市,黄浦区,,unknown,
baidu,2db690839747fef736b06cd2,新世界大丸百货-收银台,上海市黄浦区南京东路228号新世界大丸百货F3,上海市,上海市,黄浦区,,unknown,
baidu,c911894bf06befbd08f5eba0,新世界大丸百货-收银台,上海市黄浦区南京东路228号新世界大丸百货F5,上海市,上海市,黄浦区,,unknown,
baidu,4c7f7356384ed65ca21de9c2,新世界大丸百货-收银台,上海市黄浦区南京东路228号新世界大丸百货F2,上海市,上海市,黄浦区,,unknown,
baidu,9e5676b46ba4b3f504fef547,楼梯,上海市黄浦区2号线vs10号线地铁站南京东路站B2,上海市,上海市,黄浦区,,unknown,
baidu,6c06e7e3d97d8be771455b1d,扶梯,上海市黄浦区2号线vs10号线地铁站南京东路站B1,上海市,上海市,黄浦区,,unknown,
baidu,481c96bf6dde06a64afc8dea,扶梯,上海市黄浦区2号线vs10号线地铁站南京东路站B2,上海市,上海市,黄浦区,,unknown,
baidu,0c3e7247d06c19c8eb1e97fc,扶梯,上海市黄浦区2号线vs10号线地铁站南京东路站B1,上海市,上海市,黄浦区,,unknown,
baidu,9b9c45125d374c035fd4fe05,上海公共交通卡服务中心(九江路营业部),上海市黄浦区人民广场地铁站近20号口B1层服务窗口,上海市,上海市,黄浦区,(021)63601952,unknown,
baidu,f74a3c7bedf0e322a0acc474,黄浦公园-公共厕所,上海市黄浦区外滩街道中山东一路500号,上海市,上海市,黄浦区,,unknown,
baidu,7f48777c512746999ff7792d,公共厕所,广西北路248号百米香榭商业街3层,上海市,上海市,黄浦区,,unknown,
baidu,e141ea0d85113a838505bf3f,公共厕所,上海市黄浦区河南南路186号,上海市,上海市,黄浦区,,unknown,
baidu,c5ad19d281e0dbcb9d95decd,苏州河樱花谷驿站,上海市黄浦区南苏州路186号2楼,上海市,上海市,黄浦区,(021)63730986,unknown,
baidu,eee8e1d887b368700ab93a61,粤港潮楼·宴会厅,九江路600号永安百货4楼,上海市,上海市,黄浦区,"(021)62811978,(021)62940127",unknown,
baidu,0130fc43644423cd40ab9a2f,公共厕所(时装商店),上海市黄浦区南京东路650-690号时装商店2层,上海市,上海市,黄浦区,,unknown,
baidu,3197c02548a94807fa0cade3,公共厕所,上海市黄浦区丽水路81号紫锦城百货F2层,上海市,上海市,黄浦区,,unknown,
baidu,7d5f3a0a3ef7524a2cb9085a,中国电信(江西中路营业厅),上海市黄浦区江西中路232号(汉口路口),上海市,上海市,黄浦区,"(021)63217504,10000",unknown,
baidu,be4b477857c98bdd8b2fb523,湘科图文广告,上海市黄浦区江西中路170号福州大楼大厅,上海市,上海市,黄浦区,19921037980,unknown,
baidu,8018358dc726a99f14b54bc2,街电(景莱酒店上海南京东路外滩店),"上海市黄浦区福州路118号(近四川中路,外滩南京路步行街)",上海市,上海市,黄浦区,4006868588,unknown,
baidu,b19cc1a0838096f896ca073c,街电(大富贵小吃部江西中路店),上海市黄浦区南京东路179号,上海市,上海市,黄浦区,(021)63390287,unknown,
baidu,e9bde8ac9908545aa4c756f5,宏伊国际广场-怪兽充电,南京东路299号宏伊国际广场F2,上海市,上海市,黄浦区,4006703303,unknown,
baidu,d4aac707d6501dce0a5cb33f,宏伊国际广场-IP Station,南京东路299号宏伊国际广场F1,上海市,上海市,黄浦区,,unknown,
baidu,ccce9c353eb6a2d6d813184e,街电(港丽餐厅宏伊店),上海市黄浦区南京东路299号宏伊国际广场4楼411室,上海市,上海市,黄浦区,4006868588,unknown,
baidu,36bec0a04e65287ba4c756b5,来电共享充电宝(鹿港小镇),上海市黄浦区南京东路229号宏伊国际广场第6层,上海市,上海市,黄浦区,4008845966,unknown,
baidu,47fa64cf2e9ba8a4dbd89107,香烟箱包·伞鞋·行李寄存,上海市黄浦区江西中路312号,上海市,上海市,黄浦区,,unknown,
baidu,8f9f3e35a479179beaf8531f,宏伊国际广场-怪兽充电,南京东路299号宏伊国际广场F4,上海市,上海市,黄浦区,4006703303,unknown,
baidu,8e6cdd41f5aadfec8f1a8993,宏伊国际广场-怪兽充电,南京东路299号宏伊国际广场F5,上海市,上海市,黄浦区,4006703303,unknown,
baidu,69fcd6dfc08b3d2eca29155a,中国移动(圆明园路营业厅),上海市黄浦区圆明园路21号一层,上海市,上海市,黄浦区,(021)31777254,unknown,
baidu,948fc1ec1a1cdfa83f9a5e43,中国移动(福州路营业厅),上海市黄浦区福州路546号,上海市,上海市,黄浦区,13917110086,unknown,
baidu,0de145bb803f7422c929156c,HETA Be Friends,上海市黄浦区南京东路288号宏伊国际广场(南京东路店)F5,上海市,上海市,黄浦区,,unknown,
baidu,0d0d1b7c43b3bb4b118824f5,中国电信(福建中路营业厅),上海市黄浦区福建中路460号1楼,上海市,上海市,黄浦区,(021)63226244,unknown,
baidu,d6df91c1367a7e73f7b916d3,克丽缇娜(外滩店),外滩街道九江路200号-1(南京东路地铁站3号口200米),上海市,上海市,黄浦区,(021)63216668,unknown,
baidu,dce04fd729a218a3593ac8c0,美妍集·柔婷ESPA(南京路店),南京东路353号悦荟广场五楼515A-515B,上海市,上海市,黄浦区,,unknown,
baidu,6f0d97487775c4721e5800a0,漫花溪科技美肤(南京东路店),汉口路398号华盛大厦708室（从汉口路进）,上海市,上海市,黄浦区,(021)60404985,unknown,
baidu,79dafb0542c991bb1e5800ff,海菲秀·U Idio-Face皮肤管理(外滩店),河南中路88号威斯汀大酒店三楼健身房旁边,上海市,上海市,黄浦区,18717945252,unknown,
baidu,8ab0dfc4f740380fd8ecedc6,东瀛造型(外滩宏伊广场店),南京东路299号宏伊广场5楼505号,上海市,上海市,黄浦区,(021)33665560,unknown,
baidu,571a1017f4dfcd01efe4a526,MOTI BEAUTY美甲美睫(南京东路店),南京东路299号宏伊国际商场四楼S408,上海市,上海市,黄浦区,15618529713,unknown,
baidu,50b4f947f303dceb9d9d68c3,水木皮肤管理(黄浦店),广东路339号中福世福汇大酒店22楼2226室,上海市,上海市,黄浦区,,unknown,
baidu,38f9cabca59e4f416318093b,东瀛造型(名人购物中心店),南京东路300号恒基名人购物中心5层501,上海市,上海市,黄浦区,17621024162,unknown,
baidu,d9f8fe5ea42e8aba5fd4fe5c,99.MINI美甲美睫(南京东路步行街店),南京东路353号悦荟广场5楼521A,上海市,上海市,黄浦区,15021695185,unknown,
baidu,b77a833bbe616261bfa822c2,羽平黛拉·自助美甲美睫(南京东路店),南京东路300号恒基名人购物中心3楼309,上海市,上海市,黄浦区,13817234681,unknown,
baidu,7b4b4311a7dc82cbc9fa5fbb,liana丽安娜美甲美睫(新世界大丸百货店),南京东路228号新世界大丸百货B1楼B1B-12-01,上海市,上海市,黄浦区,"13671537606,13818852061",unknown,
baidu,7819eb6c224155373c9a5e05,sy·舒雅美容养生SPA(黄浦店),广东路339号中福现代城,上海市,上海市,黄浦区,,unknown,
baidu,7825cab1c79f893821f0178d,1099男士脱毛管理中心(黄浦店),广东路339号中福世福汇,上海市,上海市,黄浦区,"15002160009,15221566420",unknown,
baidu,e531e44a63b2774581288a05,自然美(人民广场店),汉口路571号,上海市,上海市,黄浦区,13524694888,unknown,
baidu,322e98d914ed119f45e27496,利川造型(人民广场店),外滩街道福建中路212号(中外运大厦附楼),上海市,上海市,黄浦区,15348317650,unknown,
baidu,f4460918659cd473b11e3632,克丽缇娜(浙江中路店),南京东路街道浙江中路176号一、二层(近福州路),上海市,上海市,黄浦区,,unknown,
baidu,7b443c74e5a037fb1c389462,福艺美甲美睫,广东路339号中福世福汇大厦519室（广东路与山东中路交口）,上海市,上海市,黄浦区,15001887667,unknown,
baidu,744e58c346dd2f9dc91b9522,N.L NEW LIFE国际轻奢容颜定制中心(人民广场店),福州路610号(谭木匠隔壁),上海市,上海市,黄浦区,18616080761,unknown,
baidu,5ccb2c197df21901e11103cf,Believer蜜蜡修眉美容养生馆,广西北路252号百米香榭商业街124号（福州路）,上海市,上海市,黄浦区,13816185414,unknown,
baidu,5d52cf64b76849fbb6f42f0e,TINT(华尔道夫酒店店),中山东一路2号上海外滩华尔道夫酒店三楼,上海市,上海市,黄浦区,,unknown,
baidu,5807e3351ea51a8b01294f10,HQ半永久纹绣纹眉,南京东路409号17楼01室,上海市,上海市,黄浦区,"(021)63300656,15000304026",unknown,
baidu,65c5577d2594508a2dfaa7cf,Clears祛痘·阻断痘肌修护中心,汉口路650号亚洲大厦1208室（从汉口路星空间门进）,上海市,上海市,黄浦区,18516621120,unknown,
baidu,683a6ec091af2868c16c1471,carr salon,南京东路299号宏伊国际广场南京东路B1号,上海市,上海市,黄浦区,,unknown,
baidu,cbd7489a564ba8d9246e98f7,DONGYING SALON(宏伊国际广场南京东路店),上海市黄浦区南京东路288号宏伊国际广场(南京东路店)F6,上海市,上海市,黄浦区,,unknown,
baidu,0f2c9cb6a8e9aa176849f31a,上海恒琪辰美容美发有限公司,上海市黄浦区南京东路300号B2层B201室,上海市,上海市,黄浦区,,unknown,
baidu,d18a5010e5d89721b34c4956,纹洁纹路修复中心,上海市黄浦区汉口路400号华盛大厦608室,上海市,上海市,黄浦区,,unknown,
baidu,8c0c64f2db65ebdf4f6d469a,明汇造型(山东中路店),广东路339号中福现代城一楼,上海市,上海市,黄浦区,13818363136,unknown,
baidu,84987f31ef4c84ea9e95dee6,记号刺青tattoo纹身工作室(中福世福汇店),广东路339号中福世福汇1713室,上海市,上海市,黄浦区,"15601961713,17717607941",unknown,
baidu,72cdc90ea57e2f3e6ca3cc41,Ti-one日式半永久纹眉美甲美睫专业旗舰店,天津路66号百空间一楼F107室（近新世界大丸百货后门）,上海市,上海市,黄浦区,19821386747,unknown,
baidu,c8ce1364b9f1bfc30bf5ebad,Datto头皮护理(华尔道夫店),中山东一路2号华尔道夫酒店3楼,上海市,上海市,黄浦区,13020290023,unknown,
baidu,ff91c51e50543f154bcc4afd,福曼泽养生会所(南京东路店),南京东路580号阳光商厦七楼,上海市,上海市,黄浦区,(021)31595279,unknown,
baidu,37a40faf02e8dff07c29bd21,The weest日式无菌半永久纹眉定妆中心,上海市黄浦区广东路339号中福世福汇19楼1901室,上海市,上海市,黄浦区,,unknown,
baidu,2de0acf06b5b70674c6d46e6,V-Ta彩妆造型·化妆培训(黄浦南京东路店),南京东路409号置地广场10楼2011室,上海市,上海市,黄浦区,18217720277,unknown,
baidu,e5e80306b84d450dc51e5144,伊兰salon(南京东路店),南京东路505号丽笙精选海仑宾馆7楼,上海市,上海市,黄浦区,18321934782,unknown,
baidu,9680b95d4d8fd56facee7a99,新新美容城(黄浦店),上海市黄浦区汉口路575号,上海市,上海市,黄浦区,(021)63515991,unknown,
baidu,548660910630f13bd52ce25e,FX专业接发·羽毛接发(外滩店),广东路339号中福世福汇,上海市,上海市,黄浦区,,unknown,
baidu,a05a904ec33924ccc37da297,四季美业,上海市黄浦区广东路630号,上海市,上海市,黄浦区,13764417078,unknown,
baidu,a759b06203820819dbeced2a,NL科技美肤(南京东路店),福州路610号（谭木匠隔壁）,上海市,上海市,黄浦区,"(021)53063236,18516080761",unknown,
baidu,7413aae37c250203d1f49e87,龙剪峰时尚造型,山西南路328号,上海市,上海市,黄浦区,13761992389,unknown,
baidu,6955f593e2a8aa72eee4a50a,梦发廊(山西南路店),山西南路300号(南京东路地铁站1号口步行310米),上海市,上海市,黄浦区,13472747562,unknown,
baidu,a7d74b2d0d67df760aa8d48f,桃源乡(古象店),九江路595号(人民广场地铁站14号口步行430米),上海市,上海市,黄浦区,(021)53026169,unknown,
baidu,381ba9c394368e55c41e516a,名尚国际时尚造型(人民广场店),汉口路575号,上海市,上海市,黄浦区,15026826567,unknown,
baidu,0fed4b29e882db8dfa42b2f2,章光101育发养发(浙江中路直营店),南京东路街道浙江中路168号(近福州路),上海市,上海市,黄浦区,"(021)63506901,(021)63606901",unknown,
baidu,2db76cb625bd1c2016a19064,蚂蚁造型俱乐部(人广店),汉口路698号2层204室（公安局正对面中福时尚地带2楼）,上海市,上海市,黄浦区,"13482038881,13651771897",unknown,
baidu,2b07091e15e54a80841541e9,丽尔美睫(人民广场店),南京东路街道广西北路232号(近来福士广场),上海市,上海市,黄浦区,15216881190,unknown,
baidu,7f1706adc5c13e38fbdc8535,colorful美甲美睫,海口路7号（导航到北海路浙江中路交叉口）,上海市,上海市,黄浦区,,unknown,
baidu,a145d2746c07df47a7c7568f,和良形象(人广店),云南中路246号(靠近汉口路)距1、2、8号线14号口步行140m,上海市,上海市,黄浦区,(021)53071789,unknown,
baidu,e1730f080d1984042bb97c9b,伟忠嘉诚美业,上海市黄浦区广东路608号,上海市,上海市,黄浦区,18221352098,unknown,
baidu,4f36418ce89512460a5cb3ea,Mr·JUDY洗个头发(远洋商业大厦店),延安路618号远洋商业大厦一期1F12b1室,上海市,上海市,黄浦区,17274677885,unknown,
baidu,1a53c1595ae9e513a80dd831,艺典形象Salon(人民广场店),汉口路698号公安局正对面中福时尚地带2楼,上海市,上海市,黄浦区,(021)68886193,unknown,
baidu,b77947faf66536074c6d46ff,巢造型Hairsalon,南京东路505号丽笙精选海仑宾馆7楼,上海市,上海市,黄浦区,13585587882,unknown,
baidu,f36166aeaed93570d2f49e93,MR时光造型(天津路店),天津路415号,上海市,上海市,黄浦区,15021791683,unknown,
baidu,303761804ecb5b2eca2915ae,我爱我甲Love My Nail,福州路610号,上海市,上海市,黄浦区,(021)63223728,unknown,
baidu,9653204fa58c7e699cf7791a,寇氏减肥(人民广场店),九江路619号中福大酒店1503室,上海市,上海市,黄浦区,17740877127,unknown,
baidu,edec86f5dc0f2cc51a94c65e,田野美睫(人民广场店),汉口路650号亚洲大厦12楼1207室（星空间楼上）,上海市,上海市,黄浦区,13044164635,unknown,
baidu,e889a744411e9cac8605bf30,京世沙龙(人民店),豫园街道人民路851号(人民路与淮海东路交叉口),上海市,上海市,黄浦区,(021)63114235,unknown,
baidu,d2277e1e6b75cdf2f503b8ec,美人蕉发型(南京路步行街店),天津路369号(南京东路地铁站1号口步行450米),上海市,上海市,黄浦区,13671892365,unknown,
baidu,eae0bd977beeb69f9b68b419,艺廊造型HAIR SPA半岛酒店(半岛店),中山东一路32号半岛酒店B1层14-1,上海市,上海市,黄浦区,(021)63332996,unknown,
baidu,3ef06662a8232e76bfa822d6,美容养生仪器,上海市黄浦区平望街平望小区南侧,上海市,上海市,黄浦区,,unknown,
baidu,56bc4d335bcaa58a38221cc5,3am HAIR SALON烫发染发接发(淮海中路力宝广场店),上海市黄浦区人民路885号淮海中华大厦28楼,上海市,上海市,黄浦区,15738485556,unknown,
baidu,567987d13f9675a2d72ce253,A·安国际美甲美睫纹绣(百米香榭商业街店),浙江中路229号百米香榭一楼117室,上海市,上海市,黄浦区,18321018896,unknown,
baidu,feb736c0b7ef0aea902ca368,一粒麦子·减肥塑形·皮肤管理(黄浦店),汉口路650号亚洲大厦10楼1009室,上海市,上海市,黄浦区,,unknown,
baidu,9d53e1997b53c85c5d0d021c,Lpc·颜色馆·染发漂发·画染挑染,南京东路830号第一百货B馆3楼,上海市,上海市,黄浦区,13386155383,unknown,
baidu,5120a5355e4bf7421e5800f2,99MINI美甲美睫(南京东路步行街店),浙江中路400号春申江大厦410室,上海市,上海市,黄浦区,15021695185,unknown,
baidu,32e8e4a2bb9c8dfb89b98806,华安美丽馆(人广店),南京西路110号（金门大酒店底商）,上海市,上海市,黄浦区,"(021)63279718,4000192609",unknown,
baidu,9a7f7e4485f3416888db73c8,柏金FACIAL·美甲美睫沙龙(新世界城店),南京西路2-68号新世界城3楼3C03商铺,上海市,上海市,黄浦区,(021)22061309,unknown,
baidu,52c4ea16a02d0e832a02e129,3am HAIR SALON烫发染发接发(陆家嘴尚悦湾店),陆家嘴西路168号正大广场西区B1层L25B号,上海市,上海市,浦东新区,"17521009981,18616368892",unknown,
baidu,79006035d0ff42ffc71e51b6,艳艳红专业接发,上海市黄浦区广西北路246-252号百米香榭商业街123号,上海市,上海市,黄浦区,(021)63500628,unknown,
baidu,140aee72e91a542102294f78,日置コアラ纹眉半永久直营(人广店),汉口路650号亚洲大厦2103室,上海市,上海市,黄浦区,13918809624,unknown,
baidu,39c105327c28f17f6849f312,丽尔美睫(新天地店),湖滨路222号企业天地1号楼2楼206室,上海市,上海市,黄浦区,"(021)60900609,15800917169",unknown,
baidu,10c7aeff27a1ce881a94c601,京世沙龙(威海店),南京东路街道威海路192号(近成都北路),上海市,上海市,黄浦区,(021)63318177,unknown,
baidu,ec7ee7106cfcd893ff0eb058,瑞贝卡(上海外滩大丸百货店),南京东路228号新世界大丸百货3楼3A-11、3A-12,上海市,上海市,黄浦区,,unknown,
baidu,088aa86e20b72e1f94ec849b,H&B(广西北路店),上海市广西北路百米香榭一楼128号,上海市,上海市,黄浦区,,unknown,
baidu,27fd224c3e2bdaecda2f2831,万国博览建筑群,中山东一路18号,上海市,上海市,黄浦区,,unknown,
baidu,5c2dc21dd3dcd2056ec02cab,外滩,上海市黄浦区中山东一路北至外白渡桥、南至十六铺码头,上海市,上海市,黄浦区,,unknown,
baidu,33c3d820f455cd9e2c4733ab,上海城隍庙,上海市黄浦区方浜中路249号,上海市,上海市,黄浦区,(021)63284494,unknown,
baidu,606289fda2cbca54a2046453,豫园,上海市黄浦区福佑路168号,上海市,上海市,黄浦区,(021)63260830,unknown,
baidu,750ec165213c9d2a4d3a59ab,黄浦公园,上海市黄浦区外滩中山东一路479号,上海市,上海市,黄浦区,(021)53082636,unknown,
baidu,5211d2199900285a7cc87686,上海外滩美术馆,虎丘路20号（近北京东路）,上海市,上海市,黄浦区,(021)63216251,unknown,
baidu,ba03951890c72ea62102627b,外滩二十二号Bund22,外滩街道中山东二路22号(近新永安路),上海市,上海市,黄浦区,(021)63201366,unknown,
baidu,1020060fde6aada71994c6ab,上海博物馆(人民广场馆),上海市黄浦区人民大道201号,上海市,上海市,黄浦区,(021)63723500,unknown,
baidu,1816533483da9005fa2d61ab,人民公园,上海市黄浦区南京西路231号,上海市,上海市,黄浦区,(021)63271333,unknown,
baidu,dc81b5a027c5a711e812e445,外滩观景大道,上海市黄浦区中山东一路(外滩)411号,上海市,上海市,黄浦区,,unknown,
baidu,3fa2cdc74a7997b9d3ff23e5,外滩牛,上海市黄浦区外滩街道中山东一路46号外滩金牛广场内,上海市,上海市,黄浦区,,unknown,
baidu,fa01e937f4972e49774ff17d,福州路文化街,上海市黄浦区福州路上海文化商厦西侧,上海市,上海市,黄浦区,,unknown,
baidu,b643224025414952f4e73b2f,东方明珠广播电视塔,上海市浦东新区世纪大道1号,上海市,上海市,浦东新区,"(021)58791888,(021)58792888",unknown,
baidu,4639bd4e9955dedf8b36ee9f,圣三一堂,上海市黄浦区九江路219号(近江西中路),上海市,上海市,黄浦区,(021)63331120,unknown,
baidu,cd73fb65e89d4b692cb96df4,和平博物馆,上海市黄浦区南京东路20号和平饭店北楼G层,上海市,上海市,黄浦区,(021)61386888,unknown,
baidu,6ed3083afb8a07c92b3a9f6f,上海电信博物馆,上海市黄浦区延安东路34号,上海市,上海市,黄浦区,(021)33311122,unknown,
baidu,eb3675036f1bdb0201ec018e,黄浦江,上海市浦东新区黄浦江(外马路东300米),上海市,上海市,浦东新区,,unknown,
baidu,0a46dc0f46e5e15f316212ab,陈毅塑像,上海市黄浦区中山东一路外滩金融广场(临黄浦江),上海市,上海市,黄浦区,,unknown,
baidu,7f5636a64f157b9ffa0cade8,上海久事国际艺术中心,上海市黄浦区中山东一路1号,上海市,上海市,黄浦区,13774471354,unknown,
baidu,bf67423e57513921e60738a5,外滩观景大道-观景平台,上海市中山东一路397号,上海市,上海市,黄浦区,,unknown,
baidu,759ff8df786a2fe4354aae25,网红邮筒,汉口路与中山东一路交叉口西南20米,上海市,上海市,黄浦区,,unknown,
baidu,f77659d594ccfe2743ab9a41,久事苏州河外滩源码头,上海市黄浦区南苏州路78号,上海市,上海市,黄浦区,4006900520,unknown,
baidu,8b968e7b4eadc31cbca822de,外滩-信号台,上海市黄浦区中山东二路1号甲,上海市,上海市,黄浦区,,unknown,
baidu,8d96925cd236d744c0f1cfab,外滩历史纪念馆,上海市黄浦区中山东一路475号(人民英雄纪念塔下),上海市,上海市,黄浦区,(021)53089124,unknown,
baidu,721986494008ae336d20b98c,上海银行公会旧址,上海市黄浦区香港路59号,上海市,上海市,黄浦区,,unknown,
baidu,3995e67c1b64da81f8f0cb27,SGA沪申画廊,上海市黄浦区外滩街道中山东一路3号外滩3号3楼311室,上海市,上海市,黄浦区,(021)63215757,unknown,
baidu,f446091804caf769b11e3606,上海笔墨博物馆,上海市黄浦区外滩街道福州路429号,上海市,上海市,黄浦区,(021)63281558,unknown,
baidu,ac76cda0a74c57075fd4fe79,上海海洋水族馆,上海市浦东新区陆家嘴环路1388号1楼(近东方明珠),上海市,上海市,浦东新区,(021)58779988,unknown,
baidu,669775d0665e2a5afd0eb05c,清真寺(福佑路),上海市黄浦区福佑路378号(近丽水路),上海市,上海市,黄浦区,(021)63282135,unknown,
baidu,5e9c2d6932bd4b09d8131869,原划船俱乐部,上海市黄浦区南苏州路76号,上海市,上海市,黄浦区,,unknown,
baidu,cccace1ef5411c4dca1b9504,金陵东路旅游码头,上海市黄浦区中山东一路外滩风景区内,上海市,上海市,黄浦区,,unknown,
baidu,3ab74eaeb6646a189f9d68ee,上海之巅观光厅(上海中心大厦店),上海市浦东新区银城中路501号上海中心大厦118层,上海市,上海市,浦东新区,"(021)61999766,(021)80370150",unknown,
baidu,0131589d166b05a86d20b93c,上海失恋博物馆(悦荟mosaic店),上海市黄浦区南京东路353号上海悦荟广场F3,上海市,上海市,黄浦区,15365070004,unknown,
baidu,07622e4d0b3eb956f4b91625,北外滩小巨蛋,上海市虹口区东大名路北外滩滨江绿地,上海市,上海市,虹口区,,unknown,
baidu,adda220db8f4e6af5fd4fe99,北外滩国客中心,上海市虹口区东大名路500号,上海市,上海市,虹口区,"(021)61818064,(021)61819910",unknown,
baidu,ac93dc63fbdbab4dc7f02590,外滩情人墙,上海市黄浦区中山东一路500号外滩风景区内,上海市,上海市,黄浦区,,unknown,
baidu,4e010152196a1329f33cba60,上海总商会旧址,上海市静安区北苏州路470号,上海市,上海市,静安区,,unknown,
baidu,8a0c5c10c2acd219250bd0d6,中孚银行大楼旧址,上海市黄浦区外滩街道滇池路103号,上海市,上海市,黄浦区,,unknown,
baidu,923ffd001bf049b6d92f2836,上海邮政博物馆,上海市虹口区北苏州路250号,上海市,上海市,虹口区,(021)63936666,unknown,
baidu,2e00c5dde22a6262d6851fb9,安培洋行,上海市黄浦区圆明园路97号,上海市,上海市,黄浦区,,unknown,
baidu,9312cd802c40a574fb22135b,天主教上海教区洋泾浜圣若瑟堂,上海市黄浦区四川南路36号,上海市,上海市,黄浦区,(021)63280293,unknown,
baidu,a414f3aa076d12c13f9a5e94,周围艺术画廊,上海市黄浦区四川中路33号创业大楼7楼703室,上海市,上海市,黄浦区,(021)33050100,unknown,
baidu,f542bb66c4e603eb01294f3d,上海四行仓库抗战纪念馆,上海市静安区北站街道光复路21号,上海市,上海市,静安区,"(021)63800180,(021)63808222",unknown,
baidu,2819ea81dda2c2cd28b97c98,怡和洋行,上海市黄浦区中山东一路27号732室,上海市,上海市,黄浦区,(021)64393615,unknown,
baidu,535851d8887546905fbe862f,海关大钟,外滩海关大楼,上海市,上海市,黄浦区,,unknown,
baidu,435306f5273e8270b75f1e08,夜游黄浦江,上海市黄浦区南京东路南京路步行街,上海市,上海市,黄浦区,,unknown,
baidu,14076dee7d4d43f502294f5e,江川大楼,上海市黄浦区四川中路294号(南京东路地铁站2号口步行460米),上海市,上海市,黄浦区,,unknown,
baidu,6113ef776536b9158f7727ab,沙逊大厦旧址,上海市黄浦区中山东一路20号(南京东路口),上海市,上海市,黄浦区,,unknown,
baidu,fccc5dfb41b3caf4344aaeb1,太古洋行,上海市黄浦区中山东二路22号,上海市,上海市,黄浦区,,unknown,
baidu,e1442314e060aef28505bf93,震旦博物馆,上海市浦东新区富城路99号震旦国际大楼1层,上海市,上海市,浦东新区,(021)58408899,unknown,
baidu,e4f82289b08bc4232fe67bc6,中国共产党第一次全国代表大会会址,上海市黄浦区兴业路76号,上海市,上海市,黄浦区,"(021)53830723,(021)53832171",unknown,
baidu,b734cb5106d219a5a1d2303d,浦江风情游览,上海市黄浦区中山东二路75号,上海市,上海市,黄浦区,,unknown,
baidu,a87b76cc82e63110f822134a,上海久事美术馆,中山东一路27号6层,上海市,上海市,黄浦区,13774471354,unknown,
baidu,a9d89b0e3bf3bbe09de3214b,大清银行旧址,上海市黄浦区四川中路268-270号,上海市,上海市,黄浦区,,unknown,
baidu,6c21c6e1e09397b48b2fb55e,上海钱业公会旧址,上海市黄浦区宁波路276号,上海市,上海市,黄浦区,,unknown,
baidu,3bb9dc195ab2705b276e98e3,延福绿地,上海市黄浦区外滩街道宁海东路159号,上海市,上海市,黄浦区,,unknown,
baidu,eba5545b28578544b75f1e78,交通银行旧址,上海市黄浦区中山东一路14号,上海市,上海市,黄浦区,,unknown,
baidu,afe4ad3e69e40481725e80ad,三菱洋行(上海分店旧址),上海市黄浦区广东路102号,上海市,上海市,黄浦区,,unknown,
baidu,5c60d34efdcf5868ee74f879,上海城市规划展示馆,上海市黄浦区人民大道100号,上海市,上海市,黄浦区,(021)63184477,unknown,
baidu,5649da269b86bb5908ccddfc,上海市历史博物馆,上海市黄浦区南京西路325号,上海市,上海市,黄浦区,(021)23299999,unknown,
baidu,a73662f528261934b8bd63bc,原新天安堂,上海市黄浦区南苏州路103号(圆明园路口),上海市,上海市,黄浦区,,unknown,
baidu,4d863008ca54a41f08f5eb7f,迦陵大楼旧址,上海市黄浦区南京东路99号(南京东路四川中路),上海市,上海市,黄浦区,,unknown,
baidu,be1ea5eff7319cc114948e5d,外滩源33,上海市黄浦区中山东一路33号英国领事馆及领事官邸旧址内,上海市,上海市,黄浦区,,unknown,
baidu,417bc4dcd8860410c17da2cb,轮船招商总局,上海市外滩街道中山东一路9号,上海市,上海市,黄浦区,,unknown,
baidu,e36d332cd7f08305bda240d5,谦信大楼旧址,上海市黄浦区江西中路138号,上海市,上海市,黄浦区,,unknown,
baidu,67d38a731eaeee67fa0cad8e,浦东美术馆,上海市浦东新区滨江大道2777号,上海市,上海市,浦东新区,4008208771,unknown,
baidu,b9ed40afc220d62f87154116,滇池路历史老建筑,上海市黄浦区滇池路120号,上海市,上海市,黄浦区,,unknown,
baidu,844a750e1ee60da062685874,上海大世界(西藏南路店),西藏南路1号,上海市,上海市,黄浦区,(021)63013680,unknown,
baidu,6d617698e04e846fae080fc6,日清大楼,上海市黄浦区中山东一路5号,上海市,上海市,黄浦区,,unknown,
baidu,52f7f573b8b53822a1a934ce,洋泾浜气象信号台旧址,上海市黄浦区中山东二路1号甲,上海市,上海市,黄浦区,,unknown,
baidu,674db33fd80a15cd38221ca2,北外滩滨江绿地,上海市虹口区东大名路558-678,上海市,上海市,虹口区,,unknown,
baidu,20751e873162a4dd17c8f636,亚洲文会大楼旧址,上海市黄浦区虎丘路20号,上海市,上海市,黄浦区,,unknown,
baidu,db0d1b42ae92bbdf081cc70d,上海市人民英雄纪念塔,上海市黄浦区中山东一路外滩金融广场(临黄浦江),上海市,上海市,黄浦区,(021)53082636,unknown,
baidu,f1aa02139bbadf3a72455bdb,南滨江,上海市浦东新区滨江大道2967号,上海市,上海市,浦东新区,"(021)61600122,021-58871096",unknown,
baidu,71de214d301aa54ae6e965ed,春美术馆,上海市黄浦区南京东路街道广西北路158号2楼,上海市,上海市,黄浦区,(021)63330181,unknown,
baidu,72e21cb3c24dd7ec631c67cd,圆形英雄雕像,上海市黄浦区中山东一路外滩风景区内,上海市,上海市,黄浦区,,unknown,
baidu,842f1c650b5d23f108ccdd1d,外滩观光隧道,上海市浦东新区滨江大道2789号,上海市,上海市,浦东新区,(021)58886000,unknown,
baidu,8e2e7d36439809924bcc4a59,女青年会大楼,上海市黄浦区圆明园路133号,上海市,上海市,黄浦区,,unknown,
baidu,d3b7f20945e88bf0e856fa3e,虹庙,上海市黄浦区南京东路496号,上海市,上海市,黄浦区,(021)51629176,unknown,
baidu,a1067162a9618aa1a8175a78,德国书信馆大楼旧址,上海市黄浦区外滩街道四川中路200-1,上海市,上海市,黄浦区,,unknown,
baidu,aac12a50b32a519ff503b8ce,赛麟空间,上海市黄浦区外滩街道汉口路309号申报馆旧址402~403房间,上海市,上海市,黄浦区,13918938280,unknown,
baidu,2b0a388ce5d18f60af080f39,四明大楼,上海市黄浦区北京东路232-240号,上海市,上海市,黄浦区,,unknown,
baidu,bbcd4fbf5f51c16140ab9a25,华俄道胜银行,上海市黄浦区中山东一路15号,上海市,上海市,黄浦区,,unknown,
baidu,1beeb7e9aee093b10782c27a,百乐饭店旧址,上海市黄浦区九江路219号,上海市,上海市,黄浦区,,unknown,
baidu,72fb8b023d3f71996240a98b,中央储蓄会/广东银行旧址,上海市黄浦区天津路2号,上海市,上海市,黄浦区,,unknown,
baidu,89f5a5d8b66b061f9c95deaf,大北电报公司旧址,上海市黄浦区中山东一路7号,上海市,上海市,黄浦区,,unknown,
baidu,0279873c998de39cd8d891a2,上海人民保安队总指挥部旧址,上海市黄浦区汉口路341弄3号,上海市,上海市,黄浦区,,unknown,
baidu,487416e1c8a38f32e5e965b5,萌萌塔,上海市黄浦区南京东路387号7楼蓝鳍美食城,上海市,上海市,黄浦区,(021)63801326,unknown,
baidu,59f9cc55f55074f2373a7174,浦江游览127号登船点,上海市黄浦区中山东二路127号,上海市,上海市,黄浦区,,unknown,
baidu,0809ccb33a357413a8f729a4,情人花景,上海市黄浦区外滩风景区内,上海市,上海市,黄浦区,,unknown,
baidu,f6c15911992ce99782288ae5,美孚洋行旧址,上海市黄浦区广东路94号,上海市,上海市,黄浦区,,unknown,
baidu,bb84de9f0ab2b4f17dc876bc,优秀历史建筑三菱大楼美孚大楼,上海市黄浦区广东路华尔道夫酒店(上海外滩店)西北侧,上海市,上海市,黄浦区,,unknown,
baidu,777fd1d1ce162536246e98df,教会公寓旧址,上海市黄浦区南苏州路79号,上海市,上海市,黄浦区,,unknown,
baidu,87c2da3362fe160f01294fbc,劝工大楼遗址,上海市黄浦区南京东路328号,上海市,上海市,黄浦区,,unknown,
baidu,69fcd6dfc0f83d2ecb2915ab,汇中饭店旧址,上海市黄浦区南京东路23号(近中山东一路),上海市,上海市,黄浦区,,unknown,
baidu,c3b713f40983d219882fb581,千雪里美画廊LIMMI KSNOW GALLERY,上海市黄浦区外滩街道四川中路33号503号,上海市,上海市,黄浦区,,unknown,
baidu,82abd17a101898bbe507381a,中国青年新闻记者协会成立会址纪念馆,山西南路200号,上海市,上海市,黄浦区,(021)63335997,unknown,
baidu,cd5c0fd65e281388a2046432,上海公库旧址,上海市黄浦区九江路50号,上海市,上海市,黄浦区,,unknown,
baidu,4ce10ce63014c0a0451a32ab,万国禁烟会会址,上海市黄浦区南京东路23号(近中山东一路),上海市,上海市,黄浦区,,unknown,
baidu,80d5588c754486f25b10930b,中国通商银行旧址,上海市黄浦区中山东一路6号外滩六号,上海市,上海市,黄浦区,,unknown,
baidu,0c53d40bee29b78f1f38949e,法国邮船公司旧址,上海市黄浦区中山东二路9号,上海市,上海市,黄浦区,,unknown,
baidu,ca1dbd31171839ac8c55ec39,会德丰大楼旧址,上海市黄浦区延安东路110号,上海市,上海市,黄浦区,,unknown,
baidu,62b1aeae0d98dd4ef7eafcc0,中共中央与中央军委联络点旧址,上海市黄浦区浙江中路平望小区,上海市,上海市,黄浦区,,unknown,
baidu,fed42a508454a6e84354d7b8,上海基督教青年会旧址,上海市黄浦区圆明园路133号,上海市,上海市,黄浦区,,unknown,
baidu,083aeba507d2281d130daad4,恒业里旧址,上海市黄浦区外滩街道江西中路135弄1-13号,上海市,上海市,黄浦区,,unknown,
baidu,7cb628c2636b5bc3455726e8,兰心戏院旧址,上海市黄浦区圆明园路185号兰心大楼,上海市,上海市,黄浦区,,unknown,
baidu,cc1ad8c47c6c2e0b6c20b97b,中共中央机关办公地遗址,上海市黄浦区山西南路350号上海物资大厦2层,上海市,上海市,黄浦区,,unknown,
baidu,d9fd8e963a6f51e63517dc30,约克大楼旧址,上海市黄浦区四川南路29号,上海市,上海市,黄浦区,,unknown,
baidu,1e3718a58794e3354107c152,老永安公司旧址,上海市黄浦区浙江中路317号,上海市,上海市,黄浦区,,unknown,
baidu,54574bc9d80815204107c137,青海藏地,上海市黄浦区侯家路32号福源商厦F2,上海市,上海市,黄浦区,,unknown,
baidu,bca64b97041928de85420efd,中共中央政治局机关旧址(1928-1931年),上海市云南中路171-173号,上海市,上海市,黄浦区,,unknown,
baidu,604adaa1021cf9fb0d0a7089,三泉嬉珠,上海市浦东新区滨江大道2967号滨江公园内,上海市,上海市,浦东新区,,unknown,
baidu,888ee85d5f45b60058f6beb8,穿心街回教堂,上海市黄浦区福佑路378号,上海市,上海市,黄浦区,(021)63282135,unknown,
baidu,64bd46ff728980fec9e33c7b,宣城猎豹,上海市黄浦区南京东路720号第一食品店,上海市,上海市,黄浦区,,unknown,
baidu,28ed17d5cda626ed75e5b6c8,中国垦业银行旧址,上海市黄浦区北京东路255号,上海市,上海市,黄浦区,,unknown,
baidu,3b5e6fbb505f6eee9d9d68a6,德国总会大楼旧址,上海市黄浦区中山东一路23号,上海市,上海市,黄浦区,,unknown,
baidu,6decb13afcc8b712e115f96e,林芳朱外滩博物馆(外滩18号店),上海市黄浦区外滩18号,上海市,上海市,黄浦区,,unknown,
baidu,9b7b4c76344b7cdbf02d83ad,纸片楼,山西南路349弄9-11号无锡小区,上海市,上海市,黄浦区,,unknown,
baidu,bf2510750eeef834102935d0,上海总会,上海市黄浦区中山东一路2号(中山东二路中山东一路),上海市,上海市,黄浦区,,unknown,
baidu,cc6a5eb58ab14f892fb96d92,艺术门画廊,上海市黄浦区外滩街道香港路117号2楼203室,上海市,上海市,黄浦区,(021)63231989,unknown,
baidu,e9e072aaa1107326621c6726,永年人寿保险公司旧址,上海市黄浦区广东路93号,上海市,上海市,黄浦区,,unknown,
baidu,4a5f17d2e2273590223bf222,英商自来水公司大楼旧址,江西中路484号,上海市,上海市,黄浦区,,unknown,
baidu,c6be376618c0612abea240ba,黎扬足道(南京东路店),"南京东路219号（新世界大丸百货南门对面,星巴克旁边向里30米）",上海市,上海市,黄浦区,,unknown,
baidu,518fdb17e4fa0d5aa8059d27,iSpa(外滩威斯汀旗舰店),河南中路88号威斯汀大饭店3楼,上海市,上海市,黄浦区,(021)61035002,unknown,
baidu,4ea3f2f1b76e22b3aecb6666,船长酒吧The Captain,福州路37号船长酒店6搂,上海市,上海市,黄浦区,15901736115,unknown,
baidu,94748d14a1899ba340024540,外滩8弄录音棚(外滩旗舰店),四川中路200号4楼（近福州路）,上海市,上海市,黄浦区,13818000591,unknown,
baidu,6a1f237fa47de3c1471a3299,城之央·轰趴团建生日聚会场地(南京东路店),汉口路309号申报馆6楼顶楼,上海市,上海市,黄浦区,18302128245,unknown,
baidu,9697539467807ae1ca09f00f,林肯爵士乐上海中心Jazz at Lincoln Center Shanghai,南京东路139号4楼401一402,上海市,上海市,黄浦区,"(021)63309218,18521718910",unknown,
baidu,6d441bf0190df7b89d9d68d0,Punch酒吧Punch Room(上海艾迪逊酒店),"南京东路199号上海艾迪逊酒店28楼（酒店东门,江西中路271号）",上海市,上海市,黄浦区,(021)53689540,unknown,
baidu,a6aa9dad379b1340fa42b27d,TOB terrace on the bund江景露台,四川中路133号1幢7楼701A、701B,上海市,上海市,黄浦区,,unknown,
baidu,74883ab9fdb7e6a17ec87677,贰楼·雀吧,广东路339号中福世福汇大酒店2楼,上海市,上海市,黄浦区,13524326562,unknown,
baidu,2ce51eacaf0ee5a2d1f49e2e,月汐棋牌(黄浦店),九江路399号华盛大厦4楼（一品名仕包子旁电梯或走商场正门扶梯）,上海市,上海市,黄浦区,17740892862,unknown,
baidu,7110ec0f865747aa04fef5e1,月球机械剧情密室(南京东路店),南京东路353号悦荟广场514A-1室,上海市,上海市,黄浦区,17621670531,unknown,
baidu,01c84b4e423ce09f2fb17ee0,上海外滩华尔道夫水疗SPA,四川中路88号上海外滩华尔道夫酒店3层,上海市,上海市,黄浦区,"(021)23290459,(021)63229988",unknown,
baidu,8c89e9a36c6c581ed3ff2344,剧靡精选剧本杀密室(人广旗舰店),南京东路步行街409号置地广场1010室,上海市,上海市,黄浦区,15316665092,unknown,
baidu,31ad9c2fa68de8b2d23ce357,KEV(外滩18号店),中山东一路18号7层,上海市,上海市,黄浦区,02153833699,unknown,
baidu,28e700f1746d3e18095cb366,纯K(浙江路店),浙江南路68号（宁海东路路口）,上海市,上海市,黄浦区,(021)31155888,unknown,
baidu,a47e95032fc6ed361ce99965,TENDER BAR,汉口路422号101室,上海市,上海市,黄浦区,18721994501,unknown,
baidu,03e23d172a490d5028b97c99,长藤密室(南京东路步行街店),南京东路479号步行街U479商场8楼,上海市,上海市,黄浦区,17691170764,unknown,
baidu,6a2a22320e3f5d0f4afc8d57,BAR TIME(外滩店),"上海市黄浦区中山东一路287号(近九江路,招商银行对面)",上海市,上海市,黄浦区,19916590118,unknown,
baidu,35368d024d6de0d94e2fdfac,Nook Art香水·蜡烛·戒指·多巴胺DIY(人民广场店),中山西路179号虹桥世家花园商务楼6楼6K室,上海市,上海市,黄浦区,(021)63355918,unknown,
baidu,3f5dec29888f73a79e95de29,三寸·银泥·银条·银饰DIY(南京路店),南京路上海置地广场10楼1024室（从《太平鸟》大门右侧坐电梯到10楼）,上海市,上海市,黄浦区,17721222921,unknown,
baidu,f507590911a08cb708f5ebc9,美康维美式整脊(南京东路店),上海市黄浦区山东中路33号中福世福汇15层1526室,上海市,上海市,黄浦区,13585776687,unknown,
baidu,5508504d48b4d5d2c7f02511,亚凡足道(福建中路店),福建中路208号,上海市,上海市,黄浦区,,unknown,
baidu,e3e1c61200d5e22ca1a93447,要玩喜剧脱口秀-南京东路店,南京东路299号宏伊国际广场4楼S404单元,上海市,上海市,黄浦区,13601837746,unknown,
baidu,fe243e8af64efc37223bf292,循环岛可持续空间,上海市黄浦区江西中路181号建设大楼10楼,上海市,上海市,黄浦区,15317259753,unknown,
baidu,b436f059e14d71c40ab93a4c,迷岛·1095微恐剧情密室逃不脱(南京东路店),"南京东路300号恒基名人购物中心负一楼171室（地铁2号出口,吉野家旁）",上海市,上海市,黄浦区,"13668257338,18616723999",unknown,
baidu,62a53f84b7fb9f9b5fd4fe26,锦江都城经典酒店新城外滩酒店-酒吧,上海市黄浦区外滩街道江西中路180号,上海市,上海市,黄浦区,,unknown,
baidu,465e110440d6cfc9d2f49e8e,Together·泰式按摩精油SPA(南京东路店),汉口路400号华盛大厦9楼906室,上海市,上海市,黄浦区,,unknown,
baidu,45b60206ca1d28b1eb12e46b,玉琳保健足浴(好望角分店),泗泾路27号,上海市,上海市,黄浦区,,unknown,
baidu,2dc75716f0d7965e94ec8499,小确幸Massage(黄浦山东中路中福世福汇店),广东路339号中福现代城5楼510室（山东中路路口）,上海市,上海市,黄浦区,,unknown,
baidu,b169ad6cdf548eddb72655d0,乐龄文旅俱乐部,上海市黄浦区天津路173号,上海市,上海市,黄浦区,,unknown,
baidu,69b9caf5b040f5373fe23118,Z视界,"九江路168号,礼和洋行4楼,周一闭展",上海市,上海市,黄浦区,,unknown,
baidu,6e5a8b880a3ceb3a4f3a5975,外滩金牛广场,上海市黄浦区外滩街道中山东一路46号,上海市,上海市,黄浦区,,unknown,
baidu,c6c07d48303793429d95dead,卓越太空船(南京东路店),南京东路387号1022,上海市,上海市,黄浦区,13916317287,unknown,
baidu,c4006cd4bb0a685593114c2e,外滩金融广场,上海市黄浦区外滩隧道久事商务大厦东侧约230米,上海市,上海市,黄浦区,,unknown,
baidu,3f826ed3a9f06c5fd1f49e32,佐登妮丝(上海黄浦店),上海市黄浦区九江路333号金融广场5楼(近山西南路),上海市,上海市,黄浦区,"(021)63602395,(021)63602398",unknown,
baidu,08f1f1f5e1fcfecb89db73ab,上海陈毅广场,上海市黄浦区中山东一路外滩,上海市,上海市,黄浦区,,unknown,
baidu,a029d2cff815e1ff0189722a,福曼泽养生会所(南京东路外滩店),南京东路66号和平商务楼6层,上海市,上海市,黄浦区,(021)60913867,unknown,
baidu,cce9e6ee42b4681ec2f1cf89,中国银行上海市分行工会活动中心,上海市黄浦区四川中路321号中央大厦3层,上海市,上海市,黄浦区,,unknown,
baidu,58f75ea58104ef91d1f49ec8,亚洲大厦星空间沉浸剧场,汉口路650号,上海市,上海市,黄浦区,,unknown,
baidu,efbedf5fa0cc23f38c1a89ce,中国大戏院,南京东路街道牛庄路704号(近广西北路),上海市,上海市,黄浦区,(021)63778820,unknown,
baidu,923ffd001a664ab6d82f28a8,上海天蟾逸夫舞台,南京东路街道福州路701号(近云南中路),上海市,上海市,黄浦区,(021)63225294,unknown,
baidu,154b66d179a833bd99005087,思域养生SPA(黄浦分店),山东中路33号1101室,上海市,上海市,黄浦区,(021)52996632,unknown,
baidu,33a1b630fdadef277069d348,VR ZONE SHANGHAI,南京东路340号百联ZX创趣场L6,上海市,上海市,黄浦区,18117523818,unknown,
baidu,e93761f6c4a9340c223bf241,上海共舞台,延安东路433号,上海市,上海市,黄浦区,"(021)63309782,(021)63523310",unknown,
baidu,0a15c7ecdfb290e5ed74f863,THE GLAMOUR BAR,上海市黄浦区广东路20号外滩5号7层,上海市,上海市,黄浦区,,unknown,
baidu,699c87fa5754f579c7f025fc,人民广场,上海市黄浦区人民大道185号,上海市,上海市,黄浦区,,unknown,
baidu,9ef0dd32539d54c9ab0dd877,韩礼臣沉浸式悬浮剧场(上海悦荟店),南京东路上海悦荟广场3层,上海市,上海市,黄浦区,,unknown,
baidu,5c2cb59769f5db0a9122e0fe,温莎KTV(淮海中路店),淮海中路街道淮海中路138号上海广场B1层(无限度广场内),上海市,上海市,黄浦区,(021)63207777,unknown,
baidu,87248d96c3396caa2806ce57,人民大舞台,九江路663号(近永安百货),上海市,上海市,黄浦区,"(021)61326581,(021)61326586",unknown,
baidu,6c34e7a0e0ecdb98118824e7,开心果喜剧爆笑脱口秀-外滩玻璃盒子剧场,九江路501号德必一层玻璃剧场,上海市,上海市,黄浦区,17717392037,unknown,
baidu,9d3bf834bbec87332806cef3,黄浦剧场,北京东路780号(近贵州路),上海市,上海市,黄浦区,(021)63229103,unknown,
baidu,6bdac2b751f289c1715e80db,茉莉花剧场,北海路247号,上海市,上海市,黄浦区,(021)53098219,unknown,
baidu,00f1c7fbb62bce06c056ac66,和平影都(上海来福士广场店),上海市黄浦区西藏中路290号(近汉口路),上海市,上海市,黄浦区,(021)63225252,unknown,
baidu,fd007c5e2d33266da9f729a8,凯迪拉克-上海音乐厅,延安东路523号(近西藏南路),上海市,上海市,黄浦区,"(021)63862836,4008918182",unknown,
baidu,03df9938eb847614c51b75f5,朶云轩,上海市黄浦区南京东路南京路步行街,上海市,上海市,黄浦区,,unknown,
baidu,dabfa88a4ca3f12dd42ce2fd,上海悬空玻璃艺术馆(上海悦荟广场店),上海市黄浦区南京东路353号上海悦荟广场F3,上海市,上海市,黄浦区,"19542720408,4001006660",unknown,
baidu,346e47ca8eadb9269b68b47c,小鹿的屋(上海宏伊国际广场店),南京东路299号地上二层S-212、213、214,上海市,上海市,黄浦区,,unknown,
baidu,1db5ee0c19a1fc74cc06a490,上海久事艺术空间(18号艺术空间),中山东一路18号2层,上海市,上海市,黄浦区,,unknown,
baidu,156bed71b8e05b2c2efaa7a2,天臣电玩巢,外滩街道宁波路94号,上海市,上海市,黄浦区,13311731352,unknown,
baidu,fd86dd96d239542e26d2bbe7,虚博世界李靖坤画室,上海市黄浦区南京东路23号(外滩19号)斯沃琪和平饭店艺术中心2层203室,上海市,上海市,黄浦区,,unknown,
baidu,b37f90b55a7402766c3e1bcc,上海石油化工股份有限公司老干部活动室,上海市黄浦区四川中路49号3楼,上海市,上海市,黄浦区,,unknown,
baidu,222e005a45027a742811d12e,达灵一间森林酒店(上海外滩签证中心店),汉口路126号,上海市,上海市,黄浦区,13122272019,unknown,
baidu,c7fb04bd52e0780cfb0cadb5,上海和平饭店,上海市黄浦区南京东路20号,上海市,上海市,黄浦区,(021)61386888,unknown,
baidu,79685f44b69609b5220262c4,全季酒店(上海外滩九江路店),上海市黄浦区九江路230号大生大楼1~5楼,上海市,上海市,黄浦区,(021)63085808,unknown,
baidu,eed5019811b5ec7c250bd06a,汉庭酒店(江西中路店),上海市黄浦区江西中路261号,上海市,上海市,黄浦区,(021)63333377,unknown,
baidu,c8e8f6333fc88975ab0dd81a,上海外滩华尔道夫酒店,上海市黄浦区中山东一路2号,上海市,上海市,黄浦区,(021)63229988,unknown,
baidu,d5f93c0eea585745eddfca1f,上海大酒店,上海市黄浦区九江路505号,上海市,上海市,黄浦区,(021)53538888,unknown,
baidu,b8a8ac57b5c634a41df74d51,上海王宝和大酒店,上海市黄浦区九江路555号(近福建中路),上海市,上海市,黄浦区,(021)53965000,unknown,
baidu,5fc8173d94498594d32dd6f9,上海外滩南京东路亚朵酒店(外滩恒基名人购物中心店),上海市黄浦区福州路105-1号,上海市,上海市,黄浦区,(021)60799099,unknown,
baidu,30f0a8adf6261cf0250bd066,唯庭酒店(上海外滩南京东路步行街店),南京东路387号圣德娜大厦7层,上海市,上海市,黄浦区,(021)63338667,unknown,
baidu,923ffd0053fc71aed92f281a,如家商旅酒店(上海南京东路外滩中心店),上海市黄浦区江西中路135弄11号,上海市,上海市,黄浦区,(021)63239966,unknown,
baidu,0dc3d82de5b61a1074e5b6bc,上海半岛酒店,中山东一路32号上海半岛酒店B1楼,上海市,上海市,黄浦区,(021)23272888,unknown,
baidu,2db984331be36bd1c7f50d8b,上海康莱德酒店,南京东路789号上海康莱德酒店L层,上海市,上海市,黄浦区,(021)33189999,unknown,
baidu,359991e646d4e23b3c9a5e83,上海豫园万丽酒店(河南南路店),上海市黄浦区河南南路159号,上海市,上海市,黄浦区,(021)23218888,unknown,
baidu,024a32293007fb68f4b9168c,全季酒店(上海外滩山东中路店),上海市黄浦区山东中路300号,上海市,上海市,黄浦区,(021)63217999,unknown,
baidu,dcbd55a04f489c5d593ac8c8,全季酒店(上海外滩金陵东路店),上海市黄浦区河南南路33号,上海市,上海市,黄浦区,(021)61919978,unknown,
baidu,35debf29899c225da6da391e,上海南新雅皇冠假日酒店,上海市黄浦区九江路700号,上海市,上海市,黄浦区,(021)63500000,unknown,
baidu,eac82bfc87e489d12cb96daa,上海丽笙精选海仑宾馆,南京东路479号U479商场F1,上海市,上海市,黄浦区,(021)63515888,unknown,
baidu,ffd6d403822f8c9617b54b1f,上海艺龙酒店,上海市黄浦区九江路595号,上海市,上海市,黄浦区,(021)63309988,unknown,
baidu,bc4686b1f8b2fa9035b06cfd,汉庭酒店(上海外滩九江路店),上海市黄浦区江西中路246号12楼,上海市,上海市,黄浦区,(021)63463678,unknown,
baidu,ee2ba5d64e4fd4afcafa5f4c,佳栖酒店(上海外滩南京东路店),山东中路311号5-6楼,上海市,上海市,黄浦区,(021)63337887,unknown,
baidu,38cc8fea132d26aeed74f889,全季酒店(上海人民广场店),上海市黄浦区南京东路830号第一百货商业中心(南京东路店)底商F1,上海市,上海市,黄浦区,(021)60270333,unknown,
baidu,64b641532d6b3e5bd618b701,上海外滩豫园美居酒店(外滩豫园店),上海市黄浦区复兴东路789号1-6层,上海市,上海市,黄浦区,(021)53961988,unknown,
baidu,69c1a6ac2993f18d78f796c4,上海外滩市联酒店公寓,福州路17号,上海市,上海市,黄浦区,15000463565,unknown,
baidu,baa1857391b2490a336212e6,爱客公寓(黄浦店),上海市江西中路170号,上海市,上海市,黄浦区,15221000994,unknown,
baidu,0849802f5195f8a0704b8771,上海糖果小姐公寓(汉口路分店),上海市黄浦区汉口路申大厦南侧,上海市,上海市,黄浦区,(021)80187829-47041,unknown,
baidu,6382454932231ac7b75f1eb0,暖居上海民宿(福州路分店),上海市黄浦区外滩街道福州路44号,上海市,上海市,黄浦区,,unknown,
baidu,d320424540eda11a4afd3fd5,外滩南京路rainbow的家民宿(九江路分店),上海市黄浦区九江路218弄-7号-101室,上海市,上海市,黄浦区,,unknown,
baidu,bfb1e22cfae497244f6d46b2,上海外滩观景老洋房(外滩店),福州路35号306室,上海市,上海市,黄浦区,"(021)32260958,13601618033,18117270981",unknown,
baidu,8c4ec5f720452c666cc02c90,上海梓怡公寓(山东中路分店),上海市黄浦区山东中路140弄1号,上海市,上海市,黄浦区,,unknown,
baidu,465f3fdc381336723686f47b,一诺2民宿(江西中路分店),上海市黄浦区江西中路福州大楼西北门,上海市,上海市,黄浦区,,unknown,
baidu,fad7e953b2507d6ff8dc8529,外滩比家美民宿(广东路分店),上海市黄浦区广东路123-1号正大广场中山小区,上海市,上海市,黄浦区,,unknown,
baidu,14e4d847650015ac88b9887a,上海迷家精品特色民宿(6号店),上海市黄浦区广东路150号,上海市,上海市,黄浦区,,unknown,
baidu,d7b34615bc6c301ae6e965de,上海懒人民宿(江西中路分店),历史建筑江西中路170号,上海市,上海市,黄浦区,(021)80187829-117426,unknown,
baidu,4a66d5758201d6901894c6c3,上海沉默是金酒店式公寓(外滩分店),上海市黄浦区广东路339号25楼,上海市,上海市,黄浦区,,unknown,
baidu,41c5e61541f98b04f6c59cb2,上海客居民宿130341,上海市黄浦区福州路33号,上海市,上海市,黄浦区,,unknown,
baidu,a185bd1c844b97b1e507382c,上海恋城民宿(39号店),上海市黄浦区九江路206号,上海市,上海市,黄浦区,,unknown,
baidu,2f7852c281dea18ce215f979,上海Yspae遇站民宿,上海市黄浦区江西中路宜兰贵斯精品酒店(广东路店),上海市,上海市,黄浦区,,unknown,
baidu,58f0fd9e061ee217c16c144a,上海豪宅特色民宿,福州路107号大楼,上海市,上海市,黄浦区,,unknown,
baidu,6bc505828299df056f3e1b30,简舍i公寓(江西中路分店),上海市黄浦区外滩街道泗泾路22号,上海市,上海市,黄浦区,,unknown,
baidu,068167d17b10ee630bccdd80,风琴民宿(福州路分店),上海市黄浦区外滩街道山西南路11号,上海市,上海市,黄浦区,,unknown,
baidu,03b8328b792ad67b0a5cb32c,老上海青旅(上海外滩店),上海市黄浦区江西中路170号福州大楼425室,上海市,上海市,黄浦区,13918332715,unknown,
baidu,045ebc526cfdb9fdf03cba7e,上海瀛创U·HOTEL,泗泾路17号(近河南中路),上海市,上海市,黄浦区,(021)63307795,unknown,
baidu,0da9a8e1977e269815a1903e,上海新世界特色民宿(山西南路分店),上海市黄浦区山西南路124号（山西南路与汉口路交叉口）,上海市,上海市,黄浦区,18621313269,unknown,
baidu,1d7a8135452bb1fd465726f0,菁飞之家公寓(江西中路分店),上海市黄浦区外滩街道江西中路166号,上海市,上海市,黄浦区,,unknown,
baidu,f4dc87e8657e5f9eb4265550,LoveHome爱回家公寓(九江路1号分店),九江路上海市黄浦区外滩街道汉口路居民委员会,上海市,上海市,黄浦区,,unknown,
baidu,99a55342dba8a6081ce999f2,上海福州路33号民宿,上海市黄浦区福州路53号3层,上海市,上海市,黄浦区,17317910441,unknown,
baidu,e0c50bea443338d6fa0cadf9,上海想居民宿(3号店),上海市黄浦区江西中路中山小区,上海市,上海市,黄浦区,,unknown,
baidu,4ca68c3b4fee98fb6240a954,房东hong公寓(福州路分店),上海市黄浦区福州路107号大楼福州大楼,上海市,上海市,黄浦区,,unknown,
baidu,532b7144dda6e39b49fd3f1a,上海糖果小姐公寓(黄浦会外滩3号分店),广东路123-1(广东路123号),上海市,上海市,黄浦区,,unknown,
baidu,818c8df572598e333c9a5e26,住满满舒适酒店(福州大楼店),上海市江西中路170号,上海市,上海市,黄浦区,15821683202,unknown,
baidu,5111f0fdb463b25788fc06c3,上海吴Lin特色精品民宿,上海黄浦区福州路384弄7号,上海市,上海市,黄浦区,(021)26137886,unknown,
baidu,abfa332a9eddf0cb9eec2b15,上海鸢尾花公寓(九江路分店),上海市黄浦区九江路210弄7号(常乐足浴电梯按4楼),上海市,上海市,黄浦区,,unknown,
baidu,15d87599922ee0dd250bd027,上海硬糖城精品民宿,上海市黄浦区外滩街道福州路129号,上海市,上海市,黄浦区,,unknown,
baidu,dc629e72809355d045e2745f,贝贝year公寓(江西中路1号分店),上海市黄浦区外滩街道江西中路136弄2号301室,上海市,上海市,黄浦区,,unknown,
baidu,ddcd7d24ef9d8f294c6d46cb,上海Ling的小屋,福州路107号,上海市,上海市,黄浦区,17765131088,unknown,
baidu,6f64578d2ad0229fd418b7b4,上海青春温馨公寓(山东中路分店),上海市黄浦区山东中路248号(近汉口路)(平成屋对面),上海市,上海市,黄浦区,,unknown,
baidu,792b1cba11abae630aa8d492,上海末然公寓(福州路分店),上海市黄浦区山东中路123号（南京东路店）,上海市,上海市,黄浦区,,unknown,
baidu,59dc439e19985e4efa42b203,上海埃里小屋(中山东一路分店),上海市黄浦区中山东一路12号六楼,上海市,上海市,黄浦区,17896250219,unknown,
baidu,213717292d7bbe0e7bf79696,上海小王同学公寓(8号店),上海市黄浦区福州路272弄,上海市,上海市,黄浦区,,unknown,
baidu,d1b84a56eaea0fd609a8d440,上海途掌柜109510民宿,上海市黄浦区外滩街道四川中路126弄,上海市,上海市,黄浦区,,unknown,
baidu,715d0d46d3b30a902db90899,上海千寻宿公寓(9号店),上海市黄浦区山西小区正门,上海市,上海市,黄浦区,,unknown,
baidu,ccdeb48c18e9c05a45572675,上海俯瞰豪华江景公寓(南京东路分店),上海市黄浦区河南中路新世界大丸百货,上海市,上海市,黄浦区,,unknown,
baidu,1e0983a10638d84b49fc8d54,华东院文旅院,上海市黄浦区四川中路220号小汇丰大楼4楼,上海市,上海市,黄浦区,,unknown,
baidu,a2e61597d88344ad17c8f620,上海城宿上海十一店公寓(汉口路分店),上海市黄浦区汉口路275号,上海市,上海市,黄浦区,,unknown,
baidu,b6ebccce0eee88158c77270d,上海杨敏杰公寓(2号店),河南中路259弄6号(人民广场地区),上海市,上海市,黄浦区,(021)80187829-107513,unknown,
baidu,228764250be1acdfc8213df8,上海一米阳光Y公寓(九江路分店),上海市黄浦区九江路250号,上海市,上海市,黄浦区,,unknown,
baidu,0ea97c200a46068b3a13fd8b,小岛屿公寓(福州路分店),上海市黄浦区外滩街道江西中路170号,上海市,上海市,黄浦区,,unknown,
baidu,e2d8695cb1cebc1c9d9d6884,上海林荫路旁yngz公寓,上海黄浦区福州大楼(530-1),上海市,上海市,黄浦区,(021)26137886-4918565,unknown,
baidu,c913a34a65d6bb403a04b1ab,上海精达宾馆有限公司,上海市福州路120号,上海市,上海市,黄浦区,,unknown,
baidu,9a92f508c29e1ff99ee32104,上海城宿上海十店公寓(福州路分店),上海市黄浦区四川南路29号金陵大楼,上海市,上海市,黄浦区,,unknown,
baidu,2ea6251aad11b44eb75f1e43,上海One Fine Stay公寓(江西中路分店),上海黄浦区福州大楼,上海市,上海市,黄浦区,,unknown,
baidu,6397040dc7e9bd5e8b2fb5f9,上海程叔公寓,上海市黄浦区福州路107号大楼,上海市,上海市,黄浦区,,unknown,
baidu,18c0a306975b1ca73a13fd06,上海Kilig公寓(福州路分店),上海市黄浦区福州路129号,上海市,上海市,黄浦区,,unknown,
baidu,c940abd8944248b6e31103d6,上海浦江之畔公寓(3号店),上海市黄浦区山东中路218号,上海市,上海市,黄浦区,,unknown,
baidu,2752356c189481625d17c35d,上海浮生若梦公寓(广东路分店),上海市黄浦区外滩街道广东路159号1楼201室,上海市,上海市,黄浦区,(021)26137886,unknown,
baidu,70448a3b7529b5039e9d6874,上海一直前行公寓(47号店),上海市黄浦区山东中路华设大厦东侧,上海市,上海市,黄浦区,(021)80187829,unknown,
baidu,0e907714d90a09a2fb2213cd,微笑伲伲公寓(福州路分店),上海市黄浦区外滩街道福州路107号大楼福州大楼,上海市,上海市,黄浦区,,unknown,
baidu,e50dc74b1d90fd4b09b93a19,亚朵酒店(福州路店)-大堂,上海市黄浦区福州路105-1号,上海市,上海市,黄浦区,,unknown,
baidu,4ce10ce6a258b2dd441a326b,晟旺汽车美容中心(湖北路店),湖北路20号C-3室,上海市,上海市,黄浦区,15021683544,unknown,
baidu,9a0e5ac4b3dcaab1f92213d9,上海鑫铮汽车美容养护中心,广东路339号中福世福汇大酒店地下停车库,上海市,上海市,黄浦区,13052068151,unknown,
baidu,b6b663d2c8295c84e81e9792,上海福文祥汽车维修服务有限公司,上海市黄浦区广东路339号地下室,上海市,上海市,黄浦区,,unknown,
baidu,7233f2123de0887efe0eb0a7,靓洁汽车服务中心·补胎修车电瓶,塘沽路1032号,上海市,上海市,静安区,13585717888,unknown,
baidu,2261e10fdac78f3a17948e3c,上海河东汽车美容养护洗车一站式服务,人民路777弄东门,上海市,上海市,黄浦区,18701834652,unknown,
baidu,fd46dfd0928fd50302294f09,上海百合佳缘宏伊VIP服务中心,上海市黄浦区黄埔区南京东路299号宏伊国际广场10楼1001,上海市,上海市,黄浦区,,unknown,
baidu,81962ef82339c0e08505bfe9,程亦汽车快修美容养护中心,西安路81-85号,上海市,上海市,虹口区,"(021)55098220,13564024999",unknown,
baidu,350eb5d7dc0f4a8cd8ecedec,上海捷成汽车销售服务有限公司(上海浦西保时捷中心),上海市黄浦区南京西路288号创兴金融中心首层,上海市,上海市,黄浦区,(021)23214911,unknown,
baidu,a0e9a3839c57303ff4b9167b,新易汽车服务,晋元路327号(曲阜路地铁站4号口步行440米),上海市,上海市,静安区,(021)55252523,unknown,
baidu,22636f63fc9194a128b97cb5,途轻松童车租赁,九江路584号(七重天宾馆后门)（人民广场地铁站14号口步行430米）,上海市,上海市,黄浦区,15336430580,unknown,
baidu,acb5cf1865b171ca45e2742f,理想汽车(上海南丰荟零售中心),上海市黄浦区淮海中路188号淮海南丰荟103号,上海市,上海市,黄浦区,15837160080,unknown,
baidu,5f93acdd780597afbfa82263,爱座驾汽车养护专家(七浦路店),七浦路133号新兴旺服饰城b2层,上海市,上海市,虹口区,15221413136,unknown,
baidu,44a5f8bc98c07e4eabf729af,蔚来中心(上海中心大厦),上海市浦东新区陆家嘴环路479号上海之品商场F1,上海市,上海市,浦东新区,16621105117,unknown,
baidu,79d73265a79553a672455b3e,极氪中心(上海中心全球旗舰店),上海市浦东新区陆家嘴环路479号上海之品商场F1,上海市,上海市,浦东新区,18667083212,unknown,
baidu,12cd53fcea6c0774047ce8d6,上海市闸北区昱洁洗车服务部,浙江北路216号,上海市,上海市,静安区,13585717888,unknown,
baidu,0805d45af28028cbdfee8b9e,途虎养车认证店(静安区塘沽路店),上海市静安区塘沽路766号地下2层圣和圣车库d区,上海市,上海市,静安区,15000391200,unknown,
baidu,4b16a5e86459e11c42e19236,车享家汽车养护中心(东汉阳路店),东汉阳路284号1层,上海市,上海市,虹口区,(021)65126028,unknown,
baidu,0926ca56b72bb113631c67b6,欧洲维修·车坤汽车服务(塘沽路店),河南北路233圣和圣时尚汇西区B2层,上海市,上海市,静安区,15021028168,unknown,
baidu,e26031bf81c45e3fb6147f6a,脉冲品质汽美·贴膜(北外滩店),西安路193号（近12号线国际客运中心地铁站4号口）,上海市,上海市,虹口区,13361808639,unknown,
baidu,04496b8a59fe7f111d58003e,联富汽车港星源汽车,河南北路99号联富服饰地下车库b2层,上海市,上海市,静安区,"13817991368,15921822118",unknown,
baidu,9d81f342708632a07adbd2a3,一嗨租车(淮海东路便捷点),上海市黄浦区淮海东路99号恒积大厦B1层,上海市,上海市,黄浦区,(021)63335985,unknown,
baidu,3f76e33323fa348fab175a5e,嘎嘎汽车服务,上海市黄浦区威海路184号,上海市,上海市,黄浦区,13916070177,unknown,
baidu,231e690a320fae37250bd0fa,宁波福宏汽车销售有限公司,上海市黄浦区南京东路街道福州路666号华鑫海鑫大厦f座D1F19,上海市,上海市,黄浦区,,unknown,
baidu,256dd2a1dec6271f260bd00e,1886品质汽美·车衣·改色膜(北外滩店),东汉阳路276号,上海市,上海市,虹口区,15000323263,unknown,
baidu,4154df1e3ef3c5112bb97c5f,极星汽车(正大广场店),上海市浦东新区陆家嘴西路168号正大广场F2,上海市,上海市,浦东新区,,unknown,
baidu,1d9e9df7d48e6abad6b74ede,美车堂(静安大悦城店),西藏北路166号大悦城北座B2层（商场链接写字楼通道内）,上海市,上海市,静安区,(021)56052511,unknown,
baidu,a4b4060c770fd58561180976,炜煜新汽美(北外滩店),东汉阳路268号（国际客运中心地铁站3口步行480米）,上海市,上海市,虹口区,15029570795,unknown,
baidu,2d5eca41b59893a0d12dd665,上海同路人会展服务有限公司,汶水路19号2楼2531室,上海市,上海市,黄浦区,,unknown,
baidu,d60ca4f7f7dc50fb2b11d1d3,意特汽车商业(上海)有限公司,上海市静安区恒通东路69号首层,上海市,上海市,静安区,(021)52868178,unknown,
baidu,18694829b9d44c54f6c59c0c,华峰汽修,上海市虹口区385号,上海市,上海市,虹口区,"02164870079,17091263460",unknown,
baidu,3dcdae825739af817c29bd8f,车微家洗车贴膜车衣(新天地无限极荟店),湖滨路168号无限极荟负3层A区,上海市,上海市,黄浦区,15026862729,unknown,
baidu,8f649811195d1b5c96ca073e,KiraKira夜洗贴膜车衣改色洗车打蜡工作室,陆家嘴环路166号未来资产大厦B3层,上海市,上海市,浦东新区,,unknown,
baidu,8e8a9e24076af471c4f50d5a,镜像私车护理XPEL贴膜店(黄浦人广店),南京西路389号明天广场B2层,上海市,上海市,黄浦区,13980626956,unknown,
baidu,2bd70346d270295d2dfaa72c,上海靓洁汽车养护中心,上海市静安区塘沽路中国石油海宁加油站(海宁路),上海市,上海市,静安区,,unknown,
baidu,258a883bf9ddd4c44afd3f26,车凯星(BFC外滩金融中心店),中山东二路600号外滩金融中心S2栋南区B3,上海市,上海市,黄浦区,,unknown,
baidu,415450afc0f9f80f932ca3e0,上海金诚汽车服务中心(南京西路),上海市黄浦区南京西路288号创兴金融中心F1,上海市,上海市,黄浦区,15021508335,unknown,
baidu,9ffa23ed3e2352c7b9df8f99,上海巽星德盟汽车销售服务有限公司,中国(上海)自由贸易试验区临港新片区丽正路1628号4幢1-2层,上海市,上海市,黄浦区,,unknown,
baidu,7dc6bf95fb619eede115f92d,上海虹口大众出租汽车有限公司,上海市虹口区吴淞路117号,上海市,上海市,虹口区,,unknown,
baidu,3807c34b70f8eda195f08ca6,钺和超跑(上海中心店),上海市浦东新区石桥路190号上海中心大厦,上海市,上海市,浦东新区,,unknown,
baidu,da16f771395aa98ce856fafb,上海速善美容有限公司,上海市黄浦区南京西路388号B1层B103单元,上海市,上海市,黄浦区,,unknown,
baidu,43b7decbcf7ab56030169b31,VIP贵宾车道,上海市浦东新区世纪大道1号,上海市,上海市,浦东新区,,unknown,
baidu,c1b22b012ef87ec29d9d68a8,汽车玻璃修补中心,上海市虹口区旅顺路白金府邸,上海市,上海市,虹口区,,unknown,
baidu,9840e9856a2928507ab55c6a,大方租车(外滩店),上海市虹口区吴淞路614号,上海市,上海市,虹口区,,unknown,
baidu,ee3f14947b563e67a5da39ce,仑弗士汽车用品配件商行,上海市虹口区东长治路342号（百福小区）,上海市,上海市,虹口区,13122388555,unknown,
baidu,6c74329edcf42553d12dd6e4,龙腾出行(中区广场店),上海市黄浦区黄陂北路227号中区广场F1层,上海市,上海市,黄浦区,(021)64651068,unknown,
baidu,a999d74a6b5c2d35be484291,游艇租赁中心(外滩网点),小东门街道中山东二路481号（中山东二路与龙潭路交口南行80米路东）,上海市,上海市,黄浦区,(021)33500870,unknown,
baidu,e69518b698c1f0d5223bf222,什博客(上海白玉兰广场店),东长治路588号白玉兰广场商场B4层A区553-559,上海市,上海市,虹口区,,unknown,
baidu,b81d066857f6fc3788fc060a,上海租车公司曙辉租车,上海市黄浦区淮海中路2兰生大厦F5层(大世界地铁站6号口步行140米),上海市,上海市,黄浦区,,unknown,
baidu,e14c4fb5b84fd28a42d63e6a,上海曜影医院,上海市黄浦区江西中路350号,上海市,上海市,黄浦区,,unknown,
baidu,6e1f984e7b55d62c306212af,上海佳太美医疗美容门诊部,上海市黄浦区福州路318号浦汇大厦4楼406～410室,上海市,上海市,黄浦区,,unknown,
baidu,a508e809d7ff974a93114c10,上海交通大学医学院附属仁济医院(西院),上海市黄浦区山东中路145号,上海市,上海市,黄浦区,(021)58752345,unknown,
baidu,25b07fcf11d9d7865abbbcd2,上海济民中医门诊部,上海市黄浦区四川中路万国博览建筑群,上海市,上海市,黄浦区,,unknown,
baidu,c0719020ded1383b4bfd3fa5,东虹医药,上海市黄浦区滇池路137号,上海市,上海市,黄浦区,,unknown,
baidu,9f9c0fa913c943d33a04b10d,上海诺迪新天地医疗美容门诊部,上海市黄浦区延安东路222号外滩中心49楼,上海市,上海市,黄浦区,,unknown,
baidu,3e52ccc8b92716612b11d1a4,泰一楠东中医门诊部,上海市黄浦区南京东路616号5楼,上海市,上海市,黄浦区,,unknown,
baidu,49ababa5c574793326e0a0eb,仁济医院门诊部,上海市黄浦区山东中路145号,上海市,上海市,黄浦区,(021)58752345,unknown,
baidu,69f0f0128b4e49b4f4b9161e,上海市交通大学医学院附属第九人民医院(黄浦分院)中医门诊部,上海市黄浦区外滩街道上海市黄浦区中医医院,上海市,上海市,黄浦区,(021)63212582,unknown,
baidu,15e1e85eb67b84bb5810935c,上海鹏爱医疗美容门诊,上海市黄浦区汉口路691弄,上海市,上海市,黄浦区,,unknown,
baidu,1ad28409ab3079fa00ec010e,济普,上海市黄浦区江西中路240号,上海市,上海市,黄浦区,,unknown,
baidu,53ab0cec3665ef8e9fec2b50,上海市黄浦区外滩街道社区卫生服务中心,上海市黄浦区宁波路321号,上海市,上海市,黄浦区,,unknown,
baidu,c64ee5cad036d1a931f71dc6,德目眼科(黄浦门诊),上海市黄浦区延安东路175号旺角广场1楼101室,上海市,上海市,黄浦区,,unknown,
baidu,911b17013ab41bd2d0ff23e3,上海亚太医疗美容门诊部,上海市黄浦区中山东二路88号外滩SOHO-C座30楼,上海市,上海市,黄浦区,,unknown,
baidu,4167b6e47de97bd896ca07c0,上海新瞳眼科医院,上海市黄浦区滇池路81号,上海市,上海市,黄浦区,,unknown,
baidu,4f1e382f3fc019b4d22dd6bf,上海市黄浦区南京东路街道社区卫生服务中心(浙江中路分中心),上海市黄浦区天津路396~398号,上海市,上海市,黄浦区,,unknown,
baidu,5005a319a4463cab3786f471,恒基名人购物中心-上海瑞诚口腔门诊部,南京东路300号恒基名人购物中心F4,上海市,上海市,黄浦区,,unknown,
baidu,29b75babd354da600289727c,爱康国宾(上海外滩延安东路分院),上海市黄浦区江西南路29号工商联大厦2楼,上海市,上海市,黄浦区,(021)63212277,unknown,
baidu,d9d78ebae581147fdc1e5213,秀可儿医美,上海市黄浦区北京东路99号益丰·外滩源F3,上海市,上海市,黄浦区,,unknown,
baidu,3c5a6bb27f61e7265e17c396,魅傲玫奥医疗,上海市黄浦区中山东二路15号外滩华融大厦五楼南半侧,上海市,上海市,黄浦区,,unknown,
baidu,e27aae7605052f4af60e7770,上海男科高级专家会诊部,宁波路与河南中路交叉口,上海市,上海市,黄浦区,,unknown,
baidu,3086a3b0d66ae4aec26c1486,美年大健康(上海美延门诊部),上海市黄浦区延安东路175号旺角广场4楼,上海市,上海市,黄浦区,18221972479,unknown,
baidu,2c4df15944590ca6eb12e406,南京东路街道社区卫生服务中心浙江中路分中心-发热门诊,上海市黄浦天津路396号,上海市,上海市,黄浦区,,unknown,
baidu,9c879b0faa0fa9492fe67b78,仁西医疗用品专卖,上海市黄浦区福州路331号,上海市,上海市,黄浦区,,unknown,
baidu,775e93a7ef039567b8bd6314,上海伊乐医疗器械有限公司,上海市四川中路330号4楼,上海市,上海市,黄浦区,,unknown,
baidu,e51f206882894e839a0050d6,上海市第一医药商店(南京东路店)-听力中心,上海市黄浦区南京东路616号,上海市,上海市,黄浦区,(021)63221760,unknown,
baidu,1b70839d0fc510dc8c1a89b4,爱心献血车(世纪广场),上海市黄浦区南京路步行街,上海市,上海市,黄浦区,,unknown,
baidu,db1f39d49dde5476f5c59c5c,群力中医门诊部,上海市黄浦区金陵东路396号1-2层,上海市,上海市,黄浦区,(021)63284352,unknown,
baidu,57447dd772e2958a0189725c,威泰医疗,上海市黄浦区人民路292号c座17楼,上海市,上海市,黄浦区,,unknown,
baidu,6a8e02e33c37d769a2d23029,登士德齿科门诊部,上海市黄浦区人民路300号外滩SOHO D座11楼02.03室,上海市,上海市,黄浦区,(021)63206666,unknown,
baidu,4e103bdc0803bdda0bb93a4e,现代齿科(广西北路店),上海市黄浦区广西北路288号7楼,上海市,上海市,黄浦区,(021)63522931,unknown,
baidu,b65f1bcd3ea9f655c26c14ad,上海成人学历提升-大专-本科,上海市黄浦区外滩街道天津路158号,上海市,上海市,黄浦区,13052265145,unknown,
baidu,588eb2d1b6aa9a05873304f1,齐玉齿科,上海市黄浦区柳泉弄1号1层b座,上海市,上海市,黄浦区,(021)60504569,unknown,
baidu,08e36073fea19a6a21f017fa,瑞尔齿科(来福士诊所),上海市黄浦区西藏中路268号来福士广场办公楼2楼201室,上海市,上海市,黄浦区,(021)63611333,unknown,
baidu,42831e0e130f6343c7f02542,江依南医疗美容门诊部,上海市静安区凤阳路560号,上海市,上海市,静安区,4006898983,unknown,
baidu,dffd631c546869a539221cb9,老百姓大药房(延安东路店),上海市黄浦区延安东路274号延河大楼1楼,上海市,上海市,黄浦区,(021)63291528,unknown,
baidu,3810c8798d54d3929d09f7a7,童涵春堂中医门诊部(延安东路店),上海市黄浦区延安东路439号,上海市,上海市,黄浦区,(021)63866558,unknown,
baidu,504d6113c72a00aa4657265f,华氏大药房(宁波路店),上海市黄浦区宁波路100号,上海市,上海市,黄浦区,(021)63211204,unknown,
baidu,cdef4edf34e3d45728d7ab5c,蔡同德堂(南京东路店),上海市黄浦区南京东路450号南京路步行街(西藏中路)1层,上海市,上海市,黄浦区,(021)63221160,unknown,
baidu,971d1849c716d8f89968b47f,海王星辰健康药房(宁波路店),上海市黄浦区宁波路108-110号,上海市,上海市,黄浦区,(021)63307613,unknown,
baidu,dcfc65b19cd222b5c156ac83,海王星辰健康药房(天津路店),上海市黄浦区山天津路224号,上海市,上海市,黄浦区,(021)63150809,unknown,
baidu,6edb350f08b6c09d0482c246,海上名医健康文化云客厅,上海市黄浦区福州路465号上海书城7楼,上海市,上海市,黄浦区,,unknown,
baidu,c4dc038aaa9e9bfb344aae96,海上名医i-Lab健康文化会客厅,上海市黄浦区汉口路300号8楼,上海市,上海市,黄浦区,,unknown,
baidu,33cf4de33a3399b554bfffcc,CD卡多利亚医学中心,上海市黄浦区延安东路136号,上海市,上海市,黄浦区,4000219595,unknown,
baidu,07f3c8b560b3747a6240a95c,上海市第一医药商店(南京东路店),上海市南京东路街道南京东路616号(世纪广场旁),上海市,上海市,黄浦区,"(021)63224457,(021)63224567",unknown,
baidu,54492d8e46c939c803ff2d74,上海静和门诊部,上海市黄浦区黄陂北路227号中区广场5楼,上海市,上海市,黄浦区,(021)53521626,unknown,
baidu,a530bae1e57cf36043afe624,爱心献血车(上海市人民英雄纪念塔),上海市黄浦区中山东一路500号黄浦公园,上海市,上海市,黄浦区,,unknown,
baidu,74f36aa2fb9341c921f01764,上海长征医院-骨科楼,上海市黄浦区凤阳路上海长征医院,上海市,上海市,黄浦区,,unknown,
baidu,637057e56529660f3b221c49,上海长征医院-住院部,上海市黄浦区南京东路街道凤阳路415号,上海市,上海市,黄浦区,(021)81886999,unknown,
baidu,31f9101b6044e9a026e0a059,上海中医药大学附属曙光医院(西院),上海市黄浦区普安路185号,上海市,上海市,黄浦区,(021)53821650,unknown,
baidu,d82d6697a26a92a5d518b724,上海市第一人民医院-门急诊大楼,上海市虹口区海宁路100号,上海市,上海市,虹口区,(021)63240090,unknown,
baidu,dc7db602ba6fc25340ab9adc,上海市第一人民医院-门诊,上海市虹口区武进路85号,上海市,上海市,虹口区,(021)63240090,unknown,
baidu,a5097bfab4a5a97af13cbaa3,上海长征医院,上海市黄浦区凤阳路415号,上海市,上海市,黄浦区,(021)63586818,unknown,
baidu,91d13153b410a788acee7a7c,仁济药房(山东中路店),上海市黄浦区广东路339号,上海市,上海市,黄浦区,(021)63733067,unknown,
baidu,e5a9d087cdebfd7e6fc02cae,上海市第一人民医院,上海市虹口区武进路85号,上海市,上海市,虹口区,(021)63240090,unknown,
baidu,606ab0d00a97cc330e3dda57,上海民生中医门诊部,上海市虹口区四川北路街道衡水路89弄1号1层101室,上海市,上海市,虹口区,"(021)63255625,(021)63578888",unknown,
baidu,3f0f9fc983c3a810f7b916ad,雍禾植发医院全国连锁(上海分院),上海市黄浦区西藏南路686号,上海市,上海市,黄浦区,19333734665,unknown,
baidu,e889a7444f9d8ecb8605bf50,黄浦区老西门街道社区卫生服务中心,上海市黄浦区学前街81号,上海市,上海市,黄浦区,(021)63675753,unknown,
baidu,f412f6913107ac7b1ee9996d,胡庆余堂国药号(浙江中路店),上海市黄浦区浙江中路185-195号,上海市,上海市,黄浦区,(021)63602818,unknown,
baidu,844a750e1f3c0ea0636858a2,国仁药房(福州路店),上海市黄浦区福州路315号,上海市,上海市,黄浦区,,unknown,
baidu,4416b2399c98598783a00c58,第一医药(北京东路店),上海市黄浦区北京东路376号,上海市,上海市,黄浦区,(021)63596701,unknown,
baidu,cbbfe12f4b1800aef2193762,群力草药店,上海市黄浦区金陵东路396号,上海市,上海市,黄浦区,(021)63262262,unknown,
baidu,6b1f4868b52b13a1c51b7522,第一医药华美大药房(南京路步行街店),上海市黄浦区南京东路748号,上海市,上海市,黄浦区,(021)63500030,unknown,
baidu,2a8904e041a3d72b593ac818,AED(沐恩堂),西藏中路316号沐恩堂,上海市,上海市,黄浦区,,unknown,
baidu,8c843e97bd3850881f389439,AED(上海大世界),黄浦区宁海东路288号一楼进门大厅服务台,上海市,上海市,黄浦区,,unknown,
baidu,99cdbd791b5be6f72b06ce85,上海精盈医疗器械有限公司,上海市黄浦区宁海东路200号509室,上海市,上海市,黄浦区,,unknown,
baidu,8e46f2a341fbdbf48505bfbc,泰康拜博口腔医院(上海总院),西藏中路18号港陆广场5F-6F,上海市,上海市,黄浦区,021-23301289,unknown,
baidu,48313d3858c78aa101294f9b,上海医药(北苏州路店),上海市虹口区北苏州路226~228号,上海市,上海市,虹口区,,unknown,
baidu,99726b463da74a511c389482,AED(上海慈铭门诊有限公司),上海市黄浦区广东路429号天赐公寓2楼,上海市,上海市,黄浦区,,unknown,
baidu,f2f15ffbee0178f6621c6787,北京同仁堂(新天地店),上海市黄浦区兴业路178号,上海市,上海市,黄浦区,(021)63842899,unknown,
baidu,6642b38c965758250869d9eb,声望听力助听器验配中心(南京东路店),上海市黄浦区南京东路春申江宾馆(浙江中路),上海市,上海市,黄浦区,,unknown,
baidu,d20e5089e754c71b843304f5,英仕健康,上海市黄浦区宁海东路200号,上海市,上海市,黄浦区,(021)61984743,unknown,
baidu,46d03e860f021d5f343a71d9,群力草药店-办公室,金陵东路396号3楼,上海市,上海市,黄浦区,,unknown,
baidu,3f826ed3a8666f5fd1f49e5c,上海市黄浦区牙病防治所(江西中路),黄浦区江西中路136弄2号中心医院旁,上海市,上海市,黄浦区,(021)63215792,unknown,
baidu,2929ad0557edd9da0e3ddade,上海芮雅医疗美容,上海市黄浦区宁波路1号申华金融大厦8楼,上海市,上海市,黄浦区,,unknown,
baidu,0eb948b717de62b71b94c6d1,上海艾嘉瞳心眼科,上海市黄浦区山东中路华设大厦,上海市,上海市,黄浦区,,unknown,
baidu,31433297a992201ef4e73b9c,黄浦区婚检中心,江西中路246号1楼,上海市,上海市,黄浦区,,unknown,
baidu,35511e2666f2cfd0465726ea,上海爱以德浦岸护理院,上海市黄浦区广东路525号,上海市,上海市,黄浦区,13391250326,unknown,
baidu,108b1cea6ff502b53586f45c,上海市口腔医院(北京东路院区),上海市黄浦区北京东路356号国华大楼2~5层,上海市,上海市,黄浦区,(021)63509092,unknown,
baidu,c0cffc9ea5ac81a5354aae56,程晓虹口腔诊所,上海市黄浦区汉口路400号,上海市,上海市,黄浦区,,unknown,
baidu,9bcc4329689c904d5a3ac802,上海澄穆医疗美容诊所,上海市黄浦区九江路686号腾飞元创大厦6层,上海市,上海市,黄浦区,,unknown,
baidu,7f17b3ba0eb1629f931fc928,代梦口腔,上海市黄浦区汉口路541号,上海市,上海市,黄浦区,(021)63391629,unknown,
baidu,7c09c1458ac2fdfc130daa9a,上海梁根立口腔诊所,上海市黄浦区天津路159-2号3楼,上海市,上海市,黄浦区,,unknown,
baidu,f7482a32515f3dd546e2743b,上海伊美尔瑞阳整形,上海市黄浦区西藏中路18号,上海市,上海市,黄浦区,(021)63777801,unknown,
baidu,0d884a2d84ffb5387402698f,上海王艺口腔诊所,上海市黄浦区九江路769号华旭国际大厦2203室,上海市,上海市,黄浦区,(021)63230828,unknown,
baidu,b1c2818a0a99a9521b94c627,修丽可(上海亚太医疗美容门诊店),上海市黄浦区外滩街道新开河北路6号208室,上海市,上海市,黄浦区,,unknown,
baidu,6bc26c1f4508ef8ac51b75dc,瑞德口腔(福州路),上海市黄浦区广西北路666号,上海市,上海市,黄浦区,(021)53066936,unknown,
baidu,1fe5defac74394894c6d46db,鼎植口腔(淮海中路店),上海市黄浦区桃园路88号柳林大厦7-8楼,上海市,上海市,黄浦区,13122396871,unknown,
baidu,48266ea83cc3ede27dc87693,上海英博口腔(黄浦外滩店),上海市黄浦区老太平弄99号金外滩国际广场商业裙楼一层01-02单元二层,上海市,上海市,黄浦区,13120526396,unknown,
baidu,72e57fd7aa4953b6f9dc85a0,上海市化工职业病防治院,上海市静安区成都北路369号,上海市,上海市,静安区,(021)22836200,unknown,
baidu,b292b3aa8737404fbe48424d,上海季斌口腔诊所,上海市黄浦区浙江南路78号东新大厦217室,上海市,上海市,黄浦区,,unknown,
baidu,9b020d84df2b0db4d8ecedf3,自然之声助听器(南京东路店),上海市黄浦区南京东路409号上海置地广场1206室,上海市,上海市,黄浦区,17317399826,unknown,
baidu,4f7eeaacea791c48fb22130e,昂立智立方(人广校区),上海市黄浦区福州路579号2楼,上海市,上海市,黄浦区,15317279629,unknown,
baidu,f31a63fbbed1efeeda2f28cb,新东方欧亚小语种留学(南京东路中心),南京东路592号亚太广场4楼,上海市,上海市,黄浦区,4001071010,unknown,
baidu,e93328e0dec5226dadb22a89,澜大教育·雅思托福·Alevel·半海国际教育(人广校区),上海市黄浦区汉口路300号,上海市,上海市,黄浦区,13167087862,unknown,
baidu,52c2cb411f40e0b24afd3f9f,现代建筑设计集团华东建筑设计研究院有限公司-建筑创作中心,上海市黄浦区外滩街道汉口路151号,上海市,上海市,黄浦区,,unknown,
baidu,cf3533ef699021780a5cb37c,SNAP艺术中心,上海市黄浦区四川中路294号,上海市,上海市,黄浦区,18017917963,unknown,
baidu,8642b458c672115a14b54b46,鲲杰教育(外滩校区),上海市黄浦区九江路167号礼和洋行5楼,上海市,上海市,黄浦区,,unknown,
baidu,24edd4cefc030d35fa0cad9b,上海市天千青少年体育舞蹈俱乐部,上海市黄浦区延安东路59号工商联大厦6楼,上海市,上海市,黄浦区,19946073627,unknown,
baidu,24d05508320963ae1288245c,上海市黄浦商业人才培训中心(延安东路),上海市黄浦区延安东路205号,上海市,上海市,黄浦区,(021)53580342,unknown,
baidu,db1762f868eeedf0095cb300,MCLOCK舞蹈工作室(U479商场店),上海市黄浦区南京东路479号U479商场7楼703室,上海市,上海市,黄浦区,13661450325,unknown,
baidu,dac8a6c93986a2bcb320a87e,上海市市级机关教育培训中心,上海市黄浦区四川中路330号3楼,上海市,上海市,黄浦区,(021)63215794,unknown,
baidu,7b9d2242903fc4e1841541de,外滩一号艺术中心,上海市中山东一路1号6楼,上海市,上海市,黄浦区,(021)31372921,unknown,
baidu,7717edef4933b04a2ab97c4e,少美校,上海市黄浦区天津路150号,上海市,上海市,黄浦区,18616926888,unknown,
baidu,343b5e85d1b8b641902ca354,上海市少年儿童业余美术学校(天津路校区),上海市黄浦区天津路158号202室,上海市,上海市,黄浦区,18616926888,unknown,
baidu,bb34b1b563488ce62fb9086f,佳士得上海艺术空间,上海市黄浦区中山东一路1号,上海市,上海市,黄浦区,,unknown,
baidu,2c45e2a108356e74d1f49e8b,上海平面设计培训学校,上海市黄浦区山东中路311号410室,上海市,上海市,黄浦区,13761176062,unknown,
baidu,fa86e254f4c0baf0b6f42f45,汪怡记考亭书苑(南京东路店),南京东路154号4-5楼（稻香村食品四楼）,上海市,上海市,黄浦区,"(021)63320198,15000880006",unknown,
baidu,9545627aafa7a2cc75e5b676,赵汝飞练字硬笔书法(人民广场店),上海市黄浦区南京东路409号置地广场11楼1107室,上海市,上海市,黄浦区,15800830755,unknown,
baidu,f2fca1d93c5d1d4103ec01a9,上海市黄浦区老年大学,上海市黄浦区四川南路35-37号(豫园地铁站7号口步行210米),上海市,上海市,黄浦区,(021)63284994,unknown,
baidu,a59097e7221d76f003ff2d58,豫璟教育,上海市黄浦区延安东路高登金融大厦东南门西侧,上海市,上海市,黄浦区,,unknown,
baidu,77b6758cc4598ed3c6effb71,志烨美术(上海文化商厦店),上海市黄浦区福州路355号上海文化商厦F3,上海市,上海市,黄浦区,,unknown,
baidu,b20d1c9cd72e05c5ed74f849,商务部国际商务官员研修基地,上海市黄浦区福州路89号3楼,上海市,上海市,黄浦区,,unknown,
baidu,2049856fa342565a110daa5d,学牛网,上海市黄浦区外滩街道盛泽路8号,上海市,上海市,黄浦区,4008886020,unknown,
baidu,1f2a8f55e35e085a7dc876d4,浙江大学国际联合商学院(浙大ZIBS)上海教学基地,上海市黄浦区福州路318号华设大厦1909室,上海市,上海市,黄浦区,,unknown,
baidu,8363b779b04e1993246e9824,上海升智教育,汉口路华盛大厦808,上海市,上海市,黄浦区,13788917860,unknown,
baidu,1887bac7fae45d1388fc063a,复旦大学附属口腔医院科研教学中心,上海市黄浦区天津路2号,上海市,上海市,黄浦区,,unknown,
baidu,99a2ceae2ef30e83f942b221,汉明古琴馆(中福城一期店),浙江中路182号（近人民广场14号口）,上海市,上海市,黄浦区,13585699879,unknown,
baidu,be928baffb73e9fdfa0cadfd,ETS上海考试中心,上海市黄浦区广东路500号世界贸易大厦9楼,上海市,上海市,黄浦区,(021)63330855,unknown,
baidu,ea881103c3afccdf00ec018c,上海羽茜形象设计学校,上海市黄浦区盛泽路8号宁东大厦9楼,上海市,上海市,黄浦区,,unknown,
baidu,f810f7e3986e965194031973,领头羊教育,上海市黄浦区四川中路294号江川大楼4楼,上海市,上海市,黄浦区,,unknown,
baidu,4f0fefee487ac380882fb530,申万宏源研究,上海市黄浦区外滩街道南京东路99号中央大厦2楼,上海市,上海市,黄浦区,(021)23297818,unknown,
baidu,c61bd305af2f5314c37da2ad,上海市格致初级中学,上海市黄浦区天津路200号,上海市,上海市,黄浦区,(021)53967914,unknown,
baidu,c16534058bdfb378ab175a58,上海市黄浦区报童小学,上海市黄浦区山西南路35号（近外滩）,上海市,上海市,黄浦区,(021)63229339,unknown,
baidu,fb24894d23aae644e60738cb,NO.9学习书院,上海市黄浦区外滩隧道高登金融大厦东南侧约40米,上海市,上海市,黄浦区,,unknown,
baidu,0e29e2de092b0e272bd7ab6f,上海博市国际人才学院,上海市黄浦区山西南路金融广场,上海市,上海市,黄浦区,,unknown,
baidu,a5989c71e05f41aeeddfca94,亘画室·高考美术·国画,上海市黄浦区南苏州路333号601室,上海市,上海市,黄浦区,"13916967986,15000038357",unknown,
baidu,71cadd74b74f159b8605bfc2,航灯国际教育(人民广场校区),上海市黄浦区汉口路650号亚洲大厦20楼2005室,上海市,上海市,黄浦区,,unknown,
baidu,9c7b95439a1bb5a61e1d111f,爱上美妆学校,上海市黄浦区浙江中路398~400号春申江大厦11楼1112室,上海市,上海市,黄浦区,13482395627,unknown,
baidu,e3082848832f5fc2b34c49e6,上海市黄浦区业余大学(四川南路校区),上海市黄浦区四川南路35~37号(豫园地铁站7号口步行190米),上海市,上海市,黄浦区,(021)63361246,unknown,
baidu,f05801ce53b31dada3046486,上海市黄浦区社区学院,上海市黄浦区四川南路35号,上海市,上海市,黄浦区,"(021)63202942,(021)63284994",unknown,
baidu,af23d0e87baf55bef5c59c4e,妖妖GRE(上海校区),浙江中路与汉口路交叉口南20米,上海市,上海市,黄浦区,(021)61359599,unknown,
baidu,3b3b8e994b3098a82802e151,美好盛年(上海外滩校区),上海市黄浦区盛泽路8号宁东大厦5楼,上海市,上海市,黄浦区,13482256758,unknown,
baidu,10a6fe5f630f1a1ce60738dc,上海市商贸旅游学校(贵州路),上海市黄浦区贵州路189号,上海市,上海市,黄浦区,,unknown,
baidu,5f6fb61c3653629cf33cba1d,博域教育,上海市黄浦区南京东路街道浙江中路400号11层109室,上海市,上海市,黄浦区,,unknown,
baidu,5508504d4b61d6d2c7f0254a,上海市金陵中学,上海市黄浦区金陵东路外滩口上金陵东路4号,上海市,上海市,黄浦区,"(021)63304025,(021)63306169",unknown,
baidu,9ac5cb54286f9b904afd3fbd,既有建筑更新研究设计中心,上海市黄浦区外滩街道四川中路220号4楼,上海市,上海市,黄浦区,,unknown,
baidu,584c65bdf8b866b54151c0ad,上海开放大学(黄浦分校),上海市黄浦区四川南路37号（近城隍庙）,上海市,上海市,黄浦区,(021)63113853,unknown,
baidu,9aa3fe72be635266ede4a5db,上海市机电设计研究院机电工程技术部,上海市黄浦区江西中路170-1号福州大楼四楼401号,上海市,上海市,黄浦区,,unknown,
baidu,89582e71bd7361e316c905f8,上海市格致中学,上海市黄浦区广西北路66号,上海市,上海市,黄浦区,(021)63510228,unknown,
baidu,81a70ce43525172714c8f6db,同济黄浦设计创意中学(虎丘路校区),上海市黄浦区四川中路599号,上海市,上海市,黄浦区,(021)63212786,unknown,
baidu,cdc4bfc631e0683b704b87b4,外滩街道图书馆,上海市黄浦区河南中路578号3楼(近北京东路),上海市,上海市,黄浦区,(021)63295076,unknown,
baidu,606ab0d0c2cbf42b0f3ddaab,上海工商学院(香港路),上海市黄浦区香港路59号,上海市,上海市,黄浦区,,unknown,
baidu,adb15ea5b2775ae993114c45,上海市黄浦区图书馆,上海市黄浦区福州路655号,上海市,上海市,黄浦区,(021)63510176,unknown,
baidu,6a1e198ea650ff76b13c8195,上海市黄浦区四川南路小学,上海市黄浦区四川南路36号,上海市,上海市,黄浦区,(021)63743166,unknown,
baidu,5211d2198b553a597dc87658,上海市民办明珠中学,上海市黄浦区云南中路35号,上海市,上海市,黄浦区,(021)63223936,unknown,
baidu,f61a3e3ad36a887484154127,城市考古图书馆,上海市黄浦区洛克外滩源博物院广场,上海市,上海市,黄浦区,,unknown,
baidu,eb4a24c01be69b6c276e981c,上海市北京东路小学,上海市黄浦区北京东路566-568号（近福建中路）,上海市,上海市,黄浦区,(021)63213756,unknown,
baidu,b2b8039d3c5d7f7825d2bbbc,历史建筑保护设计院,上海市黄浦区江西中路246号9层,上海市,上海市,黄浦区,,unknown,
baidu,2c1ed72a24076bb5593ac87f,上海商学院黄浦明德教学点,上海市黄浦区南苏州路347号,上海市,上海市,黄浦区,,unknown,
baidu,9898cfb25e9e42d2132935e1,申万证券研究所信息中心,上海市黄浦区南京东路99号上海申银万国证券研究所有限公司2楼,上海市,上海市,黄浦区,,unknown,
baidu,e3a7fd134ebe515328b97c57,同济大学(黄浦分部),上海市黄浦区盛泽路8号宁东大厦,上海市,上海市,黄浦区,(021)63557645,unknown,
baidu,08f1f1f5e18dfecb88db7358,上海市格致初级中学,上海市黄浦区长沙路35号,上海市,上海市,黄浦区,(021)67157666,unknown,
baidu,84fb1158e3768eb7130daaea,上证基金研究中心,上海市黄浦区四川中路213号久事商务大厦7楼,上海市,上海市,黄浦区,,unknown,
baidu,4642844a6246c3d8c9fa5f58,上海市黄浦区曹光彪小学,上海市黄浦区长沙路1号,上海市,上海市,黄浦区,(021)63279093,unknown,
baidu,fd13a3f227a6d7fbb1077d58,上海市光明初级中学,上海市黄浦区三牌楼路58号（张家弄三牌楼路）,上海市,上海市,黄浦区,(021)63283525,unknown,
baidu,04178e8e915a1316ce04efb2,上海城建职业学院(静安校区),上海市静安区河南北路301号,上海市,上海市,静安区,(021)63250475,unknown,
baidu,d146b388dcb562df74026958,上海市实验小学,上海市黄浦区方浜中路669号,上海市,上海市,黄浦区,(021)63737073,unknown,
baidu,14e955f6f84f33ac81a12e25,上海第一小学,上海市黄浦区南京东路100号惠罗商厦F1,上海市,上海市,黄浦区,,unknown,
baidu,a1adac9993267efa9cec2b8b,上海市向东中学,上海市静安区蒙古路48号,上海市,上海市,静安区,(021)63802372,unknown,
baidu,98485ea54c840989725e80b8,上海岩土与地下空间综合测试工程技术研究中心,上海市黄浦区外滩街道虎丘路5号,上海市,上海市,黄浦区,,unknown,
baidu,0392e9bf7930fd86ca29158b,系统规划研究中心,上海市黄浦区河南中路99号5层,上海市,上海市,黄浦区,,unknown,
baidu,e889a7447968a4b48605bf26,上海市民办新华初级中学,上海市虹口区四川北路街道中州路102号,上海市,上海市,虹口区,(021)63932700,unknown,
baidu,d92c356c064c4baffe0eb04b,上海长三角能源研究院,上海市黄浦区河南中路金光外滩中心西侧约30米,上海市,上海市,黄浦区,,unknown,
baidu,d219bb1d17ac828af50e7758,上海市敬业中学,上海市黄浦区蓬莱路345号,上海市,上海市,黄浦区,(021)63685200,unknown,
baidu,30a1dcc562dab6b79e9d6852,觉心斋成人国学(黄浦店),上海市黄浦区北京东路山西南路350号上海物质大厦21楼2109号,上海市,上海市,黄浦区,15801990443,unknown,
baidu,1a16dc03135874beb72655ed,上海市黄浦区复兴东路第三小学,上海市黄浦区光启路168号,上海市,上海市,黄浦区,(021)63286839,unknown,
baidu,d5f93c0e238d6c5deddfca58,上海新世界进修学院(天津路店),上海市黄浦区天津路158号201室,上海市,上海市,黄浦区,(021)53530548,unknown,
baidu,4f0f41f60e436393601c6755,托普仕留学(上海),上海市黄浦区广东路500号世界贸易大厦26层2605室,上海市,上海市,黄浦区,(021)63353656,unknown,
baidu,4ea3f2f17fb31aabaecb6658,黄浦区蓬莱路第二小学,上海市黄浦区蓬莱路225号,上海市,上海市,黄浦区,(021)63770778,unknown,
baidu,e426256c0b63b043bd48423e,英帝思(上海)生态建筑研究组,四川中路33号808室（近豫园地铁站7号口）,上海市,上海市,黄浦区,,unknown,
baidu,733a791906eb19555bf6be0d,楼大一中,上海市黄浦区北京东路中一大楼,上海市,上海市,黄浦区,,unknown,
baidu,c3cd78aa2ec989e7bca822e5,黄浦区环保科研服务所,上海市黄浦区金陵东路135弄内,上海市,上海市,黄浦区,,unknown,
baidu,9b0f1226b0471f00bca2407f,中留服(东海商业中心东楼店),上海市黄浦区来福士办公大厦,上海市,上海市,黄浦区,(021)80392651,unknown,
baidu,be96d48cb4fd8e724c6d4672,东方消防培训学校(黄浦校区),上海市黄浦区山西南路22号,上海市,上海市,黄浦区,,unknown,
baidu,0f3c632e5680068f4c3a5941,辅翔企业管理,上海市黄浦区汉口路515号汇金大厦12楼1200-1202室,上海市,上海市,黄浦区,4000063608,unknown,
baidu,6deee3082e00fd6b29fc4858,南京东路幼儿园,上海市黄浦区外滩街道北京东路261号,上海市,上海市,黄浦区,(021)63221971,unknown,
baidu,ac95959bee98a3664054d7fd,医疗卫生建筑设计研究所,上海市黄浦区外滩街道四川中路215号,上海市,上海市,黄浦区,,unknown,
baidu,501f029fb6c7b5d25a109331,上海特种试剂开发中心,上海市黄浦区江西中路170-1号福州大楼1楼116室,上海市,上海市,黄浦区,,unknown,
baidu,741bcf72fd01dc4f5a3ac8a2,上海市黄浦区卫生学校,上海市黄浦区梦花街234号锦南商厦14楼,上海市,上海市,黄浦区,(021)63667651,unknown,
baidu,60a37987f95dfb5d9222e007,未来人出国,上海山西南路350号上海物资大厦24楼,上海市,上海市,黄浦区,(021)63318688,unknown,
baidu,4db4af57de38a4292d4733e3,汉口路江西中路,49路,上海市,上海市,黄浦区,,unknown,
baidu,c79ec5bb9b2b209ae812e403,河南中路南京东路,17路;64路;66路;66路区间;220路;306路;316路;805路;929路,上海市,上海市,黄浦区,,unknown,
baidu,48e5a6fe42bcf72891114c9a,汉口路四川中路,20路,上海市,上海市,黄浦区,,unknown,
baidu,d305db1fe2963d3f922ca3a2,九江大楼-地下停车场,上海市黄浦区九江路137号,上海市,上海市,黄浦区,,unknown,
baidu,2628a0609d5d6d6e26e0a0a3,上海艾迪逊酒店东侧下车点,上海市黄浦区江西中路271号,上海市,上海市,黄浦区,,unknown,
baidu,99f9f214e3dfca75157643c8,新世界大丸百货-停车场E区,上海市黄浦区南京东路228号新世界大丸百货B4,上海市,上海市,黄浦区,,unknown,
baidu,32de3f2c44fc3904250bd077,新世界大丸百货-地下停车场,上海市黄浦区南京东路228号新世界大丸百货B4,上海市,上海市,黄浦区,,unknown,
baidu,14fdf993b6d3bf8836b06cec,新世界大丸百货-停车场B区,上海市黄浦区南京东路228号新世界大丸百货B3,上海市,上海市,黄浦区,,unknown,
baidu,4e20c7d963c379c250e5c54a,新世界大丸百货-停车场I区,上海市黄浦区南京东路228号新世界大丸百货B5,上海市,上海市,黄浦区,,unknown,
baidu,27b84ece080afb7ace04ef62,新世界大丸百货-停车场F区,上海市黄浦区南京东路228号上海新世界大丸百货B4,上海市,上海市,黄浦区,,unknown,
baidu,a902c5ee29ebc3955ebe86d9,南京东路,地铁10号线;地铁2号线,上海市,上海市,黄浦区,,unknown,
baidu,ee160ec703effb43cd04efc9,新世界大丸百货-停车场A区,上海市黄浦区南京东路228号新世界大丸百货B3,上海市,上海市,黄浦区,,unknown,
baidu,d45b87957fbd818f17c8f696,新世界大丸百货-停车场D区,上海市黄浦区南京东路228号新世界大丸百货B4,上海市,上海市,黄浦区,,unknown,
baidu,4453a9426fbc1dbd5d17c3ff,恒基名人购物中心停车场-A区,上海市黄浦区南京东路300号恒基名人购物中心B4,上海市,上海市,黄浦区,,unknown,
baidu,4ebc42d9c91e1cfc7bf79657,观光巴士停靠站,上海市黄浦区福建中路南京路步行街,上海市,上海市,黄浦区,,unknown,
baidu,0c634572878478b315764331,宏伊国际广场-非机动车停车场,南京东路299号宏伊国际广场B2,上海市,上海市,黄浦区,,unknown,
baidu,e4595559f501bd5130169bdd,久事商务大厦-地下停车场,上海市黄浦区四川中路215号久事商务大厦,上海市,上海市,黄浦区,,unknown,
baidu,ffa0c2a12c43d6e4aecb66a2,宏伊国际广场(南京东路店)-地下停车场,上海市黄浦区南京东路288号宏伊国际广场B2,上海市,上海市,黄浦区,,unknown,
baidu,f0fdcb000dcaa51688fc06d7,九江路江西中路,20路,上海市,上海市,黄浦区,,unknown,
baidu,0eb6d80ffe11747c441a3282,新世界大丸百货-停车场C区,上海市黄浦区南京东路228号上海新世界大丸百货B3,上海市,上海市,黄浦区,,unknown,
baidu,19dce03c59275b7a3686f47b,新世界大丸百货-停车场G区,上海市黄浦区南京东路228号新世界大丸百货B5,上海市,上海市,黄浦区,,unknown,
baidu,8b82da19fbda20313fe231fb,上海市黄浦体育馆-地下停车场,上海市黄浦区山东中路311号,上海市,上海市,黄浦区,,unknown,
baidu,b9483aa8c39367d0cafa5f1c,上海外滩华尔道夫酒店-地下停车场,上海市黄浦区四川中路联谊大厦西南门东北侧约40米,上海市,上海市,黄浦区,,unknown,
baidu,76bf2934e34082f0128824c0,上海中福世福汇大酒店-地上停车场,上海市黄浦区广东路中福世福汇大酒店,上海市,上海市,黄浦区,,unknown,
baidu,edbc5904e89724752cb17eca,泰那斯汽车充电站(恒基名人购物中心店),上海市黄浦区天津路157弄8-14号,上海市,上海市,黄浦区,4000185522,unknown,
baidu,0ed20a153cb31f9757bfff41,外滩中心-地上停车场,上海市黄浦区延安东路222号,上海市,上海市,黄浦区,,unknown,
baidu,884352268555e450a21de99c,南京路步行街-接送点,南京路步行街附近,上海市,上海市,黄浦区,,unknown,
baidu,5f92956bfc09da8959bbbc52,交通银行(上海市分行营业部)西北侧-停车场,上海市黄浦区汉口路交通银行(上海市分行营业部)西北侧,上海市,上海市,黄浦区,,unknown,
baidu,5b0cb6010fe1e9ea70455b9a,小桔充电充电站(外滩中心地下站),上海市黄浦区延安东路222号,上海市,上海市,黄浦区,4000610999,unknown,
baidu,741c02cca77442ed3310af59,星星充电充电站(华设大厦地下站),上海市黄浦区山东中路214号华设大厦B1层停车场12~19号停车位,上海市,上海市,黄浦区,4008280768,unknown,
baidu,88b04cb081b4608249fc8d73,华设大厦-接送点,上海市黄浦区华设大厦附近,上海市,上海市,黄浦区,,unknown,
baidu,877b7457edb3e1cf871541a5,黄浦体育中心综合办公楼-地下停车场,上海市黄浦区河南中路1号,上海市,上海市,黄浦区,,unknown,
baidu,6336fe9ac0f427c2fbdc858a,中山东一路汉口路,33路;55路;55路大站车[晚高峰];55路大站车[早高峰];65路;123路;135路;305路;317路;576路;934路;旅游4线[红线];旅游5线[蓝线];旅游7线,上海市,上海市,黄浦区,,unknown,
baidu,1349a7b5b2fce131306212e0,久事商务大厦-接送点,上海市黄浦区久事商务大厦附近,上海市,上海市,黄浦区,,unknown,
baidu,a935119fa0478e53e3110372,小桔充电充电站(上海市金融广场充电站),上海市黄浦区外滩金融广场,上海市,上海市,黄浦区,4000610999,unknown,
baidu,a4396795734aa9faf4b9161c,金光外滩中心东北侧-停车场,上海市黄浦区延安东路222号,上海市,上海市,黄浦区,,unknown,
baidu,3f9337d6ad7c75b2f62310a5,外滩中心-地下停车场,上海市黄浦区延安东路222号,上海市,上海市,黄浦区,,unknown,
baidu,1fc63aa050dc48992b11d1dd,南京东路179号街坊-地下停车场,上海市黄浦区沙市一路24号,上海市,上海市,黄浦区,,unknown,
baidu,d9b56144ed4f55f8d1f49e1b,汉光大楼-停车场,上海市黄浦区汉口路271号,上海市,上海市,黄浦区,,unknown,
baidu,f5daaf31dc2575b42b201a85,新世界大丸百货北侧-停车场,上海市黄浦区天津路申华金融大厦西南侧约40米,上海市,上海市,黄浦区,,unknown,
baidu,cd176d78a38dc841e215f9bb,外滩轮渡口,上海市黄浦区中山东二路1号,上海市,上海市,黄浦区,,unknown,
baidu,37dc1e041cf154ef58f6beb5,金陵东路渡口,上海市黄浦区中山东二路上海市金陵中学东北侧约130米,上海市,上海市,黄浦区,(021)58781820,unknown,
baidu,984295e79965b6acbea240fe,河南中路延安东路,17路;66路;66路区间;306路;805路;929路,上海市,上海市,黄浦区,,unknown,
baidu,b0c89daa9a7c2ca31b94c62a,申大厦-地下停车场,上海市黄浦区九江路277号,上海市,上海市,黄浦区,,unknown,
baidu,2e00f0957cc23119a8175a74,豫园,地铁10号线;地铁14号线,上海市,上海市,黄浦区,,unknown,
baidu,2a46f7e0ef955e593517dcc4,江西中路东侧临时停车点,上海市黄浦区江西中路福州大楼,上海市,上海市,黄浦区,,unknown,
baidu,399e9d5c16e2376d6140a94b,中央大厦-地下停车场,上海市黄浦区四川中路321号中央大厦,上海市,上海市,黄浦区,,unknown,
baidu,abe280dff0d33a8716c90558,外滩中心-接送点,上海市黄浦区外滩中心附近,上海市,上海市,黄浦区,,unknown,
baidu,84281979b4357fd88433043c,外白渡桥,上海市虹口区北苏州路111号,上海市,上海市,虹口区,,unknown,
baidu,20803fb26505b22761685857,上海来福士广场-地下停车场,上海市黄浦区西藏中路268号上海来福士广场B2~B3,上海市,上海市,黄浦区,,unknown,
baidu,4c1cadc54648f215b020a8be,南京路步行街东侧,旅游1线;旅游1线[夜游A线];旅游1线[夜游B线],上海市,上海市,黄浦区,,unknown,
baidu,9bc321d1fd99b8ce9cf779b8,自行车-停车点,上海市黄浦区外滩街道广东路中心医院,上海市,上海市,黄浦区,,unknown,
baidu,9ca3928972a954f81d1d114d,天潼路,地铁10号线;地铁12号线,上海市,上海市,虹口区,,unknown,
baidu,540846379605e00e8605bf92,外滩中心-小桔充电站,上海市黄浦区延安东路222号B3层105-114车位,上海市,上海市,黄浦区,4000610999,unknown,
baidu,2e4ea605c961522ed42ce2c1,外滩海关大楼,旅游1线;旅游1线[夜游A线];旅游1线[夜游B线];旅游2线;旅游2线[夜游线],上海市,上海市,黄浦区,,unknown,
baidu,f346ba04a1b3a541f33cba66,九江路山东中路,805路,上海市,上海市,黄浦区,,unknown,
baidu,38e3f464e9c887df88f15db7,中央大厦-接送点,上海市黄浦区中央大厦附近,上海市,上海市,黄浦区,,unknown,
baidu,cb16b9989c6ae1b9d6851f85,新黄浦大厦-地下停车场,上海市黄浦区四川中路276号,上海市,上海市,黄浦区,,unknown,
baidu,39d43f82b7910a87a9059da2,金融广场-地下停车场,上海市黄浦区九江路333号金融广场,上海市,上海市,黄浦区,(021)63608890,unknown,
baidu,ca5b08fd311b9629a3acc440,大世界,地铁14号线;地铁8号线,上海市,上海市,黄浦区,,unknown,
baidu,01095bdba2edf8abbd48425d,国家电网充电站(恒基名人商业大厦地下站),上海市黄浦区天津路155号B3,上海市,上海市,黄浦区,4000185522,unknown,
baidu,ae00fa0046eccf266140a9f8,外滩金牛广场(亲水平台),旅游10线;旅游3线;旅游3线[夜游线];旅游7线;旅游8线[申城观光2号线],上海市,上海市,黄浦区,,unknown,
baidu,0b153ed2266fb36677e5b6d9,人民广场,地铁1号线;地铁2号线;地铁2号线夜班车;地铁8号线,上海市,上海市,黄浦区,,unknown,
baidu,f7fba581ff363539cc06a465,山西南路东侧临时停车点,上海市黄浦区山西南路金融广场西南侧,上海市,上海市,黄浦区,,unknown,
baidu,2dd6f024327938ea2102205c,外滩中心-停车场,上海市黄浦区延安东路222号,上海市,上海市,黄浦区,,unknown,
baidu,5131316b271410a3c51b75dd,新世界大丸百货-接送点,上海市黄浦区新世界大丸百货附近,上海市,上海市,黄浦区,,unknown,
baidu,a82ea40a0cc2c24674026912,福州路福建中路,49路;123路;167路,上海市,上海市,黄浦区,,unknown,
baidu,ea693181fdaaa6fc3ce23163,超吉里程充电站(华设大厦),上海市黄浦区福州路318号,上海市,上海市,黄浦区,4008210142,unknown,
baidu,f734fdd1999a0a1ce812e4b4,天津路河南中路,37路;330路,上海市,上海市,黄浦区,,unknown,
baidu,cd9ddd3be93fa9be6e20b9d8,九江路福建中路,20路,上海市,上海市,黄浦区,,unknown,
baidu,363992203fc45769364aae53,金融广场-接送点,上海市黄浦区金融广场附近,上海市,上海市,黄浦区,,unknown,
baidu,70e5488803e6d20a0482c268,陆家嘴,地铁14号线;地铁2号线,上海市,上海市,浦东新区,,unknown,
baidu,5e26d6810b5ae59d62685888,德必外滩WE西侧临时停车点,上海市黄浦区九江路501号,上海市,上海市,黄浦区,,unknown,
baidu,b269668ed6c949a6d7851fd9,曲阜路,地铁12号线;地铁8号线,上海市,上海市,静安区,,unknown,
baidu,9a030082ef39250d22f01753,星星充电充电站(玛莎置地),上海市黄浦区外滩街道九江路上海置地广场,上海市,上海市,黄浦区,19945648413,unknown,
baidu,9cf1a5ba46d4b21f1e580091,友邦大厦-接送点,上海市黄浦区友邦大厦附近,上海市,上海市,黄浦区,,unknown,
baidu,b09fd2b501456ab1eb1e971e,华盛大厦-接送点,上海市黄浦区华盛大厦附近,上海市,上海市,黄浦区,,unknown,
baidu,9409eb3c98d5a0218a2fb5d9,新闸路,地铁1号线,上海市,上海市,黄浦区,,unknown,
baidu,c0023de8a1bd1dccabf0cd29,创业大楼(四川中路)-接送点,上海市黄浦区创业大楼(四川中路)附近,上海市,上海市,黄浦区,,unknown,
baidu,19ad3b0b961641927369d3e8,四川北路,地铁10号线,上海市,上海市,虹口区,,unknown,
baidu,67dcf31ea8a6e39141e192de,老西门,地铁10号线;地铁8号线,上海市,上海市,黄浦区,,unknown,
baidu,2e844d855fcd71961d580030,一大会址·黄陂南路,地铁14号线;地铁1号线,上海市,上海市,黄浦区,,unknown,
baidu,259c4c77501d11e2ae0457d1,国际客运中心,地铁12号线,上海市,上海市,虹口区,,unknown,
baidu,fd8602ea054613f095ca07be,国家电网充电站(上海市黄浦区申华金融大厦公共充电站),上海市黄浦区宁波路1号,上海市,上海市,黄浦区,95598,unknown,
baidu,643d10cc20927666a90dd8d9,宝山路,地铁3号线;地铁4号线内环;地铁4号线外环,上海市,上海市,静安区,,unknown,
baidu,f0fe6bcd762f43a01b11d5df,润诚达充电站(迁移正式站点),上海市黄浦区广东路245号,上海市,上海市,黄浦区,13000000000,unknown,
baidu,6be5da7f5c9ba03ce6e96575,上海市人民英雄纪念塔(外滩观光隧道),旅游10线;旅游9线,上海市,上海市,黄浦区,,unknown,
