source,bd_uid,name,address,province,city,area,tel,poi_type,tag
baidu,b4b251775cc40efffd0eb09e,石屏禧家餐饮文化,云南省红河哈尼族彝族自治州石屏县观音寺巷66号,云南省,红河哈尼族彝族自治州,石屏县,13008610227,unknown,
baidu,d61742da8dc60ae921022058,大嬢二嬢烧烤店,州衙老街屏门东楼B1-6号,云南省,红河哈尼族彝族自治州,石屏县,,unknown,
baidu,49649042241f2787364aaeb9,阿牛烧烤,丁家寨段与环城南路交叉口东南100米,云南省,红河哈尼族彝族自治州,石屏县,,unknown,
baidu,105b509ccc48392efe0eb06e,小点点豆腐店,异龙镇下仁和村87号(仁和园与房管小区之间),云南省,红河哈尼族彝族自治州,石屏县,13529665922,unknown,
baidu,a8491818acb0310ad92f2822,马丽小吃,文成街5号（中国邮政局银行，南正街邮政局）,云南省,红河哈尼族彝族自治州,石屏县,13466289034,unknown,
baidu,a8fa69989c7a3fd59fec2b18,绿草地餐厅(粮贸大楼店),喜燕街71号1单元301室,云南省,红河哈尼族彝族自治州,石屏县,18087307063,unknown,
baidu,f53e35943755b6ed49fc8d1c,杨记过桥园,宝塔路3号,云南省,红河哈尼族彝族自治州,石屏县,"13529473929,13708637271",unknown,
baidu,eb393f74a45a63612806ce29,大东园餐厅,红河哈尼族彝族自治州石屏县白马庙段与屏阳路交叉路口往东南约140米,云南省,红河哈尼族彝族自治州,石屏县,13529472038,unknown,
baidu,a9059c68cd86b3b12bd7ab43,养生素食,烟草小区北(钟秀街北)顺丰速递旁边,云南省,红河哈尼族彝族自治州,石屏县,13649620607,unknown,
baidu,9cfa0a4e2a84ad167c29bd34,老街小卷粉,正北街州衙老街屏门东楼B1-10号商铺,云南省,红河哈尼族彝族自治州,石屏县,13649624551,unknown,
baidu,4e4bd2c044d56f7b0b69d9ef,再上一碗,钟秀街85号,云南省,红河哈尼族彝族自治州,石屏县,13987301755,unknown,
baidu,366a5a3667a745cd3617dc58,食尚苑酸菜牛肉火锅,异龙镇异龙镇湖滨路丰秀苑A幢1-1-4号,云南省,红河哈尼族彝族自治州,石屏县,13769308611,unknown,
baidu,ab6981a7ff60a256af080f59,段氏花椒鸡,红河哈尼族彝族自治州石屏县云泉路华隆佳园东北侧约220米,云南省,红河哈尼族彝族自治州,石屏县,15126220279,unknown,
baidu,a31fa53c3e62ceb626d2bb84,胖三烧烤(石屏店),下仁和村134号,云南省,红河哈尼族彝族自治州,石屏县,13887327513,unknown,
baidu,1c875895b0c87807f50e77d8,屋顶清吧·茶餐厅,云南省红河哈尼族彝族自治州石屏县环城南路9号,云南省,红河哈尼族彝族自治州,石屏县,"15925266551,18314017835",unknown,
baidu,7e0c3035fb8bd5d5cd04ef52,川哥小面,云泉路与宝塔路交叉路口,云南省,红河哈尼族彝族自治州,石屏县,15187368878,unknown,
baidu,3b14a3d88c8a198c7dc8769b,重庆老火锅,清荷路与湖滨路交叉口西100米,云南省,红河哈尼族彝族自治州,石屏县,13529844238,unknown,
baidu,d0f53ba7a9dcf0f99d9d68a9,小胡一刀牛菜馆,宝塔路与钟秀街交叉口东北80米,云南省,红河哈尼族彝族自治州,石屏县,13987306251,unknown,
baidu,707f745bd5a684bcab059ddd,永毅小吃,异龙镇东正街7号,云南省,红河哈尼族彝族自治州,石屏县,13769385677,unknown,
baidu,659dd6277216b272a3d23015,名品鲜饺坊,云南省红河哈尼族彝族自治州石屏县云泉路华隆佳园东北侧约270米,云南省,红河哈尼族彝族自治州,石屏县,13887359547,unknown,
baidu,3eb1cd9b8e3caf1cb2077d64,南门花香米线,异龙镇环城南路6号(友佳商店旁),云南省,红河哈尼族彝族自治州,石屏县,13408959235,unknown,
baidu,915c7d689433f3f540e19240,米兮家糯米饭·卷饼,异龙镇环城南路5号,云南省,红河哈尼族彝族自治州,石屏县,13368735827,unknown,
baidu,82945cdb576fac464302459b,云小厨,异龙镇云泉路15号启蒙幼儿园对面,云南省,红河哈尼族彝族自治州,石屏县,19987314523,unknown,
baidu,90581cdf99b044b30682c287,西贡,红河哈尼族彝族自治州石屏县云泉路华隆佳园东北侧约230米,云南省,红河哈尼族彝族自治州,石屏县,,unknown,
baidu,5accbfe5cd2a25b9c4f50dd8,古茗(石屏钟秀街店),异龙镇钟秀街73号17号铺面、18号铺面,云南省,红河哈尼族彝族自治州,石屏县,13388730213,unknown,
baidu,b0603baee2725d7021f017e4,鸭头王烧烤(异龙生活广场店),云泉路异龙生活广场7号商铺,云南省,红河哈尼族彝族自治州,石屏县,"13577304177,15912887088",unknown,
baidu,c67c537df7de248635b06cd1,茶百道(石屏店),钟秀街73号,云南省,红河哈尼族彝族自治州,石屏县,4000287770,unknown,
baidu,2d1156202bfbd03b4657260c,泽日·韩式料理,云泉路3号,云南省,红河哈尼族彝族自治州,石屏县,18487132194,unknown,
baidu,56fb0c9439ba6f99bca82260,青青牧场鲜奶吧,钟秀街20号商铺,云南省,红河哈尼族彝族自治州,石屏县,13988026038,unknown,
baidu,e5ff8b622da04c9fe5e96527,家园居食府,"云泉路7号（糕点厂对面,近城门）",云南省,红河哈尼族彝族自治州,石屏县,13769358038,unknown,
baidu,b4bc3ce90a8598ae3913fdd8,蟹小虾麻辣工坊(石屏店),湖滨路恒丰E号楼四区C幢22-35号商铺,云南省,红河哈尼族彝族自治州,石屏县,19018735889,unknown,
baidu,f41fb24942e524d06c476014,李玲烧烤,珠泉街112号,云南省,红河哈尼族彝族自治州,石屏县,13769494538,unknown,
baidu,07c39217e9743aeb21f0178a,北杨豆腐,红河哈尼族彝族自治州石屏县宝塔路糖厂集资房东侧,云南省,红河哈尼族彝族自治州,石屏县,,unknown,
baidu,7ffef5c5c02da173ae31e5c7,隆江猪脚饭(人民医院店),异龙镇湖滨路青少年宫南面,云南省,红河哈尼族彝族自治州,石屏县,18788288701,unknown,
baidu,aeaa26c5ff486820f90cad60,小螺香·螺蛳粉(石屏店),钟秀街延长线创意广告斜对面,云南省,红河哈尼族彝族自治州,石屏县,15277023325,unknown,
baidu,6c0d3afd647cedbcf02d8321,老四娘凉品店,喜燕街与云泉路交叉口西南60米,云南省,红河哈尼族彝族自治州,石屏县,,unknown,
baidu,9733eb398136d7998a36eef3,不晚小食堂,清荷路与丁家寨段交叉口西南80米,云南省,红河哈尼族彝族自治州,石屏县,,unknown,
baidu,418294a7f2d57c3d90114c6e,丁月阁美食坊,云南省红河哈尼族彝族自治州石屏县湖滨路嘉林路15号,云南省,红河哈尼族彝族自治州,石屏县,13466268766,unknown,
baidu,134003c34bd29d2709b93a05,异龙源餐厅,云南省红河哈尼族彝族自治州石屏县异龙镇冒合吴家营村4组154号,云南省,红河哈尼族彝族自治州,石屏县,15808686429,unknown,
baidu,e650f1b4374da5d7c7f50da9,源丰圆美食店,中左所村36号,云南省,红河哈尼族彝族自治州,石屏县,18213626721,unknown,
baidu,87cfe95907b6b2f8c33644b2,吴燕烧烤,珠泉街饮服出租商铺,云南省,红河哈尼族彝族自治州,石屏县,15096879998,unknown,
baidu,fd241d60402a391815c905f8,西门食堂,异龙镇西正街54号(中医院旁),云南省,红河哈尼族彝族自治州,石屏县,13988080591,unknown,
baidu,f67b2a3c9ddbe022d12dd64c,火辣辣二中鸡脚(石屏店),钟秀街77号,云南省,红河哈尼族彝族自治州,石屏县,15752648823,unknown,
baidu,05d85944d280c1395e17c3be,茶里茶气(钟秀街店),异龙镇钟秀街73号2号商铺,云南省,红河哈尼族彝族自治州,石屏县,,unknown,
baidu,af4327e20357edbf626858be,玖拾烧烤,云南省红河哈尼族彝族自治州石屏县钟秀街66号,云南省,红河哈尼族彝族自治州,石屏县,15187330560,unknown,
baidu,b3bc13e5422b5c63f8dc856b,大方咖啡,北正街4号石屏县博物馆(玉屏书院),云南省,红河哈尼族彝族自治州,石屏县,13987309381,unknown,
baidu,cb06a2884cb7864dafee7abc,兴源餐厅(史家巷店),史家巷与湖滨路交叉路口西北侧(恒丰小区西北侧),云南省,红河哈尼族彝族自治州,石屏县,18087389869,unknown,
baidu,05b79a40f3b871f2e215f965,西贡码头,云南省红河哈尼族彝族自治州石屏县异龙镇上仁和村34号,云南省,红河哈尼族彝族自治州,石屏县,15287305115,unknown,
baidu,bce67643e665296c7069d385,特色香锅(恒丰小区店),云南省红河哈尼族彝族自治州石屏县异龙镇清荷路湖滨路集贸市场,云南省,红河哈尼族彝族自治州,石屏县,13108608728,unknown,
baidu,397094d873ae47430869d97b,9块9披萨(钟秀街店),钟秀街与祥和街交叉口东20米,云南省,红河哈尼族彝族自治州,石屏县,,unknown,
baidu,8d959cdf35d813f4932ca38f,乐尚餐吧(钟秀花园店),钟秀街花园巷钟秀花园一楼,云南省,红河哈尼族彝族自治州,石屏县,13769354543,unknown,
baidu,d8af19f49c883e7a4351c035,王涛小吃,环城东路与030乡道交叉口南150米,云南省,红河哈尼族彝族自治州,石屏县,13466281502,unknown,
baidu,0cb56c732c0c4f79c9fa5f0d,和家小院,红河哈尼族彝族自治州石屏县白马庙段东兴小区东南侧约100米,云南省,红河哈尼族彝族自治州,石屏县,,unknown,
baidu,98b85711ca33f747d813180d,双庆脆皮烤鸭,云泉路12号,云南省,红河哈尼族彝族自治州,石屏县,18388252574,unknown,
baidu,b017c80d0cf1150681288a19,丽波馄饨,花园巷银丰盛景,云南省,红河哈尼族彝族自治州,石屏县,13466263583,unknown,
baidu,c82f08340fa3798782a12e26,LEHE咖啡店,云南省红河哈尼族彝族自治州石屏县北正街B2-08号,云南省,红河哈尼族彝族自治州,石屏县,15187340503,unknown,
baidu,828fcbf04a60c8b7c17da231,陈记饭庄,湖滨路丹林电脑东北50米,云南省,红河哈尼族彝族自治州,石屏县,13649626952,unknown,
baidu,7247f008ac09b94af6c59c07,恒兴小吃店,异龙镇北正街州衙老街文正楼1幢B2-07号商铺（老街小卷粉旁）,云南省,红河哈尼族彝族自治州,石屏县,18987393206,unknown,
baidu,a2d22b211c43b06c57bfff76,俊江食府,红河哈尼族彝族自治州石屏县屏阳路冒合中学北侧约60米,云南省,红河哈尼族彝族自治州,石屏县,13908739036,unknown,
baidu,c7dff9b50507a518f7eafc81,辣妹包子铺,红河哈尼族彝族自治州石屏县白马庙段东兴小区西南侧约70米,云南省,红河哈尼族彝族自治州,石屏县,,unknown,
baidu,592a7bc44c9862288bb988b5,LEHE Coffee,正北街石屏古建筑博物馆斜对面,云南省,红河哈尼族彝族自治州,石屏县,15187340503,unknown,
baidu,ff192779eda0a3a39fec2b0e,然物·咖啡,云泉社区钟秀花园17号商铺,云南省,红河哈尼族彝族自治州,石屏县,18387316797,unknown,
baidu,2e901c8cc9bd4e997ec87668,歪枪小吃,红河哈尼族彝族自治州异龙镇城东社区观音寺巷2号,云南省,红河哈尼族彝族自治州,石屏县,13887325944,unknown,
baidu,15f75334661c0f4fd42ce2aa,泰枫,宝塔路24号,云南省,红河哈尼族彝族自治州,石屏县,,unknown,
baidu,ed9aec24ad9e0ef3213bf276,武汉黑鸭(石屏店),钟秀花园东门东南70米,云南省,红河哈尼族彝族自治州,石屏县,"13544261598,15752535189",unknown,
baidu,53374e94f4e4e9dc5abbbccd,炭烧牛蛙烤鱼,红河哈尼族彝族自治州石屏县清荷路恒丰小区(湖滨路),云南省,红河哈尼族彝族自治州,石屏县,,unknown,
baidu,18b81d7ee85e67dd59bbbcea,蓝朋友club,焕文路与湖滨路交叉口红绿灯旁,云南省,红河哈尼族彝族自治州,石屏县,13577339117,unknown,
baidu,6c01166adac0fdfdeb12e4e2,鱼么家,红河哈尼族彝族自治州石屏县钟秀街钟秀花园,云南省,红河哈尼族彝族自治州,石屏县,,unknown,
baidu,ae43804bc8e4223932f71d1b,麒麟大口茶(石屏店),钟秀街钟秀花园40号,云南省,红河哈尼族彝族自治州,石屏县,17874018451,unknown,
baidu,9782c24ef2c73e2c2811d113,思源饼屋,云南省红河哈尼族彝族自治州石屏县异龙镇中左所25号,云南省,红河哈尼族彝族自治州,石屏县,15752277833,unknown,
baidu,d603637f474ed3b9a11de9eb,周记卤鸭(石屏店),钟秀街20号,云南省,红河哈尼族彝族自治州,石屏县,13529848983,unknown,
baidu,a04a8cc2c97459b7be48429a,五里香饭店(湖滨路店),湖畔晟景商5-2601,云南省,红河哈尼族彝族自治州,石屏县,13887382777,unknown,
baidu,0c3fbdd343d334374f3a5902,卤鸭吖,红河哈尼族彝族自治州石屏县钟秀街钟秀花园东侧,云南省,红河哈尼族彝族自治州,石屏县,15187340301,unknown,
baidu,05ae9e747560847e81a12eab,李记糖腿包(石屏店),焕文路6号(三妹水果鲜果捞对面),云南省,红河哈尼族彝族自治州,石屏县,13408967884,unknown,
baidu,ad93dab062508479e5e965fb,石屏县人民医院食堂,红河哈尼族彝族自治州石屏县清荷路恒丰小区(湖滨路),云南省,红河哈尼族彝族自治州,石屏县,,unknown,
baidu,2197d2788c9f9b6e2a02e1f0,帅茶(石屏店),钟秀街钟秀花园40号商铺,云南省,红河哈尼族彝族自治州,石屏县,18788258937,unknown,
baidu,234b1e4277bfe16f72455b7b,龙武人家(恒丰小区店),清荷路恒丰E号楼四区商铺,云南省,红河哈尼族彝族自治州,石屏县,15925312949,unknown,
baidu,58b7a299f67764eaeddfcaff,库迪咖啡(石屏正丰广场店),异龙镇焕文路68号正丰广场3幢1层50号商铺(肯德基东南侧),云南省,红河哈尼族彝族自治州,石屏县,18787337735,unknown,
baidu,0591443261388ea1c9e33cc4,建伟小吃店,焕文路宝塔小区东侧约110米,云南省,红河哈尼族彝族自治州,石屏县,"13466282775,13529660852",unknown,
baidu,5fdbc117b00d0f7ac03644b1,煎饼果子,云南省红河哈尼族彝族自治州石屏县异龙镇钟秀街8号,云南省,红河哈尼族彝族自治州,石屏县,15187346854,unknown,
baidu,3de180aec276cd69250bd003,佳缘冷饮,焕文路运政管理所旁,云南省,红河哈尼族彝族自治州,石屏县,15096869079,unknown,
baidu,900ed6ab78c50d7e400245c0,阿彪百味小吃,红河哈尼族彝族自治州石屏县焕文路锦湖怡园西南侧约180米,云南省,红河哈尼族彝族自治州,石屏县,13518706570,unknown,
baidu,ccb0881a4d5d5863d3ff23c8,万德路永合饭庄,万德路30号,云南省,红河哈尼族彝族自治州,石屏县,15391318826,unknown,
baidu,1c515c377469a4acb6147ff9,喜酷床垫,红河哈尼族彝族自治州石屏县环城南路恒兴苑北侧约70米,云南省,红河哈尼族彝族自治州,石屏县,,unknown,
baidu,bcaebff815162e29c9e33c70,新都昌商业广场(天天乐购物广场店),云南省红河哈尼族彝族自治州石屏县西山路4号,云南省,红河哈尼族彝族自治州,石屏县,,unknown,
baidu,9f97b1c5d195017bb64f5462,异龙生活广场,云南省红河哈尼族彝族自治州石屏县云泉路6-11号,云南省,红河哈尼族彝族自治州,石屏县,,unknown,
baidu,85b9f2a7ec6d5107c9c3db22,黄龙建材城,云南省红河哈尼族彝族自治州石屏县湖滨路6号,云南省,红河哈尼族彝族自治州,石屏县,,unknown,
baidu,dee1a59f32d09b7426e0a087,潮啦潮童馆,云南省红河哈尼族彝族自治州石屏县钟秀街75号,云南省,红河哈尼族彝族自治州,石屏县,,unknown,
baidu,f191cc4d656d8ca5770269a8,西门农贸市场(焕文路店),云南省红河哈尼族彝族自治州石屏县焕文路31号,云南省,红河哈尼族彝族自治州,石屏县,,unknown,
baidu,10140a3968db96ed4e6d46e3,冠欣商行,红河哈尼族彝族自治州石屏县云泉路华隆佳园东北侧约250米,云南省,红河哈尼族彝族自治州,石屏县,(0873)6225014,unknown,
baidu,13e4ec22fae21271774ff1cb,磁步康,红河哈尼族彝族自治州石屏县湖滨路银苑(湖滨路),云南省,红河哈尼族彝族自治州,石屏县,13769424873,unknown,
baidu,9501354027e81e360b69d904,星芒文体用品店,红河哈尼族彝族自治州石屏县白马庙段东兴小区西南侧约30米,云南省,红河哈尼族彝族自治州,石屏县,13577309155,unknown,
baidu,f90ad63c9947748b08ccdd92,帝澳泰整体卫浴专家,云南省红河哈尼族彝族自治州石屏县宝塔路华隆佳园,云南省,红河哈尼族彝族自治州,石屏县,15887723164,unknown,
baidu,033099da8e92458a6b49f33e,大鲜生集贸市场,云南省红河哈尼族彝族自治州石屏县焕文路宝塔小区东南侧约260米,云南省,红河哈尼族彝族自治州,石屏县,13988885813,unknown,
baidu,4e2e8f53eeb071bb4e6d46a5,六个六百货店,红河哈尼族彝族自治州石屏县钟秀街华隆佳园,云南省,红河哈尼族彝族自治州,石屏县,,unknown,
baidu,6857d92e109e45723f9a5e35,石屏李州副食店,红河哈尼族彝族自治州石屏县白马庙段东兴小区西南侧约30米,云南省,红河哈尼族彝族自治州,石屏县,"15388863591,18008736698",unknown,
baidu,42cb2418dd7518b7d8d891e3,添福商行,云南省红河哈尼族彝族自治州石屏县宝塔路湖光顺景小区a幢2号商铺,云南省,红河哈尼族彝族自治州,石屏县,"13529958107,15974766661",unknown,
baidu,de9725992c1e577abda2407c,惠多逸购,红河哈尼族彝族自治州石屏县白马庙段东兴小区西南侧,云南省,红河哈尼族彝族自治州,石屏县,13887397779,unknown,
baidu,f4da1302d75c6c81b3077d69,铃木电动车,红河哈尼族彝族自治州石屏县湖滨路银苑(湖滨路)西北侧约30米,云南省,红河哈尼族彝族自治州,石屏县,,unknown,
baidu,c7eca12b803d9d4ae115f963,芊衣俪人,云南省红河哈尼族彝族自治州石屏县钟秀街64号,云南省,红河哈尼族彝族自治州,石屏县,,unknown,
baidu,4736082babecf56e725e80e9,小四川锁具店,红河哈尼族彝族自治州石屏县宝塔路华隆佳园东北侧约210米,云南省,红河哈尼族彝族自治州,石屏县,13529951418,unknown,
baidu,50cccba1c85a2a8c5cd4fea7,石屏县膨大农资总门市,云南省红河哈尼族彝族自治州石屏县汇源路49号,云南省,红河哈尼族彝族自治州,石屏县,,unknown,
baidu,c1444d1d8c8a950088fc0620,小时代童鞋,红河哈尼族彝族自治州石屏县钟秀街钟秀花园东北侧,云南省,红河哈尼族彝族自治州,石屏县,,unknown,
baidu,18d1731e175a141bf7231066,顺风电动车配件批发,云南省红河哈尼族彝族自治州石屏县湖滨路6号,云南省,红河哈尼族彝族自治州,石屏县,15126203079,unknown,
baidu,1c7d3ba51838f9b5b11e3697,铭源便利店,云南省红河哈尼族彝族自治州石屏县上清路3号恒丰小区e号楼,云南省,红河哈尼族彝族自治州,石屏县,13769426659,unknown,
baidu,176f8206d1d86dca2dfaa781,花鸟古玩市场,红河哈尼族彝族自治州石屏县西正街名典假日酒店(石屏店)东侧约120米,云南省,红河哈尼族彝族自治州,石屏县,,unknown,
baidu,74b380a1fc6f7ab7ab0dd806,小妹副食,云南省红河哈尼族彝族自治州石屏县云泉路6号异龙生活广场,云南省,红河哈尼族彝族自治州,石屏县,13577346109,unknown,
baidu,98f4d5935e82336f4e3a592c,台铃电动车(湖滨路店),云南省红河哈尼族彝族自治州石屏县异龙镇湖滨路20号,云南省,红河哈尼族彝族自治州,石屏县,13529474659,unknown,
baidu,2349dffda023a1f57dc876d1,幸会女装,红河哈尼族彝族自治州石屏县喜燕街钟秀花园东北侧约70米,云南省,红河哈尼族彝族自治州,石屏县,,unknown,
baidu,f792e822ef5655c3c4f50d0a,乍甸乳业(石屏总店),云南省红河哈尼族彝族自治州石屏县钟秀街81号,云南省,红河哈尼族彝族自治州,石屏县,13987301362,unknown,
baidu,3abd068114633ba32b11d19a,多肉家大码女装(石屏钟秀街店),云南省红河哈尼族彝族自治州石屏县钟秀街34号,云南省,红河哈尼族彝族自治州,石屏县,,unknown,
baidu,4ea6bdc9d249ae8cc61b7535,淘衣族,红河哈尼族彝族自治州石屏县喜燕街钟秀花园东北侧约90米,云南省,红河哈尼族彝族自治州,石屏县,19989986272,unknown,
baidu,16b81f935032d6ffa6da3904,通海铺,云南省红河哈尼族彝族自治州石屏县南正街5号,云南省,红河哈尼族彝族自治州,石屏县,,unknown,
baidu,ccbdddfe004a036f441a3212,朋友圈服装店,云南省红河哈尼族彝族自治州石屏县异龙镇钟秀街40号钟秀花园,云南省,红河哈尼族彝族自治州,石屏县,,unknown,
baidu,cba16430c7bde393b05c6a18,圆梦装饰,红河哈尼族彝族自治州石屏县云泉路异龙生活广场,云南省,红河哈尼族彝族自治州,石屏县,13887330072,unknown,
baidu,548c1caa8df443192902e140,七羽商贸,红河哈尼族彝族自治州石屏县钟秀街石屏经贸委集资住宅,云南省,红河哈尼族彝族自治州,石屏县,18869459216,unknown,
baidu,91e5bbae6109d7ed095cb3f8,志远经营部,红河哈尼族彝族自治州石屏县西正街名典假日酒店(石屏店)东南侧约70米,云南省,红河哈尼族彝族自治州,石屏县,"(0873)4859483,13408996253",unknown,
baidu,71edfe1e881c8f8187330435,汇升经营部,红河哈尼族彝族自治州石屏县钟秀街钟秀花园东北侧,云南省,红河哈尼族彝族自治州,石屏县,13529847771,unknown,
baidu,96819ee8a48910896018096d,古城家纺,南正街石屏县异龙小学二校区西北侧约260米,云南省,红河哈尼族彝族自治州,石屏县,13529476183,unknown,
baidu,52becc32967ce70857bfff1a,石屏县佳农农资有限公司,红河哈尼族彝族自治州石屏县环城南路石屏县异龙小学二校区南侧约120米,云南省,红河哈尼族彝族自治州,石屏县,"13988058935,15308730112",unknown,
baidu,3daa1a0140afc00272455bc6,石屏千里达自行车(旗舰店),云南省红河哈尼族彝族自治州石屏县钟秀街66号,云南省,红河哈尼族彝族自治州,石屏县,13887333060,unknown,
baidu,19f85f03028c6f2d4afc8ddf,红河啤酒超市(石屏店),云南省红河哈尼族彝族自治州石屏县素食馆往宝贝幼儿园方向,云南省,红河哈尼族彝族自治州,石屏县,18287305052,unknown,
baidu,373c87e0a93f24322811d13d,力天纸业,红河哈尼族彝族自治州石屏县钟秀街石屏县烟草小区东北侧,云南省,红河哈尼族彝族自治州,石屏县,,unknown,
baidu,b140d92f82a2b51633169b64,宝康母婴生活馆,红河哈尼族彝族自治州石屏县湖滨路石屏县烟草小区西南侧约60米,云南省,红河哈尼族彝族自治州,石屏县,,unknown,
baidu,5d952d51518bbd38901fc998,芬芳园艺,红河哈尼族彝族自治州石屏县云泉路恒兴苑西北侧约220米,云南省,红河哈尼族彝族自治州,石屏县,15687105418,unknown,
baidu,7fa4c6b78ffc8ce381a12eaa,晨光文具(湖滨路店),云南省红河哈尼族彝族自治州石屏县湖滨路,云南省,红河哈尼族彝族自治州,石屏县,15126308880,unknown,
baidu,25d23941f39f45a8c1f1cf19,兴余摩托车骑行装备店,红河哈尼族彝族自治州石屏县宝塔路华隆佳园东北侧约150米,云南省,红河哈尼族彝族自治州,石屏县,15094117997,unknown,
baidu,6f98b6ea72c91af058f6be1b,景泓茗茶,云南省红河哈尼族彝族自治州石屏县宝塔路17号,云南省,红河哈尼族彝族自治州,石屏县,13577301990,unknown,
baidu,3af8a952dd2d60418bb988b2,红芬水果店,红河哈尼族彝族自治州石屏县宝塔路华隆佳园东北侧约220米,云南省,红河哈尼族彝族自治州,石屏县,13408958508,unknown,
baidu,c3d9f42e93f9d5e3a20464a1,一秀宝贝母婴生活馆(石屏总店),湖滨路14号(月星隆酒店旁),云南省,红河哈尼族彝族自治州,石屏县,13529488018,unknown,
baidu,fa07d396d999859096ca072a,维多乐器行,红河哈尼族彝族自治州石屏县钟秀街景洲花园(湖滨路)北侧约40米,云南省,红河哈尼族彝族自治州,石屏县,,unknown,
baidu,33bc8e0c386481b42fe67be3,福利豆腐,红河哈尼族彝族自治州石屏县宝塔路糖厂集资房东侧,云南省,红河哈尼族彝族自治州,石屏县,13577301990,unknown,
baidu,23002f0f5060da95e31103e4,小芳生态果园,云南省红河哈尼族彝族自治州石屏县宝塔路17号,云南省,红河哈尼族彝族自治州,石屏县,15126303211,unknown,
baidu,0cb833620f3a51ad6140a937,旃如芳粮油门市,红河哈尼族彝族自治州石屏县东正街石屏县异龙小学二校区西侧约210米,云南省,红河哈尼族彝族自治州,石屏县,,unknown,
baidu,c0bbdb1a0f407bd6d3ff23a5,平价鞋服,红河哈尼族彝族自治州石屏县宝塔路华隆佳园东北侧约120米,云南省,红河哈尼族彝族自治州,石屏县,18306910247,unknown,
baidu,83311410baed6dffd8131885,劲宏门业,红河哈尼族彝族自治州石屏县宝塔路华隆佳园东北侧约180米,云南省,红河哈尼族彝族自治州,石屏县,15025208968,unknown,
baidu,eca6e471ab278f3ed1f49ef4,诚信门窗经营部,红河哈尼族彝族自治州石屏县宝塔路华隆佳园东北侧约80米,云南省,红河哈尼族彝族自治州,石屏县,13887396022,unknown,
baidu,d3123e113bafa24b343a7167,石屏捷顺达冷冻食品批发零售,云南省红河哈尼族彝族自治州石屏县白马庙段石屏县异龙小学二校区东南侧约120米,云南省,红河哈尼族彝族自治州,石屏县,13408997567,unknown,
baidu,7f7976ff6d7fb134882fb584,阿梅裤袜行,红河哈尼族彝族自治州石屏县云泉路华隆佳园东北侧约230米,云南省,红河哈尼族彝族自治州,石屏县,15987385952,unknown,
baidu,5bee594b50ddd18ea8f0cdd3,董二副食经营部,云南省红河哈尼族彝族自治州石屏县喜燕街1号,云南省,红河哈尼族彝族自治州,石屏县,"(0873)4909292,13097431088",unknown,
baidu,2892ba66cf0ddaa76cc02c1f,圣象地板(湖滨路店),云南省红河哈尼族彝族自治州石屏县湖滨路与史家巷交叉口西200米,云南省,红河哈尼族彝族自治州,石屏县,4007708866,unknown,
baidu,8a1e8b2a6b4b3d4b3686f4ce,大发渔药渔具,云南省红河哈尼族彝族自治州石屏县东正街104号,云南省,红河哈尼族彝族自治州,石屏县,13887345107,unknown,
baidu,123621d524b19ad7eb1e977b,欧美陶瓷(湖滨路店),云南省红河哈尼族彝族自治州石屏县湖滨路22号,云南省,红河哈尼族彝族自治州,石屏县,,unknown,
baidu,6182da3b225a21a13be4a6bd,泉溢家居,云南省红河哈尼族彝族自治州石屏县钟秀街833楼,云南省,红河哈尼族彝族自治州,石屏县,,unknown,
baidu,b983a4d9dc9cb89c58f6befa,祥林书社,红河哈尼族彝族自治州石屏县西正街昆明铁路局昆明生活段石屏乘务员公寓南侧约230米,云南省,红河哈尼族彝族自治州,石屏县,15094183960,unknown,
baidu,2ca9d74ec42be513cae33c52,久久藤椅店,红河哈尼族彝族自治州石屏县云泉路钟秀花园东北侧约220米,云南省,红河哈尼族彝族自治州,石屏县,,unknown,
baidu,e6e41a83264fff00d3ff23cb,TATA木门(湖滨路店),红河哈尼族彝族自治州石屏县湖滨路锦湖怡园,云南省,红河哈尼族彝族自治州,石屏县,17816513591,unknown,
baidu,aa9007ecb60491179de32106,福佳精品楼梯,云南省红河哈尼族彝族自治州石屏县异龙镇湖滨路银苑小区,云南省,红河哈尼族彝族自治州,石屏县,14787853467,unknown,
baidu,f265a17b72dc0c05d0ff23db,足迹(钟秀街店),红河哈尼族彝族自治州石屏县天竺街新世纪商业中心,云南省,红河哈尼族彝族自治州,石屏县,13887323507,unknown,
baidu,1419c342701603b9d6b74eb5,四川服饰,红河哈尼族彝族自治州石屏县西正街名典假日酒店(石屏店)西南侧约60米,云南省,红河哈尼族彝族自治州,石屏县,,unknown,
baidu,33b2c8271ff9fb3be81e97d1,米兰纳(环城东路店),红河哈尼族彝族自治州石屏县环城东路石屏县异龙小学二校区北侧约110米,云南省,红河哈尼族彝族自治州,石屏县,,unknown,
baidu,bcaebff815012e29c9e33c63,龙腾电器(石屏店),云南省红河哈尼族彝族自治州石屏县焕文路78号,云南省,红河哈尼族彝族自治州,石屏县,13908736259,unknown,
baidu,db8f6c6e8cf338ae01897297,红河电线电缆,红河哈尼族彝族自治州石屏县云泉路钟秀花园东北侧约210米,云南省,红河哈尼族彝族自治州,石屏县,,unknown,
baidu,1f6f6c0bf79a6b6c83a00c08,志云五金装饰体验馆(异龙生活广场店),云南省红河哈尼族彝族自治州石屏县云泉路6-2-3号,云南省,红河哈尼族彝族自治州,石屏县,13649626970,unknown,
baidu,d55815fef9a0041bf32d83ed,华为授权体验店(正丰广场),云南省石屏县异龙镇西山路新都昌商业广场1楼,云南省,红河哈尼族彝族自治州,石屏县,13529832657,unknown,
baidu,b58209c0c975859036b06c68,啊梅五金,红河哈尼族彝族自治州石屏县云泉路钟秀花园东北侧约250米,云南省,红河哈尼族彝族自治州,石屏县,"13887579267,15798723274",unknown,
baidu,c712700e89d992692e473335,老字号种子农药,云南省红河哈尼族彝族自治州石屏县玉源街4号,云南省,红河哈尼族彝族自治州,石屏县,(0873)3170928,unknown,
baidu,e47fca3534a18cfa1576438a,圆通速递(石屏分公司),云南省红河哈尼族彝族自治州石屏县异龙镇钟秀街101号,云南省,红河哈尼族彝族自治州,石屏县,(0873)4869280,unknown,
baidu,a86d0f400bd49d6ea21de979,公共厕所(YN-HH-0188),红河哈尼族彝族自治州石屏县云泉路恒兴苑北侧约150米,云南省,红河哈尼族彝族自治州,石屏县,,unknown,
baidu,fc2b8b0f6a16b29b32870a01,中国福利彩票(钟秀街店),红河哈尼族彝族自治州石屏县钟秀街景洲花园(湖滨路)东北侧约50米,云南省,红河哈尼族彝族自治州,石屏县,954168,unknown,
baidu,b43f556d0d99f729d42ce251,石屏古城云台门公共厕所,红河哈尼族彝族自治州石屏县云泉路恒兴苑北侧约160米,云南省,红河哈尼族彝族自治州,石屏县,,unknown,
baidu,81574c19785d7dc29de32142,韵达速递(环城南路店),云南省红河哈尼族彝族自治州石屏县异龙镇南门桥头环城南路6号,云南省,红河哈尼族彝族自治州,石屏县,18608739563,unknown,
baidu,76c60687074f78e8fa0cadf8,神农饲料养猪服务中心,红河哈尼族彝族自治州石屏县宝塔路华隆佳园东北侧约150米,云南省,红河哈尼族彝族自治州,石屏县,,unknown,
baidu,4c139dca69c0978debe582dc,铂爵旅拍(钟秀街店),云南省红河哈尼族彝族自治州石屏县异龙镇钟秀街延长线田野网吧对面,云南省,红河哈尼族彝族自治州,石屏县,13887330206,unknown,
baidu,5125bf03ed577dad364aaec8,小妹家政,云南省红河哈尼族彝族自治州石屏县异龙镇钟秀街延长线99号,云南省,红河哈尼族彝族自治州,石屏县,15126365426,unknown,
baidu,d0c77392ab294ebc88b98865,小帆经纪信息部,红河哈尼族彝族自治州石屏县云泉路华隆佳园东北侧约260米,云南省,红河哈尼族彝族自治州,石屏县,,unknown,
baidu,55097637b66375b725e0a01a,菜鸟驿站(环城东路),红河哈尼族彝族自治州石屏县白马庙段东兴小区南侧约40米,云南省,红河哈尼族彝族自治州,石屏县,951966,unknown,
baidu,6029fce82c1c4b6ea8175a2f,公共厕所(YN-HH-0044),红河哈尼族彝族自治州石屏县西正街名典假日酒店(石屏店)东侧约100米,云南省,红河哈尼族彝族自治州,石屏县,,unknown,
baidu,c4c0f55da8767ca20f0e6b54,中国福利彩票(云泉路店),红河哈尼族彝族自治州石屏县云泉路华隆佳园东北侧约230米,云南省,红河哈尼族彝族自治州,石屏县,954168,unknown,
baidu,9ab353a7c003e72638e4a654,中国体育彩票(环城南路店),云南省红河哈尼族彝族自治州石屏县钟秀街77号,云南省,红河哈尼族彝族自治州,石屏县,95086,unknown,
baidu,07f87bd94137cb4c8505bf6b,石屏古城集市公共厕所,云南省红河哈尼族彝族自治州石屏县西正街58号,云南省,红河哈尼族彝族自治州,石屏县,,unknown,
baidu,e284265fba3c409fb5f42fc7,龚师维修站,红河哈尼族彝族自治州石屏县白马庙段东兴小区西南侧约30米,云南省,红河哈尼族彝族自治州,石屏县,,unknown,
baidu,59d92646832fab577bf79684,中国邮政(南正街),红河哈尼族彝族自治州石屏县南正街名典假日酒店(石屏店)东南侧约70米,云南省,红河哈尼族彝族自治州,石屏县,(0873)3174677,unknown,
baidu,953bd155a9affc1d33169b99,家电维修部,红河哈尼族彝族自治州石屏县白马庙段东兴小区西南侧,云南省,红河哈尼族彝族自治州,石屏县,15912808585,unknown,
baidu,9320a30480703442213bf2de,云峰锁店,红河哈尼族彝族自治州石屏县喜燕街钟秀花园东北侧约150米,云南省,红河哈尼族彝族自治州,石屏县,13408977517,unknown,
baidu,03be11dfa235e6cac4f02571,公共厕所,红河哈尼族彝族自治州石屏县屏阳路石屏县人民医院东侧约40米,云南省,红河哈尼族彝族自治州,石屏县,,unknown,
baidu,0582bf382893f59c13293526,雅美上善婚纱礼服馆(石屏店),云南省红河哈尼族彝族自治州石屏县屏阳路(格调灯饰旁),云南省,红河哈尼族彝族自治州,石屏县,18213685802,unknown,
baidu,b1d419cdc21f20eaf4e73baf,中左所公共服务站,红河哈尼族彝族自治州石屏县焕文路宝塔小区东南侧约180米,云南省,红河哈尼族彝族自治州,石屏县,,unknown,
baidu,187a53887883c8e507026f04,薇拉·印记婚纱摄影名店(焕文路店),云南省红河哈尼族彝族自治州石屏县焕文路3号,云南省,红河哈尼族彝族自治州,石屏县,13466256704,unknown,
baidu,bf22bda813f36fcbfb2d610b,中国体育彩票(焕文路糖厂集资房店),红河哈尼族彝族自治州石屏县焕文路糖厂集资房西南侧约80米,云南省,红河哈尼族彝族自治州,石屏县,13508834185,unknown,
baidu,2d3b38c9b387cef1c909f09e,石屏县工会广场公共厕所,红河哈尼族彝族自治州石屏县钟秀街新都昌商业广场,云南省,红河哈尼族彝族自治州,石屏县,,unknown,
baidu,f8778a22bd589d752d47332a,手机维修中心,云南省红河哈尼族彝族自治州石屏县东正街66号,云南省,红河哈尼族彝族自治州,石屏县,,unknown,
baidu,e9cf70b80fc82eba1d1d111b,公共厕所,云南省红河哈尼族彝族自治州石屏县北正街73号,云南省,红河哈尼族彝族自治州,石屏县,,unknown,
baidu,9dad4b4b9b72484f631c67b1,公共厕所(YN-HH-0585),云南省红河哈尼族彝族自治州石屏县西山路2号,云南省,红河哈尼族彝族自治州,石屏县,,unknown,
baidu,e8c137b28906aefccac3db7d,罗曼罗琳摄影婚纱会馆(焕文路店),焕文路新世纪商业中心二楼(工商银行对面),云南省,红河哈尼族彝族自治州,石屏县,15912831988,unknown,
baidu,cd15e5b2ad4abafcc42ba1b7,公共厕所(YN-HH-0284),红河哈尼族彝族自治州石屏县北正街名典假日酒店(石屏店)东北侧约200米,云南省,红河哈尼族彝族自治州,石屏县,,unknown,
baidu,1cc64dfe7378335a5fd4fe71,中国电信(湖滨路营业厅),红河哈尼族彝族自治州石屏县湖滨路景洲新苑东北侧约40米,云南省,红河哈尼族彝族自治州,石屏县,,unknown,
baidu,44117a7414704905f11937eb,中国移动(祥和街服务厅),云南省红河哈尼族彝族自治州石屏县焕文路1号,云南省,红河哈尼族彝族自治州,石屏县,,unknown,
baidu,0ad90134e22a7386b3077d4a,公共厕所(YN-HH-0600),红河哈尼族彝族自治州石屏县文化街昆明铁路局昆明生活段石屏乘务员公寓西南侧约130米,云南省,红河哈尼族彝族自治州,石屏县,,unknown,
baidu,4bacb8aec41a6f701a11d5a8,中国邮政(焕文路邮政所),云南省红河哈尼族彝族自治州石屏县焕文路邮政营业所焕文路72号,云南省,红河哈尼族彝族自治州,石屏县,(0873)3174678,unknown,
baidu,6a0c362e2418f0499d9d68ac,石屏文化公园公共厕所,云南省红河哈尼族彝族自治州石屏县S212(瑞临线),云南省,红河哈尼族彝族自治州,石屏县,,unknown,
baidu,4bc9529a5a38266d48cc4ab5,屏翔工艺服务部,红河哈尼族彝族自治州石屏县天竺街工会广场东侧约190米,云南省,红河哈尼族彝族自治州,石屏县,"13649611155,15912843317",unknown,
baidu,7f2712e8dbd1884bb54f5454,公共厕所(YN-HH-0270),云南省红河哈尼族彝族自治州石屏县汇源路与祥和街交叉口东南方向90米,云南省,红河哈尼族彝族自治州,石屏县,,unknown,
baidu,062f75b980b2bc34eb56fa4b,公共厕所(YN-HH-1034),红河哈尼族彝族自治州石屏县环城北路昆明铁路局昆明生活段石屏乘务员公寓东侧约60米,云南省,红河哈尼族彝族自治州,石屏县,,unknown,
baidu,794f6f832367d641f90cadfd,鑫达图文快印,云南省红河哈尼族彝族自治州石屏县焕文路41号,云南省,红河哈尼族彝族自治州,石屏县,15126275153,unknown,
baidu,4dfcf15991f72cb10bf5eb9e,中国体育彩票(瑞临线店),红河哈尼族彝族自治州石屏县瑞临线和源小区(湖滨路),云南省,红河哈尼族彝族自治州,石屏县,13529910169,unknown,
baidu,d1ba5ffb63f8c13574026990,公共厕所,红河哈尼族彝族自治州石屏县北正街与环城北路交叉路口往东北约70米,云南省,红河哈尼族彝族自治州,石屏县,,unknown,
baidu,9608716d921a34df72455b42,翠石电动车修理行,红河哈尼族彝族自治州石屏县祥和街36号,云南省,红河哈尼族彝族自治州,石屏县,,unknown,
baidu,5a504b5fb0ccc4f9a0d23080,公共厕所(ynhh0960),云南省红河哈尼族彝族自治州石屏县湖滨路校外活动中心旁,云南省,红河哈尼族彝族自治州,石屏县,,unknown,
baidu,d829c9708f541ffc246e986a,公共厕所,红河哈尼族彝族自治州石屏县焕文路石屏县异龙镇云玉小区东北侧约50米,云南省,红河哈尼族彝族自治州,石屏县,,unknown,
baidu,9996ddea59dc64f8ae31e5a5,丰誉手机维修中心(石屏店),云南省红河哈尼族彝族自治州石屏县西山路19号,云南省,红河哈尼族彝族自治州,石屏县,18187331256,unknown,
baidu,4b0ea288e4594a8bab059d7d,公共厕所,云南省红河哈尼族彝族自治州石屏县云泉路82号,云南省,红河哈尼族彝族自治州,石屏县,,unknown,
baidu,88697ee6344b1646b13c8184,中国邮政(瑞临线石屏县异龙小学站),红河哈尼族彝族自治州石屏县瑞临线石屏县异龙小学西南侧约70米,云南省,红河哈尼族彝族自治州,石屏县,11185,unknown,
baidu,e359cfa0a278959f601c6743,中国移动(昱廷商务),云南省红河哈尼族彝族自治州石屏县正丰广场S2栋9号(原城河边兽医站对面),云南省,红河哈尼族彝族自治州,石屏县,18213634431,unknown,
baidu,23856525e411020ebda24010,广西摩配,云南省红河哈尼族彝族自治州石屏县喜燕街54号,云南省,红河哈尼族彝族自治州,石屏县,13988080867,unknown,
baidu,ba8a95b71265567a631c67d4,机电修理,红河哈尼族彝族自治州石屏县珠泉街云南省石屏县第一中学西南侧约80米,云南省,红河哈尼族彝族自治州,石屏县,,unknown,
baidu,82bdb3f7e87707eb4d554767,公共厕所(YN-HH-1052),红河哈尼族彝族自治州石屏县环城北路云南省石屏县第一中学东南侧约180米,云南省,红河哈尼族彝族自治州,石屏县,,unknown,
baidu,e93761f615880771223bf262,快乐人像专业摄影店,云南省红河哈尼族彝族自治州石屏县焕文路农业综合大楼1楼,云南省,红河哈尼族彝族自治州,石屏县,(0873)4859552,unknown,
baidu,90eb88b5d2052da8a6da3974,三妮驿站,红河哈尼族彝族自治州石屏县喜燕街异龙工人新村,云南省,红河哈尼族彝族自治州,石屏县,,unknown,
baidu,c5ddcc0882cba7bbd8131870,中国邮政(石屏县邮政局营业室),云南省红河哈尼族彝族自治州石屏县陶村新区异龙镇龙泉路7号,云南省,红河哈尼族彝族自治州,石屏县,11185,unknown,
baidu,838c223336a84ced71455bfc,66机车俱乐部,红河哈尼族彝族自治州石屏县焕文路冒合中学西北侧约50米,云南省,红河哈尼族彝族自治州,石屏县,15687363355,unknown,
baidu,439a60340a5c7e4c581093ee,公共厕所(YN-HH-0556),红河哈尼族彝族自治州石屏县环城路焕文公园,云南省,红河哈尼族彝族自治州,石屏县,,unknown,
baidu,9f28d91c68cefa6a901fc921,京东快递(红河石屏营业部),红河哈尼族彝族自治州石屏县万德路36号,云南省,红河哈尼族彝族自治州,石屏县,18388250960,unknown,
baidu,9aedfebb50c0a38fa1a9348f,安锋废品收购站,云南省红河哈尼族彝族自治州石屏县异龙镇陶村安恒机动车检测公司斜对面,云南省,红河哈尼族彝族自治州,石屏县,18760793640,unknown,
baidu,3993f011c33cbe339de32185,菜鸟驿站(红河州石屏县异龙镇陶村电子商务服务点),红河哈尼族彝族自治州石屏县龙泉路石屏县中医医院,云南省,红河哈尼族彝族自治州,石屏县,,unknown,
baidu,5376f5cdea638f785d0d02c0,公共厕所(YN-HH-0198),云南省红河哈尼族彝族自治州石屏县湖滨路,云南省,红河哈尼族彝族自治州,石屏县,,unknown,
baidu,fca5fcff4176f61342afe61b,公共厕所,云南省红河哈尼族彝族自治州石屏县瑞临线中国石化加油站(红河建水黑龙坡站)西北侧约280米,云南省,红河哈尼族彝族自治州,石屏县,,unknown,
baidu,67f132da95028987fa0cad1c,老何自行车修车行,红河哈尼族彝族自治州石屏县宝塔路华隆佳园东北侧约180米,云南省,红河哈尼族彝族自治州,石屏县,13619433409,unknown,
baidu,3e07d78b32a4b27114c90551,创意广告(钟秀街店),红河哈尼族彝族自治州石屏县钟秀街糖厂集资房东侧约30米,云南省,红河哈尼族彝族自治州,石屏县,13466264188,unknown,
baidu,6d02588c82ceaec63010af2a,顾家房产连锁,红河哈尼族彝族自治州石屏县湖滨路糖厂集资房,云南省,红河哈尼族彝族自治州,石屏县,,unknown,
baidu,e973c68d4d31416cafee7a2c,亚设图文广告,红河哈尼族彝族自治州石屏县湖滨路景洲新苑北侧约40米,云南省,红河哈尼族彝族自治州,石屏县,(0873)4909116,unknown,
baidu,4f78f801f225e9f703ff2df2,恒业印刷,红河哈尼族彝族自治州石屏县云泉路工会广场东侧约240米,云南省,红河哈尼族彝族自治州,石屏县,"13577307096,13769375539",unknown,
baidu,8273cd2dbb516e4b4afd3fe2,中国南方电网(石屏营业厅),云南省红河哈尼族彝族自治州石屏县祥和街9号,云南省,红河哈尼族彝族自治州,石屏县,(0873)4857983,unknown,
baidu,41ce2798e8528706e6e9654d,中国移动(石屏分公司),云南省红河哈尼族彝族自治州石屏县焕文路27号,云南省,红河哈尼族彝族自治州,石屏县,,unknown,
baidu,3916809780cf1c0bc356ac33,君平废品回收,红河哈尼族彝族自治州石屏县环城东路东兴小区西北侧约300米,云南省,红河哈尼族彝族自治州,石屏县,"15126441192,15925347760",unknown,
baidu,881a28e7618f4a3af942b262,中国电信,云南省红河哈尼族彝族自治州石屏县焕文路72号,云南省,红河哈尼族彝族自治州,石屏县,"(0873)4857995,13308738509",unknown,
baidu,385a80121abdc9a80289725a,石屏县精益印刷厂,红河哈尼族彝族自治州石屏县钟秀街保障房西侧约50米,云南省,红河哈尼族彝族自治州,石屏县,"(0873)4857482,13987323867",unknown,
baidu,da0cd6bdc43e602df72310fa,佳捷图文广告,云南省红河哈尼族彝族自治州石屏县异龙镇西山路(宏发粮油旁),云南省,红河哈尼族彝族自治州,石屏县,"(0873)3174797,18787326965",unknown,
baidu,ce966fab9b266f706240a9a1,正丰广场营销中心,云南省红河哈尼族彝族自治州石屏县异龙镇焕文路41号,云南省,红河哈尼族彝族自治州,石屏县,,unknown,
baidu,9b700fa2291bda4d2efaa754,伊颜美美容美体店,异龙镇钟秀街延长线78号,云南省,红河哈尼族彝族自治州,石屏县,,unknown,
baidu,a75f33128bd93e739d82ea36,未来肤(名媛茗妆),湖滨路景州康苑门口71-78号,云南省,红河哈尼族彝族自治州,石屏县,,unknown,
baidu,b7674ef40d251f1b52e5c593,香港磁立瘦减肥养生(石屏店),异龙镇钟秀街延长线素食馆下10米(烟草小区背后),云南省,红河哈尼族彝族自治州,石屏县,15911339930,unknown,
baidu,2b769cde9d54fa5c74026932,美特丝美发会所,钟秀街与宝塔路交叉口东40米,云南省,红河哈尼族彝族自治州,石屏县,15912843278,unknown,
baidu,1ac4e5392d756dc8d4851fd3,铭斯造型(新世纪商业中心店),焕文路新世纪商业中心二楼,云南省,红河哈尼族彝族自治州,石屏县,15911389562,unknown,
baidu,5937cd1fa4d5426ab23c81c2,七月美甲店,喜燕街11号,云南省,红河哈尼族彝族自治州,石屏县,15126448921,unknown,
baidu,a2d6aaf8a0eaf25df8dc85f0,三木造型(石屏),云南省红河哈尼族彝族自治州石屏县西山路4号,云南省,红河哈尼族彝族自治州,石屏县,13408957536,unknown,
baidu,b3e9f74708336f45acee7a51,M·S梦笙美学馆,兴民巷天娇领域13号商铺,云南省,红河哈尼族彝族自治州,石屏县,,unknown,
baidu,4a840cb76eaa7406fbf0cb30,首选美业(新世纪商业中心店),寻美艺术培训中心新世纪商业中心,云南省,红河哈尼族彝族自治州,石屏县,15126246827,unknown,
baidu,aa832f0c059071d62b06ceba,星点美容美发,异龙镇汇源路41号星点美容美发,云南省,红河哈尼族彝族自治州,石屏县,,unknown,
baidu,0edb4d1455267c18d2f49e43,倩丽艳美容养身会所(恒兴苑店),云南省红河哈尼族彝族自治州石屏县钟秀街恒兴苑小区A幢,云南省,红河哈尼族彝族自治州,石屏县,13887395020,unknown,
baidu,50275bddff1a9cc8f8f0cb78,丽美康皮肤管理中心,红河哈尼族彝族自治州石屏县钟秀街景洲花园(湖滨路)北侧,云南省,红河哈尼族彝族自治州,石屏县,,unknown,
baidu,2bab6163e135779349fd3f34,丽雅轩美容坊,红河哈尼族彝族自治州石屏县钟秀街景洲花园(湖滨路)东北侧,云南省,红河哈尼族彝族自治州,石屏县,13887356124,unknown,
baidu,d0ed7dced0e20a8bfb0cadb1,晶晶美业,汇源路59号（交警大队对面）,云南省,红河哈尼族彝族自治州,石屏县,"08734850250,13508736385",unknown,
baidu,260d282bd5d0316fad0457e9,素颜,红河哈尼族彝族自治州石屏县焕文路糖厂集资房西侧约60米,云南省,红河哈尼族彝族自治州,石屏县,,unknown,
baidu,9c64dc849bda378835b06c76,龄感国际,云南省红河哈尼族彝族自治州石屏县宝塔二区商住楼1幢1-8号商铺,云南省,红河哈尼族彝族自治州,石屏县,15825196204,unknown,
baidu,ee71c5c85db67c7772210b2b,石屏瑾蔓美容院,云南省红河哈尼族彝族自治州石屏县屏阳路瑞鼎明珠小区八栋1号门面,云南省,红河哈尼族彝族自治州,石屏县,15752519494,unknown,
baidu,51f8c671a26f2061d4851f90,雅琳娜美容美甲,红河哈尼族彝族自治州石屏县钟秀街钟秀花园北侧约100米,云南省,红河哈尼族彝族自治州,石屏县,,unknown,
baidu,0a1adecc6ba5cfe58e7727e1,尊荣美业,红河哈尼族彝族自治州石屏县钟秀街景洲花园(湖滨路)东北侧约50米,云南省,红河哈尼族彝族自治州,石屏县,15287353177,unknown,
baidu,10d297bbb731d0d2c1f1cfc8,昀彤拾美·减重·塑型·调理(石屏20号店),云南省红河哈尼族彝族自治州石屏县焕文路建设银行对面工信局小区内,云南省,红河哈尼族彝族自治州,石屏县,,unknown,
baidu,72e009148be161770f0e6bd9,金涛美容,红河哈尼族彝族自治州石屏县玉屏街欣源小区东南侧,云南省,红河哈尼族彝族自治州,石屏县,"15094156630,15126180572",unknown,
baidu,c28b599fceee0ce290114cb5,鑫颜美容养生会所,云南省红河哈尼族彝族自治州石屏县异龙镇焕文路5号,云南省,红河哈尼族彝族自治州,石屏县,,unknown,
baidu,4d2468db4bc030a0471a32f0,一秀盘发化妆连锁(景洲佳苑B区店),红河哈尼族彝族自治州石屏县屏阳路景洲新苑西侧约50米,云南省,红河哈尼族彝族自治州,石屏县,,unknown,
baidu,2f5190585c15cb3795f08c2e,雪艳润肤美容美体,云南省红河哈尼族彝族自治州石屏县祥和街文化公园4栋,云南省,红河哈尼族彝族自治州,石屏县,(0873)4843262,unknown,
baidu,bfdaa6ff25126b2a5810931b,露薇美容养生会所,云南省红河哈尼族彝族自治州石屏县S212(瑞临线),云南省,红河哈尼族彝族自治州,石屏县,13529473812,unknown,
baidu,a68d0084a95347388bb98807,多丽理发室,红河哈尼族彝族自治州石屏县东正街石屏县异龙小学二校区西侧约130米,云南省,红河哈尼族彝族自治州,石屏县,,unknown,
baidu,4aefaf2bf020bef39222e029,爱芸斯皮肤管理中心,云南省红河哈尼族彝族自治州石屏县湖滨路与惠宁路交叉口南100米,云南省,红河哈尼族彝族自治州,石屏县,13887392481,unknown,
baidu,1ed8a4173d59da4dae31e5c4,悦己化妆美甲美睫,云南省红河哈尼族彝族自治州石屏县异龙镇喜燕街钟秀街交叉路口旁,云南省,红河哈尼族彝族自治州,石屏县,18788264281,unknown,
baidu,697efa7d8024ebd0af045724,尼雅,云南省红河哈尼族彝族自治州石屏县焕文路9号,云南省,红河哈尼族彝族自治州,石屏县,18896331424,unknown,
baidu,32a35616c00712ce354aaee2,誉馨美容养生会所(石屏店),红河哈尼族彝族自治州石屏县逸景花园1期西北侧约30米,云南省,红河哈尼族彝族自治州,石屏县,,unknown,
baidu,955288ba492fcca12d47339e,创艺时尚造型(云泉路店),红河哈尼族彝族自治州石屏县云泉路工会广场东侧约190米,云南省,红河哈尼族彝族自治州,石屏县,,unknown,
baidu,096eca0762b1d2b77f29bd3d,方潘理发,红河哈尼族彝族自治州石屏县北正街名典假日酒店(石屏店)东北侧约190米,云南省,红河哈尼族彝族自治州,石屏县,,unknown,
baidu,c02a171848519afb2806cec2,赫润美容养生会所,红河哈尼族彝族自治州石屏县瑞临线石屏县异龙镇云玉小区西北侧约130米,云南省,红河哈尼族彝族自治州,石屏县,15154932739,unknown,
baidu,7b1aa1b8213fee3288fc069d,润禾茶麸养发馆,云南省红河哈尼族彝族自治州石屏县逸景花园(G323旧西),云南省,红河哈尼族彝族自治州,石屏县,15126122045,unknown,
baidu,fe801934662dcb7e8e77278d,浩丰美业,云南省红河哈尼族彝族自治州石屏县逸景花园二期2号门对面,云南省,红河哈尼族彝族自治州,石屏县,13466286737,unknown,
baidu,70bd4c6d8ab901eec27da2b2,百莲凯造型,红河哈尼族彝族自治州石屏县屏阳路新天地,云南省,红河哈尼族彝族自治州,石屏县,,unknown,
baidu,62da28da7060be44d8131884,U·NI形象设计,天源酒店旁.UNI形象设计,云南省,红河哈尼族彝族自治州,石屏县,,unknown,
baidu,29522b318fe258250b1cc75b,顶剪发艺(未来集市综合店),红河哈尼族彝族自治州石屏县瑞临线逸景花园1期北侧约60米,云南省,红河哈尼族彝族自治州,石屏县,,unknown,
baidu,aaa5909ad148eb1a364aae40,理发,红河哈尼族彝族自治州石屏县天竺街异龙工人新村东北侧约30米,云南省,红河哈尼族彝族自治州,石屏县,"13529814338,15394865512",unknown,
baidu,0514a2fd8ec46768b0077d2d,黛汐灌肤中心(石屏店),红河哈尼族彝族自治州石屏县湖滨路,云南省,红河哈尼族彝族自治州,石屏县,,unknown,
baidu,f42ea66c92c41f0c32870ac0,奢造型美发室,红河哈尼族彝族自治州石屏县嘉林路金牛小区,云南省,红河哈尼族彝族自治州,石屏县,,unknown,
baidu,8fb90e48e79eec1fe01103aa,超远发艺,西山路与玉屏街交叉口西40米,云南省,红河哈尼族彝族自治州,石屏县,15126384623,unknown,
baidu,4a7071510fe35f58a0acc4dc,素颜素心头皮头发养护中心(云泉路店),正丰广场S3栋19号,云南省,红河哈尼族彝族自治州,石屏县,,unknown,
baidu,25be9e83e02f529c6ea3cc93,心艺形象设计,云南省红河哈尼族彝族自治州石屏县西门农贸市场西2门旁,云南省,红河哈尼族彝族自治州,石屏县,15126416872,unknown,
baidu,8f5863941031bfe1a1d23074,浩丰美发工作室,红河哈尼族彝族自治州石屏县逸景花园二期中间大门口,云南省,红河哈尼族彝族自治州,石屏县,13466286737,unknown,
baidu,15d4fb4cdc8ae528c17da2f7,巧塑女子运动塑形馆,云南省红河哈尼族彝族自治州石屏县异龙湾小区G-1-8,云南省,红河哈尼族彝族自治州,石屏县,,unknown,
baidu,09591d3a4e28d5c1882fb586,石屏文庙,红河哈尼族彝族自治州石屏县石屏火车站,云南省,红河哈尼族彝族自治州,石屏县,,unknown,
baidu,46fbacea9f8a187079b55c7b,李恒升旧宅,云南省红河哈尼族彝族自治州石屏县南正街与西正街交叉路口往西北约100米,云南省,红河哈尼族彝族自治州,石屏县,,unknown,
baidu,775c2c1fd482f35c631809d5,石屏县衙,云南省红河哈尼族彝族自治州石屏县西正街3号,云南省,红河哈尼族彝族自治州,石屏县,,unknown,
baidu,fda6842e9beaf8cbb11e36ad,石屏风,红河哈尼族彝族自治州石屏县文化街昆明铁路局昆明生活段石屏乘务员公寓南侧约140米,云南省,红河哈尼族彝族自治州,石屏县,,unknown,
baidu,cac2284ef7bb61b05cbe86ed,李怀秀李怀福非物质文化遗产传习所,红河哈尼族彝族自治州石屏县西正街名典假日酒店(石屏店)西侧约130米,云南省,红河哈尼族彝族自治州,石屏县,,unknown,
baidu,5aa2f367d44389dfca2915b8,企鹤楼,云南省红河哈尼族彝族自治州石屏县异龙镇云南省石屏县第一中学,云南省,红河哈尼族彝族自治州,石屏县,,unknown,
baidu,5b89ab6adf03224cf02d8342,石屏花腰街,红河哈尼族彝族自治州石屏县屏阳路新天地南侧约110米,云南省,红河哈尼族彝族自治州,石屏县,,unknown,
baidu,22e7770e83b340b14afd3f75,焕文公园,云南省红河哈尼族彝族自治州石屏县中红公路,云南省,红河哈尼族彝族自治州,石屏县,,unknown,
baidu,25972e3f99dec6ba16a19000,石屏文庙建筑群,红河哈尼族彝族自治州石屏县北正街名典假日酒店(石屏店)东北侧约100米,云南省,红河哈尼族彝族自治州,石屏县,,unknown,
baidu,86ea8edb0d46f51737b06cff,圆满寺,云南省红河哈尼族彝族自治州石屏县中左所,云南省,红河哈尼族彝族自治州,石屏县,13408918833,unknown,
baidu,9c75d40fab25ff692cb17e03,尊经阁,红河哈尼族彝族自治州石屏县北正街名典假日酒店(石屏店)东北侧约140米,云南省,红河哈尼族彝族自治州,石屏县,,unknown,
baidu,25534123977bcc858f1a89e5,石屏古茶文化展示苑,云南省红河哈尼族彝族自治州石屏县东后街23号,云南省,红河哈尼族彝族自治州,石屏县,,unknown,
baidu,c6a4175403c9934f6fc02caa,凌霄阁,云南省红河哈尼族彝族自治州石屏县石屏古城文庙对面,云南省,红河哈尼族彝族自治州,石屏县,,unknown,
baidu,d321f8dc7843d949b6147f71,乾利贞旧址,红河哈尼族彝族自治州石屏县南正街名典假日酒店(石屏店)南侧约130米,云南省,红河哈尼族彝族自治州,石屏县,,unknown,
baidu,5edf3df99df9ae936168589d,石屏文化公园分店,红河哈尼族彝族自治州石屏县湖滨路宝塔小区北侧约80米,云南省,红河哈尼族彝族自治州,石屏县,(0873)4868739,unknown,
baidu,3befd8cc56184889246e9836,云南省石屏县苏氏义姑祠,云南省红河哈尼族彝族自治州石屏县三元街昆明铁路局昆明生活段石屏乘务员公寓东南侧约130米,云南省,红河哈尼族彝族自治州,石屏县,13987309229,unknown,
baidu,d53ae74fcbab795f901fc971,西山公园,万德路,云南省,红河哈尼族彝族自治州,石屏县,,unknown,
baidu,2b1d68940ffb4adf4f3a5911,畅响·K歌沐足,瑞临线宝塔小区西南侧约60米,云南省,红河哈尼族彝族自治州,石屏县,,unknown,
baidu,2382f987f4aa6035d5b74e3b,足影世界,西山路30号,云南省,红河哈尼族彝族自治州,石屏县,,unknown,
baidu,a94976126b9d38609c09f7e4,自定义俱乐部,屏阳路巨龙豪庭3商住小区1栋3层,云南省,红河哈尼族彝族自治州,石屏县,15087346173,unknown,
baidu,8d4e17fa409a853a6c3e1bcb,鑫御富桥足道养生,异龙镇祥和街文化公园出租房二楼45号,云南省,红河哈尼族彝族自治州,石屏县,,unknown,
baidu,93d1a2f51e5e650ccac3dbfd,靓雅美容养生会所,异龙小学东北70米(玉屏街东),云南省,红河哈尼族彝族自治州,石屏县,(0873)4856408,unknown,
baidu,fd247c2acf023ef95fbe8647,金都足浴(瑞临线店),石屏汇源酒店隔壁,云南省,红河哈尼族彝族自治州,石屏县,,unknown,
baidu,319ec28682c2355887330426,善境堂中秋按摩,汇源路12号石屏县同仁医院对面,云南省,红河哈尼族彝族自治州,石屏县,,unknown,
baidu,3af44faba6dacab4990050b4,隐谈探案馆,天竺街与钟秀街交叉口东60米,云南省,红河哈尼族彝族自治州,石屏县,18587228619,unknown,
baidu,38e2977ec3575c8f6e20b991,以白酒馆,红河哈尼族彝族自治州石屏县祥和街文化公园西北侧约40米,云南省,红河哈尼族彝族自治州,石屏县,15924611675,unknown,
baidu,271b39be7dc845618d77273e,西雅美颜养身馆(和源小区店),和源小区后门,云南省,红河哈尼族彝族自治州,石屏县,13987305543,unknown,
baidu,af8ee8c4bfdec51891114caa,艺雅阁足浴,湖滨路中段异龙明珠一二期D幢47号商铺,云南省,红河哈尼族彝族自治州,石屏县,,unknown,
baidu,b8c68b36a8fab23756bfff37,工会广场,云南省红河哈尼族彝族自治州石屏县焕文路16号,云南省,红河哈尼族彝族自治州,石屏县,,unknown,
baidu,1c875895b0c87807f50e77d8,屋顶清吧·茶餐厅,云南省红河哈尼族彝族自治州石屏县环城南路9号,云南省,红河哈尼族彝族自治州,石屏县,"15925266551,18314017835",unknown,
baidu,1d700281cd8a0b9b0c0a70a7,芊芊玉足,红河哈尼族彝族自治州石屏县钟秀街钟秀花园东北侧,云南省,红河哈尼族彝族自治州,石屏县,,unknown,
baidu,567bab71668be3d70e3dda31,足缘聚足浴,云南省红河哈尼族彝族自治州石屏县钟秀街瑞丰汽车美容装饰斜对面,云南省,红河哈尼族彝族自治州,石屏县,18387384898,unknown,
baidu,cac85e8be2fdde12b1077de0,歌王派对KTV,异龙镇焕文路正丰广场2栋3层006至023、025号商铺,云南省,红河哈尼族彝族自治州,石屏县,"(0873)4961666,19538320508",unknown,
baidu,8f7f4cfe0f2cb22bb21e36ca,格兰之声主题KTV,红河哈尼族彝族自治州石屏县瑞临线异龙工人新村西侧约30米,云南省,红河哈尼族彝族自治州,石屏县,(0873)4848666,unknown,
baidu,550fd5f9c6732a04931fc962,鑫源福桥康体足浴,红河哈尼族彝族自治州石屏县祥和街文化公园西北侧约50米,云南省,红河哈尼族彝族自治州,石屏县,,unknown,
baidu,3bd7184f34a63d9fc1f1cf38,留声酒吧,云南省红河哈尼族彝族自治州石屏县湖滨路1号,云南省,红河哈尼族彝族自治州,石屏县,18587113999,unknown,
baidu,6d670ff3e5c3621aa3acc4f2,孟婆汤(二分店),喜燕街石屏县异龙小学东北侧约60米,云南省,红河哈尼族彝族自治州,石屏县,13408958708,unknown,
baidu,7072c9524ddedd6e1c389464,王氏筋骨推拿,云南省红河哈尼族彝族自治州石屏县祥和街36号,云南省,红河哈尼族彝族自治州,石屏县,13529968883,unknown,
baidu,3e697f9a7f310a2b38e4a61b,天湖娱乐会所,云南省红河哈尼族彝族自治州石屏县天湖娱乐会所(石屏汽车客运站东北),云南省,红河哈尼族彝族自治州,石屏县,,unknown,
baidu,b9446cd0512ead2cb020a832,明星KTV量贩,云南省红河哈尼族彝族自治州石屏县汇源路1号,云南省,红河哈尼族彝族自治州,石屏县,,unknown,
baidu,762fd800222e34f71e1d11d0,万紫千红美容美体中心(新世纪商业中心店),喜燕街与花园巷交叉口新世纪商业中心一楼,云南省,红河哈尼族彝族自治州,石屏县,13649626019,unknown,
baidu,a614525ed6718ae5fb2d6101,宏盛堂中医养生调理中心,云南省红河哈尼族彝族自治州石屏县云泉路48号2楼,云南省,红河哈尼族彝族自治州,石屏县,,unknown,
baidu,a08d61cb76d0d56a4107c172,明天见酒吧,红河哈尼族彝族自治州石屏县玉屏街欣源小区西南侧约50米,云南省,红河哈尼族彝族自治州,石屏县,,unknown,
baidu,d1a09000cb32a7cdaeb22aee,金鑫足浴,红河哈尼族彝族自治州石屏县云西街石屏县异龙镇云玉小区西北侧约150米,云南省,红河哈尼族彝族自治州,石屏县,,unknown,
baidu,32d5e907604dfd4b4107c192,唯诺网咖,云南省红河哈尼族彝族自治州石屏县异龙镇新世纪商业中心,云南省,红河哈尼族彝族自治州,石屏县,,unknown,
baidu,865b5b467d0b495504026fe8,棋天大胜棋牌室,红河哈尼族彝族自治州石屏县瑞临线云梯酒店(西山路店)南侧约70米,云南省,红河哈尼族彝族自治州,石屏县,,unknown,
baidu,68e374757cd183b4d13ce31a,势决电竞,红河哈尼族彝族自治州石屏县祥和街钟秀花园,云南省,红河哈尼族彝族自治州,石屏县,,unknown,
baidu,9a53d2131498b5109d82eacf,竹雅按摩,云南省红河哈尼族彝族自治州石屏县喜燕街66号,云南省,红河哈尼族彝族自治州,石屏县,13887570856,unknown,
baidu,6d96e87149faaec8223bf2f0,EM派对空间CLUB,云南省红河哈尼族彝族自治州石屏县异龙镇高速路口100米处,云南省,红河哈尼族彝族自治州,石屏县,15094153979,unknown,
baidu,e01416c9e0edaec13517dc62,小火车游乐中心,环城北路石屏欢乐世界东,云南省,红河哈尼族彝族自治州,石屏县,"(0873)4906666,18628863727",unknown,
baidu,e931ffd7f8b081ba932ca3c4,香茗茶苑,红河哈尼族彝族自治州石屏县喜燕街钟秀花园东北侧约170米,云南省,红河哈尼族彝族自治州,石屏县,13529471512,unknown,
baidu,80f9537b95c2fef9ecdfcacb,莺Bar音乐酒吧,焕文路67号,云南省,红河哈尼族彝族自治州,石屏县,13769427737,unknown,
baidu,324e93994d1e6d4beb1e9719,足佳乐,云南省红河哈尼族彝族自治州石屏县异龙湾西北侧160米,云南省,红河哈尼族彝族自治州,石屏县,,unknown,
baidu,693b6d56eca5129f71210b5a,石屏文化公园-小广场,红河哈尼族彝族自治州石屏县湖滨路文化公园东侧约60米,云南省,红河哈尼族彝族自治州,石屏县,,unknown,
baidu,12bd07da2299c30c095cb3c4,然物咖啡(正丰广场店),异龙镇云泉社区正丰广场2栋F2,云南省,红河哈尼族彝族自治州,石屏县,17687047319,unknown,
baidu,f5592f3ae92b0171128824d8,保莱酒店,湖滨路市场监督管理局南约40米,云南省,红河哈尼族彝族自治州,石屏县,(0873)4848555,unknown,
baidu,02b9f8f8976a5f208936ee9d,石屏时光酒店,异龙镇喜燕街14号,云南省,红河哈尼族彝族自治州,石屏县,(0873)3117777,unknown,
baidu,b28161c83f7f71c5c72ba19e,石屏从圣居民宿,州衙老街7号,云南省,红河哈尼族彝族自治州,石屏县,13466266228,unknown,
baidu,684898ccc0f342335fbe8630,石屏屏缘酒店,异龙镇清荷路青少年宫旁,云南省,红河哈尼族彝族自治州,石屏县,"(0873)4915555,19187300959",unknown,
baidu,15331a8bf006e8d5f942b2e6,格林东方酒店(石屏巨龙豪庭店),屏阳路21号,云南省,红河哈尼族彝族自治州,石屏县,(0873)3174888,unknown,
baidu,4334b567552473b3d1f49e8f,石屏时光连锁酒店,汇源路中段,云南省,红河哈尼族彝族自治州,石屏县,(0873)4867777,unknown,
baidu,fdde60174492d473f1193782,格兰酒店,汇源路118号,云南省,红河哈尼族彝族自治州,石屏县,"(0873)4971111,18787322874",unknown,
baidu,5ac4d1c8806ac90a8936ee04,石屏佳寓酒店,异龙镇云泉路36号,云南省,红河哈尼族彝族自治州,石屏县,"(0873)4843799,15087394436",unknown,
baidu,38c27ba25308ecec38e4a6f9,石屏天源酒店(西山路店),异龙镇西山路路口,云南省,红河哈尼族彝族自治州,石屏县,(0873)4853456,unknown,
baidu,8f7ec336769ae143c27da2e8,石佳宾馆,云南省红河哈尼族彝族自治州石屏县焕文路13号,云南省,红河哈尼族彝族自治州,石屏县,(0873)4909286,unknown,
baidu,6d14b5516a1414b001ec01f3,石屏天逸酒店,鸡石高速路入口处,云南省,红河哈尼族彝族自治州,石屏县,(0873)4851777,unknown,
baidu,78d7b52b4b3f2403901fc9ff,五里香酒店,异龙镇湖滨路异龙湾小区D栋,云南省,红河哈尼族彝族自治州,石屏县,(0873)3064556,unknown,
baidu,f7b5a5edb3abcbc4f8f0cb49,鑫海逸智能酒店(石屏玉屏街店),云南省红河哈尼族彝族自治州石屏县玉屏街21号,云南省,红河哈尼族彝族自治州,石屏县,0873-4857502,unknown,
baidu,8fde79cc5f4bf8c295ca0762,石屏吉祥宾馆,西山路25号,云南省,红河哈尼族彝族自治州,石屏县,"(0873)4857198,15750059032",unknown,
baidu,e1c50a7878c4268f8f55ec6b,石屏林月风致民宿,云南省红河哈尼族彝族自治州凤凰路中段凤凰湾小区西南方向200米,云南省,红河哈尼族彝族自治州,石屏县,15925346882,unknown,
baidu,37d60a461e72871d1e1d1162,石屏喜客来宾馆,西山路48号,云南省,红河哈尼族彝族自治州,石屏县,13887396379,unknown,
baidu,2e74ce55a262f60716a190eb,石屏金碧宾馆,汇源路11号,云南省,红河哈尼族彝族自治州,石屏县,(0873)4851198,unknown,
baidu,72cc58b5239845ebb64f54d2,石屏阳光小屋,焕文路36号,云南省,红河哈尼族彝族自治州,石屏县,(0873)4951507,unknown,
baidu,a9b0de401ee0ac1e266e9856,红石商务酒店,异龙镇天猴高速公路石屏收费站北300米,云南省,红河哈尼族彝族自治州,石屏县,(0873)4868111,unknown,
baidu,7900e640b1a522429ee321b8,石屏善诚酒店(文化公园店),异龙镇汇源路中段石屏星兴幼儿园北20米,云南省,红河哈尼族彝族自治州,石屏县,(0873)3061399,unknown,
baidu,4d0cb89b8889f3da343a7161,金庭酒店,云南省红河哈尼族彝族自治州石屏县5615国道中国石化对面,云南省,红河哈尼族彝族自治州,石屏县,(0873)4857977,unknown,
baidu,78bd50f7683b132631870a62,石屏麒麟商务酒店,汇源路34号,云南省,红河哈尼族彝族自治州,石屏县,(0873)4844666,unknown,
baidu,33fbfa83682c12c00bf5ebd6,石屏鸿源酒店,汇源路104号,云南省,红河哈尼族彝族自治州,石屏县,(0873)4936999,unknown,
baidu,eaa834c50836c472250bd0b5,石屏乐居酒店,异龙镇湖滨路与嘉林路交叉口（联众百货对面）,云南省,红河哈尼族彝族自治州,石屏县,(0873)4856688,unknown,
baidu,c6179ce340c04433df1e5207,家轩宾馆,红河哈尼族彝族自治州石屏县瑞临线宝塔小区西南侧约60米,云南省,红河哈尼族彝族自治州,石屏县,(0873)4906699,unknown,
baidu,34f5b9f8ddc1f59e882fb506,万德玉源酒店,云南省红河哈尼族彝族自治州石屏县万德路24号,云南省,红河哈尼族彝族自治州,石屏县,"0873-4850222,19328497016",unknown,
baidu,44927f524b8eaee54d554702,易道艺术生活馆,东后街26号,云南省,红河哈尼族彝族自治州,石屏县,18869347469,unknown,
baidu,f77f4c168ad570e1d22dd624,石屏良黎大酒店,异龙镇陶村新区龙泉路九号,云南省,红河哈尼族彝族自治州,石屏县,(0873)3174799,unknown,
baidu,db1d6e554f8f54f02ce67b31,石屏景泰宾馆,异龙镇玉屏街与西山路交叉口东北角,云南省,红河哈尼族彝族自治州,石屏县,13649627311,unknown,
baidu,33c87bc38c33abc2eb56fa15,小河淌水客栈,红河哈尼族彝族自治州石屏县屏阳路新天地西南侧约40米,云南省,红河哈尼族彝族自治州,石屏县,13769386505,unknown,
baidu,83d700f27bb0618f5cd4feab,石屏雯雅居客栈,异龙镇湖滨路石锦庄生态旅游小区一期B3-2室,云南省,红河哈尼族彝族自治州,石屏县,13330401860,unknown,
baidu,856af2dfc3a0ad84ab059d13,石屏古城客栈(云泉路店),云泉路23号,云南省,红河哈尼族彝族自治州,石屏县,(0873)4859412,unknown,
baidu,37d60a461e73871d1e1d1163,万德酒店,云南省红河哈尼族彝族自治州石屏县异龙镇万德路2号,云南省,红河哈尼族彝族自治州,石屏县,(0873)4858339,unknown,
baidu,c972bc509ede224b17b54b83,石屏小家别院,异龙镇北正街北合一幢A4-02,云南省,红河哈尼族彝族自治州,石屏县,13708639077,unknown,
baidu,5939f0aad39319171894c6d0,石屏红琪假日酒店(中医院店),云南省红河哈尼族彝族自治州石屏县汇源路1号,云南省,红河哈尼族彝族自治州,石屏县,(0873)4848788,unknown,
baidu,d572c8a029642fd6c356ac70,石屏希悦宾馆,异龙镇汇源路1号附17号,云南省,红河哈尼族彝族自治州,石屏县,(0873)4933888,unknown,
baidu,844a750e78746bb863685892,老八宾馆(宝塔二区东),云南省红河哈尼族彝族自治州石屏县汇源路146号,云南省,红河哈尼族彝族自治州,石屏县,(0873)4850166,unknown,
baidu,7503683552cc70d25e0d0270,景星大酒店,云南省红河哈尼族彝族自治州石屏县异龙镇喜燕街81号(异龙小学旁),云南省,红河哈尼族彝族自治州,石屏县,,unknown,
baidu,25ec69fc11a21c00c26c1462,月兴隆酒店,云南省红河哈尼族彝族自治州石屏县湖滨路20号,云南省,红河哈尼族彝族自治州,石屏县,,unknown,
baidu,79cceb36c67ee5f41e580062,汇源大酒店(紫砚街店),云南省红河哈尼族彝族自治州石屏县异龙镇汇源路同仁医院南100米,云南省,红河哈尼族彝族自治州,石屏县,"13408994447,13408999866",unknown,
baidu,eb367503ee105a1a01ec01be,恒泰酒店(天竺街店),云南省红河州石屏县汇源路202号,云南省,红河哈尼族彝族自治州,石屏县,13312673529,unknown,
baidu,c194702a50f8459d901fc9e3,石屏博文酒店,云南省红河哈尼族彝族自治州石屏县湖滨路欣源小区东南侧约90米,云南省,红河哈尼族彝族自治州,石屏县,(0873)4859966,unknown,
baidu,2a7a25eca1815b1e6c3e1b62,云源楼,云南省红河哈尼族彝族自治州石屏县玉屏街17号,云南省,红河哈尼族彝族自治州,石屏县,(0873)4851008,unknown,
baidu,757b87175536811d97ec8440,铁炮洗车美容,红河哈尼族彝族自治州石屏县冒合公路亿和小区南侧约30米,云南省,红河哈尼族彝族自治州,石屏县,15154922145,unknown,
baidu,423ed5349c607e6172455b50,车洁仕汽车美容养护中心,红河哈尼族彝族自治州石屏县屏阳路新天地南侧约60米,云南省,红河哈尼族彝族自治州,石屏县,"13529473557,13887398737",unknown,
baidu,0d15af019a319b0052e5c5f4,雄辉汽修,屏阳路与丁家寨段交叉口东北60米,云南省,红河哈尼族彝族自治州,石屏县,15154935459,unknown,
baidu,e03ee88542d9ae2fac04578f,快洁洗车,红河哈尼族彝族自治州石屏县瑞临线冒合中学西北侧约190米,云南省,红河哈尼族彝族自治州,石屏县,13529472399,unknown,
baidu,268d481b3629a9de8afc06d4,石屏县昌隆会英汽车修理厂,石屏县高速公路路口,云南省,红河哈尼族彝族自治州,石屏县,,unknown,
baidu,bf1c19965cb8fab9b21e3618,匠心汽车养护工作室,红河哈尼族彝族自治州石屏县朱家寨公路亿和小区东侧约250米,云南省,红河哈尼族彝族自治州,石屏县,17787318324,unknown,
baidu,aa78db1f8d2840d1fb2d6192,润洁VIP洗护会所(兴民小区店),玉屏街与祥和街交叉口东北50米,云南省,红河哈尼族彝族自治州,石屏县,13577327655,unknown,
baidu,1181d835c677b31703ff2d39,石屏众鑫汽贸汽车批发中心,云南省红河哈尼族彝族自治州石屏县S212(瑞临线),云南省,红河哈尼族彝族自治州,石屏县,13577330677,unknown,
baidu,3588d25cf8fa1660b320a8f2,天宏洗车20元,红河哈尼族彝族自治州石屏县瑞临线逸景花园1期东侧约120米,云南省,红河哈尼族彝族自治州,石屏县,15752539989,unknown,
baidu,6835e3a74d782e33e3110370,异龙汽车修理厂,云南省红河哈尼族彝族自治州石屏县汇源路138号,云南省,红河哈尼族彝族自治州,石屏县,13887398566,unknown,
baidu,9022ea1a1e5d26eab45f1ea9,石屏自由人汽车服务,红河哈尼族彝族自治州石屏县逸景花园2期北侧约50米,云南省,红河哈尼族彝族自治州,石屏县,13408958535,unknown,
baidu,e5320bde1730e86eb320a892,石屏县天宏修理厂,云南省红河哈尼族彝族自治州石屏县S212(瑞临线),云南省,红河哈尼族彝族自治州,石屏县,15752539989,unknown,
baidu,8eac4166f37f6049eaf85365,鑫旺汽修,云南省红河哈尼族彝族自治州石屏县S216(瑞临线),云南省,红河哈尼族彝族自治州,石屏县,,unknown,
baidu,37aee5d678a840e582a12e6a,石屏MC汽车体验店,云南省红河哈尼族彝族自治州石屏县汇源路138号,云南省,红河哈尼族彝族自治州,石屏县,,unknown,
baidu,3c8024ce82483b15afee7a7f,顺和修理厂,红河哈尼族彝族自治州石屏县瑞临线逸景花园1期东侧约230米,云南省,红河哈尼族彝族自治州,石屏县,"13529476180,13618798425",unknown,
baidu,911d778594261fb6b04c49d4,长安汽车(石屏昇达直营店),云南省红河哈尼族彝族自治州石屏县汇源路宝塔园商铺3-4号,云南省,红河哈尼族彝族自治州,石屏县,13388731061,unknown,
baidu,a44de3866952bade8a36ee22,手艺人汽车装饰,红河哈尼族彝族自治州石屏县瑞临线逸景花园1期东侧约230米,云南省,红河哈尼族彝族自治州,石屏县,,unknown,
baidu,5aa6515c24fa3dea9fec2b8e,永胜汽车音响贴膜装饰(石屏旗舰店),云南省红河哈尼族彝族自治州石屏县鸡石高速路口,云南省,红河哈尼族彝族自治州,石屏县,18788101227,unknown,
baidu,24f015ea29505e2421f017ce,奇瑞石屏允希,红河哈尼族彝族自治州石屏县瑞临线逸景花园1期东侧约120米,云南省,红河哈尼族彝族自治州,石屏县,13769358883,unknown,
baidu,c6832b055810aa652dfaa76d,恒旺汽修,红河哈尼族彝族自治州石屏县瑞临线逸景花园1期东南侧约280米,云南省,红河哈尼族彝族自治州,石屏县,,unknown,
baidu,4e29beb9810876af6fc02cf0,昌隆修理厂,G5615天猴高速入口附近,云南省,红河哈尼族彝族自治州,石屏县,"(0873)4851971,13529915889",unknown,
baidu,84cf7a109c2bef09a8059d87,锦鑫汽车修理厂,云南省红河哈尼族彝族自治州石屏县焕文路36号,云南省,红河哈尼族彝族自治州,石屏县,(0873)3170666,unknown,
baidu,f03e2ef548441739fe0eb056,蕲艾服务部(石屏店),红河哈尼族彝族自治州石屏县焕文路新世纪商业中心,云南省,红河哈尼族彝族自治州,石屏县,,unknown,
baidu,ebb6b7ec201be66a88db7301,护车仔汽车服务,云南省红河哈尼族彝族自治州石屏县护车仔(龙泉路北),云南省,红河哈尼族彝族自治州,石屏县,,unknown,
baidu,8eda11b1390e960f15a1903a,德国马牌轮胎(石屏毛嘟噜店),汇源路交警队往小水方向200米处,云南省,红河哈尼族彝族自治州,石屏县,15825206263,unknown,
baidu,49c2e1ca66fb7a145a3ac8dc,便民洗车装饰,红河哈尼族彝族自治州石屏县龙泉路石屏县中医医院西北侧约60米,云南省,红河哈尼族彝族自治州,石屏县,,unknown,
baidu,e8529e0629a9df7d9fec2b5f,石屏县经纬汽车销售服务有限公司机动车登记服务站,G323(瑞临线),云南省,红河哈尼族彝族自治州,石屏县,,unknown,
baidu,bace342a76d3f939704b87dc,石屏县自由人汽修,云南省红河哈尼族彝族自治州石屏县S212(瑞临线),云南省,红河哈尼族彝族自治州,石屏县,"13408958535,19987384868",unknown,
baidu,dcfa73d00b591e96f6eafca8,金茂洗车会所,红河哈尼族彝族自治州石屏县云泉路林苑小区,云南省,红河哈尼族彝族自治州,石屏县,18760716487,unknown,
baidu,fa715220bf611619d23ce3a0,米其林轮胎(瑞临线店),石屏县瑞临线中国石化加油站(红河石屏异龙站)东侧约50米,云南省,红河哈尼族彝族自治州,石屏县,13529478627,unknown,
baidu,66fb9118d008ed0a0aa8d4c5,福家迎蜡水洗车场,云南省红河哈尼族彝族自治州石屏县符家营公路与龙泉路交叉路口往东北约50米,云南省,红河哈尼族彝族自治州,石屏县,,unknown,
baidu,d656c6a07c4340af8bb988e9,捷运汽车城,红河哈尼族彝族自治州石屏县瑞临线中国石化加油站(红河建水黑龙坡站)东北侧约40米,云南省,红河哈尼族彝族自治州,石屏县,"15126121520,18288268826",unknown,
baidu,5cbdff4de2d64479c91b959f,石屏顺鑫汽修,红河哈尼族彝族自治州石屏县龙泉路陶龙小区西北侧约90米,云南省,红河哈尼族彝族自治州,石屏县,15912842756,unknown,
baidu,38826aa85b36cc702bb97c18,宗申微耕机(瑞临线站),云南省红河哈尼族彝族自治州石屏县S216(瑞临线),云南省,红河哈尼族彝族自治州,石屏县,13769482856,unknown,
baidu,1c100670272e813814948e57,李毛伟汽修厂,小老卫寨段与龙泉路交叉口东北200米,云南省,红河哈尼族彝族自治州,石屏县,,unknown,
baidu,b9babe24fa3868fe081cc7b8,驰骋润滑油服务中心,红河哈尼族彝族自治州石屏县瑞临线石屏县同仁医院南侧约60米,云南省,红河哈尼族彝族自治州,石屏县,"13769358064,13987306845",unknown,
baidu,6ca2d7de381a01464007c10d,万豪汽修,红河哈尼族彝族自治州石屏县焕文路思达幼儿园北侧约270米,云南省,红河哈尼族彝族自治州,石屏县,18787376827,unknown,
baidu,ea6d9b95bbef02530e3dda6d,百车汇汽车装饰美容(焕文路店),云南省红河哈尼族彝族自治州石屏县焕文路125号,云南省,红河哈尼族彝族自治州,石屏县,18213639233,unknown,
baidu,2fa4f26f6eca03456168581d,正源汽车维修养护中心,云南省红河哈尼族彝族自治州石屏县汇源路S212与普家冲交叉路口,云南省,红河哈尼族彝族自治州,石屏县,15154999319,unknown,
baidu,c3b0b361a2e523beb35c6afd,晨晖汽修,红河哈尼族彝族自治州石屏县小老卫寨公路陶村中学东南侧约230米,云南省,红河哈尼族彝族自治州,石屏县,,unknown,
baidu,cd19d54b718d2a014251c038,石屏坤翔汽车修理厂,红河哈尼族彝族自治州石屏县焕文路思达幼儿园东北侧约170米,云南省,红河哈尼族彝族自治州,石屏县,,unknown,
baidu,0b806e2c10c6d7954207c11e,安发汽配(龙泉路),云南省红河哈尼族彝族自治州石屏县黑龙坡脚17号,云南省,红河哈尼族彝族自治州,石屏县,(0873)4843158,unknown,
baidu,0a25a8b8736866a7e5e965b7,小车维修保养,红河哈尼族彝族自治州石屏县瑞临线石屏县斯麦尔幼儿园南侧约150米,云南省,红河哈尼族彝族自治州,石屏县,,unknown,
baidu,e4c112c45b416ea416c905b6,吉睿汽修洗护中心,红河哈尼族彝族自治州石屏县汇源路小水方向经纬公司旁,云南省,红河哈尼族彝族自治州,石屏县,15087306134,unknown,
baidu,3db4a65579f5a5de51e5c50f,校传动轴,红河哈尼族彝族自治州石屏县龙泉路中国石化加油站(红河建水黑龙坡站)西北侧约120米,云南省,红河哈尼族彝族自治州,石屏县,"15083375664,15126262736",unknown,
baidu,4b4f5c36b6c4075c077ce8e2,佳通轮胎(瑞临线店),红河哈尼族彝族自治州石屏县瑞临线中国石化加油站(红河建水黑龙坡站)西侧约180米,云南省,红河哈尼族彝族自治州,石屏县,13988038164,unknown,
baidu,31b2aa60ec940075fa42b279,收购出售二手车,红河哈尼族彝族自治州石屏县宝塔路糖厂集资房,云南省,红河哈尼族彝族自治州,石屏县,,unknown,
baidu,17f4fa646cb203eb3fe2319e,惠师增压器柴油电喷,红河哈尼族彝族自治州石屏县瑞临线中国石化加油站(红河建水黑龙坡站)西侧约120米,云南省,红河哈尼族彝族自治州,石屏县,15126383646,unknown,
baidu,137a3cca95f5041895ec84ca,汽车玻璃总汇,红河哈尼族彝族自治州石屏县瑞临线中国石化加油站(红河建水黑龙坡站)东侧约40米,云南省,红河哈尼族彝族自治州,石屏县,"13408944298,15924602827",unknown,
baidu,1b83b6cdb67907532fe67bef,石屏县安通机动车检测有限公司,云南省红河哈尼族彝族自治州石屏县Y066(小老卫寨公路),云南省,红河哈尼族彝族自治州,石屏县,(0873)4856777,unknown,
baidu,b662dc6fdd1ba9d16d20b974,石屏县交安机动车检测有限公司,红河哈尼族彝族自治州石屏县龙泉路石屏县中医医院西北侧约80米,云南省,红河哈尼族彝族自治州,石屏县,13987302755,unknown,
baidu,8cf83482a63e393c57bffff6,湖南汽车电工电瓶空调,云南省红河哈尼族彝族自治州石屏县瑞临线中国石化加油站(红河建水黑龙坡站)西北侧约100米,云南省,红河哈尼族彝族自治州,石屏县,13649627057,unknown,
baidu,dc9bb5e464f44c590bf5eb5f,搏辉汽修二手车,红河哈尼族彝族自治州石屏县异龙湖停车区石屏县斯麦尔幼儿园西南侧约180米,云南省,红河哈尼族彝族自治州,石屏县,,unknown,
baidu,befdb2920ffa00f8861541ab,石屏仁和医院,云南省红河哈尼族彝族自治州石屏县云泉路3号,云南省,红河哈尼族彝族自治州,石屏县,(0873)4857751,unknown,
baidu,3dc9befd0fc2f00fbfa240ab,石屏县人民医院,石屏县湖滨路103号,云南省,红河哈尼族彝族自治州,石屏县,(0873)4857751,unknown,
baidu,7fcb0daadd19b0495cd4fea6,石屏异龙益安诊所,红河哈尼族彝族自治州石屏县钟秀街石屏县烟草小区西北侧约50米,云南省,红河哈尼族彝族自治州,石屏县,13649639337,unknown,
baidu,750026a199346536f4b91695,友谊诊所(云泉路店),云南省红河哈尼族彝族自治州石屏县云泉路6-4号,云南省,红河哈尼族彝族自治州,石屏县,,unknown,
baidu,27ec058f43fc8e61b04c4964,石屏县异龙济民诊所,云南省红河哈尼族彝族自治州石屏县异龙镇南正街81号,云南省,红河哈尼族彝族自治州,石屏县,13769428121,unknown,
baidu,069bfa7d0d1764f40482c208,福珍诊所,云南省红河哈尼族彝族自治州石屏县宝塔路20号,云南省,红河哈尼族彝族自治州,石屏县,15287301855,unknown,
baidu,c6a6018fc67d962483a00c9f,石屏姚氏骨科医院,云南省红河哈尼族彝族自治州石屏县万德路1号,云南省,红河哈尼族彝族自治州,石屏县,"13466281268,13649621008,13908736335",unknown,
baidu,0d396ec938c89fde2a02e1e8,异龙镇社区卫生服务中心,红河哈尼族彝族自治州石屏县异龙镇冒合社区李家嗝村5号,云南省,红河哈尼族彝族自治州,石屏县,,unknown,
baidu,c0776f1ffe005bac17948e44,疼痛门诊,红河哈尼族彝族自治州石屏县云泉路华隆佳园东北侧约230米,云南省,红河哈尼族彝族自治州,石屏县,,unknown,
baidu,7e6ce311a041a69d4f2fdf4f,涂俊中医诊所,红河哈尼族彝族自治州石屏县西正街名典假日酒店(石屏店)西侧约230米,云南省,红河哈尼族彝族自治州,石屏县,,unknown,
baidu,57f260f22d3ba245be48428d,石屏异龙李兴禄诊所,红河哈尼族彝族自治州石屏县焕文路宝塔小区东侧约60米,云南省,红河哈尼族彝族自治州,石屏县,,unknown,
baidu,7acc0ec713c19ac81d5800ef,CT磁共振DR,红河哈尼族彝族自治州石屏县云泉路石屏仁和医院,云南省,红河哈尼族彝族自治州,石屏县,,unknown,
baidu,df2c71c8ea73991714c90558,皮肤诊疗科,红河哈尼族彝族自治州石屏县清荷路石屏县人民医院,云南省,红河哈尼族彝族自治州,石屏县,,unknown,
baidu,7e8d9659607e6a7940ab9adc,石屏和惠医院,云南省红河哈尼族彝族自治州石屏县西山路25号,云南省,红河哈尼族彝族自治州,石屏县,(0873)4859999,unknown,
baidu,3691f8e1a8c8ea9bf7e73b25,石屏异龙卫民诊所,云南省红河哈尼族彝族自治州石屏县湖滨路景州新苑61号,云南省,红河哈尼族彝族自治州,石屏县,,unknown,
baidu,4cb9a02fa5e1c510b13c8153,石屏县人民医院(异龙院区),红河哈尼族彝族自治州石屏县屏阳路,云南省,红河哈尼族彝族自治州,石屏县,,unknown,
baidu,f66055227de41560c03644aa,石屏县交通事故急救中心,云泉路与喜燕街交叉口东南50米,云南省,红河哈尼族彝族自治州,石屏县,,unknown,
baidu,bba873880e80eeddbca82262,石屏异龙贺氏牙科诊所(喜燕街店),云南省红河哈尼族彝族自治州石屏县喜燕街22号,云南省,红河哈尼族彝族自治州,石屏县,(0873)4852996,unknown,
baidu,6799ddde246fd2ba36b06c1d,李氏骨伤科草药店,红河哈尼族彝族自治州石屏县云泉路钟秀花园东北侧约250米,云南省,红河哈尼族彝族自治州,石屏县,,unknown,
baidu,9b41fd1a2a336091110daa59,陶村吕氏骨科草药店,红河哈尼族彝族自治州石屏县云泉路钟秀花园东北侧约260米,云南省,红河哈尼族彝族自治州,石屏县,13887392249,unknown,
baidu,d7a15428665bce5eacee7a51,石屏异龙益民诊所,云南省红河哈尼族彝族自治州石屏县白马庙段异龙小学二校区东南侧约170米,云南省,红河哈尼族彝族自治州,石屏县,13618736800,unknown,
baidu,3169817a0433b390f12d836e,康美诊所,云南省红河哈尼族彝族自治州石屏县玉屏街异龙小学侧门斜对面,云南省,红河哈尼族彝族自治州,石屏县,,unknown,
baidu,d146b3888f0cd1a3740269ee,石屏县人民医院-急诊科,云南省红河哈尼族彝族自治州石屏县湖滨路103号,云南省,红河哈尼族彝族自治州,石屏县,,unknown,
baidu,1777d1ae5359057c59bbbc0f,石屏县中医医院,红河哈尼族彝族自治州石屏县异龙镇陶村新区龙泉路森林印象小区对面,云南省,红河哈尼族彝族自治州,石屏县,(0873)4857264,unknown,
baidu,1810e7c8fccbad085abbbc30,寿春诊所,红河哈尼族彝族自治州石屏县南正街名典假日酒店(石屏店)东南侧约130米,云南省,红河哈尼族彝族自治州,石屏县,,unknown,
baidu,a908a80444e464f12811d14f,石屏异龙康润诊所,红河哈尼族彝族自治州石屏县玉屏街异龙工人新村东侧,云南省,红河哈尼族彝族自治州,石屏县,,unknown,
baidu,14b64eb312da51958d1a8906,石屏具人民医院-发热门诊,石屏县异龙镇湖演路103号,云南省,红河哈尼族彝族自治州,石屏县,(0873)4853020,unknown,
baidu,f12085c4bcdb84543f9a5e0d,石屏平安医院,云南省红河哈尼族彝族自治州石屏县异龙镇焕文路51号,云南省,红河哈尼族彝族自治州,石屏县,,unknown,
baidu,94fe2cbc6ed9cbf80f0e6b3f,石屏异龙康民诊所,红河哈尼族彝族自治州石屏县玉屏街欣源小区西南侧约40米,云南省,红河哈尼族彝族自治州,石屏县,,unknown,
baidu,bbe5a912b1e07d22b64f54b6,石屏县人民医院临床服务中心,红河哈尼族彝族自治州石屏县湖滨路103号石屏县人民医院门诊楼5楼,云南省,红河哈尼族彝族自治州,石屏县,,unknown,
baidu,f5dc9562fb8d83643a13fd34,李成洪骨外科诊所,云南省红河哈尼族彝族自治州石屏县异龙镇南正街15号,云南省,红河哈尼族彝族自治州,石屏县,,unknown,
baidu,0755881a1130d243b2077d4f,同安医院,云南省红河哈尼族彝族自治州石屏县汇源路14号,云南省,红河哈尼族彝族自治州,石屏县,,unknown,
baidu,b9a0dd7c344051b4246e9880,石屏异龙健民诊所,云南省红河哈尼族彝族自治州石屏县珠泉街47号,云南省,红河哈尼族彝族自治州,石屏县,13987306855,unknown,
baidu,5250bd72082ce78c8bb98899,一心堂药房(云泉路店),红河哈尼族彝族自治州石屏县云泉路华隆佳园东北侧约230米,云南省,红河哈尼族彝族自治州,石屏县,(0873)4907331,unknown,
baidu,b42e01a4769b5eefcafa5f26,广济本草堂,红河哈尼族彝族自治州石屏县云泉路恒兴苑北侧约220米,云南省,红河哈尼族彝族自治州,石屏县,13619433133,unknown,
baidu,abde3eebf94511d0a6da396f,安民诊所,云南省红河哈尼族彝族自治州石屏县祥和街26号,云南省,红河哈尼族彝族自治州,石屏县,,unknown,
baidu,d24ce9110c412272a10464dc,张承良中草医诊所,红河哈尼族彝族自治州石屏县北正街名典假日酒店(石屏店)东侧约70米,云南省,红河哈尼族彝族自治州,石屏县,,unknown,
baidu,80bf0cd297631435a10464ce,和济健康中医医院磁共振室,红河哈尼族彝族自治州石屏县湖滨路石屏异龙和济健康中医医院,云南省,红河哈尼族彝族自治州,石屏县,,unknown,
baidu,45c227ac8297d83eeedfca53,屏县人民医院-骨科,红河哈尼族彝族自治州石屏县湖滨路103号屏县人民医院住院部4层,云南省,红河哈尼族彝族自治州,石屏县,,unknown,
baidu,92b806d2b40cf78379b55cee,石屏县人民医院-感染科,云南省红河哈尼族彝族自治州石屏县环城南路10号石屏县人民医院,云南省,红河哈尼族彝族自治州,石屏县,,unknown,
baidu,f4fd2d06686eef6e6e20b93c,石屏异龙勇平诊所,云南省红河哈尼族彝族自治州石屏县屏阳路巨龙豪庭3商铺,云南省,红河哈尼族彝族自治州,石屏县,,unknown,
baidu,05e735981e19cfad0f0a705f,刘中草针灸,红河哈尼族彝族自治州石屏县云泉路云南省石屏县第一中学西南侧约150米,云南省,红河哈尼族彝族自治州,石屏县,13987308382,unknown,
baidu,20ebebcc16f7444bf32d830f,石屏异龙龙辉诊所,云南省红河哈尼族彝族自治州石屏县S212(瑞临线),云南省,红河哈尼族彝族自治州,石屏县,,unknown,
baidu,1de8daada1d7e1f1774ff1f0,石屏县异龙弘仁中医馆,红河哈尼族彝族自治州石屏县文化街昆明铁路局昆明生活段石屏乘务员公寓南侧约70米,云南省,红河哈尼族彝族自治州,石屏县,,unknown,
baidu,31a86f64cb19339e31f71d18,一心堂药房(钟秀街店),云南省红河哈尼族彝族自治州石屏县西正街10号,云南省,红河哈尼族彝族自治州,石屏县,(0873)4858530,unknown,
baidu,fb43444c76a62933a7c756fe,杨永宏诊所,红河哈尼族彝族自治州石屏县瑞临线和源小区(湖滨路),云南省,红河哈尼族彝族自治州,石屏县,,unknown,
baidu,00f1c7fbdddae71ec056ac79,石屏县同仁医院,异龙镇汇源路12号,云南省,红河哈尼族彝族自治州,石屏县,"(0873)4853120,(0873)4857120",unknown,
baidu,ee10ef5fb2698770d6b74e16,异龙永杰诊所,云南省红河哈尼族彝族自治州石屏县环城北路53号,云南省,红河哈尼族彝族自治州,石屏县,,unknown,
baidu,a7b0d43959f2ef57c61e5140,吉康诊所,云南省红河哈尼族彝族自治州石屏县西山路33号,云南省,红河哈尼族彝族自治州,石屏县,13529808826,unknown,
baidu,915eb650670e6f46fe0eb05d,健之佳健康药房(钟秀街店),红河哈尼族彝族自治州石屏县宝塔路糖厂集资房,云南省,红河哈尼族彝族自治州,石屏县,(0873)4868739,unknown,
baidu,3a0fbba8a1f5523c9ee32162,陶氏骨科,云南省红河哈尼族彝族自治州石屏县汇源路118号,云南省,红河哈尼族彝族自治州,石屏县,(0873)4859081,unknown,
baidu,850fd560e96fc882d23ce3d4,京云诊所,云南省红河哈尼族彝族自治州石屏县焕文路与紫砚街交叉口西50米,云南省,红河哈尼族彝族自治州,石屏县,,unknown,
baidu,ddc7101f6de3c0e1cd04ef62,杨通医馆,红河哈尼族彝族自治州石屏县云西街石屏县异龙镇云玉小区北侧约110米,云南省,红河哈尼族彝族自治州,石屏县,,unknown,
baidu,8c0ebd28a4bbbb462db17e22,王中华骨健康·全身修复中心(逸景花园店),红河哈尼族彝族自治州石屏县瑞临线逸景花园1期北侧约50米,云南省,红河哈尼族彝族自治州,石屏县,,unknown,
baidu,026baf7c86090ab6aeb22a18,石屏县人民医院(异龙院区)-精神科楼,石屏县屏阳路石屏县人民医院异龙院区内,云南省,红河哈尼族彝族自治州,石屏县,,unknown,
baidu,48a50b48101c1dc16e20b985,石屏仁和医院-亚健康管理中心,红河哈尼族彝族自治州石屏县云泉路石屏仁和医院,云南省,红河哈尼族彝族自治州,石屏县,,unknown,
baidu,1bb2743fcaa3aa80b04c4976,健之佳健康药房(586湖滨路分店),红河哈尼族彝族自治州石屏县异龙镇湖滨路恒丰E号楼二区A幢1单元3~4号,云南省,红河哈尼族彝族自治州,石屏县,(0873)4847315,unknown,
baidu,ef3bb4d53b92366b21f017ef,石屏县仁康大药房(云泉路店),云南省红河哈尼族彝族自治州石屏县云泉路6号,云南省,红河哈尼族彝族自治州,石屏县,,unknown,
baidu,6113078c66b23a8538e4a632,大西山卫生室,云南省红河哈尼族彝族自治州石屏县异龙镇汇源路逸景花园幼儿园旁,云南省,红河哈尼族彝族自治州,石屏县,,unknown,
baidu,3be122e16a7ae02f1ef74d62,一心堂大健康药店(石屏湖滨路连锁店),云南省红河州石屏县异龙镇湖滨路青少年宫,云南省,红河哈尼族彝族自治州,石屏县,(0873)4909160,unknown,
baidu,3fb8b017aa88480ee6e96534,一心堂(石屏湖滨店),云南省红河哈尼族彝族自治州石屏县焕文路1号,云南省,红河哈尼族彝族自治州,石屏县,(0873)4915856,unknown,
baidu,8b973a27a733370cc4f50d2f,高氏诊所,红河哈尼族彝族自治州石屏县杨田线云南省石屏县第一中学,云南省,红河哈尼族彝族自治州,石屏县,,unknown,
baidu,187dabdd55150b46b04c4948,石屏中医,红河哈尼族彝族自治州石屏县瑞临线天源酒店(西山路店)西北侧约70米,云南省,红河哈尼族彝族自治州,石屏县,,unknown,
baidu,2fbd7d16c9b8934f96f08c06,陶村卫生室,红河哈尼族彝族自治州石屏县焕文路林苑小区西北侧约140米,云南省,红河哈尼族彝族自治州,石屏县,,unknown,
baidu,811ed23b12ebfccfd4851f05,石屏县中医医院-发热门诊,石屏县异龙镇陶村新区龙泉路南面,云南省,红河哈尼族彝族自治州,石屏县,(0873)4906866,unknown,
baidu,da6d319056147f6284330491,健之佳健康药房(湖滨路店),红河哈尼族彝族自治州石屏县湖滨路宝塔小区北侧约70米,云南省,红河哈尼族彝族自治州,石屏县,4008878841,unknown,
baidu,273a55319b1fb1aa9968b445,一心堂药房(祥和街店),云南省红河哈尼族彝族自治州石屏县焕文路电力公司旁,云南省,红河哈尼族彝族自治州,石屏县,(0873)4908995,unknown,
baidu,5a62d18f4e29dac74002455d,健之佳健康药房(新世纪分店),红河哈尼族彝族自治州石屏县异龙镇西山路恒丰楼D号楼15号,云南省,红河哈尼族彝族自治州,石屏县,13649628189,unknown,
baidu,5fb6d1298c89639d7ab55c03,一心堂大健康药店(焕文路店),红河哈尼族彝族自治州石屏县焕文路恒丰小区(湖滨路)西侧约210米,云南省,红河哈尼族彝族自治州,石屏县,13529472045,unknown,
baidu,72634392f676e9ba07fef5b3,肤安堂(石屏店),异龙镇云泉路13号仁和医院斜对面往城门方向100米,云南省,红河哈尼族彝族自治州,石屏县,15911389040,unknown,
baidu,50fb64ffbb9caf20e9f85362,一心堂(石屏焕文路一店),云南省红河哈尼族彝族自治州石屏县焕文路12号新世纪商业中心,云南省,红河哈尼族彝族自治州,石屏县,13529475801,unknown,
baidu,255c83edbfb956ef2dfaa77d,一心堂(新都昌商业广场店),红河哈尼族彝族自治州石屏县西山路新都昌商业广场1-101-11号,云南省,红河哈尼族彝族自治州,石屏县,"(0873)4843778,(0873)4843925",unknown,
baidu,e308284885ab59c2b34c4962,万吉大药房,云南省红河哈尼族彝族自治州石屏县西山路4号石屏古城,云南省,红河哈尼族彝族自治州,石屏县,,unknown,
baidu,66a2542904d9bd1979b55cca,一心堂(湖滨路店),红河哈尼族彝族自治州石屏县湖滨路景洲新苑东侧约60米,云南省,红河哈尼族彝族自治州,石屏县,15094127766,unknown,
baidu,f7d92fb5058a90c30b1cc7ab,康寿大药房(四店),红河哈尼族彝族自治州石屏县人民医院,云南省,红河哈尼族彝族自治州,石屏县,,unknown,
baidu,3e513d7e69b68d6646e274fb,人众药房(车站大街),红河哈尼族彝族自治州石屏县文化街昆明铁路局昆明生活段石屏乘务员公寓南侧约90米,云南省,红河哈尼族彝族自治州,石屏县,,unknown,
baidu,4bb049d9da45dd3a99005062,一心堂(石屏汇源路店),云南省红河哈尼族彝族自治州石屏县异龙镇汇源路与湖滨路交叉口东北50米文化公园和源小区,云南省,红河哈尼族彝族自治州,石屏县,(0873)4906307,unknown,
baidu,96730badc23caca3e60738c4,新知健康药房(眼镜),云南省红河哈尼族彝族自治州石屏县云泉路7号,云南省,红河哈尼族彝族自治州,石屏县,,unknown,
baidu,71b952d677a7a7bee81e9706,逢生药店,红河哈尼族彝族自治州石屏县北正街名典假日酒店(石屏店)东侧约80米,云南省,红河哈尼族彝族自治州,石屏县,,unknown,
baidu,b1a7791cb0652f05e607388c,石屏县人民医院-中心供氧房,红河哈尼族彝族自治州石屏县清荷路石屏县人民医院,云南省,红河哈尼族彝族自治州,石屏县,,unknown,
baidu,fcedcabef296dc4a88f15d05,康寿大药房(西门农贸市场店),异龙镇焕文路西门农贸市场,云南省,红河哈尼族彝族自治州,石屏县,,unknown,
baidu,b6ccda8fe5940993bfa240e5,健之佳健康药房(新都昌商业广场店),云南省红河哈尼族彝族自治州石屏县异龙镇西山路新都昌商业广场一层1-01号商铺,云南省,红河哈尼族彝族自治州,石屏县,(0873)4909203,unknown,
baidu,b841d9c4c824546afda77872,一心堂大药房(石屏汇源路二店),红河哈尼族彝族自治州石屏县瑞临线石屏汽车客运站北侧,云南省,红河哈尼族彝族自治州,石屏县,"(0873)4845347,(0873)4909160",unknown,
baidu,c4336a8457bde15862180986,健之佳健康药房(瑞临线店),云南省红河哈尼族彝族自治州石屏县汇源路与湖滨路交叉口西南220米,云南省,红河哈尼族彝族自治州,石屏县,13529945404,unknown,
baidu,dbe3f1232e5cd8ea4f6d46bb,石屏县中医医院-健康管理中心,云南省红河哈尼族彝族自治州石屏县中医医院3号楼,云南省,红河哈尼族彝族自治州,石屏县,,unknown,
baidu,041d5558a56112991576432a,百合通大药房(玉屏街店),红河哈尼族彝族自治州石屏县焕文路67号,云南省,红河哈尼族彝族自治州,石屏县,,unknown,
baidu,6113ef77ee7236698e772762,石屏县疾病预防控制中心,云南省红河哈尼族彝族自治州石屏县S212与汇源路交叉口东北方向90米,云南省,红河哈尼族彝族自治州,石屏县,(0873)4857274,unknown,
baidu,a4e827275b7921584f776eaa,一心堂药房(石屏焕文路三店),云南省红河哈尼族彝族自治州石屏县焕文路73号,云南省,红河哈尼族彝族自治州,石屏县,(0873)4908106,unknown,
baidu,1b1853497d156047091cc730,倍健堂,红河哈尼族彝族自治州石屏县瑞临线西门农贸市场西侧约90米,云南省,红河哈尼族彝族自治州,石屏县,18869337338,unknown,
baidu,2848ffd6ad7ec37248cc4a62,石屏县腾瑞大药房(紫砚街店),红河哈尼族彝族自治州石屏县紫砚街西门农贸市场西北侧,云南省,红河哈尼族彝族自治州,石屏县,,unknown,
baidu,c54b02fb6f24e21226e0a0b4,齐兴大药房,红河哈尼族彝族自治州石屏县湖滨路,云南省,红河哈尼族彝族自治州,石屏县,13769431249,unknown,
baidu,8f28eb2d592ccd266f4760b0,奥其口腔(贺宗其牙科),红河哈尼族彝族自治州石屏县史家巷恒丰小区(湖滨路)北侧,云南省,红河哈尼族彝族自治州,石屏县,,unknown,
baidu,7ba06e5d3de8b1f1f119374e,朱丽云牙科,云南省红河哈尼族彝族自治州石屏县宝塔路20号,云南省,红河哈尼族彝族自治州,石屏县,13095260188,unknown,
baidu,cb7fc0de3d1d285f283a9f91,伯牙口腔诊所,云南省红河哈尼族彝族自治州石屏县天竺街2号,云南省,红河哈尼族彝族自治州,石屏县,(0873)4859767,unknown,
baidu,f62ee1ea0b476889a80dd87b,石屏县人民医院120急救站,红河哈尼族彝族自治州石屏县湖滨路103号,云南省,红河哈尼族彝族自治州,石屏县,,unknown,
baidu,cc2b7246354692176ca3cc36,丽藻春葩抗衰中心,红河哈尼族彝族自治州石屏县玉屏街欣源小区东南侧约60米,云南省,红河哈尼族彝族自治州,石屏县,"13408929274,13529911187",unknown,
baidu,dff8531d716ae82bc16c14cb,陆艳芳口腔诊所,云南省红河哈尼族彝族自治州石屏县宝塔路与湖滨路交叉口西50米,云南省,红河哈尼族彝族自治州,石屏县,,unknown,
baidu,519a66547d010ff428b97cce,博美口腔诊所(正丰广场店),云南省红河哈尼族彝族自治州石屏县紫砚街2号,云南省,红河哈尼族彝族自治州,石屏县,13987306128,unknown,
baidu,b309437cf91558881ef74da2,石屏异龙伯牙口腔诊所,红河哈尼族彝族自治州石屏县屏阳路景州佳苑-A区西南侧约100米,云南省,红河哈尼族彝族自治州,石屏县,,unknown,
baidu,9fc6d146edc7dd86b23c81da,张华口腔诊所,云南省红河哈尼族彝族自治州石屏县异龙镇云泉路114号,云南省,红河哈尼族彝族自治州,石屏县,13887394932,unknown,
baidu,a8a261dffd9b82b3b6f42fd9,自然之声助听器(石屏店),云南省红河哈尼族彝族自治州石屏县焕文路13号,云南省,红河哈尼族彝族自治州,石屏县,19048735970,unknown,
baidu,cc77479dcaf9be76c6f50db9,姚祥口腔诊所,云南省红河哈尼族彝族自治州石屏县焕文路47号,云南省,红河哈尼族彝族自治州,石屏县,"13529910147,13769351351",unknown,
baidu,8ae8ed65e6178c022db96d9c,七田阳光儿童成长中心(湖滨路),云南省红河哈尼族彝族自治州石屏县湖滨路103号2楼,云南省,红河哈尼族彝族自治州,石屏县,,unknown,
baidu,06615d8625dfb08935b06c6d,石屏县异龙小学二校区,云南省红河哈尼族彝族自治州石屏县东正街86号,云南省,红河哈尼族彝族自治州,石屏县,,unknown,
baidu,1da84510828b464bb9df8f52,瑞航驾校,云南省红河哈尼族彝族自治州石屏县汇源路128号,云南省,红河哈尼族彝族自治州,石屏县,(0873)4869419,unknown,
baidu,2c0298143473e49efa2d61b1,寻美艺术,云南省红河哈尼族彝族自治州石屏县钟秀街8号新世纪商业中心2楼,云南省,红河哈尼族彝族自治州,石屏县,18987306167,unknown,
baidu,e0ec596bfd3cd31ba10464f2,启蒙幼儿园(环城南路店),红河哈尼族彝族自治州石屏县环城南路恒兴苑北侧约100米,云南省,红河哈尼族彝族自治州,石屏县,(0873)4843109,unknown,
baidu,4eb3b5339c34b0084302451d,石屏高级中学,红河哈尼族彝族自治州石屏县湖滨路东段,云南省,红河哈尼族彝族自治州,石屏县,,unknown,
baidu,d2fde8728ddce47f2b06cef3,冒合小学,云南省红河哈尼族彝族自治州石屏县异龙镇岳家湾88号,云南省,红河哈尼族彝族自治州,石屏县,,unknown,
baidu,f1960b2d3ca5f535d4851f96,石屏图书馆(古城分馆),红河哈尼族彝族自治州石屏县三元街名典假日酒店(石屏店)西北侧约120米,云南省,红河哈尼族彝族自治州,石屏县,,unknown,
baidu,6df2e7c3d3a27dd189b9882a,鹿屿舞蹈艺术空间,红河哈尼族彝族自治州石屏县屏阳路景州佳苑-A区,云南省,红河哈尼族彝族自治州,石屏县,15912877456,unknown,
baidu,d76cce387e9fca66f33cba19,阳光幼儿园,红河哈尼族彝族自治州石屏县焕文路,云南省,红河哈尼族彝族自治州,石屏县,,unknown,
baidu,6e426f48457dfcd508ccdd0b,云南省石屏县图书馆,云南省红河哈尼族彝族自治州石屏县湖滨路1号,云南省,红河哈尼族彝族自治州,石屏县,(0873)4857885,unknown,
baidu,7cec2242904f8a073d9a5e7c,宝贝辅托中心,红河哈尼族彝族自治州石屏县湖滨路金牛小区北侧约30米,云南省,红河哈尼族彝族自治州,石屏县,13408945293,unknown,
baidu,bfb3cb380b9b25351d1d113f,红旗幼儿园,红河哈尼族彝族自治州石屏县异龙镇东城集贸市场,云南省,红河哈尼族彝族自治州,石屏县,,unknown,
baidu,23116913315d2c80734b8762,石屏县异龙小学,云南省红河哈尼族彝族自治州石屏县喜燕街83号,云南省,红河哈尼族彝族自治州,石屏县,,unknown,
baidu,813b2a483093ee041c3894e0,海贝幼儿园,红河哈尼族彝族自治州石屏县丁家寨公路与嘉林路交叉路口往西约260米,云南省,红河哈尼族彝族自治州,石屏县,13649625072,unknown,
baidu,117cd7d2eb0f421b8f1a8998,新东风小学,云南省红河哈尼族彝族自治州石屏县环城东路12号,云南省,红河哈尼族彝族自治州,石屏县,,unknown,
baidu,c5965b85f4ad9d60f7b916de,新希望教育,红河哈尼族彝族自治州石屏县钟秀街保障房东南侧约170米,云南省,红河哈尼族彝族自治州,石屏县,,unknown,
baidu,f845e71f8dc32a10efe4a5e6,云南省石屏县第一中学,云南省红河哈尼族彝族自治州石屏县异龙镇珠泉街66号,云南省,红河哈尼族彝族自治州,石屏县,(0873)4857245,unknown,
baidu,72e57fd7156fe4d2f8dc8562,冒合中学,云南省红河哈尼族彝族自治州石屏县李家嘴30号,云南省,红河哈尼族彝族自治州,石屏县,(0873)4856630,unknown,
baidu,f3d9c3c0d185d463a5da3949,石屏县新春童润幼儿园,红河哈尼族彝族自治州石屏县异龙镇汇源路石屏汽车客运站瑞丰小区旁,云南省,红河哈尼族彝族自治州,石屏县,,unknown,
baidu,277cac0035d927cf6fc02c7e,石屏县宏应职业培训学校,云南省红河哈尼族彝族自治州石屏县异龙镇,云南省,红河哈尼族彝族自治州,石屏县,,unknown,
baidu,519cd3926f322fa3ad04578d,异龙坊幼儿园,红河哈尼族彝族自治州石屏县文化街昆明铁路局昆明生活段石屏乘务员公寓南侧约40米,云南省,红河哈尼族彝族自治州,石屏县,,unknown,
baidu,f273c54089f7a9169122e08e,石屏县汽车驾驶员培训学校,云南省红河哈尼族彝族自治州石屏县异龙镇黑龙坡脚17号,云南省,红河哈尼族彝族自治州,石屏县,,unknown,
baidu,04d23e9e625b5dfeca1b9526,七色花幼儿园,云南省红河哈尼族彝族自治州石屏县西山路31号,云南省,红河哈尼族彝族自治州,石屏县,,unknown,
baidu,352c2b0cb9e2005f220220dd,奇彩幼儿园,云南省红河哈尼族彝族自治州石屏县玉源街4号,云南省,红河哈尼族彝族自治州,石屏县,(0873)4856845,unknown,
baidu,0523a141bcca0260b23c8162,陶村小学,红河哈尼族彝族自治州石屏县异龙镇陶村一组,云南省,红河哈尼族彝族自治州,石屏县,(0873)4856471,unknown,
baidu,3608505625a026d2ae31e5a2,破茧数学专攻,红河哈尼族彝族自治州石屏县云泉路园丁小区西北侧约100米,云南省,红河哈尼族彝族自治州,石屏县,,unknown,
baidu,19a3462db45f4f634054d721,贝比托幼中心,红河哈尼族彝族自治州石屏县,云南省,红河哈尼族彝族自治州,石屏县,,unknown,
baidu,05d2adcdbf16e351e31103a7,冒合小学-育苗幼儿园,云南省红河哈尼族彝族自治州石屏县嘉林路(冒合小学),云南省,红河哈尼族彝族自治州,石屏县,,unknown,
baidu,0ed20a15eb922cea57bfff62,石屏县幼儿园,云南省红河哈尼族彝族自治州石屏县焕文路52号,云南省,红河哈尼族彝族自治州,石屏县,,unknown,
baidu,91257aa39c90bba442d63ef6,石屏县童心幼儿园,红河哈尼族彝族自治州石屏县陶村公路陶村小学南侧约50米,云南省,红河哈尼族彝族自治州,石屏县,13529486966,unknown,
baidu,ea4a3dc9ca833f534e55471d,瑞生小学,红河哈尼族彝族自治州石屏县白马庙段与化龙桥段交叉路口往西约130米,云南省,红河哈尼族彝族自治州,石屏县,,unknown,
baidu,764672e548a9aed094ec8462,陶村中学,云南省红河哈尼族彝族自治州石屏县龙泉路19号,云南省,红河哈尼族彝族自治州,石屏县,,unknown,
baidu,acbe0d1ddcfa261e3586f4d3,师达教育,红河哈尼族彝族自治州石屏县瑞临线石屏县斯麦尔幼儿园北侧约110米,云南省,红河哈尼族彝族自治州,石屏县,,unknown,
baidu,94d718d927eea9252fe67b84,石屏县建筑设计院,红河哈尼族彝族自治州石屏县紫砚街西门农贸市场东北侧约60米,云南省,红河哈尼族彝族自治州,石屏县,,unknown,
baidu,9bc7469eebfff772adb22a84,石屏县袁家山小学,云南省红河哈尼族彝族自治州石屏县G5615天猴高速与G5615天猴高速入口交叉口西360米,云南省,红河哈尼族彝族自治州,石屏县,,unknown,
baidu,7d6c5ee0d0c4ee363010af8e,石屏县教育局教学研究室,红河哈尼族彝族自治州石屏县瑞临线鹂景庄园东南侧约240米,云南省,红河哈尼族彝族自治州,石屏县,,unknown,
baidu,e87bf723c9577e5beddfcaa0,石屏县水利水电勘测设计队,红河哈尼族彝族自治州石屏县丁家寨公路亿和小区东南侧约160米,云南省,红河哈尼族彝族自治州,石屏县,,unknown,
baidu,680fb703d215c9e18bb98862,石屏县农业机械化技校,红河哈尼族彝族自治州石屏县焕文路园丁小区西侧约30米,云南省,红河哈尼族彝族自治州,石屏县,,unknown,
baidu,667284aeba383360abf0cd4c,逸景花园幼儿园,红河哈尼族彝族自治州石屏县异龙镇天逸酒店旁,云南省,红河哈尼族彝族自治州,石屏县,,unknown,
baidu,0b8fe5a37c33f9d26cc02cfc,昆仑专业防水,凤凰路凤凰湾小区旁,云南省,红河哈尼族彝族自治州,石屏县,13529476876,unknown,
baidu,45e30072348705b825d2bb27,恒兴苑-停车场,云南省红河哈尼族彝族自治州石屏县异龙镇钟秀街111号,云南省,红河哈尼族彝族自治州,石屏县,,unknown,
baidu,63c2c3a2183b28f2c1f1cfce,祥云杰园-停车场,红河哈尼族彝族自治州石屏县钟秀街锦湖景苑东北侧,云南省,红河哈尼族彝族自治州,石屏县,,unknown,
baidu,22eae02cc5773b5008ccddd8,钟秀街路北侧临时停车点,红河哈尼族彝族自治州石屏县钟秀街恒兴苑,云南省,红河哈尼族彝族自治州,石屏县,,unknown,
baidu,2be83c217500f7511f3894e3,锦湖景苑-停车场,红河哈尼族彝族自治州石屏县钟秀街锦湖景苑,云南省,红河哈尼族彝族自治州,石屏县,,unknown,
baidu,deb3c3b19b7e97b028b97cfc,亿和小区-停车场,云南省红河哈尼族彝族自治州石屏县冒合公路与环城南路交叉路口往东南约150米亿和小区,云南省,红河哈尼族彝族自治州,石屏县,,unknown,
baidu,b39c3e762f1ba8074c6d46e5,环城南路南侧临时停车点,红河哈尼族彝族自治州石屏县环城南路石屏县异龙小学二校区南侧约90米,云南省,红河哈尼族彝族自治州,石屏县,,unknown,
baidu,eb99e1e63eb3595aaeb22a37,临时停车点,红河哈尼族彝族自治州石屏县钟秀街亿和小区南侧约50米,云南省,红河哈尼族彝族自治州,石屏县,,unknown,
baidu,5c7564729e38da254657264e,云南德宝充电站(石屏县人社局快充站),云南省红河哈尼族彝族自治州石屏县异龙镇石屏县人力资源和社会保障局,云南省,红河哈尼族彝族自治州,石屏县,4006899994,unknown,
baidu,dd1dd1607e370a09213bf266,月兴隆酒店,石屏2路;石屏3路,云南省,红河哈尼族彝族自治州,石屏县,,unknown,
baidu,c6f0b1d584ffe07d8b2fb55f,停车场,红河哈尼族彝族自治州石屏县白马庙段东兴小区南侧约180米,云南省,红河哈尼族彝族自治州,石屏县,,unknown,
baidu,7ec4b78eec829a013486f4ac,石屏古城-地上停车场,红河哈尼族彝族自治州石屏县云泉路工会广场东北侧约180米,云南省,红河哈尼族彝族自治州,石屏县,,unknown,
baidu,669775d0557d3b5afd0eb079,石屏汽车客运站,云南省红河哈尼族彝族自治州石屏县汇源路与国道323交叉口西南角,云南省,红河哈尼族彝族自治州,石屏县,(0873)4844768,unknown,
baidu,d286101c2a08e5d8d3ff23c9,石屏县政务服务中心-停车场,红河哈尼族彝族自治州石屏县宝塔路,云南省,红河哈尼族彝族自治州,石屏县,,unknown,
baidu,6c816c46121e6d0f15c90574,石屏县烟草小区-停车场,云南省红河哈尼族彝族自治州石屏县湖滨路烟草小区,云南省,红河哈尼族彝族自治州,石屏县,,unknown,
baidu,93e9604859acbfa0e115f9dc,石屏风-地上停车场,红河哈尼族彝族自治州石屏县西正街名典假日酒店(石屏店)西侧约160米,云南省,红河哈尼族彝族自治州,石屏县,,unknown,
baidu,31a9e18a429140bc9fec2bda,石屏客运站充电站,云南省红河哈尼族彝族自治州石屏县G323(瑞临线),云南省,红河哈尼族彝族自治州,石屏县,,unknown,
baidu,9a469ea679fd77ed8936eeba,石屏县青少年宫-停车场,红河哈尼族彝族自治州石屏县清荷路恒丰小区(湖滨路),云南省,红河哈尼族彝族自治州,石屏县,,unknown,
baidu,4e7eba125d2ce00d10293562,宝塔路13号院-停车场,红河哈尼族彝族自治州石屏县宝塔路13号,云南省,红河哈尼族彝族自治州,石屏县,,unknown,
baidu,ba343b4771ec7b46a1d230ff,景洲花园(湖滨路)-停车场,红河哈尼族彝族自治州石屏县湖滨路景洲花园(湖滨路),云南省,红河哈尼族彝族自治州,石屏县,,unknown,
baidu,6bcecbf474f3a1e948cc4aa9,石屏仁和医院西南侧-停车场,红河哈尼族彝族自治州石屏县喜燕街华隆佳园北侧约120米,云南省,红河哈尼族彝族自治州,石屏县,,unknown,
baidu,42ac681b4ba60f929f09f731,临时停车点,红河哈尼族彝族自治州石屏县宝塔路华隆佳园北侧约100米,云南省,红河哈尼族彝族自治州,石屏县,,unknown,
baidu,6bd4ef04ae4736d7f9f0cb67,荣泰家园东侧-停车场,红河哈尼族彝族自治州石屏县湖滨路石屏县烟草小区西南侧约50米,云南省,红河哈尼族彝族自治州,石屏县,,unknown,
baidu,224f75ff15355be16cc02c32,石屏仁和医院亚健康管理中心-停车场,红河哈尼族彝族自治州石屏县云泉路,云南省,红河哈尼族彝族自治州,石屏县,,unknown,
baidu,3ee390f5db8622800869d964,南方电网充电站(石屏县异龙镇林苑大厦充电站),云南省红河哈尼族彝族自治州石屏县异龙镇林苑大厦,云南省,红河哈尼族彝族自治州,石屏县,4006895598,unknown,
baidu,f5c2d946d357a1251e1d113a,湖光顺景-地下停车场,红河哈尼族彝族自治州石屏县湖滨路8号湖光顺景,云南省,红河哈尼族彝族自治州,石屏县,,unknown,
baidu,565383a13b831df122022025,石屏县人民医院-停车场,云南省尼族彝族自治州石屏县湖滨路103号石屏县人民医院,云南省,红河哈尼族彝族自治州,石屏县,,unknown,
baidu,c865185946c670f1b6f42fe4,石屏县房管小区-停车场,红河哈尼族彝族自治州石屏县石屏县房管小区,云南省,红河哈尼族彝族自治州,石屏县,,unknown,
baidu,05af42a4b0f87ca381288a10,石屏县人民政府-地下停车场,红河哈尼族彝族自治州石屏县钟秀街,云南省,红河哈尼族彝族自治州,石屏县,(0873)4843768,unknown,
baidu,88836a87479bb60b43e192be,石屏县异龙小学二校区-停车场,云南省红河哈尼族彝族自治州石屏县东正街86号,云南省,红河哈尼族彝族自治州,石屏县,,unknown,
baidu,b607a16e3653d334db1318de,石屏县糕点厂B幢-停车场,红河哈尼族彝族自治州石屏县云泉路名典假日酒店(石屏店)西南侧约250米,云南省,红河哈尼族彝族自治州,石屏县,,unknown,
baidu,83bb10dffe33fd28095cb3b5,石屏县东城集贸市场-停车场,红河哈尼族彝族自治州石屏县环城东路新东风小学西侧约260米,云南省,红河哈尼族彝族自治州,石屏县,,unknown,
baidu,6fe18fcd0b600315db13186c,石屏县人民法院,石屏1路,云南省,红河哈尼族彝族自治州,石屏县,,unknown,
baidu,1d960ee0b315706f455726cc,停车场,云南省红河哈尼族彝族自治州石屏县钟秀街与祥和街交叉口东北20米,云南省,红河哈尼族彝族自治州,石屏县,,unknown,
baidu,efb73cdc520e4ff911882434,景洲花园,石屏2路;石屏3路,云南省,红河哈尼族彝族自治州,石屏县,,unknown,
baidu,2b4d343803244ef5931fc902,锦湖怡园-停车场,红河哈尼族彝族自治州石屏县湖滨路锦湖怡园,云南省,红河哈尼族彝族自治州,石屏县,,unknown,
baidu,7211eb7b7afaa0411894c6f7,荣泰家园-停车场,红河哈尼族彝族自治州石屏县湖滨路1号荣泰家园,云南省,红河哈尼族彝族自治州,石屏县,,unknown,
baidu,b499d884b9a4681fc42ba19e,石屏县林业和草原局-停车场,红河哈尼族彝族自治州石屏县屏阳路石屏县人民政府东北侧约150米,云南省,红河哈尼族彝族自治州,石屏县,,unknown,
baidu,e3aef405e62d6c99c27da269,红旗幼儿园西侧-停车场,红河哈尼族彝族自治州石屏县环城东路东兴小区北侧约130米,云南省,红河哈尼族彝族自治州,石屏县,,unknown,
baidu,fdf153e5923589d4ca1b95d5,银苑(湖滨路)-停车场,红河哈尼族彝族自治州石屏县湖滨路银苑(湖滨路),云南省,红河哈尼族彝族自治州,石屏县,,unknown,
baidu,00b125437ecb57f522f0174c,大东园餐厅-停车场,红河哈尼族彝族自治州石屏县白马庙段与屏阳路交叉路口往南约70米,云南省,红河哈尼族彝族自治州,石屏县,,unknown,
baidu,0a68bd696b43464372210bf2,巨龙豪庭,石屏2路;石屏3路,云南省,红河哈尼族彝族自治州,石屏县,,unknown,
baidu,30c036275749a00e7bf79681,石屏县水利水电勘测设计队-停车场,红河哈尼族彝族自治州石屏县丁家寨公路亿和小区东南侧约160米,云南省,红河哈尼族彝族自治州,石屏县,,unknown,
baidu,31f39203fbff413d21026283,停车场,红河哈尼族彝族自治州石屏县环城东路红旗幼儿园西北侧约220米,云南省,红河哈尼族彝族自治州,石屏县,,unknown,
baidu,a31eb9d16b46deba02294fc6,源丰圆美食店-停车场,红河哈尼族彝族自治州石屏县焕文路宝塔小区东南侧约150米,云南省,红河哈尼族彝族自治州,石屏县,,unknown,
baidu,47a6ee59eb453ebc5cbe86f2,石屏经贸委集资住宅-停车场,红河哈尼族彝族自治州石屏县钟秀街石屏经贸委集资住宅,云南省,红河哈尼族彝族自治州,石屏县,,unknown,
baidu,6ff46d8dc38512b6aeb22a19,糖厂集资房-停车场,红河哈尼族彝族自治州石屏县宝塔路24号,云南省,红河哈尼族彝族自治州,石屏县,,unknown,
baidu,6895073b52b24bbd6f20b9a2,停车场,红河哈尼族彝族自治州石屏县湖滨路石屏县人民医院东北侧约70米,云南省,红河哈尼族彝族自治州,石屏县,,unknown,
baidu,f6b94affcd15bac1a2046498,停车场,红河哈尼族彝族自治州石屏县史家巷恒丰小区(湖滨路)西北侧约60米,云南省,红河哈尼族彝族自治州,石屏县,,unknown,
baidu,0bfd326141c48fe3970319d8,石屏县公安局-停车场,云南省红河哈尼族彝族自治州石屏县湖滨路13号,云南省,红河哈尼族彝族自治州,石屏县,,unknown,
baidu,12e962c301aef429fe0eb049,石屏收费站(天猴高速出口),红河哈尼族彝族自治州石屏县天猴高速邻里·兴园东南侧约40米,云南省,红河哈尼族彝族自治州,石屏县,,unknown,
baidu,064f8657a5afc5b6bea240d7,县委政府,石屏2路;石屏3路,云南省,红河哈尼族彝族自治州,石屏县,,unknown,
baidu,73519950c165416db1077dc1,石屏县人民政府,石屏1路,云南省,红河哈尼族彝族自治州,石屏县,,unknown,
baidu,da1b78b7518b2e107ec87619,地下停车场,红河哈尼族彝族自治州石屏县,云南省,红河哈尼族彝族自治州,石屏县,,unknown,
baidu,32a8ad48b1b9efc5eb12e437,东兴小区-停车场,云南省红河哈尼族彝族自治州石屏县白马庙段东兴小区,云南省,红河哈尼族彝族自治州,石屏县,,unknown,
baidu,eace5b5e093a82842ee67ba9,石屏县地方公路管理段-停车场,红河哈尼族彝族自治州石屏县焕文路99号,云南省,红河哈尼族彝族自治州,石屏县,,unknown,
baidu,d8ac46c6c84a86cc9cec2bdf,人民医院,石屏2路;石屏3路,云南省,红河哈尼族彝族自治州,石屏县,,unknown,
baidu,33bac77088927ceccf06a404,石屏县司法局-停车场,红河哈尼族彝族自治州石屏县屏阳路石屏县人民政府东北侧约140米,云南省,红河哈尼族彝族自治州,石屏县,,unknown,
baidu,ba765b13fd28a1ebe856fa0b,石屏县人民法院-停车场,红河哈尼族彝族自治州石屏县屏阳路与钟秀街交口东北20米,云南省,红河哈尼族彝族自治州,石屏县,,unknown,
baidu,3193a0048dea56e1ca2915b5,石屏县公安局,石屏1路,云南省,红河哈尼族彝族自治州,石屏县,,unknown,
baidu,c4db30f8d71efd2038e4a640,异龙镇人民政府-停车场,红河哈尼族彝族自治州石屏县钟秀街石屏县人民政府东南侧约70米,云南省,红河哈尼族彝族自治州,石屏县,,unknown,
baidu,cbbbc18d5b7833288936ee9a,异龙镇科技楼-停车场,红河哈尼族彝族自治州石屏县屏阳路石屏县人民政府东南侧约30米,云南省,红河哈尼族彝族自治州,石屏县,,unknown,
baidu,7733c75ec4b192eedf1e5252,大东园餐厅-停车场,红河哈尼族彝族自治州石屏县朱家寨公路与屏阳路交叉路口往东约100米,云南省,红河哈尼族彝族自治州,石屏县,,unknown,
baidu,7de92fc941d0b4a46240a90f,恒丰小区(湖滨路)号楼-停车场,云南省红河哈尼族彝族自治州石屏县清荷路石屏县人民医院西侧约50米,云南省,红河哈尼族彝族自治州,石屏县,,unknown,
baidu,aabdb4b2cb9f37f6f60e77cc,钟秀街6号院-停车场,红河哈尼族彝族自治州石屏县钟秀街银丰盛景北侧约90米,云南省,红河哈尼族彝族自治州,石屏县,,unknown,
baidu,8f3ff4fbea055d46100daa2f,新东风小学西侧-停车场,红河哈尼族彝族自治州石屏县屏阳路新东风小学西侧,云南省,红河哈尼族彝族自治州,石屏县,,unknown,
baidu,5430223de866b091373a7186,天骄领域,石屏2路;石屏3路,云南省,红河哈尼族彝族自治州,石屏县,,unknown,
baidu,50855855c254e09c26e0a0ef,和济中医北侧临时停车点,红河哈尼族彝族自治州石屏县湖滨路文化公园东侧约80米,云南省,红河哈尼族彝族自治州,石屏县,,unknown,
baidu,cef8b3566f2f464b27e0a08f,朱家寨,石屏1路,云南省,红河哈尼族彝族自治州,石屏县,,unknown,
baidu,68fb6e8f211f0c1214c8f631,中国农业银行(石屏县支行)-停车场,红河哈尼族彝族自治州石屏县祥和街,云南省,红河哈尼族彝族自治州,石屏县,,unknown,
baidu,24f7654091cd41a90bf5eb8e,地下停车场,云南省红河哈尼族彝族自治州石屏县焕文路78号,云南省,红河哈尼族彝族自治州,石屏县,,unknown,
baidu,20f53b3572ac7f7588db736f,兴民小区(兴民巷)东侧临时停车点,红河哈尼族彝族自治州石屏县兴民巷兴民小区(兴民巷),云南省,红河哈尼族彝族自治州,石屏县,,unknown,
baidu,002e37b4d39c3094bca822f1,红河州石屏交通运政管理所-停车场,红河哈尼族彝族自治州石屏县玉屏街欣源小区东南侧约50米,云南省,红河哈尼族彝族自治州,石屏县,,unknown,
baidu,7bba0ede2ea51f904e55473e,新世纪商业中心停车场,红河哈尼族彝族自治州石屏县天竺街新世纪商业中心,云南省,红河哈尼族彝族自治州,石屏县,,unknown,
baidu,dff6b45f383429c20bccdde4,钟秀街8号院-停车场,红河哈尼族彝族自治州石屏县喜燕街银丰盛景东北侧约70米,云南省,红河哈尼族彝族自治州,石屏县,,unknown,
baidu,22dfce6c2afc2c53095cb396,公路小区西北侧-停车场,红河哈尼族彝族自治州石屏县湖滨路景洲新苑北侧约110米,云南省,红河哈尼族彝族自治州,石屏县,,unknown,
baidu,52dd0283c5ae0e6780a00c0d,欣源小区-停车场,云南省红河哈尼族彝族自治州石屏县异龙镇焕文路欣源楼(宝塔小区附近),云南省,红河哈尼族彝族自治州,石屏县,,unknown,
baidu,c0b11a84d3f867fbbadf8f28,新天地小区,石屏1路,云南省,红河哈尼族彝族自治州,石屏县,,unknown,
baidu,33eb09c0714ecf99e0110352,景洲佳苑C区-地下停车场,红河哈尼族彝族自治州石屏县屏阳路景洲新苑西北侧约60米,云南省,红河哈尼族彝族自治州,石屏县,,unknown,
baidu,7fc99d817893763a17948e46,新天地-停车场,云南省红河哈尼族彝族自治州石屏县屏阳路新天地,云南省,红河哈尼族彝族自治州,石屏县,,unknown,
baidu,6bd443fdfef006564c6d46d8,石屏县粮食和物资储备局-停车场,红河哈尼族彝族自治州石屏县兴民巷银丰盛景西侧约60米,云南省,红河哈尼族彝族自治州,石屏县,,unknown,
baidu,26a2d122339be055c1f1cfae,新世纪商业中心,石屏2路;石屏3路,云南省,红河哈尼族彝族自治州,石屏县,,unknown,
baidu,0c5c9dd5296aedb16140a95e,停车场,红河哈尼族彝族自治州石屏县瑞临线宝塔小区东南侧约180米,云南省,红河哈尼族彝族自治州,石屏县,,unknown,
baidu,b63a155c4d47a527c3364456,兴民小区(兴民巷)-停车场,红河哈尼族彝族自治州石屏县兴民巷兴民小区(兴民巷),云南省,红河哈尼族彝族自治州,石屏县,,unknown,
baidu,a98c3c907a36afc52ce67b1e,中国南方电网云南电网公司异龙供电所-停车场,红河哈尼族彝族自治州石屏县祥和街,云南省,红河哈尼族彝族自治州,石屏县,,unknown,
baidu,fee60e6fe48b0462b4147f8e,景洲佳苑B区-地下停车场,云南省红河哈尼族彝族自治州石屏县湖滨路南150米景洲佳苑-B区,云南省,红河哈尼族彝族自治州,石屏县,,unknown,
baidu,9a6a0f66730e9da322022004,电动汽车充电站(焕文路),红河哈尼族彝族自治州石屏县云泉路林苑小区西侧,云南省,红河哈尼族彝族自治州,石屏县,,unknown,
baidu,7aea43b700eeb4f97c29bd79,中国石油加油站(瑞临线站),云南省红河哈尼族彝族自治州石屏县异龙镇陶村汇源路中国石油加油站,云南省,红河哈尼族彝族自治州,石屏县,,unknown,
baidu,fed2287f6d70f4ea4e776eb6,石屏县中医医院-停车场,云南省红河哈尼族彝族自治州石屏县龙泉路石屏县中医医院,云南省,红河哈尼族彝族自治州,石屏县,,unknown,
baidu,831ba022578d8ee8f4eafc30,异龙湖停车区(天猴高速猴桥方向),G323(瑞临线),云南省,红河哈尼族彝族自治州,石屏县,,unknown,
baidu,bbbbc42c22d998d54d776e5d,石屏名典假日酒店-停车场,云南省红河哈尼族彝族自治州石屏县异龙镇环城南路名典假日酒店,云南省,红河哈尼族彝族自治州,石屏县,,unknown,
baidu,bd54549aae8c7426c51e51dc,石屏县委机构编制委员会办公室-停车场,红河哈尼族彝族自治州石屏县钟秀街,云南省,红河哈尼族彝族自治州,石屏县,,unknown,
baidu,f439858a06e1723d725e80a3,石屏县市场监督管理局-停车场,红河哈尼族彝族自治州石屏县湖滨路石屏县烟草小区西南侧约70米,云南省,红河哈尼族彝族自治州,石屏县,,unknown,
baidu,f36df75317b88a1286420e22,红河州皮肤病防治所工会委员会-停车场,红河哈尼族彝族自治州石屏县焕文路,云南省,红河哈尼族彝族自治州,石屏县,,unknown,
baidu,2c8f36071aaa18f935b06ca5,云南省石屏县人民检察院-停车场,红河哈尼族彝族自治州石屏县屏阳路石屏县人民政府南侧约60米,云南省,红河哈尼族彝族自治州,石屏县,,unknown,
baidu,65c208a9c2616426a1a93471,石屏县建筑安全质量监督站-停车场,红河哈尼族彝族自治州石屏县钟秀街保障房西北侧约80米,云南省,红河哈尼族彝族自治州,石屏县,,unknown,
baidu,a19b2f96c5bdd6e26fc02ca8,国家税务总局石屏县税务局-停车场,湖滨路2附近,云南省,红河哈尼族彝族自治州,石屏县,,unknown,
