source,bd_uid,name,address,province,city,area,tel,poi_type,tag
baidu,116275253b943e6316c90580,肥周美食炭烧大排档,逢源商业街3号25卡（古董街牌坊里）,广东省,中山市,,13411644833,unknown,
baidu,81edc51f94a51084bea24030,Born cake與生甜品工作室,民族路120号,广东省,中山市,,18928117664,unknown,
baidu,cb5028383b7c850efda778b2,钊钊美食(逢源商业街店),石岐街道西华社北巷13号(逢源麦当劳后门斜对面),广东省,中山市,,"13531822378,13590908501",unknown,
baidu,f3f5f63dd16b5aa1f60e776e,源记粉面店(亭子下大街店),亭子下街六横巷8号,广东省,中山市,,(0760)88834533,unknown,
baidu,f9f0b88c439557e58d1a896f,慈心,广东省中山市水关街2号,广东省,中山市,,15876022732,unknown,
baidu,a25c85bf6bca02f04f3a5939,EFAC CAFE,民族路122号,广东省,中山市,,13680131338,unknown,
baidu,50fb64ff5e888a5ce9f8537a,山村茶餐厅(石岐店),孙文中路205号（中山博物馆新馆旁边）,广东省,中山市,,(0760)88833833,unknown,
baidu,5f61eb4a4f80e3eaee74f82d,醒扒深夜厨房,逢源商业街4号一卡,广东省,中山市,,13432188874,unknown,
baidu,6f15de7ff0ed91bf41d63e0e,一面之交(逢源商业街店),亭子下大街22号,广东省,中山市,,17820449618,unknown,
baidu,99f02847e41fe6cb2cb90881,香辣风(逢源店),石岐区街道逢源食街1号10号楼首层26-28卡,广东省,中山市,,(0760)88842199,unknown,
baidu,a7f2f3aa616452b24151c0ee,自由栈咖啡(逢源店),水关街潮流汇城6号3号卡,广东省,中山市,,13532001878,unknown,
baidu,7d5f3a0a0b9a854b2db908b9,麦当劳(逢源店),逢源路5号25-30卡,广东省,中山市,,(0760)88876328,unknown,
baidu,87a734517de0b78a2b06ced0,横县第一炒鸡(逢源公寓店),亭子下大街17号,广东省,中山市,,18607605323,unknown,
baidu,3b9dcff00a3837022bd7ab47,逢源香木桶饭(亭子下大街店),亭子下大街17号5卡,广东省,中山市,,(0760)88861911,unknown,
baidu,47538d9a648ec50de6073816,Hayley Cafe,艺甫西街11号之一A卡,广东省,中山市,,13702458659,unknown,
baidu,426231a92374274c32870a41,茶桶仔,艺甫西街11号,广东省,中山市,,13286900049,unknown,
baidu,3963dac50d553aa011882411,振美美食,石岐区街道亭子下大街6号B座,广东省,中山市,,(0760)88832642,unknown,
baidu,896a6edfa8b1437500ff2d5b,儒子牛杂(逢源店),逢源路7号1卡,广东省,中山市,,18316538898,unknown,
baidu,d5ba594c70fd8b782102200a,根叔店(逢源商业街店),石岐街道悦来路2号(石岐逢源食街监督局旁边),广东省,中山市,,13415376863,unknown,
baidu,3a1948c339caffd00bccdd6b,九曲河食街,广东省中山市石岐区石岐街道接源里25号,广东省,中山市,,,unknown,
baidu,d6054535cc4235528a36ee33,味字工坊,逢源路5号39卡,广东省,中山市,,,unknown,
baidu,86cc0fcb9c9579add1f49e30,架势堂·柠檬茶·咖啡(民族路店),民族路128号,广东省,中山市,,18718003444,unknown,
baidu,a5ef680f3eb9a9ceb9df8f02,惠赞老饼家(逢源商业街店),石岐街道亭子下大街14之1号(近逢源路麦当劳),广东省,中山市,,(0760)88844116,unknown,
baidu,2f5316fe5d1414f3f423106a,焕记,华力路壹加壹华力店西北3号,广东省,中山市,,18825077731,unknown,
baidu,c879fa0189393153c809f0ee,益寿炖品店(民生路总店),石岐街道民生路188号(近民生社区居委会),广东省,中山市,,(0760)88827513,unknown,
baidu,743f6ac924014f06c41e5196,亭子街雪糕店,广东省中山市亭子下大街12号5卡,广东省,中山市,,13702375120,unknown,
baidu,0cfcc9f4a446b60880a00cba,WW LOUNGE+文文营造局融合餐厅,民权路11号2幢6-10卡,广东省,中山市,,13420370671,unknown,
baidu,5508504d7a17a7d2c6f025f4,顺柚记食店(从善坊店),从善坊3号,广东省,中山市,,"(0760)88852572,18125216829",unknown,
baidu,73c01899baf02afe018972fc,卷煌小厨·卷粉(逢源街店),逢源商业街1号4卡,广东省,中山市,,13802698208,unknown,
baidu,02b293819cb3b243631c6781,川粤阁(华力店),民权路华力路9—11号川粤阁何老三,广东省,中山市,,13590861055,unknown,
baidu,bd37cff76b433a9594031914,鲜牛肉(逢源公寓店),广东省中山市石岐街道亭子下大街17号,广东省,中山市,,,unknown,
baidu,07388f22681130091811d546,窑鸡王(民权路店),民权路8号103卡商铺,广东省,中山市,,18813720998,unknown,
baidu,0b013abafec73e05f4b916df,喜来Heylike,民族路189号之一,广东省,中山市,,15900021016,unknown,
baidu,afb13a32bfb54f4b1f389495,峰记石磨肠粉,民生路与民权路交叉口西南20米,广东省,中山市,,15219530236,unknown,
baidu,8d71cf9da7dfb5e94f6d4619,拉面山之德,民生路153-155号3卡,广东省,中山市,,18125211305,unknown,
baidu,751862f66a169e4ba2d2304e,爱素食店(华力路店),广东省中山市石岐街道石岐区华力路19号（华力街7号商铺旁）,广东省,中山市,,18938767497,unknown,
baidu,380c4301780ce5e4b2077dc5,200CVS TEA&COFFEE,孙文中路200号（博物馆对面）,广东省,中山市,,,unknown,
baidu,7ebdca0a9b59cf544c6d4654,满足面大众餐厅(白水井大街店),广东省中山市石岐区石岐街道白水井大街23号,广东省,中山市,,(0760)88320646,unknown,
baidu,a2a832b29c2fa3a6ebe582be,民权食店,亭子下大街一巷1号,广东省,中山市,,(0760)88834177,unknown,
baidu,ccd786e8d2d60ae1931fc9ba,四囍咖啡公司(中山纪念堂店),孙文中路169号一层,广东省,中山市,,18689335816,unknown,
baidu,77f11fc4d4759dec715e8008,陈祥记港式茶档,逢源东街34号,广东省,中山市,,,unknown,
baidu,bfc19cfce80f877559bbbc35,快餐海食店,孙文中路黄麻园东南侧约90米,广东省,中山市,,,unknown,
baidu,b9d6bd53cd5c0d14b11e36f4,蒸加-沙溪制造,逢源路1号59卡,广东省,中山市,,,unknown,
baidu,6e3e232825c90d091c389431,Pitta Coffee,民生路232号,广东省,中山市,,18125307998,unknown,
baidu,772af51d765c6c541d1d1169,新乐园烧烤食品店,民族东路94号,广东省,中山市,,(0760)88850688,unknown,
baidu,c615c689752f4e1885420e02,E·P·O coffee,广东省中山市石岐街道孙文中路238号,广东省,中山市,,,unknown,
baidu,46dd9c46f03c51de30169bf9,旺旺烧烤(逢源店),民族东路口11卡（民族东市场斜对面）,广东省,中山市,,"(0760)88871342,13680280028",unknown,
baidu,867ba3e1ad2c3f05fda778f5,古乡居甜品(白水井大街店),白水井大街21号04卡,广东省,中山市,,"(0760)88830890,13560686843",unknown,
baidu,2044f1b9f66abee76fc02ca1,西西里冰淇淋蛋糕Siciliana Gelateria Pasticceria(石岐店),"龙母庙街55号第6卡（启发中学街口，爱俪婚纱旁边,收音机博物馆对面）",广东省,中山市,,18938773089,unknown,
baidu,e649ef6f7502fabd1e1d1164,新东园快餐店(民生路店),民生路200号底层前座,广东省,中山市,,"13425562275,15113336450",unknown,
baidu,2e1b409e58a8faff9fe32130,惠兴饼家杏仁饼,孙文西路14号底层前座,广东省,中山市,,18024223273,unknown,
baidu,475f97bcdba610297c29bd00,一吾熟,广东省中山市民族路治安路2号之4号,广东省,中山市,,18576094360,unknown,
baidu,5319b48454a6182e94031988,欧巴君炭烤肉(石岐店),中山二路41号首层3-4卡（用餐后到前台扫码可在泊阅酒店停车场免停3小时）,广东省,中山市,,13729126265,unknown,
baidu,b61239e8b6b63647c61b7543,德正凉茶,民族东路94号,广东省,中山市,,,unknown,
baidu,a783679e2ce351d4fd0eb0d2,Flat white cafe a(石岐店),永安坊1号5号楼12、13卡商铺(九曲文化城内),广东省,中山市,,13267617503,unknown,
baidu,cdd1c63691b7ae8ad5b74e62,醺,中山市亭子下大街逢源公寓南侧约70米,广东省,中山市,,,unknown,
baidu,07870cc9dc5c20b2afee7af6,新星休闲点食店,民安街26号,广东省,中山市,,13326926960,unknown,
baidu,dbcf4090eb1a9b2731169bd7,澎记潮味(石岐区街道店),逢源路12号12卡,广东省,中山市,,18923310215,unknown,
baidu,e09ac33a4737cdd9fd0eb039,DOUBLE雙份咖啡(逢源商业街店),民生路216号双份咖啡,广东省,中山市,,"13824738320,18476957094",unknown,
baidu,15ed53cedde5064d9222e007,顺德记,石岐街道太平路418号(近步行街),广东省,中山市,,(0760)88838871,unknown,
baidu,b2d4f2e2ec57ed3e8f55eccd,岐香烧味,广东省中山市石岐区街道民生路220号,广东省,中山市,,(0760)88823832,unknown,
baidu,013171d1a398d59722f0170e,永丽豆腐屋(白水井店),白水井民安街荣贵坊1号楼底商,广东省,中山市,,(0760)88826497,unknown,
baidu,8b8131c347111b0b88f15d7a,无尽牛杂乐园,悦来中路永安坊1号岐海九曲文化城5号楼1层13-14卡,广东省,中山市,,13267617503,unknown,
baidu,4e8a28fdc3ac6f698733042e,粤加大手撕鸡(华力店),中山市石岐街道华力路与民权路交叉路口西侧华力二区,广东省,中山市,,13822138060,unknown,
baidu,74af116d49a73fe20b1cc77b,青木的茶,广东省中山市石岐街道民权路22号4卡,广东省,中山市,,18576277468,unknown,
baidu,4e9914479e4c463f873304cb,黄师傅黄焖鸡米饭(石岐店),华力路3号商铺,广东省,中山市,,,unknown,
baidu,72a02866493fb22b31870aa9,米唐·MT,逢源商业街欧阳干荣公幼儿园东北侧约40米,广东省,中山市,,,unknown,
baidu,28e700f16a404418095cb33d,新飞龙饺子馆(新时代广场店),中山二路新时代广场内f座01号之一,广东省,中山市,,(0760)88815249,unknown,
baidu,518cc54e046df3ecc26c14ae,太平人家早餐甜点,太平路215号,广东省,中山市,,,unknown,
baidu,12a867902938ac7014948ebd,汤囍,中山二路39号2-14卡之二,广东省,中山市,,,unknown,
baidu,b6890add0687f5a617c8f6ce,鲁大C·法式甜品蛋糕烘焙,泥墩上街4号,广东省,中山市,,15502080495,unknown,
baidu,10053ac7afbc9fbbc2f1cf78,石岐正斗面家(太平路店),广东省中山市石岐街道太平路后岗涌66号(光明路口),广东省,中山市,,13726139663,unknown,
baidu,cc37cc39f963e8879ff779f2,戴先生(利和店),华柏路51号豪苑大厦1层102卡（广发银行隔壁）,广东省,中山市,,13420249098,unknown,
baidu,bb3bea0fe3c3c415abf72946,面屋利休(华柏路店),广东省中山市华柏路华柏新村15栋9卡(华柏公园后面),广东省,中山市,,16676146659,unknown,
baidu,11d77af87bd03572fa0cad9d,南冲饼家,方基冲大街27号,广东省,中山市,,13590765273,unknown,
baidu,58e8f8b5d6226d7645e2744c,益华乐家(逢源街店),广东省中山市逢源街3号25卡,广东省,中山市,,15976096661,unknown,
baidu,0a46dc0f73f4365e316212b8,金都城,广东省中山市悦来路92号,广东省,中山市,,(0760)88820703,unknown,
baidu,56e88cbaf8851664a5c756ae,孙文西路文化旅游步行街,中山市孙文西路步行街孙文西路文化旅游步行街,广东省,中山市,,,unknown,
baidu,dffd4642c147a0b23d9a5e97,中山市百货大厦,广东省中山市石岐街道孙文西路60号,广东省,中山市,,,unknown,
baidu,715797b8b142c6c70b1cc715,下一站(逢源商业街店),逢源街4号楼15卡,广东省,中山市,,13590789068,unknown,
baidu,649c7022da3e86a0601809b8,逢源古董玉器街,民生路与民族路交叉口西南20米,广东省,中山市,,,unknown,
baidu,59816c8282a0747fd42ce261,无限极(逢源店),广东省中山市逢源街5号7卡,广东省,中山市,,(0760)88823295,unknown,
baidu,2ddcdc233395fc1b8bf15d48,欧卖家,广东省中山市民族路189号,广东省,中山市,,18676438286,unknown,
baidu,a4baf05d81f752f9e4073859,愿野(外贸店),中山市逢源商业街2号32卡,广东省,中山市,,13500145041,unknown,
baidu,b4dd47413ef5ca3cc17da283,逢源商业街,广东省中山市悦来路和泰安路交叉口正东,广东省,中山市,,,unknown,
baidu,bd18d903758f60caeb1e97be,咖纶,中山市民族路逢源商业街,广东省,中山市,,,unknown,
baidu,dac600163d2e6a037ec8765f,时尚廊(逢源店),逢源路1号4-13卡,广东省,中山市,,15900080476,unknown,
baidu,70f05e3556e5c6a99d95de9c,潮流汇城(逢源商业街店),广东省中山市逢源路5号,广东省,中山市,,,unknown,
baidu,a1458ec1726ebbab223bf200,澳康食品商行,冲边道5号之一,广东省,中山市,,(0760)88800848,unknown,
baidu,bb4163d34f536ddc047ce830,新一季,广东省中山市逢源路3号10卡,广东省,中山市,,,unknown,
baidu,4226239c9d165dd00d0e6b65,上上好便利店(亭子下大街店),广东省中山市艺甫西街11号,广东省,中山市,,(0760)88849669,unknown,
baidu,c9e5c0c728ae624b6240a903,美石坊珠宝(逢源路店),广东省中山市石岐区逢源商业街1号21卡,广东省,中山市,,13560680330,unknown,
baidu,af1ae56b5fcc69124307c1b1,汇益百货(孙文中路店),民生路260号服务大厦,广东省,中山市,,(0760)88840933,unknown,
baidu,707c828f91dbb82495ca07a1,DTC,广东省中山市逢源路1号30卡,广东省,中山市,,15807600382,unknown,
baidu,185922298ba72c06774ff1e4,大炜福珠宝行,中山市民族路金燕子幼儿园东南侧约130米,广东省,中山市,,,unknown,
baidu,7803f2e1056a4cfea8175ad8,美宜佳(逢源路店),广东省中山市逢源路6号,广东省,中山市,中山市,(0760)88849578,unknown,
baidu,a4482fe96862b7ab4054d764,玉之韵,中山市逢源路逢源商业街,广东省,中山市,中山市,13925338868,unknown,
baidu,570f248466c5d0fc611c6747,添知文具店,广东省中山市亭子下大街12号1卡,广东省,中山市,中山市,13702363269,unknown,
baidu,fc51fd64828a181302294fe2,石岐步行街,广东省中山市石岐区孙文西路102号,广东省,中山市,中山市,,unknown,
baidu,0b4cd935230f45dfa9f72991,永兴阁,中山市民族路金燕子幼儿园东南侧约210米,广东省,中山市,中山市,13420212321,unknown,
baidu,791fcfca1c6ef555cb213d32,古谷川,广东省中山市石岐区逢源路5号19卡,广东省,中山市,中山市,,unknown,
baidu,52c25ffdeb2254211e1d11a7,顺景实业民族东市场,民族东路66号,广东省,中山市,中山市,(0760)88851255,unknown,
baidu,992e51af613a20de58f6be1a,ISHOW salon 李得纶,中山市逢源路从善坊北侧约140米,广东省,中山市,中山市,,unknown,
baidu,5902c35db6e2e12f841541d7,Miss Xia,广东省中山市石岐街道逢源商业街060,广东省,中山市,中山市,,unknown,
baidu,d711a04cedc760914254d7e8,中山步行街,广东省中山市孙文西路202号,广东省,中山市,中山市,,unknown,
baidu,5231a56d9800fbb6f4e73b82,莞益佳便利店(逢源商业街店),广东省中山市西华社中巷1号,广东省,中山市,中山市,,unknown,
baidu,f99c7057a870bab2fa42b25c,J·EYRE,广东省中山市逢源商业街3号,广东省,中山市,中山市,,unknown,
baidu,742976c8322fb513734b872c,MUJI无印良品(华发商都店),中山二路3号中山华发商都2层,广东省,中山市,中山市,(0760)88819898,unknown,
baidu,957b533f8b26c52deedfca39,砂砂,中山市逢源商业街,广东省,中山市,中山市,,unknown,
baidu,64ff3be1c49c32c590114c1d,新时代广场,石岐区中山二路22号,广东省,中山市,中山市,,unknown,
baidu,366e3b721176fcb33913fd3d,爱尔廊,中山市逢源商业街石岐西厂小学东北侧,广东省,中山市,中山市,,unknown,
baidu,d011e3f7c90540fd2ce67bf9,君服装,中山市逢源商业街石岐西厂小学东北侧,广东省,中山市,中山市,,unknown,
baidu,116cbe80ff3002888a36ee49,mcdonad·s,中山市逢源商业街金燕子幼儿园南侧约30米,广东省,中山市,中山市,,unknown,
baidu,0f5c5a5ff900c724734b877f,裕祥轩,中山市民族路顺景实业民族东市场西侧约170米,广东省,中山市,中山市,,unknown,
baidu,d273113eb52dd85c9de32107,心心,中山市民族路顺景实业民族东市场西侧约180米,广东省,中山市,中山市,,unknown,
baidu,43513a42cc3a3d13f4e73bde,实惠男装,广东省中山市民族路163号,广东省,中山市,,,unknown,
baidu,03461b16573313000b5cb350,Rain makers外贸专营店,中山市民族路顺景实业民族东市场西侧约190米,广东省,中山市,,,unknown,
baidu,3e30b3284f3a571a5fd4fe17,田果,中山市逢源商业街石岐西厂小学北侧,广东省,中山市,,,unknown,
baidu,2f3b14b3fa3f4b13f8dc852c,骊璐轩,中山市逢源路从善坊北侧约130米,广东省,中山市,,,unknown,
baidu,161a0ed204b06b2d5cd4fe3b,泰安市场,安栏路7号,广东省,中山市,,(0760)88857476,unknown,
baidu,1206a1a81921c198a20464f8,欧莎(缤纷城商场店),广东省中山市石岐区逢源街7号21,广东省,中山市,,17329612185,unknown,
baidu,26f919a89fdd08cc81a12e81,金翠缘珠宝玉器,中山市民族路从善坊北侧约190米,广东省,中山市,,,unknown,
baidu,b692973b1e9bd2071df74d89,贝丽嘉,广东省中山市逢源路10号8卡,广东省,中山市,,,unknown,
baidu,df75f8b41f647349c1364484,荣耀官方授权服务中心(中山二路店),广东省中山市石岐街道中山二路41号之二南侧一层102A(泊阅酒店附近),广东省,中山市,,"(0760)23709955,(0760)88866112",unknown,
baidu,6ec2b64881242ea4fa42b2e0,东南门市场,狮子街8号,广东省,中山市,,(0760)88844477,unknown,
baidu,c0e5e45000da7d9d7069d3bc,红灯商行(洪家基正街小区店),洪家基正街23号地下,广东省,中山市,,(0760)88855768,unknown,
baidu,4e03a9d4c8193726ec74f8ba,聚星首饰加工店,逢源路3号19卡,广东省,中山市,,15362112849,unknown,
baidu,563b946e70065fd4fb221348,永明眼镜(逢源店),逢源路亭子下粪箕地1号,广东省,中山市,,(0760)88366886,unknown,
baidu,980ba7e8b7020c9ea8f72947,河山音响工程部,民族路71号,广东省,中山市,,15323916698,unknown,
baidu,46dd2a56deaef4e66f20b987,KAKA卡卡儿童服饰(逢源路总店),广东省中山市逢源商业街5号8-9卡,广东省,中山市,,13590999963,unknown,
baidu,2c091c7c13124aab6f3e1b3b,RELX悦刻(逢源店),广东省中山市逢源商业街4号,广东省,中山市,,13923327767,unknown,
baidu,c48edcfbe9d0f3a94f3a596e,逢缘玉雕,中山市逢源路逢源商业街,广东省,中山市,,,unknown,
baidu,be564b9eba26788e882fb557,心意珠宝首饰行(民族路店),民族路114号,广东省,中山市,,(0760)88824305,unknown,
baidu,edaee947381da017ed74f8a9,宝儿乐童装屋(逢源店),广东省中山市石岐区民族东路3号15-16卡,广东省,中山市,,15099897879,unknown,
baidu,4212851611aece51c909f099,雅致品牌折扣,广东省中山市逢源商业街3号22卡,广东省,中山市,,,unknown,
baidu,f776ac44f15666f04207c1f2,玉如意(民族路店),民族路39号第一卡,广东省,中山市,,13702301784,unknown,
baidu,135dafe93ac8cc51ca09f0e9,晨光文具(亭子下大街店),广东省中山市亭子下大街12号,广东省,中山市,,13702363269,unknown,
baidu,7e13b1579d4c24af26d2bbce,玉语轩翡翠,广东省中山市逢源路3号32卡,广东省,中山市,,,unknown,
baidu,41364919cea9c38d97031970,甲得宠,广东省中山市石岐区石岐街道孙文中路239号,广东省,中山市,,15362922998,unknown,
baidu,3d3ffea1f572dd6b9ff779d9,小辣椒(逢源商业街店),广东省中山市逢源商业街3号,广东省,中山市,,18825000180,unknown,
baidu,5139c5960cf39d07a2a93417,航顺烟酒店,中山市亭子下大街逢源公寓东北侧约40米,广东省,中山市,,,unknown,
baidu,704d5da38059222d5e17c3f3,瑶瑶玉器,广东省中山市逢源路2号楼25卡,广东省,中山市,,13377608628,unknown,
baidu,1f25f01b8f7089580b69d98e,SINCE2009,广东省中山市逢源商业街,广东省,中山市,,,unknown,
baidu,8751cfcee7f0275c9f09f708,金泰来珠宝首饰加工,广东省中山市逢源商业街4号8卡,广东省,中山市,,13928114628,unknown,
baidu,5fd76e4a156f6206dd1e5245,金豹鞋业,广东省中山市逢源街7号,广东省,中山市,,,unknown,
baidu,2649bebe0d8cad49cc06a42a,发财有鱼,广东省中山市民族路121号,广东省,中山市,,18676102280,unknown,
baidu,ce67568be9a7e4860682c2a1,智能风数码(亭子下店),广东省中山市亭子下大街7号,广东省,中山市,,13590825333,unknown,
baidu,8ac443708815ba0cc4f50d6d,芭比服装店(逢源商业街店),广东省中山市石岐区逢源街10号20卡,广东省,中山市,,18676014552,unknown,
baidu,57abe592d06e6c0a631809ea,忠兴办公设备经营部,广东省中山市亭子下大街涌边道5号,广东省,中山市,,13528288835,unknown,
baidu,9b055021b681db851188243f,玉趣轩,广东省中山市逢源商业街2号楼27卡,广东省,中山市,,,unknown,
baidu,671517fe501548856c476003,尖东,中山市民族路148号,广东省,中山市,,,unknown,
baidu,72e33c4b60e691ed871541ab,颖川茶叶商行,亭子下大街10号,广东省,中山市,,,unknown,
baidu,b98e6cb272f7edcee31103af,景森堂,广东省中山市逢源古董玉器街25卡,广东省,中山市,,,unknown,
baidu,e4e9409f8aee23629222e0c3,伊莱BABE,广东省中山市逢源街7号,广东省,中山市,,,unknown,
baidu,5fc792124042e9fe0d3ddada,大唐精雕玉器店,广东省中山市石岐区民族路186号,广东省,中山市,,13178603685,unknown,
baidu,f68f1e94d2cc685ac6effb55,中山市青年创业集市(逢源商业街店),逢源商业街10号1附近,广东省,中山市,,,unknown,
baidu,3b217c1cb1dbe14b9d82ea8c,佛仔玉器,中山市逢源路逢源商业街,广东省,中山市,,13527199791,unknown,
baidu,f8385b1820d2d7999868b40c,聚艺轩,中山市民族路顺景实业民族东市场西侧约160米,广东省,中山市,,,unknown,
baidu,56a44523ca42c079e812e4c6,友缘玉器,广东省中山市逢源古董街20卡号,广东省,中山市,,13715576931,unknown,
baidu,3e43b1d862852d2309b93a95,建业五金店(民族路店),广东省中山市民族路179号,广东省,中山市,,(0760)88836978,unknown,
baidu,2e654e95b75539748a36ee71,典雅布艺(民族路店),广东省中山市民族路71号,广东省,中山市,,13226063479,unknown,
baidu,3da36b4c845b7e553d9a5e84,豪源电器,中山市民族路顺景实业民族东市场西侧约190米,广东省,中山市,,,unknown,
baidu,4ecc8543e1dd5e606f4760a7,寻宝屋,中山市逢源路逢源商业街,广东省,中山市,,,unknown,
baidu,fde7493e810d6ad8e5e9658a,公共厕所,广东省中山市逢源街4号,广东省,中山市,,,unknown,
baidu,f89749154a64303058f6be99,通街宝贝数码奢侈品回收,广东省中山市民族路191号,广东省,中山市,,18607609994,unknown,
baidu,5992c1efba1b8bc50b1cc754,永安刻章,广东省中山市民族路82号,广东省,中山市,,(0760)88831396,unknown,
baidu,0123479751ed53572902e119,专业黄金回收,中山市民族路金燕子幼儿园东侧约50米,广东省,中山市,,,unknown,
baidu,d49d65c2362ea1e8ddee8b11,珍珍众成生活馆,中山市逢源商业街金燕子幼儿园南侧约40米,广东省,中山市,,,unknown,
baidu,e581194705d5be1cad080fab,淖盛洗衣店,亭子下大街18号（逢源酒家正门对面）,广东省,中山市,,13823996018,unknown,
baidu,348e94ffb506d9f4c8e33ce2,爱心翼站(电信民权数字生活服务站),中山市石岐区民权路22号一层,广东省,中山市,,,unknown,
baidu,5b28717cd891fa530d3dda4a,中山市石岐区蓝鹏清洁服务部,中山市石岐区民生路观音巷12号,广东省,中山市,,13560622295,unknown,
baidu,4d154c14c4402781b45f1e20,亭子下公共厕所,中山市亭子下大街从善坊西北侧约110米,广东省,中山市,,,unknown,
baidu,e962d169fbfa7e51fea77879,华姐改衣店,中山市逢源商业街金燕子幼儿园南侧约40米,广东省,中山市,,,unknown,
baidu,87a78d4f8ca26751c356ac41,中国体育彩票(亭子下大街店),广东省中山市亭子下大街12号,广东省,中山市,,95086,unknown,
baidu,bf7c04786a2f1db88bdb7388,KISS LADY(民族路店),民族路153号,广东省,中山市,,15113353115,unknown,
baidu,a8556af4eca9c46eb54f5457,美仪裁缝店,中山市亭子下大街逢源公寓南侧约30米,广东省,中山市,,13590902673,unknown,
baidu,a1eae6d881f583a31229350c,阿兰改衣店,广东省中山市石岐区街道亭子下大街20号,广东省,中山市,,15220883139,unknown,
baidu,919c2cbc6d47d9fc43e192bb,香山二友,中山市逢源路顺景实业民族东市场西侧约140米,广东省,中山市,,,unknown,
baidu,ee9b85265d0281452fb9083e,观音巷公厕,广东省中山市民生路顺景实业民族东市场西南侧约290米,广东省,中山市,,,unknown,
baidu,89bace9921e2c360fa0cad2c,照壁街公共厕所,广东省中山市民生路159号,广东省,中山市,,,unknown,
baidu,363b80bbaeea3b742afc4893,红日婚礼馆,广东省中山市民族路24号,广东省,中山市,,15089945632,unknown,
baidu,88bc505cfedf429fcb2915b2,菜鸟驿站(亭子下分店),广东省中山市民权路16号,广东省,中山市,,4001888888,unknown,
baidu,0d6552b95ec180a6c61b75f4,靓回收,广东省中山市民权路9号,广东省,中山市,,13631145126,unknown,
baidu,96d2e3a12a83051033f71d4b,e信数码,广东省中山市民族路145号,广东省,中山市,,,unknown,
baidu,cf3c1ec589b934fd108824c0,公厕,中山市孙文中路240号西山寺,广东省,中山市,,,unknown,
baidu,24c4467f98d23d2cd22dd6cf,广成通讯维修服务中心,广东省中山市民权路11号2幢4~5卡,广东省,中山市,,13590879950,unknown,
baidu,9dede3be51501b5a06fef5de,手机维修中心,广东省中山市华力路10号,广东省,中山市,,,unknown,
baidu,f16d565948b492bac9fa5f80,爱丽丝婚纱摄影全球旅拍(孙文中路店),孙文中路218号一、二、三层,广东省,中山市,,(0760)88878101,unknown,
baidu,5dabfd27070c593fce04ef9d,陆家巷公共厕所,广东省中山市民生路168号,广东省,中山市,,,unknown,
baidu,c8a9d0be2aaa6bcb9f82eaa4,公厕,广东省中山市逢源商业街龙母庙街时尚新城商业广场东门,广东省,中山市,,,unknown,
baidu,5bd0deb7a247ede1f503b802,丰巢快递柜(逢源小区店),广东省中山市逢源街2号,广东省,中山市,,,unknown,
baidu,3d832ea4f29a9c340b1cc73e,乐享家政(中山旗舰店),广东省中山市涌边道17号,广东省,中山市,,,unknown,
baidu,0c434dd5bf7638142902e126,中国电信(民权路营业厅),广东省中山市民权路16号,广东省,中山市,,18824986058,unknown,
baidu,78bdf9b2cfafc7959e82ea3c,兰子家政,广东省中山市石岐区永安坊二直巷6号之一,广东省,中山市,,18924943410,unknown,
baidu,79a4f6d74df17b89a8175a15,广播站公厕,中山市孙文中路210号,广东省,中山市,,,unknown,
baidu,d93403436443cd3de607382d,中山市博物馆游客服务中心,广东省中山市石岐街道孙文中路197号,广东省,中山市,,(0760)88230200,unknown,
baidu,d33772fd01d708924f554780,中山港船票售票处,中山市孙文中路孙中山纪念堂公园,广东省,中山市,,,unknown,
baidu,0f90b2f48af3edbbb75f1ec0,怪兽充电(莞益佳便利店),中山市石岐区街道逢源商业街7号,广东省,中山市,,4006703303,unknown,
baidu,51a1378c014ff7c9373a71a6,合你意缝改店,广东省中山市石岐区石岐街道孙文中路照壁街8号,广东省,中山市,,(0760)88855235,unknown,
baidu,ddebdd2b740f1c896e20b994,寻宝数码二手坊(民权路店),广东省中山市石岐区石岐街道亭子下大街6号105卡,广东省,中山市,,(0760)85885633,unknown,
baidu,7628287b5f5f2be982a12e81,中国移动(民权营业厅),广东省中山市民权路山水时尚酒店(中山中店)北侧约230米,广东省,中山市,,,unknown,
baidu,53dd34e452a7d56e2fb17eef,中国联通(民权营业厅),广东省中山市石岐区民权路20号,广东省,中山市,,13113944684,unknown,
baidu,ffe4dec44c65bea828d7ab06,民权路公厕,广东省中山市民权路2号,广东省,中山市,,,unknown,
baidu,33bc7b32f84a6436213bf2ce,苏格摄影·艺术写真定制馆(中山店),孙文西路32号1层1-14卡,广东省,中山市,,,unknown,
baidu,e4f76b278d4b3e1888f15d00,仙朵芮拉摄影概念馆,广东省中山市石岐街道悦来路22号,广东省,中山市,,,unknown,
baidu,5b9fdb9755d7c5c54f6d46bc,岐福黄金回收,中山市民生路从善坊东北侧约70米,广东省,中山市,,15119155511,unknown,
baidu,0ebaae5be7fe3ad01df74d13,喜盈盈结婚用品店,民族东路与民生路交叉口石岐区街道民族东路80号,广东省,中山市,,13590847755,unknown,
baidu,e5262b44c1289e999d82ea88,悦创手机维修工作室,民权路5号东卡（千里足浴隔壁）,广东省,中山市,,18680151194,unknown,
baidu,c5992fdeddd0b6d2fd0eb041,中国福利彩票(民生路店),广东中山市民生路138号,广东省,中山市,,954168,unknown,
baidu,7cbb71478a511acc734b87a3,喜丰通讯(从善坊店),民权路2号地下02房,广东省,中山市,,,unknown,
baidu,19ad262a2e99b7848e772783,来往宠物店,民生路154号,广东省,中山市,,13129272786,unknown,
baidu,12b2f7919e09d4894e2fdf55,Pet City宠物城·撸猫·美容(民生店),石岐街道民生路160号之1卡,广东省,中山市,,13531765725,unknown,
baidu,facafbc8bdd23fd6714b871d,黄皮巷公共厕所,广东省中山市民生路石岐区社区卫生服务中心东65米,广东省,中山市,,,unknown,
baidu,44bda44cd024365115764382,色色婚纱摄影(中山优选店),逢源商业街(泰安路12号之一)二楼,广东省,中山市,,18165633022,unknown,
baidu,1a6d5cf8253ef53f9c09f71b,孙中山纪念堂公园售票处,中山市孙文中路孙中山纪念堂公园,广东省,中山市,,,unknown,
baidu,75cf9d16770446c3a8f0cddb,芷琦家政,广东省中山市白水井大街28号,广东省,中山市,,(0760)88810783,unknown,
baidu,74033d883c3d39bcc909f004,奥通手机维修服务中心,广东省中山市民权路11号3-4卡,广东省,中山市,,"(0760)88330117,(0760)88331187",unknown,
baidu,6b94b7d2aabcb3e5a3a93401,手机专业维修中心,中山市民权路从善坊南侧,广东省,中山市,,,unknown,
baidu,8e3b124ac3febcf4d72ce267,乐康家政,广东省中山市石岐区永安坊二直巷6号之二,广东省,中山市,,15307616499,unknown,
baidu,7c9e1aeae33cc49f725e80a3,苏生通讯(民权路店),广东省中山市民权路11号,广东省,中山市,,13232581418,unknown,
baidu,61d9e38298847a9d35b06c42,永恒长和电子,广东省中山市民权路9号21卡,广东省,中山市,,,unknown,
baidu,9d6abc6bda97f09588fc069b,艾斯纪像社,永安坊1号10号楼二层A1商铺,广东省,中山市,,18664471059,unknown,
baidu,5407fd17520768aa0482c200,维修服务中心(民权路店),中山市民权路11号二幢5卡,广东省,中山市,,13590879950,unknown,
baidu,7da15a2df46ee4c68b2fb55c,民生社区母婴室,中山市石岐区民生路142号民生社区,广东省,中山市,,,unknown,
baidu,bd2677afcddde0038c1a8971,永业数码快修,广东省中山市逢源商业街民权路从善坊旁,广东省,中山市,,,unknown,
baidu,852df255713caf98ab175aff,万花筒摄影工作室,广东省中山市亭子下大街6号,广东省,中山市,,18680157102,unknown,
baidu,9c39ed58789c47d24e5547f5,顺丰速运(民权店),中山市民权路42号之一,广东省,中山市,,95338,unknown,
baidu,b4738a9ab5c50f4fabf729fb,摄影高端定制,广东省中山市石岐街道泰安路4号,广东省,中山市,,18165633022,unknown,
baidu,703a333ee5ef77d8940319c6,永兴名表维修中心(华柏店),广东省中山市华柏路14号之二5-6卡,广东省,中山市,,(0760)88823339,unknown,
baidu,0dfb75dc3e09bd2bafee7a3f,华柏公厕,中山市柏苑路华柏中心市场,广东省,中山市,,,unknown,
baidu,0a2a5f97f12cf3840b1cc753,安徒生专业儿童摄影馆(裕华楼小区店),东区街道兴华街裕华楼第13号铺位（利和广场对面500米）,广东省,中山市,,"13035849914,18022046348",unknown,
baidu,ac5664d7dfe7284921022057,缤纷幻彩摩天轮售票处,广东省中山市兴中广场c座5楼,广东省,中山市,,,unknown,
baidu,6141f89a0d8b39f9a6da3980,爱修汇(中山店),中山市富华道7号102卡,广东省,中山市,,"(0760)88880186,18576111112",unknown,
baidu,6307567bfc410fd02d473394,花苑社区党群服务中心,广东省中山市东区街道柏苑路73号,广东省,中山市,,(0760)88328045,unknown,
baidu,89e21031f78aee06b45f1e11,柏山公共厕所,广东省中山市大柏山正街与孙文东路交叉口西南方向30米,广东省,中山市,,,unknown,
baidu,d7e7ce095a91baff9900508b,永宝行,广东省中山市民族路136号,广东省,中山市,,18816872507,unknown,
baidu,9c734c88d3448145f60e774e,老鲁修车行,中山市亭子下大街逢源公寓南侧约80米,广东省,中山市,,18312770857,unknown,
baidu,e2694b2b24f0bfce97ec8459,媚姐瀚文地产,广东省中山市逢源路10号,广东省,中山市,,15913310756,unknown,
baidu,5c5a7cb6390c92492bd7abd0,铁骆驼电动车维修,中山市民权路从善坊西侧约30米,广东省,中山市,,13531760037,unknown,
baidu,50acc8daedd8b69cb34c49b8,中国电信(民权路营业厅),广东省中山市民权路22号,广东省,中山市,,13392918208,unknown,
baidu,03b20832c6f9187dc17da22d,道上佛玄炫大师,中山市孙文中路金燕子幼儿园东北侧约100米,广东省,中山市,,,unknown,
baidu,474c332c4dc25f70dc1e5247,街电(Flat White Cafe),广东省中山市永安坊一直巷1号-之1,广东省,中山市,,4006868588,unknown,
baidu,b77b99a89450bb9f54bfff8a,怪兽充电(广信眼镜逢源路店),广东省中山市石岐街道逢源商业街015,广东省,中山市,,4006703303,unknown,
baidu,ae6d812d66e7e6dbe4073850,堡泰地产,中山市民生路孙中山纪念堂公园南侧约80米,广东省,中山市,,13531889393,unknown,
baidu,d26cae25e169a0682811d185,街电(奈诗语茶),中山市民生路从善坊,广东省,中山市,,4006868588,unknown,
baidu,3dd92540c632bb3cd8d891e6,街电(益禾堂白水井店),中山市石岐区白水井大街28号11卡,广东省,中山市,,4006868588,unknown,
baidu,dcffb4bc6056dcce03ec0108,达荣摩托车维修(从善坊店),广东省中山市民生路共和巷4号,广东省,中山市,,,unknown,
baidu,d730e336e4c41e5f9fec2b5c,街电(全记烧味),中山市石岐区街道华力路30号,广东省,中山市,,4006868588,unknown,
baidu,ea8359f813fe3fbf79b55c3a,中国移动(南安路营业厅),广东省中山市石岐区南安路13号底一楼,广东省,中山市,,13560636005,unknown,
baidu,994ebc79f7199e964657262b,广东电网公司中山供电局(南安路店),广东省中山市悦来南路13号,广东省,中山市,,(0760)88806388,unknown,
baidu,a6e7a5528320383c81a12e15,喜威液化石油气,广东省中山市孙文东路111-117号,广东省,中山市,,(0760)23321555,unknown,
baidu,a4fc4dde9b97668ccc06a4d2,Youmi美妆美甲,逢源商业街4号20卡,广东省,中山市,,15521716888,unknown,
baidu,0ed23f251eaba6ba2202205b,蓝齐儿美容会所(泰安路店),泰安路1号,广东省,中山市,,(0760)88804317,unknown,
baidu,34db9bdc643e8ab2d3ff2321,168沙龙(逢源店),逢源路4号23卡,广东省,中山市,,,unknown,
baidu,2344d0f86c8b604e0869d97f,AT造型(逢源店),逢源街6号3卡十字路口美宜佳旁边,广东省,中山市,,"13590959378,19163830483",unknown,
baidu,f98b3de25ba480585fd4fe7a,发裁美屋,逢源街2号14层,广东省,中山市,,13528236182,unknown,
baidu,7513fcd843238d47c91b9581,美馨美容(泰安路店),泰安路23号2层1卡之二,广东省,中山市,,(0760)88806036,unknown,
baidu,18cb61ed3db214040e3ddaef,SASA· SALON造型设计,逢源商业街1号16卡,广东省,中山市,,13068176974,unknown,
baidu,aed8852c860bf4af93114cd4,ISHOW艾逊美发生活馆(名轩店),逢源商业街二号楼11卡商铺,广东省,中山市,,"(0760)89885850,19966325253",unknown,
baidu,a10d804ec25e573fbfa8226f,HY美甲美睫,安栏路4号之一岐江阁12楼B座,广东省,中山市,,13680159635,unknown,
baidu,d8e8c2b6fd2a7a0f2bb97cf3,十月美学,逢源路5号23卡,广东省,中山市,,"13715563715,13790731699",unknown,
baidu,6761de0999eb02bb2b3a9ffa,上喜美甲美睫,逢源街潮流汇城二楼美甲区A32卡,广东省,中山市,,,unknown,
baidu,ebdef958071179c7c7f025c2,伊丽汇美颜中心(豪逸华庭店),岐关西路37号豪逸华庭2期15幢1层之4号商铺,广东省,中山市,,(0760)88663999,unknown,
baidu,5f4c2da8217329eb81a12eae,时尚造型美发店,民生路226号,广东省,中山市,,13543832923,unknown,
baidu,483c2847625f6e3fed74f894,霍元甲接发美容店,悦来路88号,广东省,中山市,,15976061918,unknown,
baidu,15ed31df815275c1b817e715,发中旺专业接发20年美甲美睫纹绣(金都城店),"悦来路92号金都城一楼22卡,82卡,83卡",广东省,中山市,,"13790743808,17807600646",unknown,
baidu,f8f08881fd3036b36240a9de,唯美造型(从善坊店),从善坊,广东省,中山市,,,unknown,
baidu,fe13b7b9c80a093cbda24013,蕾特恩专业祛痘国际连锁(石岐大信店),莲塘北路2号34卡（大信新都汇麦当劳对面的巴士站边）,广东省,中山市,,(0760)88855199,unknown,
baidu,0bc1964e3d6504ea465726bf,阿曼美容,悦来路100号金都城一楼48卡,广东省,中山市,,13590931466,unknown,
baidu,b8b08884cb6fd299d3ff23a9,指爱绣(金都城店),石岐街道悦来路100号(金都城一楼编号G100卡),广东省,中山市,,18022150607,unknown,
baidu,ac58dbd5e766cd5a7369d347,丽人小筑美容中心,中山市民生路从善坊北侧约80米,广东省,中山市,,,unknown,
baidu,f0dfbcdc1614bd00871541d0,研美吉斑疤痘祛除中心,中山市逢源商业街金燕子幼儿园东南侧约80米,广东省,中山市,,,unknown,
baidu,93c4517e9246e8a1b64f5484,中艺禅绣美颜生活馆(逢源商业街店),广东省中山市逢源商业街10号19卡2层,广东省,中山市,,13425417986,unknown,
baidu,afc19b956b147c6dd42ce235,尚美源美容美甲生活馆,逢源商业街缤纷城二楼A10卡,广东省,中山市,,18576206210,unknown,
baidu,dab68c50a5f012050482c2b1,吉芙美肌社,逢源商业街10号2楼,广东省,中山市,,"(0760)88628502,16676141848",unknown,
baidu,1399ed6ebaca35340f0e6b1d,馨兰发廊,广东省中山市石岐区艺甫西街9号,广东省,中山市,,13590728782,unknown,
baidu,aaa7e6b3b86b5fd0b42655b2,卡之一发国美容美发,广东省中山市逢源商业街4号,广东省,中山市,,,unknown,
baidu,7c7bc66391ca8d0e3be4a640,金日美发店,石岐街道民生路134号(第一卡),广东省,中山市,,13786376208,unknown,
baidu,b6a7d89f7116b12f441a3273,sasa逆时光轻奢逆龄皮肤管理中心,广东省中山市中山二路35号和兴阁1幢8号,广东省,中山市,,15007619686,unknown,
baidu,2910a827e5c51ff6d23ce30d,岐喜美发工作室,逢源商业街6号15卡,广东省,中山市,,,unknown,
baidu,792ddf22191666f8b72655f5,皮肤管理,广东省中山市石岐街道悦来路55号,广东省,中山市,,,unknown,
baidu,776d68ca572d519be115f9bc,飞旺发廊,亭子下大街4号之1号,广东省,中山市,,15900050982,unknown,
baidu,9c0959c910d3fb54dbeced77,美纤快剪店,广东省中山市民生路154号,广东省,中山市,,13535341049,unknown,
baidu,2bbdd4e4b2ffdc43e60738ae,天龙美发专业烫染,广东省中山市石岐区悦来路25号,广东省,中山市,,,unknown,
baidu,8761912337a5fd7641d63e14,丝朗国际佳佳利美容美发产品批发.零售店,中山市民生路与白水井大街交叉口北50米,广东省,中山市,,13715691644,unknown,
baidu,9902729eec71394bddee8b76,文初磨剪刀,中山市逢源东街金燕子幼儿园南侧,广东省,中山市,,"13500148482,13703049188",unknown,
baidu,75c8f97fead62e4ab4147fce,Esse美甲沙龙,广东省中山市华力路5号,广东省,中山市,,15018018046,unknown,
baidu,0e21da7f77a339acc9c3db7e,异刺青,广东省中山市石岐区中山二路66号,广东省,中山市,,13172383750,unknown,
baidu,420e66bfaec0b3c2fda77815,展艺发型,广东省中山市亭子下大街12号,广东省,中山市,,,unknown,
baidu,b22eccf57d6aee06aeb22a65,魔尊堂·刺青(步行街店),广东省中山市石岐区石岐街道孙文西路步行街106号,广东省,中山市,,13411641323,unknown,
baidu,7fa3674c2a16418da10464f8,金悦美,河口正街16-24号,广东省,中山市,,,unknown,
baidu,baf680afe2bc2828d2f49e17,爱美丽美容生活馆(洪家基大街店),中山市洪家基大街中山市华侨中学南校区(初中部)南侧约40米,广东省,中山市,,,unknown,
baidu,33b4000f1945241d79dbd2ed,有妍美甲纹绣化妆皮肤管理,孙文中路129号,广东省,中山市,,18688149107,unknown,
baidu,f3a765d231a056c60b1cc7cf,钰姨专业拉面毛,泰安路74号,广东省,中山市,,13590968277,unknown,
baidu,734a6b36e34b0d12ab0dd8d1,章光101育发养发(中山二路店),中山二路37号第四间(石岐药厂旁),广东省,中山市,,(0760)88875101,unknown,
baidu,d2fd8a425c6c32255cbe865e,福善缘,中山市孙文中路黄麻园东南侧约80米,广东省,中山市,,13590710961,unknown,
baidu,34033b4a559180a3118824ff,美丽久久,广东省中山市石岐区悦来路46号,广东省,中山市,,18988585238,unknown,
baidu,15d702d5309c3e9057bfffac,Anchor Point锚点刺青(利和店),华夏街4号2卡锚点刺青,广东省,中山市,,15501541141,unknown,
baidu,fa8266377333674b4c6d46bd,发源美专业造型LULU工作室,广东省中山市亭子下大街2号,广东省,中山市,,13450937028,unknown,
baidu,1a00555c842a648096ca0753,悦星美甲店,悦来路78号,广东省,中山市,,18202091663,unknown,
baidu,f125a46d39330e5d95f08cf8,玲珑发型创作,广东省中山市桂园大街3号,广东省,中山市,,13560612314,unknown,
baidu,65cda160379f2579b54f5466,爱尚美妆工作室,广东省中山市石岐区孙文中路81号,广东省,中山市,,15113362546,unknown,
baidu,9f86d0a2a88d181b07026fb2,国民发,广东省中山市孙文中路162号,广东省,中山市,,(0760)88855696,unknown,
baidu,dda50246cae5ccec990050f7,东方美发(太平路店),太平路188之102-103室,广东省,中山市,,,unknown,
baidu,306d867749271f2231f71de4,朝朝美发工作室,中山市悦来路华茵楼东北侧约70米,广东省,中山市,,,unknown,
baidu,36a8350e14ab025db320a892,雅馨美甲(泰安路店),泰安路泰安楼68号,广东省,中山市,,18948863648,unknown,
baidu,16e3611b82eaea00f219373b,DG美业·美甲美睫皮肤管理(利和店),富丽下街花园新村二栋之一（中国人寿后街）,广东省,中山市,,18948864313,unknown,
baidu,c17a92d55fd12086c4f025e2,英记发廊(泰安楼店),广东省中山市石岐区泰安路和平正街116卡6863号,广东省,中山市,,,unknown,
baidu,3eb516ab737a00942806cecc,快精剪发(泰安楼店),和平正街2号泰安楼,广东省,中山市,,13078681388,unknown,
baidu,9d8a914010bb207f9c09f78a,伊缘美减肥塑型,广东省中山市中山二路21号,广东省,中山市,,18826099429,unknown,
baidu,5504bca9c2cf3903c5effb6a,新标榜美发廊(民生路店),广东省中山市民生路39号,广东省,中山市,,,unknown,
baidu,b129080a2c3da68b2cb90829,美雅发廊(南冲大街店),广东省中山市南涌大街14号2层201室,广东省,中山市,,,unknown,
baidu,ade5e76048da3af5ede4a5b7,至尚(湖滨路店),湖滨路22号第2幢1卡,广东省,中山市,,(0760)88830683,unknown,
baidu,5508504def203acbc6f025ad,艺师名匠(柏苑新村明珠坊店),柏苑路141号1-3卡,广东省,中山市,,,unknown,
baidu,716fcbe06d6d97762fb17e3a,仙都金较发型设计,石岐街道太平路375号,广东省,中山市,,13432189837,unknown,
baidu,4bd07252353d30808e77271e,青春发廊(方基涌大街店),南涌大街42号,广东省,中山市,,13590750897,unknown,
baidu,e46babb12a205160bfa8220a,八号造型工作室(湖滨路店),湖滨路20号德信广场108卡,广东省,中山市,,(0760)88855777,unknown,
baidu,4081cdfe041015d9f7231035,奈美造型·烫发染发(石岐新都汇烫染旗舰店),莲塘东路13号8卡铺（三菱电机隔壁，小龙坎火锅店正对面）,广东省,中山市,,15219459907,unknown,
baidu,84cf05110e2e724721022071,妮采发廊,广东省中山市桂园路21号,广东省,中山市,,,unknown,
baidu,0ce64085a336959bc1f1cfbb,卿卿理发店,广东省中山市龙母庙街58号,广东省,中山市,,,unknown,
baidu,729800f9ceaea5acf8221367,意真艺甲,南涌大街24号,广东省,中山市,,13549844387,unknown,
baidu,aef706b5f6229899ddee8bbc,骏霞美发,中山市民安街白领公寓,广东省,中山市,,18029928014,unknown,
baidu,c471d2eaa63cc7d2d13ce3c9,ATTOO,中山市太平路黄麻园北侧约50米,广东省,中山市,,13794184911,unknown,
baidu,84a903a77f10b57731169b91,花枝招剪发廊,莲塘东路8号1号卡,广东省,中山市,,18988598288,unknown,
baidu,a64684275173832cc7f02528,嘉华发廊,石岐中街31号,广东省,中山市,,,unknown,
baidu,261e4bf14371939caaf0cd33,小珊美发,广东省中山市仁里街11号,广东省,中山市,,13420434375,unknown,
baidu,55404b8d71c5873fd2f49eb8,Newimage Hair Salon,广东省中山市情景路1号16卡,广东省,中山市,,,unknown,
baidu,ad9a6481bd41dd93f82213f9,英妹美发,广东省中山市南涌大街30号,广东省,中山市,,13543841989,unknown,
baidu,b05798fe10511722a20464a2,发芝美集,光明路11号,广东省,中山市,,13702382332,unknown,
baidu,a45d7cebd6f1182e95ec84d2,精工美发,石岐区街道石岐区唐屋巷20号,广东省,中山市,,,unknown,
baidu,4edf9fbfba4a4595cc06a428,岐江公园,广东省中山市西区街道中山一路与大桥横街交叉口东200米,广东省,中山市,,,unknown,
baidu,d146b388abd7b5de750269ba,西山寺,中山市孙文中路240号(西山公园内),广东省,中山市,,(0760)88820369,unknown,
baidu,14076deed706fdf403294f96,中山市博物馆,广东省中山市孙文中路197号,广东省,中山市,,(0760)88230200,unknown,
baidu,435d7aea64b93d355bbbbc97,中山公园,广东省中山市石岐街道孙文西路步行街,广东省,中山市,,,unknown,
baidu,cfe52e81bca81a7ee215f9cd,九曲河牌坊,广东省中山市悦来中路石岐西厂小学西侧约130米,广东省,中山市,,,unknown,
baidu,b98652181218e88a990050d7,守艺人美术馆,广东省中山市石岐区青溪路18号,广东省,中山市,,13560635360,unknown,
baidu,b9e5d0b85e2863bd80a12e88,中山美术馆,中山市西区街道中山一路与西堤路交叉口岐江公园内,广东省,中山市,,(0760)88625363,unknown,
baidu,4feaea8326c5e80228d7ab91,中山市天主教,中山市孙文中路146号3卡、148号,广东省,中山市,,,unknown,
baidu,6490811647634bf7c42ba1ba,岐海九曲文化城,广东省中山市悦来路2号永安坊1栋,广东省,中山市,,,unknown,
baidu,3be122e12217b8521ff74d90,华柏园,广东省中山市石岐区华柏路33号,广东省,中山市,,,unknown,
baidu,82875d48499ee3480f0e6ba9,中山中国收音机博物馆,中山市孙文中路197号中山市博物馆副楼,广东省,中山市,,(0760)88873686,unknown,
baidu,7dab6a8b942ae357c7f0259e,中天古董车博物馆(中山兴中广场店),兴中广场B2座光明桥商场一楼入口（摩天轮对面）,广东省,中山市,,14739508330,unknown,
baidu,849a5e43cbbd040ee215f93c,烟墩山塔,中山市石歧街道孙文西路中山公园,广东省,中山市,,,unknown,
baidu,389df1617d43f116c356ace4,东岳庙,广东省中山市柏桠直街66号,广东省,中山市,,,unknown,
baidu,e2bc64b039d98630d12dd62a,西山公园,广东省中山市石岐区街道孙文中路242号,广东省,中山市,,,unknown,
baidu,e242bc55978b43659ee321ba,西山寺-禅堂,中山市孙文中路240号西山寺,广东省,中山市,,,unknown,
baidu,e9a43052cf84fd69fd0eb0bf,白衣古寺,石岐区街道莲员东路8号,广东省,中山市,,(0760)88727099,unknown,
baidu,6deee3081b462a6a28fc4896,香山商业文化博物馆,广东省中山市石岐街道孙文西路152号,广东省,中山市,,"(0760)88838248,(0760)88838581",unknown,
baidu,1d455deb2069b8a1eedfcacd,烟洲牌坊,中山市富华道西区,广东省,中山市,,,unknown,
baidu,bdb0aaa8efb5ec4a740269da,大雄宝殿,中山市孙文中路240号西山寺,广东省,中山市,,(0760)88820369,unknown,
baidu,2848ffd69cd6f07348cc4acb,基督教会太平堂,中山市石岐太平路高家基6号,广东省,中山市,,(0760)88823875,unknown,
baidu,f9fd6062d9ed9b1f0e0e6b90,孙中山纪念堂公园,广东省中山市孙文中路188~192号,广东省,中山市,,,unknown,
baidu,95024149b51242f3d3ff23af,西山寺历史文化街区,中山市孙文中路金燕子幼儿园东北侧约100米,广东省,中山市,,,unknown,
baidu,a13c7cdca8c93f62b5147f91,中山华侨历史博物馆,广东省中山市孙文中路197号,广东省,中山市,,,unknown,
baidu,511d4351f9ec6e795d17c34a,老安山牌坊,中山市安山大街民生托儿所南侧约90米,广东省,中山市,,,unknown,
baidu,005a3095ff136d48b9df8fde,莲峰山公园,良朋里,广东省,中山市,,,unknown,
baidu,5783b755866d8c41e0110387,来青亭,中山市孙文中路,广东省,中山市,,(0760)88820369,unknown,
baidu,72e9470b2fbe333c38221c0c,岐江灯塔,广东省中山市西堤路岐江公园内,广东省,中山市,,,unknown,
baidu,ab03fefe67d84c75fbdc8562,三山古庙,三级石与南仓街交叉口东北100米,广东省,中山市,,,unknown,
baidu,bb1f34280c7e47a14e5547b3,音乐灯光喷泉,广东省中山市石岐街道南基路49号,广东省,中山市,,,unknown,
baidu,8cba4bb075c98c84ac045790,月山公园,广东省中山市孙文中路80号,广东省,中山市,,,unknown,
baidu,6a7c9027936eca1947e27489,中山纪念亭,广东省中山市辉绯路中山公园,广东省,中山市,,,unknown,
baidu,b69d69669d5b93ac14c8f627,中山城市原点创意,中山市孙文中路190号孙中山纪念堂公园,广东省,中山市,,,unknown,
baidu,74eeee8d750f695dede4a5c1,中山市历史建筑民居,中山市瓮菜塘18号、20号,广东省,中山市,,,unknown,
baidu,2f5fff2e3de7fb6d3be4a615,鼓楼,中山市孙文中路240号西山寺,广东省,中山市,,,unknown,
baidu,1d00d8cc0bd43d459d82ea5d,西山寺-客堂,中山市孙文中路240号西山寺,广东省,中山市,,,unknown,
baidu,13d6f88c52bb2ed732870a48,中山海外同志社,广东省中山市石岐区街道孙文中路242号西山寺内(南侧),广东省,中山市,,,unknown,
baidu,f1235fcacd18a3694d554710,观音观,中山市大陂后街宝华阁东侧约70米,广东省,中山市,,,unknown,
baidu,ba4a119fe53055d149fc8df1,四角亭,中山市辉绯路中山公园,广东省,中山市,,,unknown,
baidu,1c841fddb05740e879b55cfd,萧家大屋,中山市石岐民生路175号之一,广东省,中山市,,,unknown,
baidu,306082e0510cf900931fc90d,华光庙,麻洲街21号,广东省,中山市,,,unknown,
baidu,fecb2744277ea93d46e27429,员峰牌坊,广东省中山市员峰路仙湖新村东北侧约150米,广东省,中山市,,,unknown,
baidu,a0d933d5744ac2ae6240a9ff,中华基督教会公理堂,广东省中山市石岐街道孙民中路孙中山纪念堂对面,广东省,中山市,,,unknown,
baidu,37f43147a4a5fde9ab059d72,观音殿,中山市孙文中路240号西山寺,广东省,中山市,,,unknown,
baidu,70f7729a978fd518cae33cc2,老安古庙,中山市华光路33号,广东省,中山市,,,unknown,
baidu,c064fb1710af9bcaeee4a526,地藏殿,中山市孙文中路240号西山寺,广东省,中山市,,,unknown,
baidu,1890874305165891bea24085,腾讯公园,中山市岐关西路62号,广东省,中山市,,,unknown,
baidu,db3a3ec160c64a175e0d02c9,香港中山侨商会纪念馆,中山市瓮菜塘庆隆里西南侧约100米,广东省,中山市,,,unknown,
baidu,9ec71105ea93825179b55c85,六角亭,中山市公园大道中山公园内,广东省,中山市,,,unknown,
baidu,800b04ba418a08215cd4febb,铁城东门城墙遗址,广东省中山市孙文中路80号,广东省,中山市,,,unknown,
baidu,c5d278eb0ccb11a0babd63a1,天主教信仰中心,广东省中山市石岐街道孙文中路148,广东省,中山市,,,unknown,
baidu,c23bade763b061142806cec5,厚兴牌坊,广东省中山市石岐街道莲塘路60号,广东省,中山市,,,unknown,
baidu,15e1e85e627f38df58109344,基督教会员峰堂,中山市光明东街154号,广东省,中山市,,(0760)88714679,unknown,
baidu,0a006e5d2801945fb1077d91,和平塔,中山市孙文中路240号西山寺,广东省,中山市,,(0760)88820369,unknown,
baidu,6d0e76c66a05e64e08f5eb08,华陀庙山,广东省中山市石岐街道泥墩上街11号,广东省,中山市,,,unknown,
baidu,102cb40f888e75c878f79689,祖师殿,中山市孙文中路240号西山寺,广东省,中山市,,,unknown,
baidu,8704155ffeef0d7481288a74,中山公园-避雨长廊,中山市公园大道中山公园内,广东省,中山市,,,unknown,
baidu,674889ba8ea37fea6fc02cf8,岐江公园-雾化喷泉,中山市西堤路岐江公园内,广东省,中山市,,,unknown,
baidu,048fdf1cd61e2307c7f0250a,抗战初期中共中山县委机关旧址,广东省中山市民生路服务大厦,广东省,中山市,,,unknown,
baidu,08519b6afc0608f9fd0eb0e6,老安山牌坊,中山市南安路大信新都汇(新悦店)北侧,广东省,中山市,,,unknown,
baidu,1b42ca067751d51d7f29bdd6,孙中山纪念堂公园横匾,中山市孙文中路190号,广东省,中山市,,(0760)88822037,unknown,
baidu,5fc288f611fdf4d917948e9f,六祖殿,中山市孙文中路240号西山寺,广东省,中山市,,(0760)88820369,unknown,
baidu,609f35c8afdda6e232f71d62,黄健故居,中山市中山一路怡安阁南侧约110米,广东省,中山市,,(0760)23325873,unknown,
baidu,0aa510f0eb21c588bbbd63a5,员峰卢家祠,中山市和平大街员峰市场东北侧约200米,广东省,中山市,,,unknown,
baidu,e46b59328d5cfcf4100daad7,先锋庙,中山市麻洲街二横巷杨仙逸小学西侧约60米,广东省,中山市,,,unknown,
baidu,2daac4062cda700101294fef,中山市乐力合唱团诞生地,中山市太平路乐陶苑西南侧,广东省,中山市,,,unknown,
baidu,609edc38ded4aee5d5b74eba,中山县农民协会成立旧址,中山市拱辰路孙中山纪念堂公园北侧约50米,广东省,中山市,,,unknown,
baidu,1c7cbd39fdcc425ed518b73c,华光庙,中山市莲塘东路1号,广东省,中山市,,(0760)88820369,unknown,
baidu,d2affd71950d6e6326e0a063,三角亭,中山市公园大道中山公园内,广东省,中山市,,,unknown,
baidu,4d2004a435e870e4cac3dbb1,净土堂,中山市孙文中路240号西山寺,广东省,中山市,,(0760)88820369,unknown,
baidu,411fd90ca111adef8adb7308,康帅府,中山市厚兴直街中山市厚兴郑伟权学校北侧约100米,广东省,中山市,,,unknown,
baidu,08165b0c906f996d72210b94,准提殿,中山市孙文中路240号西山寺,广东省,中山市,,(0760)88820369,unknown,
baidu,6a7b9e91ad14684c7bf7967e,福寿池,中山市孙文中路240号西山寺,广东省,中山市,,,unknown,
baidu,1ebafb00be447dde25d2bba8,好家风主题公园,广东省中山市紫来大街10~14号,广东省,中山市,,(0760)88821942,unknown,
baidu,d20dd37186e1154a59bbbc5b,栢山古庙,孙文东路145号,广东省,中山市,,,unknown,
baidu,6cbe8fe8c43546d4f02d8345,中山市历史建筑,广东省中山市石岐街道麻洲街111号,广东省,中山市,,,unknown,
baidu,2b4cac9c6efc8ea4ae080f38,中山永安公司旧址,广东省中山市孙文西路156号附近,广东省,中山市,,,unknown,
baidu,abd5c2de223fc3acbfa8221a,康真君庙,广东省中山市麻洲街11号,广东省,中山市,,,unknown,
baidu,eb95646aafa6471bd23ce305,卢氏祖祠,广东省中山市光明正街与员峰振兴路交叉口东100米,广东省,中山市,,,unknown,
baidu,5692fa8b081818648bb98880,缘佛殿,广东省中山市南洲街星汇隽庭西50米,广东省,中山市,,,unknown,
baidu,c29cf0d3f571f6dc704b8763,松柏林牌坊,广东省中山市南大街与石台街交叉口北100米,广东省,中山市,,,unknown,
baidu,f94f94b5197e5c33d2f49e1c,国防教育公园,中山市中山四路新兴花园西北侧约40米,广东省,中山市,,,unknown,
baidu,5090a8bdd12d2231c7f50daf,仙湖社区党建文化主题公园,广东省中山市石岐区石岐街道仙湖正街41号,广东省,中山市,,,unknown,
baidu,d9726d63fd1a74c086420ee0,古香山匾额主题展示,广东省中山市兴中道6号假日广场B1,广东省,中山市,,,unknown,
baidu,ae2c9a33be25259614c8f6c0,花王祖庙,中山市石岐基边村民强大街,广东省,中山市,,,unknown,
baidu,38181fef4a02d9cefbdc857b,观音殿,广东省中山市莲塘东路1号,广东省,中山市,,(0760)88820369,unknown,
baidu,aebedaf044a6e1af2dfaa74c,竹苑社区党建主题文化公园,中山市金龙横街松苑新村,广东省,中山市,,,unknown,
baidu,b13831919d95fedca3a93450,氧气艺术公园(德普置地店),广东省中山市博爱三路38号德普置地广场2楼,广东省,中山市,,,unknown,
baidu,d734635d58af61b46ca3cc7f,百艺美术馆,广东省中山市孙文东路277号,广东省,中山市,,,unknown,
baidu,72f424e07c43680dabf72985,石岐书院,广东省中山市民生路60号,广东省,中山市,,,unknown,
baidu,ee4ad3551b39dcba1e1d1113,蓝波湾音乐喷泉,华光路与南江路交叉路口往西北约170米,广东省,中山市,,,unknown,
baidu,5c2dc21d5fb056796fc02c4a,兴中园,广东省中山市康乐三横街与康乐街交叉口北20m,广东省,中山市,,,unknown,
baidu,b010a173494326bc465726fb,岐江公园-柱阵,中山市西堤路岐江公园内,广东省,中山市,,,unknown,
baidu,1acb83c09dc7118fc7f50d2f,大陂凉亭,广东省中山市厚兴永利大厦(龙腾路北),广东省,中山市,,,unknown,
baidu,ad37b588a9208a0732870a0c,茶聊馆,广东省中山市假日广场柏苑新村秀丽坊(柏苑路北60米),广东省,中山市,,,unknown,
baidu,82f60042977be5ae9b68b4be,潮空间运动街区·潮玩·蹦床公园·团建,石岐街道中山二路59号裕华花园广场美丽华商铺首层2卡,广东省,中山市,,15007615659,unknown,
baidu,6c09780e916a3e4346e27473,平价沐足·按摩·SPA养生馆,民权路18号,广东省,中山市,,,unknown,
baidu,373cf7575addfa6e4254d7ad,千里足浴中心(民权路店),民权路大兴鲜花店旁,广东省,中山市,,(0760)88839336,unknown,
baidu,71236a6419186bd4a2d2300e,捷信电竞,广东省中山市中山二路41号,广东省,中山市,,18022125263,unknown,
baidu,8361722e9565e138f7c59c16,SWALLOW,逢源路一号楼13卡,广东省,中山市,,13702522669,unknown,
baidu,6a44411b3e5a65d3eee4a5df,一棉茶舍(石岐书院店),民生路64号（石岐书院内）,广东省,中山市,,13427000768,unknown,
baidu,51f6f7bfa95600b9725e80fb,娉婷坊美生馆养生馆(泰安路店),石岐街道泰安路58号二楼之二(千色店旁),广东省,中山市,,(0760)88834036,unknown,
baidu,62b125c577282a9f1e1d1108,大渔玩家运动潮玩馆·保龄球·射箭·VR,孙文东路28号中山石岐万象汇一层L128号店铺,广东省,中山市,,13189218532,unknown,
baidu,cac8f455dbc5f26e9222e080,TOP星派对KTV(石岐店),石岐街道大信南路2号大信新都汇4楼(麦当劳旁),广东省,中山市,,(0760)88726688,unknown,
baidu,8db828db614d9ecd40ab9ad7,王者量贩KTV(富业广场店),富华道16号富业广场（二楼）,广东省,中山市,,,unknown,
baidu,a09d8ad24423cc2cbca822c2,纯K(星汇湾店),石岐街道中山二路4号星汇湾2幢2层01卡(B区),广东省,中山市,,(0760)87968699,unknown,
baidu,b6821d6ea8efaf89e01103a4,黑暗森林·沉浸空间,迎阳正街京德森商务中心4楼,广东省,中山市,,15800152065,unknown,
baidu,1cee3dadf59495f0aeb22ac9,藏行南巷民谣精酿(中山店),岐关西路37号豪逸华庭2期商铺B28,广东省,中山市,,15819493844,unknown,
baidu,6fd853af3fe42796c5f025d6,鸿缘养生馆,中山市石岐区鸿缘美容馆,广东省,中山市,,13703039415,unknown,
baidu,c28898b0cd44a2230bf5ebf1,盈雀·胜利棋牌室(中山二路店),亭子下大街1号1幢2楼,广东省,中山市,,(0760)88875328,unknown,
baidu,dec984b4b4cd015f1e58009c,辉煌电玩动漫城,广东省中山市逢源商业街1号26卡,广东省,中山市,,,unknown,
baidu,8f5309fd3d0140a98f1a89aa,富贵棋牌,逢源街2号203卡,广东省,中山市,,13631152010,unknown,
baidu,66671f281af7782db15c6a71,中山市退休职工活动中心(黄麻园东北),广东省中山市太平路377-379号,广东省,中山市,,(0760)88828794,unknown,
baidu,10e68d03a1c50e84260bd0bb,中马棋牌,民权路15号105、106房,广东省,中山市,,(0760)88809138,unknown,
baidu,9630f928908583fdf50e77d7,宝墨源热灸馆(石岐店),悦来路20号,广东省,中山市,,13925329871,unknown,
baidu,c9ab526446a13a07d42ce2a3,利得棋牌,中山二路33号美心花园首层1-3卡,广东省,中山市,,(0760)88895626,unknown,
baidu,02216db2a5e5a5680b1cc74c,璟运棋牌室,逢源商业街10号楼二层203卡,广东省,中山市,,"(0760)88885186,18022183961",unknown,
baidu,c768b366a775c47628201a54,来盛棋牌,广东省中山市石岐区逢源商业街(古董街)3号40卡,广东省,中山市,,13823972783,unknown,
baidu,e2c52c6bd23deeba0ab93ae6,四个朋友·自助棋牌(石岐泰安路店),石岐街道泰安路58号二楼之一,广东省,中山市,,,unknown,
baidu,7b4bce7f60181890fe0eb058,黄飞鸿热灸理疗馆(中山石岐泰安店),民权路28号1卡,广东省,中山市,,,unknown,
baidu,e48e22528cb9253aad31e57b,石岐区郑惠明盲人按摩所,民安街9号,广东省,中山市,,,unknown,
baidu,ddd88a4de0ef4f1a88db7324,半生精酿(民生路店),广东省中山市民生路149号,广东省,中山市,,,unknown,
baidu,8225ea1e61e013334207c108,瑶药养生文化体验馆(石岐店),广东省中山市岐海九曲文化城东北门东南70米,广东省,中山市,,,unknown,
baidu,0ed20a1523de749756bfffb2,中山市老干部活动中心,广东省中山市华柏路47号,广东省,中山市,,(0760)88845267,unknown,
baidu,d59c4dfde40d3944d12dd679,友间卡牌,广东省中山市洪家基正街12号,广东省,中山市,,15918255466,unknown,
baidu,778a1d7c642b9dd61f389418,绿粤电竞(泰安路店),泰安路23号首层16-21卡（星际宾馆旁）,广东省,中山市,,18022062550,unknown,
baidu,7ce57b603fcb1f83306212d1,陕西专业修脚(泰安店),泰安楼(泰安路)32号商铺,广东省,中山市,,,unknown,
baidu,68bed51d69da7648c4f02552,知己酒吧FriendsBar1998,富华道3富华酒店附近,广东省,中山市,,(0760)88629262,unknown,
baidu,43b9462caacdd4a4fb221352,康丽养生会所,广东省中山市民权路20号,广东省,中山市,,,unknown,
baidu,8cf3ef8d3c84226d0c0e6b1b,魔幻棋牌(美心楼店),中山二路33号美心花园首2层商场10号,广东省,中山市,,(0760)88821618,unknown,
baidu,01c5d753368c806a901fc9f8,神艺沐足阁,山水酒店饭堂,广东省,中山市,,,unknown,
baidu,453293b865f702a0eb1e974b,浩克电竞(华力店),华力路28号,广东省,中山市,,18620043338,unknown,
baidu,519b6dde87cb0bb54f3a591f,声妙养生,广东省中山市石岐街道华力路44号,广东省,中山市,,,unknown,
baidu,540dcefc538270910c0a701d,LOS SANTOS CLUB·洛圣都,中山二路4号星汇湾2幢1层01卡,广东省,中山市,,(0760)88889717,unknown,
baidu,174647c3187db752a8059db7,天地经络推拿,石岐街道华力路29号,广东省,中山市,,(0760)88332873,unknown,
baidu,27756f69a0b80244b1077d01,伟兰盲人按摩所,广东省中山市逢源中街7号,广东省,中山市,,,unknown,
baidu,f8a1341df9edfb3714764389,康之源盲人按摩(港加公馆店),民权路31号104室,广东省,中山市,,,unknown,
baidu,cdd1c63691b7ae8ad5b74e62,醺,中山市亭子下大街逢源公寓南侧约70米,广东省,中山市,,,unknown,
baidu,47e6454b9d47261ee812e403,天穴经络调养馆(民权路店),石岐街道民权路29号4-9卡(近华谊3G专营店),广东省,中山市,,0760-88823848,unknown,
baidu,659a7e4327e94d52a10464f8,金指婵经络养生馆,广东省中山市石岐街道中山二路44号,广东省,中山市,,,unknown,
baidu,eacec76572dae9a49eec2b6a,老夫仔专业修脚店,广东省中山市民族东路100号,广东省,中山市,,13450952020,unknown,
baidu,14374c506c05cee908a8d474,团友棋牌室,广东省中山市中山二路38号,广东省,中山市,,,unknown,
baidu,b997855e6c177a579e9d6866,天益经络推拿,广东省中山市中山二路35号7卡,广东省,中山市,,"13415373239,13668990063",unknown,
baidu,9aba50fc85fd58b35b1093db,潮源经络养生馆(星河华苑店),中山二路39号星河华苑2栋10一11卡,广东省,中山市,,(0760)88861226,unknown,
baidu,9fc9e284aeb8f6a048cc4afe,延达堂热灸康疗馆,中山市民族东路中山市华侨中学南校区(初中部)西南侧约30米,广东省,中山市,,15119136667,unknown,
baidu,9c6b31aa193ae7f1ca213d76,碧碧养生馆,广东省中山市民权路52号,广东省,中山市,,,unknown,
baidu,e175ed397f4e99d89fec2b19,西区亚洲广场,广东省中山市下闸路33号,广东省,中山市,,,unknown,
baidu,12a264933d21c46c95ca073e,尚胜棋牌,中山市亭子下大街华力二区西侧,广东省,中山市,,,unknown,
baidu,a0b8931e633c6a961e1d1118,荣儿理疗,广东省中山市民族东路41号,广东省,中山市,,,unknown,
baidu,5762fdba981c655fcb213dc4,玉轩棋牌(东区店),岐关西路65号维也纳国际酒店4楼,广东省,中山市,,(0760)88206616,unknown,
baidu,643c59cc16d4a52eb21e3694,粤韵今宵国际曲迷会,广东省中山市天主教西南(孙中山纪念堂公园东),广东省,中山市,,,unknown,
baidu,2da2bc6ffd8e68ab9b68b4bf,明日推拿(中山二路店),中山二路39号2-07卡,广东省,中山市,,,unknown,
baidu,8c2a2ea719649690882fb5f7,京华互动式KTV(西区店),西区街道富华道侧岐沙路5号(西区南方电网旁),广东省,中山市,,(0760)88785999,unknown,
baidu,a9a9aceb635649f0b04c49e4,幸福蓝海国际影城(中山华发商都店),中山二路3号华发广场5层25卡,广东省,中山市,,(0760)88885518,unknown,
baidu,254580c11613e36d1e1d11b4,碧蒂欧香熏SPA,中山市华力路华力二区东侧约40米,广东省,中山市,,,unknown,
baidu,f2f43fd07f35190e87154162,内筋堂养生馆,中山市民权路中山市悦来幼儿园西侧约70米,广东省,中山市,,15918289388,unknown,
baidu,c5973f5dff3d7be361685832,尊享棋牌,中山市中山二路中山市童乐外贸幼儿园北侧约30米,广东省,中山市,,,unknown,
baidu,ca86200448194dd0d42ce2e9,七芝堂艾灸馆,中山市民权路中山市商业幼儿园东侧约30米,广东省,中山市,,17329637135,unknown,
baidu,01db541bde6c4b6009b93abb,诺平美容养生馆,广东省中山市石岐区中山二路38号,广东省,中山市,,13822704889,unknown,
baidu,67dbc5643d0fd2b1f33cba8f,润足阁养生馆,中山市三级石中山二路68号商务楼西侧约80米,广东省,中山市,,,unknown,
baidu,93d94558044a99a85d17c3e4,电竞馆,广东省中山市石岐街道泰安路108-、110号,广东省,中山市,,,unknown,
baidu,8a25a5aa8f6bfbce5d0d022d,中餐棋牌,广东省中山市美心楼南门旁,广东省,中山市,,,unknown,
baidu,c3012c85ebd057086140a964,职工文化广场,广东省中山市太平路377~379号,广东省,中山市,,,unknown,
baidu,9a2ca3463b56b30bc41e514a,中影国际影城(万象汇中国巨幕店),孙文东路28号石岐万象汇3楼,广东省,中山市,,(0760)88871777,unknown,
baidu,265e8b3b89e391abf03cbaf1,中脉道和生态养生馆,中山市华力路星河华苑东侧约30米,广东省,中山市,,,unknown,
baidu,c962941fe3de06d1b2077d7a,休憩小广场,中山市公园大道中山公园内,广东省,中山市,,,unknown,
baidu,85a45e0c5d805ccc09a8d479,老茶店,中山市后岗涌街启发中学北侧约110米,广东省,中山市,,,unknown,
baidu,1020060ff37e7aa61994c6b7,不夜天烧烤酒吧(民族东路店),民族东路28号,广东省,中山市,,"13928110218,15900011218",unknown,
baidu,90d6108270bf04e28bf15d77,瑶王五桶汤(石岐店),歧海九曲文化城永安坊1号3栋201,广东省,中山市,,,unknown,
baidu,554cfd83d64e36f9b6f42ffb,驿居酒店(中山利和广场中山二路店),中山二路60号,广东省,中山市,,(0760)88921402,unknown,
baidu,66ee8a710976ae50c9fa5fc8,中山阳光住宿,孙文西路2巷一号,广东省,中山市,,18022067686,unknown,
baidu,93df0dc3c607b32b892fb5bb,中山星际酒店(孙文西路步行街店),广东省中山市泰安路23号3楼,广东省,中山市,,(0760)88875356,unknown,
baidu,cdf9d95cefa0751ab2077d19,城市便捷酒店(中山利和广场万象汇店),华柏路华柏中心市场,广东省,中山市,,(0760)88865588,unknown,
baidu,e07e99ba976661c19ff779ff,穆舍格兰酒店(中山兴中广场步行街店),广东省中山市孙文西路60号中山百货1层,广东省,中山市,,(0760)88724888,unknown,
baidu,c61bd30546047871c37da29d,顺景湖滨酒店(中山步行街店),湖滨路1号,广东省,中山市,,0760-88876622,unknown,
baidu,35a859c881baff51bbbd638c,中山圈子艺术酒店(兴中广场孙文步行街店),南基路2号兴中广场A座7-11楼,广东省,中山市,,"(0760)88858501,(0760)88858588",unknown,
baidu,af3a04e58133ddb2f942b270,L态度酒店(中山兴中广场店),中山市石岐区凤鸣路3号中山兴中广场F1,广东省,中山市,,(0760)88969008,unknown,
baidu,1bc3bd366e70b30273455b55,如家酒店(中山利和广场兴中道店),东区中山三路63号（兴中体育场附近）,广东省,中山市,,(0760)88333699,unknown,
baidu,823b4e70b69fd65b16a190bf,维也纳酒店(广东中山西区店),中山一路113号,广东省,中山市,,(0760)88801222,unknown,
baidu,ee820fce7990a2e7f6eafcad,维也纳国际酒店(中山东区利和广场店),东区岐关西路65号,广东省,中山市,,(0760)88318333,unknown,
baidu,fd007c5ea951a211a8f72941,中山金淘公寓,孙文中路56号,广东省,中山市,,(0760)88877898,unknown,
baidu,592b400ee8ba488cdbd89159,中山大利宾馆(兴中广场店),光明路11号之一102卡第二层,广东省,中山市,,(0760)88839906,unknown,
baidu,574d7a71e82f1754b1077dea,麗枫酒店(中山利和广场店),广东省中山市中山三路16号中山利和广场底商F1,广东省,中山市,,"0760-88881288,18925361388",unknown,
baidu,00f2945fd212334cab059d66,中山密林小筑青年旅舍,坭墩下街55号,广东省,中山市,,13590957600,unknown,
baidu,4642844aad3d80c0c8fa5f84,中山国际酒店,广东省中山市中山一路142号,广东省,中山市,,(0760)88633388,unknown,
baidu,da9ed94183ab57cc49fc8d7d,中山丰益小公寓,民生路南园巷1号,广东省,中山市,,13823913232,unknown,
baidu,6ed3083a51d0f9b72a3a9fbb,中山金宝酒店(兴中广场逸仙湖公园店),湖滨路59号,广东省,中山市,,(0760)88873168,unknown,
baidu,605f30bdc567690642d63e91,雅好花园酒店(中山富华道兴中广场店),富华道83-87号,广东省,中山市,,(0760)88638088,unknown,
baidu,dc37383cf650619d40afe6cf,凯里亚德酒店(中山科技大学店),东区孙文东路161号,广东省,中山市,,"(0760)88720888,13600345927",unknown,
baidu,299c81f39ebcffaaf5c59c3e,柏曼酒店(中山利和广场店),东区中山三路3号1幢,广东省,中山市,,(0760)88938333,unknown,
baidu,3f9337d605639daaf6231097,路易酒店(中山东区利和广场店),银通街19号,广东省,中山市,,"(0760)88362188,15900011199",unknown,
baidu,2b755ea7cb6f98d243d63e84,麗枫酒店(中山富华道兴中广场店),富华道21号,广东省,中山市,,(0760)88301988,unknown,
baidu,803708f11cc58b600089728b,中山怡兴商务酒店(市人民医院店),莲瑭路17号一层梯间、2、3、4层,广东省,中山市,,(0760)88838336,unknown,
baidu,e7f299f4718cd41717b54b22,橙果酒店公寓(兴中广场孙文西步行街店),石岐区华光路57号,广东省,中山市,,19129124090,unknown,
baidu,ae6e7ae0956b9fd4095cb3c9,步行宾馆(兴中广场步行街店),广东省中山市仁里街23号,广东省,中山市,,(0760)88870823,unknown,
baidu,62e6f185bb7dcbab82288ae0,莫泰酒店(利和广场兴中道店),广东省中山市中山三路63号,广东省,中山市,,(0760)89989666,unknown,
baidu,2a12126a7868de9c4354d71c,星辰酒店(中山利和广场店),怡华街10号海通大厦1楼,广东省,中山市,,(0760)88889800,unknown,
baidu,7c13afa64b9a5db943e1929b,中山枫桥酒店,石岐区岐江苑20/21幢2层4/5卡商场(2层45),广东省,中山市,,(0760)88852789,unknown,
baidu,885fe29d22b6a1ee3010af8c,格林豪泰(中山富华道兴中广场店),广东省中山市西区街道富华道8号兴业大厦1楼,广东省,中山市,,0760-88633037,unknown,
baidu,f7539a491acb8619f5c59ca0,合丰公寓(利和广场店),东区中山三路2号之二A幢,广东省,中山市,,18123834880,unknown,
baidu,73f6d7039734467bf23cba3b,中山东门住宿,石岐区孙文中路9号后座,广东省,中山市,,(0760)88877420,unknown,
baidu,4ab6fa14fc818851d2f49e3e,如家商旅酒店(中山石岐大信新都汇店),莲塘路66号,广东省,中山市,,(0760)88785766,unknown,
baidu,11609da0091b33125cbe86ff,菲力斯公寓(中山悦来南路店),广东省中山市石岐区悦来南路31号蓝钻双子座楼7卡石化加油站旁,广东省,中山市,,"(0760)89998350,18025687771",unknown,
baidu,f89e28c27bfe183845e274ff,锦江都城酒店(中山西区店),升华路12号（4F-15F）,广东省,中山市,,(0760)88633888,unknown,
baidu,e773aa0bd81f14f658f6be9f,潮漫酒店(中山富华道富业广场店),广东省中山市富华道西区街道西区富华道23号,广东省,中山市,,(0760)85757666,unknown,
baidu,1b322be24be06049e315f956,QQ住宿(中山凤鸣店),广东省中山市凤鸣路98号,广东省,中山市,,13427052919,unknown,
baidu,f35b62c5d7eb3997a2a9349d,亚朵酒店(岐江公园店),广东省中山市富华道7号,广东省,中山市,,(0760)88633838,unknown,
baidu,16f94cfc39a6d974f82d6194,中山青橙住宿,龙腾路大陂宝金社16号,广东省,中山市,,13823958689,unknown,
baidu,0145c2f6b37dc5e53b221ce9,中山未央云舍城市精品民宿,石岐区莲塘东路10号懿荟大厦4楼406房(前台接待处),广东省,中山市,,15390992898,unknown,
baidu,06da89862946fd99fa0cad2e,中山石岐大信酒店,石岐区莲员东路2号4幢大信新都汇B座8层,广东省,中山市,,(0760)88883036,unknown,
baidu,079e23d6f53689b4283a9f98,慕月·丽雅轻享住宿(中山石岐大信中心店),莲塘东路8号莲兴大厦16楼,广东省,中山市,,15219947295,unknown,
baidu,058de6dc5302f9ebb320a852,中山假日住宿,孙文东路215号,广东省,中山市,,13078648818,unknown,
baidu,344d268c3fcc2f3ab55f1eb6,枫橙酒店(石岐大信新都汇店),广东省中山石岐街道莲员东路25号,广东省,中山市,,(0760)88812826,unknown,
baidu,545bf82c9fd7bc3343e192e2,柏圣漫酒店公寓(中山石岐大信店),石岐区莲员东路2号大信新都汇二期金座2号楼808,广东省,中山市,,13392945608,unknown,
baidu,6ecefd0c3f27fc8317948e01,富业假日酒店(中山富华道店),广东省中山市西区街道富华道16号,广东省,中山市,,(0760)85753888,unknown,
baidu,163ce9d9f6846d8135b06c20,中山威尼斯酒店公寓,富华道16号富业豪庭公寓16层1614,广东省,中山市,,18688563894,unknown,
baidu,a60b2004974ead628bdb73d1,中山长洲旅馆,中区长洲长乐村昌盛1号,广东省,中山市,,(0760)89889988,unknown,
baidu,db1e1d68a8b0cdfde215f9c1,珀斯智能公寓酒店(中山利和广场店),东区街道银通街2号利和国际公馆3栋1506,广东省,中山市,,"(0760)85228195,15819997337",unknown,
baidu,92b806d204e507e778b55ce3,中山东方海悦酒店,石岐安栏路162号,广东省,中山市,,"(0760)88812888,18022155130,18022155138",unknown,
baidu,4bb049d9899c105e99005017,特高商务酒店(中山悦来天虹购物中心店),悦来南路白石街16号,广东省,中山市,,076088860688,unknown,
baidu,ef678c7fe443ec8f01897282,城市绅邻公寓(中山大信新都汇二期),莲员东路2号大信新都汇二期2号楼813房,广东省,中山市,,17328184858,unknown,
baidu,a501f9a830c7e11af5c59cf4,穆舍格兰公寓(中山大信新都汇店),广东省中山市莲员东路2号大信新都汇B座801室,广东省,中山市,,18022039790,unknown,
baidu,85318554d636df09a1a934e0,青玩城市绅邻公寓(中山石歧大信新都汇店),石岐区莲塘东路10号懿荟大厦307房,广东省,中山市,,15625381528,unknown,
baidu,1c1d42d277a1688afd0eb0e8,中山市尚美假日公寓,中山四路13号,广东省,中山市,,18022184568,unknown,
baidu,1a7ae0991a623e78047ce8d4,柏圣漫智慧服务公寓(中山石岐完美金鹰广场店),孙文东路28号万象汇商圈完美金鹰广场金鹰公馆公寓楼1323房,广东省,中山市,,(0760)86999908,unknown,
baidu,6253231bafeb8dbad4851f45,澳垦汀轻奢公寓(石岐大信新都会店),莲员东路2号大信新都汇金座2期2栋2201室,广东省,中山市,,18680162517,unknown,
baidu,c593a1501d65c8b4cafa5f75,中山华兴住宿(兴中广场店),石歧区凤鸣路10号,广东省,中山市,,(0760)88815707,unknown,
baidu,d5988a7613a0847c9fec2b49,中山六日国际公寓,广东省中山市石岐街道莲员东路2号大信新都汇二期金座公寓1栋1507室,广东省,中山市,,13420341766,unknown,
baidu,6622533e60e50098b726551b,珠峰电竞民宿(步行街店),石岐街道泰安路23号,广东省,中山市,,(0760)88875356,unknown,
baidu,63f2c7a114a08300acee7a55,中山亿家住宿,广东省中山市悦来路92号金都城3层,广东省,中山市,,15800149908,unknown,
baidu,7a0a9a8d983bf3cc0782c2c4,思豪大酒店旧址,广东省中山市孙文西路150号,广东省,中山市,,,unknown,
baidu,cd3de096cd99604e5a3ac8c6,中山超级奈斯的房东公寓(民权路分店),广东省中山市石岐区民权路26号柠檬社区,广东省,中山市,,,unknown,
baidu,fd7d9326a886857683a00c70,贰拾民宿(安栏路分店),广东省中山市安栏路添雅苑30楼E座添雅苑,广东省,中山市,,,unknown,
baidu,c051ddbfdadc92510c0e6bc3,云顶电竞酒店(富业广场店),广东省中山市西区富华道21号7楼,广东省,中山市,,18022107003,unknown,
baidu,46840163ab0f51ae2b06ced7,卉汐公寓(岐江壹号店),广东省中山市石歧区安栏路195号岐江壹号,广东省,中山市,,13924956124,unknown,
baidu,60393e6ca893b30eab059d0d,璟瑶小筑,石岐区街道亭子下大街2号之106号,广东省,中山市,,,unknown,
baidu,ef1215abf349ed5095f08cb3,逢源公寓,广东省中山市亭子下大街17号,广东省,中山市,,,unknown,
baidu,feaf4580b8241f55bca8226f,中山SS珊珊公寓,中山市梅基街逢源公寓,广东省,中山市,,,unknown,
baidu,d49cc0d971bb6213e6073870,锦江之星风尚(中山石岐大信新都汇店),湖滨中路2号,广东省,中山市,,(0760)23889889,unknown,
baidu,7ad840e5cf376a8802294fb7,中山富华酒店,广东省中山市石岐富华道一号,广东省,中山市,,(0760)88638888,unknown,
baidu,a1418eb4f2930e66eae5828a,金柏酒店,广东省中山市升华路16号,广东省,中山市,,(0760)88611333,unknown,
baidu,54d0c5a6e059f65f276e986e,孙中旅店(人民医院店),广东省中山市孙文中路9号,广东省,中山市,,(0760)88877420,unknown,
baidu,43a17c7c926cf31f9c09f711,中山强记公寓,广东中山西区街道华侨商业城(延龄路),广东省,中山市,,,unknown,
baidu,3b0a974d171362cb0c0a707d,博尔曼公寓,安栏路193-203华森广场826房,广东省,中山市,,13928528577,unknown,
baidu,903b1fdf31233ae95fbe86e8,华侨大厦(西堤路),广东省中山市富华道1号1楼,广东省,中山市,,(0760)88638888,unknown,
baidu,a79781236509f078c42ba165,星悦领寓,广东省中山市西区街道升华路16号(太和广场D座),广东省,中山市,,15390933586,unknown,
baidu,9d5ed6118d8c74ad4354d7d7,澍澍公寓(华柏路分店),中山市中山二路裕华花园,广东省,中山市,,,unknown,
baidu,e7e155f4e8c5986075e5b6a2,景轩酒店,广东省中山市东区街道柏苑路2号,广东省,中山市,,,unknown,
baidu,2cf84972463333722ee67b81,中山王滇丽公寓(3号店),广东省中山市中山二路59号裕华花园广场有限公司,广东省,中山市,,,unknown,
baidu,5d1e54f68d906657b6147f7e,爱车港汽车美容养护中心,石岐街道中山二路52号怡中商业楼二栋105-106室,广东省,中山市,,(0760)89884663,unknown,
baidu,a4d9a08513c0f618f8221385,坚艺汽车维修,儒林里4号首层,广东省,中山市,,13068100163,unknown,
baidu,dcab6ebe10165d0c2102208d,汽车美容会所,中山市华力路星河华苑,广东省,中山市,,,unknown,
baidu,c67f140ab7ab043f2bb97c41,和宜信汽车咨询服务部,广东省中山市南冲大街28号,广东省,中山市,,18925399994,unknown,
baidu,55fad72eaf0635450a5cb3af,中山仁孚汽车销售服务有限公司岐江分公司,广东省中山市石岐区中山二路4号星汇湾1幢1层01、02、03、04卡,广东省,中山市,,(0760)85334033,unknown,
baidu,903b6d4f4bfb9b46a11de929,车因子汽车维修美容,广东省中山市孙文东路131号,广东省,中山市,,,unknown,
baidu,78bd1adf152b40021c38943c,威洁士高端汽车服务会所,广东省中山市莲兴路20号,广东省,中山市,,18520588996,unknown,
baidu,6a43e84ca5f4a19eb7f42f79,永泰汽车服务连锁机构骏业(南下店),岐关西路沙岗工业区16-23岗,广东省,中山市,,15900044888,unknown,
baidu,07ebd09754801e5e2b11d17f,信邦汽车服务中心,南江路29号3-4卡欧雅豪庭后面,广东省,中山市,,18719013995,unknown,
baidu,53563370aacf4ab12a02e111,脊地养护中心中山华柏店,华柏花园4号45室,广东省,中山市,,,unknown,
baidu,3915631b647a42a34354d726,杰成车行,广东省中山市民权路67号,广东省,中山市,,(0760)88840806,unknown,
baidu,e9ff4c2e9bd22b5c13293545,真功夫名车一站式服务(西区店),升华路17号,广东省,中山市,,18576223559,unknown,
baidu,e5baf26ca000a0caa2d230e8,宝汇养车,广东省中山市南安路21号居民自治安全管理小区,广东省,中山市,,18026286906,unknown,
baidu,354510404ec6abce09b93a84,蔚来中心(中山逸仙湖店),莲塘路与莲员东路交汇处大信新都汇B座F1,广东省,中山市,,18127863592,unknown,
baidu,529143f4b023b175f60e7721,永发车行(民权路店),广东省中山市民权路59号,广东省,中山市,,,unknown,
baidu,2c53a04aacf96de1ab059d08,中山玛莎拉蒂定制中心(骏佳4s店),广东省中山市中山二路4号星汇湾2栋1层03卡,广东省,中山市,,,unknown,
baidu,f3326d1c92dca36540afe61e,恒安汽车音响,广东省中山市华柏路40号,广东省,中山市,,13928137188,unknown,
baidu,a6f7c7eb8c89bb6b87330439,祥艳汽车维修服务有限公司,学院路8号星际豪庭4卡之一,广东省,中山市,,13982477853,unknown,
baidu,3f94cea37e1d5391b21e367c,有文士多,中山市南涌大街平安苑南侧约40米,广东省,中山市,,13427020122,unknown,
baidu,1bcbdd92e9233540b2077d53,中山市护力汽车服务有限公司,广东省中山市悦来南路悦乐街2号,广东省,中山市,,"(0760)88801988,(0760)88809999",unknown,
baidu,507621eac47f358ff8dc8586,弘洲车行,悦来南路37号,广东省,中山市,,13535065159,unknown,
baidu,fc7675240b84bbf94e776ed6,耀星汽车修配有限公司,博爱四路8号(沙岗村委会大楼侧),广东省,中山市,,(0760)88813488,unknown,
baidu,417420a4f83a81586c476056,帝煌·壳牌精英店(朗晴假日店),岐关西路55号朗晴假日园一期二幢15-18卡（即腾讯科技斜对面）,广东省,中山市,,"(0760)88333758,13824660064",unknown,
baidu,75b3e7f127bcaf6e43ab9acf,洗车人家(康乐大街店),康乐大街,广东省,中山市,,13640973882,unknown,
baidu,a77f8f7fecfa1334eb12e43d,粤胜汽车美容中心(西区店),升华路17号叠翠家园4幢2卡,广东省,中山市,,18933317377,unknown,
baidu,bb28f9daa76d9df3da131842,中山市泰骏汽车维修服务中心,广东省中山市沙石公路1号,广东省,中山市,,,unknown,
baidu,be5cf39ee34b745f283a9f67,家德仕汽车保养,广东省中山市博爱三路20号,广东省,中山市,,15819986928,unknown,
baidu,ce9b774b94c564611e5800ad,畅清汽车救援服务中心,广东省中山市建华路美景楼5幢,广东省,中山市,,13902596272,unknown,
baidu,d6ee8724e8ebb49ea8f0cd62,美明汽车美容中心(宽途汽车店),升华路升华花园b1-4,广东省,中山市,,(0760)88639680,unknown,
baidu,87271934df71a82fc06c146d,茂达汽车维护中心,广东省中山市西区街道升华路17号叠翠家园5幢2卡,广东省,中山市,,,unknown,
baidu,4cfc5f6a3971e637d81318fe,亚乔汽美(中山假日广场店),兴中道6号假日广场B1楼,广东省,中山市,,(0760)88881458,unknown,
baidu,f7f8e9892bc428369222e08d,昌华车行,广东省中山市莲园西路1号,广东省,中山市,,(0760)88828914,unknown,
baidu,31d67b574a7486753a13fd34,新南江汽车真皮内饰改装,广东省中山市悦来南路41号6-9卡,广东省,中山市,,(0760)88925146,unknown,
baidu,162169e511bfc542fea7787d,冠成车缝店,广东省中山市石岐区湖东街7号,广东省,中山市,,,unknown,
baidu,6475f482bb0e84d40b1cc742,中山富兴汽车维修中心轮胎电池,广东省中山市悦来南路39号2~3卡,广东省,中山市,,"(0760)88892699,15813161666",unknown,
baidu,24beaf931ca5c35016a1900d,华昌汽保,广东省中山市石岐区石岐街道博爱三路22号首层第三第四卡,广东省,中山市,,"13590745592,13590761134",unknown,
baidu,897513ba4afc5b58601c6741,达声车行(石岐店),广东省中山市石岐西区香山大街江畔新村27栋,广东省,中山市,,"(0760)88638024,(0760)88800112",unknown,
baidu,5f18640f90a4fd24c9c3db83,车迷汽车升级,广东省中山市悦来南路滨河湾52幢64卡,广东省,中山市,,13420088229,unknown,
baidu,a1f4a297bc764c0f97031979,压的售后服务,中山市水街口水盈居,广东省,中山市,,,unknown,
baidu,3f9bab3eda5de0a515a1908c,ENEOS车源素汽车美容养护中心,沙岗工业区第二栋12-13卡,广东省,中山市,,15800106065,unknown,
baidu,0077a0b7d54e6fec1d1d1159,程曦汽贸,广东省中山市升华路15号世家花园3幢,广东省,中山市,,13925361338,unknown,
baidu,d45dc7a1ba5d54be21022059,壹祺养车坊,广东省中山市西苑社区江湾路11号万汇美居1居32-33卡,广东省,中山市,,19928018722,unknown,
baidu,4a1891668ce52eac57bfff93,永明汽车美容中心,广东省中山市沙石公路1号,广东省,中山市,,(0760)88803119,unknown,
baidu,9f9e88c284ca71f3ce04eff9,畅达机动车服务,广东省中山市悦来南路悦来新村33卡,广东省,中山市,,(0760)88283898,unknown,
baidu,4a6ff1b41bf041f71c38943e,畅行租车,广东省中山市华光路57号,广东省,中山市,,13824702623,unknown,
baidu,58f4d5bb075c16a7a4c756d5,新联汽车影音·隔热膜,广东省中山市石岐区南安路20号大信新都汇F1,广东省,中山市,,,unknown,
baidu,4635acb5682caae92fb17efd,世纪名车,广东省中山市博爱三路9号,广东省,中山市,,13823920211,unknown,
baidu,9d862f4e0478d3017af79642,中山市员枫汽车维修中心,振兴路4号,广东省,中山市,,13435707812,unknown,
baidu,10f9da76fa8cfcd2b9df8f85,普利司通轮胎(中山市西区新新旺记轮胎店),广东省中山市西区街道升华路叠翠园2栋3卡,广东省,中山市,,13809872166,unknown,
baidu,2e7037ad06db1a42b020a80e,顺至汽车修理厂,广东省中山市彩虹大道6号,广东省,中山市,,,unknown,
baidu,01bafd98d987c5fb283a9f27,嘉实多护车保养站(西河东路店),升华路17号叠翠家园1栋3-6卡,广东省,中山市,,,unknown,
baidu,bb6a9110ca0f2343d4851f7f,中壹汽车修配厂,广东省中山市岐关西路75号,广东省,中山市,,(0760)23336500,unknown,
baidu,30a3f4d8ecc17bfad03ce3eb,巨科杰车业,广东省中山市莲塘路5号,广东省,中山市,,15362192019,unknown,
baidu,1609949e353045f3ae0457ca,车站汽车配件商行,广东省中山市悦来南路35号,广东省,中山市,,13286382888,unknown,
baidu,4e647aec1edcf6ec03ec012b,中山市新堡汽车有限公司,广东省中山市广珠公路与沙石公路交叉路口往西南约100米(朗晴假日北侧),广东省,中山市,,"13824660064,18680175629",unknown,
baidu,974cb8b8d83df67bf2193794,旺记摩特润滑油换油中心,广东省中山市升华路15-24号,广东省,中山市,,13809872166,unknown,
baidu,a1da898a358468ac2102624e,Car sales,中山市博爱三路T.O.P时尚商务园,广东省,中山市,,,unknown,
baidu,a12baa40f1a2c956e956fabb,广东中山市和生轮胎商行,广东省中山市石岐区悦来南路35号,广东省,中山市,,(0760)88928444,unknown,
baidu,26f56daa3372e33c28201ad9,1998汽车养护店,莲兴路41号,广东省,中山市,,18680157999,unknown,
baidu,351a8740b17d2293a5da394a,环志汽车美容,广珠公路与槎桥路交叉口西北160米,广东省,中山市,,15876091363,unknown,
baidu,10c4b69eb21e0bb2cafa5f1e,米其林轮胎,广东省中山市广珠公路42号东区1-4卡,广东省,中山市,,13590987557,unknown,
baidu,3da20ea5d8471bfc0d3dda03,发记轮胎行,中山市西河东路江畔新村,广东省,中山市,,(0760)88627379,unknown,
baidu,88862e558ca94f7f1f3894b3,车给力汽车销售石岐分公司,中山市兴业街中山市厚兴郑伟权学校北侧约30米,广东省,中山市,,"13189211083,13702788618",unknown,
baidu,f3819a34af67a802abf72976,轮胎电池,广东省中山市石岐区南安路20号大信新都汇(新悦店)F1,广东省,中山市,,,unknown,
baidu,9952acee48a06da51d1d110b,中山市车之邦汽车用品店,中山市石岐区街道南兴花园12栋首层,广东省,中山市,,15502050666,unknown,
baidu,6bae28dbe56b587515764392,中山市皓亦汽车用品有限公司,广东省中山市大柏山上街1号,广东省,中山市,,13715661060,unknown,
baidu,a2713504a04de1ff364aae38,铁将军(南兴花园店),广东省中山市和通路1号,广东省,中山市,,,unknown,
baidu,0b0dce3fa3d977654e2fdfc3,旅行者租车(中山豪车专租总店),广东省中山市中山二路41号,广东省,中山市,,13924975928,unknown,
baidu,0b0524ba3f21c607cae33c67,壹明车行,中山市岐关西路华陀新村,广东省,中山市,,,unknown,
baidu,6044c9240b014536f90cadc6,中山市道道通汽车租赁有限公司,广东省中山市柏苑路花园新村裕华楼五幢地下19号,广东省,中山市,,"(0760)88391129,13600331608",unknown,
baidu,0b036d16549a6012a8f729c2,华怡车行,广东省中山市天湖上街40号,广东省,中山市,,13420211862,unknown,
baidu,2c4a97e21fd3128d04fef5fe,摩托车年审检测站,中山市孙文东路半山翠苑南侧约30米,广东省,中山市,,,unknown,
baidu,8241f1455d83f537e6e965bf,广东中汽租赁有限公司中山分公司,中山市石岐区博爱三路9号(第4幢3层4-317号),广东省,中山市,,,unknown,
baidu,069132684dd254b1c2364411,陈伯衡中医诊所,中山市悦来中路与民权路交叉口北90米路西(康泰苑康怡阁),广东省,中山市,,,unknown,
baidu,20325a533ddbc77bcd04efa5,献血屋(中山公园),广东省中山市石岐街道孙文中路190号,广东省,中山市,,(0760)88314496,unknown,
baidu,ba36da0eaec9f3c8a1acc4ce,新草本药行(亭子下大街店),广东省中山市亭子下大街21号6-7卡,广东省,中山市,,(0760)88879726,unknown,
baidu,befdb29299ba96e186154190,中山市石岐区社区卫生服务中心,广东省中山市民生路113号,广东省,中山市,,(0760)88858976,unknown,
baidu,eb9fa74a248a26ab31f71dff,中山陈仿阳中医诊所,广东省中山市华力路12号,广东省,中山市,,,unknown,
baidu,0b5bcfafbed832f29fe321e1,科曼医疗美容,广东省中山市中山二路41号,广东省,中山市,,,unknown,
baidu,c1725cf74e6967344054d700,爱汇星医疗美容医院,广东省中山市中山二路2号,广东省,中山市,,,unknown,
baidu,a2867a63af63adc075e5b6c4,中山华都肛肠医院,广东省中山市石岐区悦来南路3号,广东省,中山市,,15900098067,unknown,
baidu,93a255514c77a73eb35c6af2,王记草药,广东省中山市太平路441号,广东省,中山市,,,unknown,
baidu,28b467628b23d5b3c27da2e6,中山华都肛肠医院-住院大楼,广东省中山市悦来南路1号,广东省,中山市,,(0760)88888677,unknown,
baidu,da1360399a0ff4ddf9f0cb55,中山市贝雅口腔门诊部,石岐区街道中山二路33号,广东省,中山市,,(0760)88823302,unknown,
baidu,b7370775b4dda0699e95de77,中山市人民医院口腔医疗中心(莲和门诊),广东省中山市石岐街道柏垭直街13号,广东省,中山市,,,unknown,
baidu,cc443486b0052434f82d6125,杏林春暖中医馆,悦来中路2号底层4卡,广东省,中山市,,,unknown,
baidu,d647a8764b81f6c7d72ce211,陈玉仪口腔诊所,广东省中山市华力路22号,广东省,中山市,,(0760)88801820,unknown,
baidu,7221901f4c17fc96ab0dd8e4,康华阳光中山康城血液透析中心,广东省中山市石岐街道中山二路26号(粤卓大厦南侧约20米),广东省,中山市,,,unknown,
baidu,9397f7197eb300ad3517dca0,曾伟英诊所,广东省中山市华柏路31号,广东省,中山市,,"(0760)88823823,(0760)88873462",unknown,
baidu,843e85c9e85ad39d9e9d686e,郑亮钧医院,广东省中山市太平路246号,广东省,中山市,,(0760)88822379,unknown,
baidu,5b9607d7a2c8ded14354d708,中山市人民医院-莲峰门诊部,广东省中山市太平路262号,广东省,中山市,,,unknown,
baidu,4835773217d10bb9ebe582bb,中山美年大健康体检中心(中山兴中广场A座分院),中山市石岐区凤鸣路3号中山兴中广场F1,广东省,中山市,,4009883888,unknown,
baidu,0a53ac61e1da95e71911d55d,康民医疗门诊部,广东省中山市光明路85号,广东省,中山市,,,unknown,
baidu,07f3c8b5f65ee21e6240a92f,中山市人民医院-门诊楼,广东省中山市孙文东路2号,广东省,中山市,,,unknown,
baidu,cf8843d7b7826f3500ff2d50,中山亚太医院,广东省中山市南安路2号,广东省,中山市,,(0760)88817599,unknown,
baidu,c8ee61a57da77b0ee5e96538,中山市人民医院-杨郭恩慈大楼,广东省中山市孙文东路2号,广东省,中山市,,,unknown,
baidu,9c09912b6a88d0139d82ead3,中山市人民医院急诊科,中山市石岐街道孙文东路2号,广东省,中山市,,(0760)89880083,unknown,
baidu,75eb61b94af04ab25abbbcd6,中山市石岐区疾病预防控制中心,广东省中山市民生路113,广东省,中山市,,,unknown,
baidu,c3bc854936a4f0a409a8d470,康九唐颈椎滑膜炎,中山市太平路黄麻园,广东省,中山市,,,unknown,
baidu,d146b388466f08df7402690d,中山市人民医院-杨志云大楼,广东省中山市石岐区石岐街道孙文东路2号市人民医院,广东省,中山市,,,unknown,
baidu,881a28e7424d6b3af942b220,中山市人民医院-杨颖滨大楼,广东省中山市孙文中路2号,广东省,中山市,,,unknown,
baidu,9d36f7613d2cc4bfa2046492,中山市人民医院,广东省中山市孙文东路2号,广东省,中山市,,(0760)88823566,unknown,
baidu,9ced253f2a23c5722c4733a9,中山市口腔医院,中山市石岐区湖滨路73号,广东省,中山市,,"(0760)88363296,(0760)88850423,(0760)89880953",unknown,
baidu,64340c6ffa427e4f2cb17e5e,中山肤斗士皮肤病专科,广东省中山市富华道8号-8号,广东省,中山市,,0760-85758777,unknown,
baidu,1777346432144b4500ec01f0,中山市人民医院-康怡特诊中心,广东省中山市孙文中路2号,广东省,中山市,,,unknown,
baidu,7c340bf9cdfc2895931fc922,中山市第三人民医院石岐门诊部,广东省中山市东区孙文东路241号,广东省,中山市,,(0760)88311470,unknown,
baidu,593850fb5dceee5dde1e52b3,中智大药房(民生路店),广东省中山市民生路168号,广东省,中山市,,"(0760)88315999,(0760)88722578",unknown,
baidu,cb4fd146b1f6df3f9d9d681d,中山市人民医院-健康管理体检中心,广东省中山市孙文东路2号,广东省,中山市,,,unknown,
baidu,79773136ba1473e7fd0eb089,中智大药房(华力路店),广东省中山市华力路26号商铺,广东省,中山市,,(0760)88315999,unknown,
baidu,ed42c6cf369ddaf7882fb5e6,大参林(民生路店),广东省中山市民生路204号7~8卡,广东省,中山市,,(0760)88161835,unknown,
baidu,87673ae17a26465de6e96507,金寿堂药行(民生路店),中山市民生路民生大厦西侧约30米,广东省,中山市,,(0760)88831809,unknown,
baidu,68a44582e58e6f8429fc48b3,民生五安药店,广东省中山市民生路256号,广东省,中山市,,13928195598,unknown,
baidu,9b895fa127f25bc788b988f7,杏林药房(悦来中路店),广东省中山市悦来中路2号,广东省,中山市,,(0760)88879424,unknown,
baidu,26dddb9761cab9c57069d382,李珠中草堂,广东省中山市民生路124号,广东省,中山市,,13528193229,unknown,
baidu,50e264a29dac9def3913fd0f,大参林(泰安路店),广东省中山市泰安路122号,广东省,中山市,,(0760)88611860,unknown,
baidu,49d959386ad1b143c71e51ba,建方牙科,广东省中山市悦秀路9号,广东省,中山市,,(0760)88809328,unknown,
baidu,542f3399938aa00741d63e69,中山堂药业(华力药店),广东省中山市华力路42号,广东省,中山市,,(0760)23882656,unknown,
baidu,cb18b73df9f5d04ac7f50d84,易医堂,广东省中山市华夏街3号,广东省,中山市,,13232570413,unknown,
baidu,fecd8052d40b187608ccdd44,老鼻方鼻咽馆,中山市光明路隆都大厦南侧,广东省,中山市,,13823929133,unknown,
baidu,4eac7e9cfb6d41d49ee321ba,人工智能数字化口腔中心,中山市悦来南路君悦豪庭-一期东北侧约40米,广东省,中山市,,,unknown,
baidu,c4024e3c6a7cd9842806ce20,中山林培钧口腔门诊部,广东中山市华柏路48~50号,广东省,中山市,,(0760)88268180,unknown,
baidu,81d3cdae94f64c21f82d6152,护和急救转运,中山市莲塘路中山市人民医院西侧约40米,广东省,中山市,,,unknown,
baidu,d1b3e0e999ab248f00ff2d23,永民视力提升中心,中山市莲塘路中山市人民医院西侧约30米,广东省,中山市,,,unknown,
baidu,4bee881567f652b30aa8d43e,九珍源参茸,广东省中山市悦来大街10号,广东省,中山市,,,unknown,
baidu,7fd72311843bd09f5dbe86b8,拨云堂,中山市康乐苑b栋,广东省,中山市,,(0760)88866858,unknown,
baidu,11f2febd1bb93afdbadf8f7c,儿童斜视弱视训练中心,中山市孙文东路顺景酒店东南侧约40米,广东省,中山市,,,unknown,
baidu,fd007c5ea95ca211a8f72944,大参林(光明路店),广东省中山市光明路9-2号,广东省,中山市,,(0760)88836558,unknown,
baidu,3f9337d6717609b3f62310b0,东华药店(乐陶苑南),广东省中山市石岐区太平路41号景福苑首层1-2卡,广东省,中山市,,(0760)88835868,unknown,
baidu,005861080d3807a547e274bb,中智大药房(逸仙湖药房),广东省中山市湖滨路22号4幢3卡之一,广东省,中山市,,(0760)86107961,unknown,
baidu,0c0656a52ac9a9b88c1a89e1,大参林(岐关西路店),广东省中山市岐关西路14号,广东省,中山市,,(0760)88611232,unknown,
baidu,73a5f0a936221ef4210220dd,三才医药(南下药店),广东省中山市中山二路28号,广东省,中山市,,,unknown,
baidu,3c30591cc08546696849f3ce,中智大药房(汇星店),广东省中山市岐关西路8号,广东省,中山市,,"(0760)85116219,(0760)88315999",unknown,
baidu,5211d219e634ed587cc876bb,中智大药房(南安路店),广东省中山市石岐区南安路9号之456卡,广东省,中山市,,(0760)28388767,unknown,
baidu,a38c9c60751ed224593ac80f,SPS+国药控股专业药房(中山店),广东省中山市太平路29号之一1楼、2楼,广东省,中山市,,(0760)88785748,unknown,
baidu,c0702eff25b6153287330457,大参林(孙文东路店),广东省中山市石岐区石岐街道孙文中路9号,广东省,中山市,,(0760)88877575,unknown,
baidu,b8303e8e5ad3fab0354aae24,万山草药,中山市太平路黄麻园东北侧约30米,广东省,中山市,,13078672287,unknown,
baidu,a3ceaa9ffa7c41e1213bf262,道健爱眼中心,广东省中山市华柏路108号,广东省,中山市,,,unknown,
baidu,5b789bca79f837ac32f71d31,贝耳听力助听器,广东省中山市太平路37号102~103卡,广东省,中山市,,18924956159,unknown,
baidu,f24899d5f1ec8e7f82a12e30,AED(中山美年大健康管理有限公司中山美年门诊部),广东省中山市兴中广场A座7楼,广东省,中山市,,4000004813,unknown,
baidu,31ec6cd874e4c5d40ab93af3,平一安大药房(南安路店),广东省中山市石岐区南安路9号,广东省,中山市,,(0760)88801188,unknown,
baidu,7f67585d59d21f67601c6709,衡康源亲迈大药房(东区华柏店),广东省中山市华柏路88号,广东省,中山市,,,unknown,
baidu,8cbd9e0de41fbd0015c8f6c4,峰力助听器官方旗舰店(中山旗舰店),广东省中山市孙文东路57号,广东省,中山市,,13380882112,unknown,
baidu,e6a8f72d83cbff414251c028,裕康堂健康管理中心,中山市三级石中山二路68号商务楼西南侧约80米,广东省,中山市,,13380872287,unknown,
baidu,743ba99ee756851184154141,耳聋隐形助听器,广东省中山市莲塘路14号,广东省,中山市,,,unknown,
baidu,d88a8cff809082ced8eced5d,福声听力康复中心(石岐专卖店),孙文东路桑基二巷6号,广东省,中山市,,(0760)88235676,unknown,
baidu,063b4f050e7dc1fd04fef533,就好医用宣传中心,中山市延龄路中山市二轻幼儿园东南侧约30米,广东省,中山市,,4007796866,unknown,
baidu,6afdcaf31ce9d8687adbd276,石岐区健晨保健服务中心,中山市华柏路华柏新村,广东省,中山市,,"13702785131,15017300728",unknown,
baidu,767f90b998ea87276240a9cb,中的大药房,中山市莲塘路中山市人民医院西侧约40米,广东省,中山市,,,unknown,
baidu,7b455b3487a792e9acee7a91,壹品汇,中山市紫来大街紫来花园,广东省,中山市,,13528249612,unknown,
baidu,aeed50d833a91148c9e33c84,中山卓颜医疗美容,中山市逢源路从善坊北侧约140米,广东省,中山市,,,unknown,
baidu,acd209f9830bfc1543ab9aee,维尔口腔(石岐店),广东省中山市岐关西路15号,广东省,中山市,,(0760)23453328,unknown,
baidu,cc5540ca6de3194a46572696,中山松鼠口腔医院,广东省中山市悦来南路24号,广东省,中山市,,18022126353,unknown,
baidu,34af4345e2812658c51b7584,卡卡口腔(中山分院),广东省中山市石岐区孙文东路50号半山翠苑1楼,广东省,中山市,,(0760)88868948,unknown,
baidu,990131c604af0735f942b235,秦玉口腔诊所,广东省中山市延龄路11号紫来花园商铺37卡,广东省,中山市,,(0760)88829135,unknown,
baidu,7633a48c09eec5d824e0a069,润兴养生滋补行,光明路与湖山路交叉路口往西约100米（中山公园北侧约50米）,广东省,中山市,,,unknown,
baidu,43461676fd08a444c9c3db62,大触艺术社,广东省中山市石岐区逢源商业街4号楼2楼201室,广东省,中山市,,15876063185,unknown,
baidu,6abd3e34c2ea13dce115f92f,拓武格斗俱乐部,广东省中山市中山二路33号2层,广东省,中山市,,"13726026210,18933328854",unknown,
baidu,a6463020bdbb9e7333169b54,德如学堂,广东省中山市民权路冲边道9号,广东省,中山市,,15019906974,unknown,
baidu,814d41459d126e7e97031978,九章教育(民生路),广东省中山市民生路232号,广东省,中山市,,(0760)88822481,unknown,
baidu,7d52b20f8851306072455b51,0基础蛋糕培训,中山市逢源路逢源商业街,广东省,中山市,,,unknown,
baidu,26e042dfa96533b9f60e7790,海博教育培训中心,广东省中山市中山二路36号中宝大厦2层,广东省,中山市,,18928153969,unknown,
baidu,4ba29e527feccf1e1c38947a,康语儿童言语社交训练中心(中山利和中心),广东省中山市中山二路82号二楼,广东省,中山市,,18859115009,unknown,
baidu,da8f2d9897be3dd4c72ba1c2,星火教育(中山三路学习中心),广东省中山市华柏路48,广东省,中山市,,(0760)88885571,unknown,
baidu,8d47ed2602d878bb6018094b,童声教育,广东省中山市石岐区孙文中路158号之一底层4卡,广东省,中山市,,13392947663,unknown,
baidu,135a27543e4934449d9d68f9,柏睿教育,广东省中山市石岐区太平路288号,广东省,中山市,,18938723305,unknown,
baidu,18d167f2696c2cd909a8d446,中山市老干部大学,广东省中山市华柏路47号（民生社区）,广东省,中山市,,(0760)88845267,unknown,
baidu,ee17fa5000d0661ec9c3dbd0,达内IT培训(中山中心),广东省中山市安栏路2号中恳商业大楼13楼C-D座,广东省,中山市,,,unknown,
baidu,aebdf79146bb90a66b49f37c,凤鸣书画社,广东省中山市光明路9号,广东省,中山市,,18988592339,unknown,
baidu,22cac863f7585e8d2b201af7,与跃街舞(华发商都店),广东省中山市中山二路华发商都6楼A6014-A6016号,广东省,中山市,,15913450243,unknown,
baidu,4f1807ff0ac36bb3a01de9f7,卓越教育(岐关西校区),广东省中山市岐关西路14号汇中商业中心3楼,广东省,中山市,,,unknown,
baidu,a0105c33f4b220c945572654,日语韩语,中山市洪家基正街中山市华侨中学南校区(初中部)南侧,广东省,中山市,,13528256082,unknown,
baidu,b061f937f8b77cfe940319bc,中山漫画馆,广东省中山市湖滨路与光明路交叉口逸仙湖公园内（壹加壹对面）,广东省,中山市,,(0760)88829276,unknown,
baidu,9672256189a1b1535e17c3b5,JS舞蹈(东区利和校区),广东省中山市中山三路4号味道中山3楼,广东省,中山市,,18025499673,unknown,
baidu,83e11f8d74e19bc7b320a81e,中山市体育运动学校,石岐区民权路23号之一,广东省,中山市,,(0760)88822568,unknown,
baidu,810015929c108207a7c756cc,小艇教育,广东省中山市石岐街道安栏路2号,广东省,中山市,,,unknown,
baidu,a7c56ee0bf0bd3b3a2acc4b5,石岐西厂小学(小学校区),广东省中山市梅基街42号-2,广东省,中山市,,(0760)88877713,unknown,
baidu,c1653405f53f1d04ab175a37,金燕子幼儿园,广东省中山市西厂前街41号,广东省,中山市,,(0760)88829443,unknown,
baidu,fe351becd70ab5ad0782c23a,颜乐树艺术培训中心,广东省中山市岐关西路33号俊轩庭1--2座2楼4号,广东省,中山市,,13416057778,unknown,
baidu,d19b3376099ca8975e0d02c1,舞蹈培训,广东中山市石岐区岐安路h521号,广东省,中山市,,,unknown,
baidu,5ac152ccc63bfcc04f3a5952,岐舞街舞少儿街舞培训(大信新都汇新悦店),广东省中山市南安路18号大信·新都汇新悦店2楼C01号,广东省,中山市,,18125335015,unknown,
baidu,cc9a43f4b222e16615a19042,钰杰舞蹈,中山市孙文中路元兴幼儿园东南侧,广东省,中山市,,15889880754,unknown,
baidu,2fd2beab62df03527bdbd2b5,启发中学,广东省中山市龙母庙街70号,广东省,中山市,,(0760)88823105,unknown,
baidu,a3f21eee5be5e0392fb17e38,金玲职业培训学校,广东省中山市华柏路9号金玲大厦,广东省,中山市,,"(0760)88233299,(0760)88335389",unknown,
baidu,1029bae1b12e66db2afc4878,中山市乐力音乐培训中心,广东省中山市太平路48号,广东省,中山市,,(0760)88855336,unknown,
baidu,a8f7a5a790f4dd4c20f017c5,环球雅思国际英语(东区体育路校区),广东省中山市体育路19号东区,广东省,中山市,,(0760)88729899,unknown,
baidu,a4fa8684cc357539e60738c4,广丰乒乓球训练基地,广东省中山市西区中山一路103号三楼,广东省,中山市,,,unknown,
baidu,afe191de1808d448f9dc85de,金燕子幼儿园新时代文明实践点,广东省中山市民族路149号、151号,广东省,中山市,,,unknown,
baidu,867c94b6e2e6ed21ff0eb048,欧阳干荣公幼儿园,广东省中山市梅基街66号,广东省,中山市,,(0760)88826636,unknown,
baidu,4de44011c7011f86aeb22a69,广东省无障碍督导员培训基地,广东省中山市石岐区孙文中路39号中山市残疾人服务中心内,广东省,中山市,,,unknown,
baidu,2ad32cc3dcb470f29d95de40,中山市石岐实验小学,广东省中山市七仙街2号,广东省,中山市,,"(0760)88823185,(0760)88823627",unknown,
baidu,d7de5e8597496fdfae31e5f7,singstudio,广东省中山市华柏市场A5卡,广东省,中山市,,18607605240,unknown,
baidu,7c5e480bb5e580b4acb22aaf,中山市华侨中学南校区(初中部),广东省中山市民族东路18号,广东省,中山市,,(0760)88822492,unknown,
baidu,056e39a1b2fa69d2eae582ec,小铭同学,中山市民权路邝家基新村东南侧,广东省,中山市,,,unknown,
baidu,a1ceb1c38c4f975840024558,中山市悦来幼儿园,广东省中山市民权路2号,广东省,中山市,,(0760)88926777,unknown,
baidu,504d6113625cefb3475726b5,中山市石岐幼儿园,广东省中山市石岐街道凤鸣社区湖滨路7号,广东省,中山市,,(0760)88823376,unknown,
baidu,930d7ba841ac10abad31e5ec,中山市思帆(国际)幼儿园,广东省中山市方基冲大街3号,广东省,中山市,,(0760)88818863,unknown,
baidu,3b460f128bd07ca8f5c59cb0,斯玛特儿童美术中心(东区岐关西路校区),广东省中山市岐关西路17号1卡2楼,广东省,中山市,,(0760)88807787,unknown,
baidu,bb5a034df1005aa62bd7ab06,房管幼儿园(孙文中路),中山市治安街孙中山纪念堂公园南侧约120米,广东省,中山市,,,unknown,
baidu,9e96b097ce1722cc0bb93a70,元兴幼儿园,中山市孙文中路与梓桐巷交叉路口北侧,广东省,中山市,,"(0760)88850690,13702390430",unknown,
baidu,848e27d3c5ef8400bea240c3,中山市商业幼儿园,广东省中山市民权路53-1号,广东省,中山市,,"(0760)88822394,(0760)88831448",unknown,
baidu,f4460918c17d386ab01e36b5,中山市童乐外贸幼儿园,广东省中山市方基冲大街2号,广东省,中山市,,(0760)88805271,unknown,
baidu,06672e1d2400e7af96ca0733,市红会卫生培训中心,广东省中山市石岐街道岐关西路迎阳正街1号京德森商务中心二楼,广东省,中山市,,(0760)88269595,unknown,
baidu,62548a76b0e03ad725d2bbd6,中山市第一中学(月山校区),广东省中山市孙文中路134号,广东省,中山市,,(0760)88301234,unknown,
baidu,98abf79bb36faf4381288a11,壹加壹商学院,广东省中山市槎桥路与轩朗路交叉口西北150米,广东省,中山市,,(0760)88817888,unknown,
baidu,7015a9eca767630bb7265533,中山市华侨中学,广东省中山市民族东路18号,广东省,中山市,,,unknown,
baidu,b7021bf8fb0e21faf5e73bb5,博爱小学,广东省中山市石岐街道民权路55号,广东省,中山市,,(0760)88820066,unknown,
baidu,56e88cba023a8064a4c75615,中山市杨仙逸中学,广东省中山市三级石11号,广东省,中山市,,(0760)88860738,unknown,
baidu,3fe40608253489f01ce99929,中山市石岐高家基小学(烟墩校区),广东省中山市石岐街道凤鸣社区湖山路2号,广东省,中山市,,"(0760)88823006,(0760)88859160",unknown,
baidu,0fbcd593406adb4d0289724b,中山老年大学,中山市孙文中路中山开放大学,广东省,中山市,,,unknown,
baidu,0a04c234be90d9eab726557e,芝兰教育,广东省中山市中山二路4号星汇湾7幢705室,广东省,中山市,,(0760)87982888,unknown,
baidu,2e00c5dd483d9c1cd6851faf,中山市石岐太平小学,广东省中山市太平路286号,广东省,中山市,,(0760)88829511,unknown,
baidu,750368358a9228af5f0d02af,中山市机关第一幼儿园,广东省中山市石岐区莲塘路8号,广东省,中山市,,(0760)88823142,unknown,
baidu,ee47f4b160b114836d20b94e,国粹研究所,中山市逢源路从善坊北侧约130米,广东省,中山市,,,unknown,
baidu,3e38f493accbfe9c5a3ac89b,新励成演讲口才培训(端州学训中心),广东中山市信安五路假日广场5层1204~1205室,广东省,中山市,,4000001318,unknown,
baidu,ee74079b8684e734901fc907,中山市二轻幼儿园,广东省中山市延龄路5号,广东省,中山市,,(0760)88823726,unknown,
baidu,4d53e7cbc0dca409df1e52f5,中山市体育运动学校-中山市建勋中学,广东省中山市民权路23号,广东省,中山市,,(0760)88822568,unknown,
baidu,c70e5094ada627cc40e19203,农商银行新时代文明实践站,广东省中山市华柏路7号中山农商银行(石岐支行)内,广东省,中山市,,,unknown,
baidu,2cd68330a93d16419c09f79f,北京大风车双语幼儿园(中山乐意园),广东省中山市岐关西路9号,广东省,中山市,,(0760)88834567,unknown,
baidu,7a1a17c04df77b340c0a70ef,中山市第二特殊教育学校,广东省中山市莲塘路36号,广东省,中山市,,(0760)88660280,unknown,
baidu,c970b939c13f15fe2902e17f,淑慧幼儿园,中山市岐区民权路下基居安里67号,广东省,中山市,,(0760)88823239,unknown,
baidu,25ec69fca9ea447dc36c14af,中山市石岐杨仙逸小学,广东省中山市岐关西路14号,广东省,中山市,,(0760)88802744,unknown,
baidu,65ee01b0edc7bd70be484290,美术音乐,中山市岐关西路怡华苑,广东省,中山市,,,unknown,
baidu,3a0fbba8f9a30a419fe321b5,石岐区南下托儿所,广东省中山市仁寿坊56号,广东省,中山市,,18933301967,unknown,
baidu,169e550c11026f661f38944d,香山幼儿园(唐屋巷),中山市石岐区街道胡园横巷14号,广东省,中山市,,"(0760)88824883,(0760)88989935",unknown,
baidu,498a872e15c5f8333586f408,华生五星级游泳培训(利和希尔顿店),中山三路16号利和希尔顿酒店6楼,广东省,中山市,,,unknown,
baidu,3a0a78bd22c204fa621809af,中山市东区柏苑中心小学,广东省中山市柏华街12号,广东省,中山市,,(0760)88319499,unknown,
baidu,71d96eb75adbb12425d2bb07,金石教育(香山大厦),广东省中山市岐关西路30号之1号202房,广东省,中山市,,"15876089755,18688109707",unknown,
baidu,5ab8f0efaee807d2715e80da,悦宝婴幼园(东区旗舰店),广东省中山市怡华街9号万丽豪庭二层,广东省,中山市,,(0760)88620028,unknown,
baidu,4aa862512fee77ccc9e33c34,厚兴黎桂添幼儿园,广东省中山市厚兴兴业街20号,广东省,中山市,,(0760)88701901,unknown,
baidu,dc6479f4af50ce483804b149,中山市工业幼儿园,广东省中山市河泊大街胡园横巷12号,广东省,中山市,,(0760)88823230,unknown,
baidu,d7ed77e9e60d0a190ab93abf,中考体育(恒信花园B区店),广东省中山市恒怡街6号恒信花园B区,广东省,中山市,,,unknown,
baidu,6113ef77b63a6e148f7727af,中山市北区中学,广东省中山市湖滨中路5号,广东省,中山市,,"(0760)23328846,(0760)23328862,(0760)23328891",unknown,
baidu,6deaef03f8be4bd138221caf,中山纪念图书馆,广东省中山市东区街道兴中道8号,广东省,中山市,,(0760)88324502,unknown,
baidu,48eb0058013d87ad2ee67baf,雍景园幼儿园,广东省中山市歧关西路43号,广东省,中山市,,(0760)88883456,unknown,
baidu,4cbbf2cb5dac54a1c26c143e,电子科技大学中山学院,广东省中山市石岐区学院路1号,广东省,中山市,,"(0760)88325164,(0760)88888611",unknown,
baidu,3cd08083a35f8dc7931fc9f0,华星中旅幼儿园自提点,中山市民安街白领公寓,广东省,中山市,,,unknown,
baidu,e51d0ef04e212b1008ccdd83,星晨托儿所,广东省中山市迎阳正街3号,广东省,中山市,,13528116886,unknown,
baidu,3429c66aca2533ecea1e9749,中山市石岐体育路学校,广东省中山市东区街道体育路35号,广东省,中山市,,(0760)88331896,unknown,
baidu,ebea1e20c791ea5cbca822ca,雍景园小学,广东省中山市岐关西路45号,广东省,中山市,,(0760)88383180,unknown,
baidu,e82970afba4e7fddf03cba77,东明幼儿园,广东省中山市街道南下观音堂正街20号,广东省,中山市,,,unknown,
baidu,0060f484c66e0322fa42b20a,中山市西区西区小学,广东省中山市西区街道升华路10号,广东省,中山市,,"(0760)88332745,(0760)88635079",unknown,
baidu,5508504def263acbc6f025af,中山市东区松苑中学,广东省中山市彩虹街1号东区,广东省,中山市,,(0760)88389908,unknown,
baidu,94226632ffa552cc1b94c650,中山市小天鹅幼儿园,广东省中山市南洲街2号之4号,广东省,中山市,,(0760)88821782,unknown,
baidu,fdf37e99581225fcbea2402a,中山市厚兴郑伟权学校,广东省中山市兴业街22号,广东省,中山市,,(0760)88704324,unknown,
baidu,9ee7cc78e1ebac7017c905af,天湖托儿所,中山市天湖上街27号,广东省,中山市,,,unknown,
baidu,53cebd50a703d11d2a02e1f1,石岐区天真幼儿园,广东省中山市桑基1巷4号,广东省,中山市,,17708267135,unknown,
baidu,cb4fd146e0bd2c419c9d68af,天明幼儿园,广东省中山市天鸿路7号,广东省,中山市,,,unknown,
baidu,4c1edc9c3279570a8f1a89e7,员峰学校,中山市工业大街12号,广东省,中山市,,,unknown,
baidu,5b12df7692f8cf8614b54b66,胡园托儿所,广东省中山市石岐区胡园横巷16号,广东省,中山市,,(0760)88823411,unknown,
baidu,dffd4642ec07c7b33c9a5e56,威力幼儿园,广东省中山市孙文东路127号,广东省,中山市,,(0760)88319754,unknown,
baidu,87248d96277780b32906ceb5,中山市蓝波湾学校,广东省中山市江湾路8号,广东省,中山市,,(0760)88628803,unknown,
baidu,6ee01020a8248bef53e5c5b5,石岐第一城小学,广东省中山市星宝街4号,广东省,中山市,,(0760)88805830,unknown,
baidu,e3a7fd13d663d95328b97c12,烟洲学校,广东省中山市长洲西大街3号,广东省,中山市,,(0760)88638486,unknown,
baidu,21d62d386103450cd2f49e33,中山市教师进修学院附属实验学校,广东省中山市林涌尾后街二巷6号,广东省,中山市,,,unknown,
baidu,3fe45cda51c20bac882fb522,维新幼儿园,广东中山市石岐区陀竹巷22号陆家祠308房,广东省,中山市,,,unknown,
baidu,3bc6c8d79353843fc7f025af,中山市深中标准质量研究中心,广东省中山市石岐区悦来南路12号中山市市场监督管理局大院二号楼,广东省,中山市,,13823976603,unknown,
baidu,467f5bd4c88a22d3f942b260,莲峰幼儿园,广东省中山市石岐区石岐街道卖鸭街20号之一,广东省,中山市,,,unknown,
baidu,cc673004f3e148dab020a812,中山市肿瘤研究所,广东省中山市孙文东路2号,广东省,中山市,,,unknown,
baidu,de959397415af1df6fa3ccff,烟墪区康乐托儿所,中山市步云里碧湖居南侧约100米,广东省,中山市,,,unknown,
baidu,402d78ef58dc77ea2b11d1ca,国家职业技能鉴定所,中山市石街乐陶苑西北侧约80米,广东省,中山市,,,unknown,
baidu,39a2736521cf26c8d13ce30d,万丽豪庭幼儿园,广东省中山市中山三路8号世纪广场底商F1,广东省,中山市,,,unknown,
baidu,ed54f38391557c48fb221315,石岐区中心幼儿园,广东省中山市南安路18号,广东省,中山市,,(0760)88863102,unknown,
baidu,1880065cf7756f9dc9c3db1c,广州质量监督检测研究院(中山办事处),广东省中山市中山二路志荣大厦3层,广东省,中山市,,,unknown,
baidu,79cceb361e36bd891f5800af,中山市供销幼儿园,广东省中山市石岐街道湖滨路62号,广东省,中山市,,"(0760)88822884,(0760)88824002",unknown,
baidu,a0115cc3f77ccc66a11de924,中山市临床医学研究所,广东省中山市石岐区石岐街道孙文东路2号中山市人民医院新3栋2楼,广东省,中山市,,,unknown,
baidu,197fec989f4e206beee4a57f,逢源古董玉器街西侧临时停车点,广东省中山市逢源商业街2号楼,广东省,中山市,,,unknown,
baidu,483313f30f62a856c6effb2e,逢源公寓东北侧停车场,广东省中山市亭子下大街17号,广东省,中山市,,,unknown,
baidu,74b611fca993829689b9883a,逢源路,001路;002路;005路;021路;050路,广东省,中山市,市辖区,,unknown,
baidu,ba575e81e063e17885420e8b,平实新能源充电站(逢源商业街充电站),广东省中山市石岐街道中山市亭子下大街21号A08,广东省,中山市,,13025513888,unknown,
baidu,30ddd413e8b6f3d687154117,逢源小区-地下停车场,中山市逢源商业街石岐西厂小学东侧约40米,广东省,中山市,,(0760)88851255,unknown,
baidu,7b6c3c23abb749090f0a70ec,孙文西路70-72号侧停车场,中山市逢源商业街石岐西厂小学北侧约50米,广东省,中山市,,,unknown,
baidu,d629ee18f80ae3c34e776e3b,中山市博物馆-地下停车场,广东省中山市石岐街道孙文中路197号(近中国收音机博物馆),广东省,中山市,,,unknown,
baidu,530d1751c118cbb7a80dd87f,西山寺-地上停车场,广东省中山市孙文中路240号西山寺(西山公园),广东省,中山市,,,unknown,
baidu,2ef521dc33f85f56018972cc,民族东市场-停车场,中山市民族东路中区幼儿园西南侧,广东省,中山市,,,unknown,
baidu,29b7d017d8f37d899e95de53,泰安路,001路;002路;009路;050路;悦享中山休闲观光旅游线路,广东省,中山市,市辖区,,unknown,
baidu,b39e513ba4b6b4a61188246e,民权路东,009路;052路,广东省,中山市,市辖区,,unknown,
baidu,bb0443d58ee595118c55ec7d,逢源公寓北侧-地下停车场,中山市亭子下大街逢源公寓北侧约50米,广东省,中山市,,,unknown,
baidu,8eba73067cf66173911fc939,中医院悦来门诊部,001路;002路;005路;009路;021路;050路;052路;L03路,广东省,中山市,市辖区,,unknown,
baidu,cfb15c64e80c06f2841541c4,停车场(西华社北巷),广东省中山市逢源商业街7号2号附近,广东省,中山市,,,unknown,
baidu,1039800a0af9961279dbd2cb,中山纪念堂(中山博物馆),001路;002路;005路;009路;021路;050路;052路;L03路;悦享中山休闲观光旅游线路,广东省,中山市,市辖区,,unknown,
baidu,ffd1f51f842ce41316a19075,逢源公寓-地下停车场,广东省中山市亭子下大街17号,广东省,中山市,,,unknown,
baidu,5631c389c4a2027dacee7a0f,石岐西厂小学(小学校区)-停车场,中山市梅基街石岐西厂小学,广东省,中山市,,,unknown,
baidu,2de9193dde1a9fbbaeb22a31,康泰苑,005路;009路;021路;052路;L03路,广东省,中山市,市辖区,,unknown,
baidu,9aad63b1dcead7a44c6d464a,云快充充电站(康星顿),广东省中山市民生路100号,广东省,中山市,,4008288517,unknown,
baidu,6cbc448298c94f1a21022011,华柏市场,003路;009路;013路;013路职教园班次;015路;B19路,广东省,中山市,市辖区,,unknown,
baidu,b1000dc413d71e781c389424,样样巴士(中山富安招呼站),广东省中山市富华道7号,广东省,中山市,,,unknown,
baidu,780b54167b9c0a5f715e804b,逢源古董玉器街西侧-停车场,广东省中山市逢源商业街2号楼,广东省,中山市,,,unknown,
baidu,3ec96048c64346ecb75f1e34,中山市人民医院-地上停车场,广东省中山市孙文东路2号,广东省,中山市,,,unknown,
baidu,aaa9502bf746486d1ef74d85,中山兴中广场B座-地下停车场,中山市石岐区凤鸣路3号,广东省,中山市,,,unknown,
baidu,d3550ecc96fb612932f71d88,中山市百货大厦-地下停车场,中山市石岐区孙文西路60号中山百货B1,广东省,中山市,,,unknown,
baidu,d2248ad33c8b613685420e85,中山市人民医院-地下停车场,广东省中山市孙文东路2号,广东省,中山市,,,unknown,
baidu,0af3f81fb6cd8e2a75e5b6ea,利和广场,001路;024路;030路;033路;038路;K01路;K02路;K12路;K15路;K28路;博览中心至城区主要商圈环线,广东省,中山市,市辖区,,unknown,
baidu,0e96c2d914163024f60e7707,中山富华酒店-地上停车场,广东省中山市富华道1号,广东省,中山市,,(0760)88638888,unknown,
baidu,1faa7eb3d5db0196dbd89150,康星顿-停车场,广东省中山市民生路100号,广东省,中山市,,,unknown,
baidu,c682cea36c64201fb8bd634b,白水井大街-路侧停车场,中山市白水井大街白领公寓,广东省,中山市,,,unknown,
baidu,2eafa80926f043e2a1d230b3,逢源楼南侧停车场,广东省中山市泰安路36-之2号附近,广东省,中山市,,(0760)88851255,unknown,
baidu,05325b3c6dacb90af4e73b97,中山市停车场,广东省中山市民生路38号,广东省,中山市,,,unknown,
baidu,8de5f65f887d1ed01ce99933,氮肥厂宿舍小区-地上停车场,中山市亭子下大街逢源公寓东南侧约50米,广东省,中山市,,,unknown,
baidu,e2369321ae345dc79ee321e7,南方电网充电站(中山市东区岐华大厦公共充电站),广东省中山市东区街道华泊花园街兴业银行大厦,广东省,中山市,,4006895598,unknown,
baidu,d7fd2ad3c37464290bccdd24,华力二区-地下停车场,中山市华力路1号2幢附近,广东省,中山市,,,unknown,
baidu,7e826f740e02ba4ff02d837e,广汽能源超充站(中山山水时尚酒店地上站),石岐区中山二路41号山水时尚酒店停车场(靠中山二路),广东省,中山市,,4008083392,unknown,
baidu,9555c93c7d62422bd22dd6ce,中山利和广场-地下停车场,广东省中山市中山三路16号利和广场B1,广东省,中山市,,,unknown,
baidu,803c9bc61cef93fc9d95de91,人民医院,001路;002路;003路;009路;013路;013路职教园班次;022路;030路;032路;050路;209路;B11路;B19路;B29路;K02路;K07路;K12路;K15路;L02路;L06路;人民医院至金鹰广场免费穿梭线,广东省,中山市,市辖区,,unknown,
baidu,21aadd437d74a44172455b82,柠檬社区-停车场,广东省中山市石岐街道民权路22号,广东省,中山市,,,unknown,
baidu,a5fedb51b11516ad72455b8a,金都城东北侧-停车场,中山市悦来路金都城东北侧,广东省,中山市,,,unknown,
baidu,b0774163bc518e347dc876a3,中山博物馆(拱辰路),032路;209路;L02路,广东省,中山市,市辖区,,unknown,
baidu,1e80dfadd4e968ca40afe6f0,泰安商城-停车场,中山市泰安路泰安楼北侧,广东省,中山市,,,unknown,
baidu,f94441b1db8c110b1811d50e,顺景实业民族东市场-立体停车楼,中山市民族东路顺景实业民族东市场,广东省,中山市,,,unknown,
baidu,8d96925c56565338c1f1cf47,中山一桥,广东省中山市石岐河,广东省,中山市,,,unknown,
baidu,9d5279db8ba907096d20b9c2,逢源公寓西北侧临时停车点,中山市梅基街逢源公寓西北侧,广东省,中山市,,,unknown,
baidu,0c77dc0e239505251676431e,壹加壹超市(华力店)-地上停车场,广东省中山市华力路壹加壹超级商场(华力店),广东省,中山市,,,unknown,
baidu,40dc032bb8018e6243afe601,中山石岐万象汇-地下停车场,广东省中山市孙文东路28号B1~B3,广东省,中山市,,,unknown,
baidu,f1e8ed97c914d658d42ce2fb,悦来大街路东侧-停车场,中山市悦来大街华茵楼北侧约80米,广东省,中山市,,,unknown,
baidu,c58938b83481a25b3486f495,民权路中,052路;L03路,广东省,中山市,市辖区,,unknown,
baidu,c16534056328ab07ab175adf,岐江公园-西门地上停车场,中山市大桥横街与中山一路交叉路口往东北约130米,广东省,中山市,,,unknown,
baidu,4eb9ab6c4b904d405e17c39e,石岐卫生服务中心,052路,广东省,中山市,市辖区,,unknown,
baidu,3477005b54e5b530c42ba1e1,星河华苑-地下停车场,广东省中山市中山二路39-1-01号附近,广东省,中山市,,,unknown,
baidu,00b6d7dc54cc24154afc8dcc,市政府第二办公区,001路;033路;038路;B18路;B23路,广东省,中山市,市辖区,,unknown,
baidu,3e8afd8a82ba1ab9c056ac53,怡中大厦-停车场,中山市石岐街道中山二路48号,广东省,中山市,,(0760)88928313,unknown,
baidu,862afb748cef30266c3e1baa,万城万充充电站(山水时尚酒店充电站),石岐区中山二路41号山水时尚酒店停车场(靠中山二路),广东省,中山市,,4008083392,unknown,
baidu,04e3156d010283b98bfc06f0,中国银行宿舍(民权路)-停车场,中山市亭子下大街9号,广东省,中山市,,,unknown,
baidu,0dd5d1d04390b43517b54b5d,东南门大厦-地下停车场,广东省中山市深巷9号,广东省,中山市,,,unknown,
baidu,8548ae79385a3051940319aa,莲塘路,003路;005路;013路;013路职教园班次;022路;030路;B11路;B19路;B29路,广东省,中山市,市辖区,,unknown,
baidu,454af5e01506770fae045705,中山市人民政府民生办公区-停车场,中山市中山二路和兴阁东侧约30米,广东省,中山市,,,unknown,
baidu,2562f6095da06036364aae0a,丰圆轩粤式茶楼(中山二路店)-停车场,中山市石岐街道亭子下大街2号,广东省,中山市,,,unknown,
baidu,1bc8f8d6deb414029e82ea1b,民生大厦-地下停车场,中山市民生路38号,广东省,中山市,,,unknown,
baidu,227b3e445e2b804ab45f1ef4,美华楼东侧停车场,广东省中山市中山二路33号,广东省,中山市,,,unknown,
baidu,f24abbdaa02e4a2d85420e25,中山纪念图书馆-地下停车场,广东省中山市东区街道兴中道8号,广东省,中山市,,,unknown,
baidu,57762b16754625673617dc8d,中山市体育运动学校-停车场,中山市中山二路中山市体育运动学校,广东省,中山市,,,unknown,
baidu,414e1bea6dd02ff9e31103c5,中山市水务局-停车场,广东省中山市孙文中路178号,广东省,中山市,,,unknown,
baidu,f00be3876931180f9e9d68ef,泰安市场东,052路,广东省,中山市,市辖区,,unknown,
baidu,cf9a279eef704d55dc1e5211,众诚大厦-停车场,广东省中山市众诚大厦(华力路),广东省,中山市,,,unknown,
baidu,4e662a6b7f666cd6c26c14ae,怡中商业楼-地上停车场,中山市中山二路怡中商业楼,广东省,中山市,,,unknown,
baidu,efe73578c34802782bd7ab6c,中山市人民政府台湾事务局-停车场,广东省中山市民权路3号,广东省,中山市,,,unknown,
baidu,39a6082a78dec54e25d2bb9c,全民健身广场,024路;030路;B23路,广东省,中山市,市辖区,,unknown,
baidu,df6df890448141e9fbdc8507,民生大厦,024路;047路;048路;B10路;B16路;B26路;K28路,广东省,中山市,市辖区,,unknown,
baidu,1a4abc563333538eaf045725,中山市第一建筑工程有限公司-停车场,广东省中山市悦来中路5号,广东省,中山市,,,unknown,
baidu,d20ab5a39513fa71ddee8bf0,黄麻园东侧临时停车点,中山市太平路黄麻园,广东省,中山市,,,unknown,
baidu,491985fbad7c6ecd932ca3a5,中山纪念堂自行车租赁点,中山市孙文中路孙中山纪念堂公园,广东省,中山市,,,unknown,
baidu,da4d396ef5c2f93e9cf7793a,厚兴牌坊,005路;013路;013路职教园班次;022路;030路;035路;201路;B11路;B25路;B29路,广东省,中山市,市辖区,,unknown,
baidu,c04d1f4ee5356d674afc8da0,白领公寓-地上停车场,中山市民安街白领公寓,广东省,中山市,,,unknown,
baidu,bef8126dda37d924715e801d,星河华苑-地上停车场,广东省中山市石岐区中山二路39号,广东省,中山市,,,unknown,
baidu,ac629d064093b74b873304db,电动汽车充电站(民生大厦),广东省中山市石岐区民生路38号民生大厦,广东省,中山市,,,unknown,
baidu,f5dd826a25a45b77e5e96591,金都城自行车租赁点,中山市石岐区街道悦来中路100号,广东省,中山市,,,unknown,
baidu,14e2796da4c9a2a83686f454,弈利康棋牌室-停车场,广东省中山市华力路山水时尚酒店(中山中店),广东省,中山市,,,unknown,
baidu,bf50435efa0f0bd8c8fa5fba,民生大厦,024路;047路;048路;B10路;B16路;B26路;K28路,广东省,中山市,市辖区,,unknown,
baidu,3ae266279eb8d4e026e0a082,星河华苑南侧临时停车点,中山市华力路星河华苑,广东省,中山市,,,unknown,
baidu,4e0371901d5d13fc78f796d9,悦来中路东侧-停车场,中山市悦来中路康泰苑康怡阁东北侧约50米,广东省,中山市,,,unknown,
baidu,66efa8934ef2eebbb75f1e73,康泰苑康怡阁-停车场,广东省中山市悦来中路6号,广东省,中山市,,,unknown,
baidu,d1e022703ed52db0b11e36a5,金花桌球棋牌娱乐城-停车场,广东省中山市中山二路39-2-01号附近,广东省,中山市,,,unknown,
baidu,92fec04ca2f28f1ad13ce3dc,众诚大厦西南侧停车场,中山市中山二路山水时尚酒店(中山中店)东南侧约30米,广东省,中山市,,,unknown,
baidu,32c6b4362ef2919b1b94c61f,启发中学-停车场,中山市龙母庙街启发中学,广东省,中山市,,,unknown,
baidu,978cbce1f32b8fb97ec87677,康泰苑康怡阁东北侧-停车场,中山市悦来中路康泰苑康怡阁东北侧约40米,广东省,中山市,,,unknown,
baidu,5615caada2bf88fd260bd014,和兴阁-停车场,广东省中山市亭子下大街和兴阁(星河华苑西100米),广东省,中山市,,(0760)88871656,unknown,
baidu,ac71bb30d0ec758a4e554702,退休职工活动中心,052路,广东省,中山市,市辖区,,unknown,
baidu,9c29ba54dfbff1aeb64f54e6,太平路东侧临时停车点,中山市太平路启发中学西北侧约70米,广东省,中山市,,,unknown,
baidu,e47dadf2458302fe455726a5,中山市公共自行车悦来路民权路口租赁点,中山市民权路康泰苑康怡阁南侧,广东省,中山市,,(0760)88899969,unknown,
baidu,50bfefcb140d98a9c51e51fa,泰安楼南侧临时停车点,中山市和平正街泰安楼南侧,广东省,中山市,,,unknown,
baidu,2fb32a66ea21c230d3ff2321,中山市天主教西南侧临时停车点,中山市孙文中路元兴幼儿园东北侧约50米,广东省,中山市,,,unknown,
baidu,63c47dd02b543d53095cb3bf,怡中商业楼东侧-停车场,广东省中山市中山二路52号,广东省,中山市,,,unknown,
baidu,9ba8db528e8cb18e40afe68d,白领公寓东南侧临时停车点,中山市民安街白领公寓,广东省,中山市,,,unknown,
baidu,60426517d9dc3f7416c9058d,洪家基正街小区西北侧-停车场,中山市白水井西街洪家基正街小区西北侧约30米,广东省,中山市,,,unknown,
baidu,9dc2f5d410602750e8e58265,亭子下大街天桥自行车租赁点,中山市方基涌大街7天酒店(中山利和广场店)东南侧约40米,广东省,中山市,,,unknown,
