source,bd_uid,name,address,province,city,area,tel,poi_type,tag
baidu,d991e1163bfc824c1f389410,农夫大盘鸡(锦程大街店),锦程大街130栋（近文明路）,吉林省,长春市,绿园区,(0431)85738933,unknown,
baidu,2311691380219de4724b87fa,车之谷·汽车文化主题餐厅(汽开店),锦程大街2403号门市,吉林省,长春市,绿园区,(0431)85735855,unknown,
baidu,418070633d6e3122fea77811,迎春商场美食城,长春市汽车产业开发区迎春路848号,吉林省,长春市,绿园区,13214433456,unknown,
baidu,1a8d277e063993c8b817e7f7,知青屯灶台鱼(天茂城中央总店),城西镇创业大街天茂、泊林丽郡33\\34号楼107号,吉林省,长春市,绿园区,(0431)81702878,unknown,
baidu,fbbce8d1a59e25e52afc486b,清真食府(天茂城中央店),锦程大街与文明路交叉口西20米路北,吉林省,长春市,绿园区,(0431)85759885,unknown,
baidu,e02478f43ee66116e607381a,花园酒店-大江南北中餐厅,创业大街1447号(花园酒店1楼),吉林省,长春市,绿园区,(0431)85988888,unknown,
baidu,856ecba5323b4ba1882fb539,一家人家常菜馆(一汽8B街区店),长春市绿园区东风街道锦程大街130栋1门1中门,吉林省,长春市,绿园区,13039205220,unknown,
baidu,0670d1ec8afbddb9901fc95b,签羊客炉边烧烤·烤羊腿(天茂城店),汽车产业开发区汽车厂锦程大街文明路682号,吉林省,长春市,绿园区,15044162496,unknown,
baidu,2636ab83500338170c0a70f3,上鲸斑鱼坊(汽车厂店),汽车经济技术开发区锦程大街天茂成中央25栋113号门市（锦程大街与文明路交汇处）,吉林省,长春市,绿园区,(0431)88110999,unknown,
baidu,6f5c7f107da01c53102935d0,蜀城老妈火锅(汽车厂店),文明路天茂泊林丽郡36幢117号房,吉林省,长春市,绿园区,,unknown,
baidu,06d2dffd9957b8ef89f15de6,老昌春饼(汽车厂分店),锦程街道迎春南路与车百路交汇东行50米(近欧亚车百),吉林省,长春市,绿园区,15688980339,unknown,
baidu,d075e356edd16991ad31e547,高记酱骨头家常菜(一汽8B街区店),锦城大街文光路130栋1门1楼3中,吉林省,长春市,绿园区,13630587732,unknown,
baidu,dc8b733dd503a3900869d918,沈老头包子(文明路店),文明路536号,吉林省,长春市,绿园区,13846758991,unknown,
baidu,89c5e9adfafbc1f271455b09,清真满记菜馆,汽车产业开发区东风大街欧亚车百52栋,吉林省,长春市,绿园区,15584405609,unknown,
baidu,c9044e033fdd536df32d83b5,南万包子铺(一汽3街区店),迎春南路一汽3街区,吉林省,长春市,绿园区,13610786238,unknown,
baidu,70c2aae9efc0ec67a3acc406,烧货集装箱主题餐厅,一汽东风大街890号万沅大厦东侧,吉林省,长春市,绿园区,18143077678,unknown,
baidu,a98f71bafb36ea2f276e9840,小贱烧烤,革新路318号（创业大街与革新路交叉口北行150米路东）,吉林省,长春市,绿园区,17743167991,unknown,
baidu,f921d4dc20b2ca7528201a4d,后山民谣啤酒坊,创业大街和昆仑二路交叉口,吉林省,长春市,绿园区,(0431)85988888,unknown,
baidu,2504f2688cbd3ba7b21e364c,伴糖生日蛋糕·甜心对白(天茂城中央店),锦程街道13、14B街区天茂柏林丽郡8/9幢105号房(盛鑫宾馆附近),吉林省,长春市,绿园区,18946670795,unknown,
baidu,87248d9606fba3b32806ce39,老四海回族(车百店),车百路与迎春南路交汇东行200米,吉林省,长春市,绿园区,(0431)85986999,unknown,
baidu,fb0c7b160956be0f14b54b4c,伟大航路烤鱼(欧亚车百店),东风大街1038号欧亚车百一层1一25号商铺,吉林省,长春市,绿园区,17649981548,unknown,
baidu,c2421005ba547ed2ab0dd87f,北冰洋狗肉冷面城(总店),创业大街2538号天茂·城中央A区底商,吉林省,长春市,绿园区,"13234375500,13804332525",unknown,
baidu,9692acc0919f32bcb35c6aca,大集体泉水铁锅炖(天茂·城中央店),创业大街2280号,吉林省,长春市,绿园区,13756501081,unknown,
baidu,acb798bb282f33192afc4819,米粒儿餐馆(一汽43街区店),杨柳大街43街区806栋1门1-1室,吉林省,长春市,绿园区,15044091811,unknown,
baidu,285bef50fdc591be88fc0619,霸王居烧烤串城(振兴路店),创业大街与振兴路交汇处北50米,吉林省,长春市,绿园区,13756111077,unknown,
baidu,a06653fa9256b8b2a3acc4ac,泰鲸龙虾海鲜烧烤,创业大街与越野路交汇东行100米路南,吉林省,长春市,绿园区,15044475858,unknown,
baidu,0a44b27c559cbccfcb213d5b,老长春肉馆(创业大街店),创业大街356号路东（近湖西路）,吉林省,长春市,绿园区,(0431)89618755,unknown,
baidu,2faf9b616e6fcb624d2fdf07,御品香碳烤牛肉(天茂城中央店),创业大街2460号,吉林省,长春市,绿园区,15843137695,unknown,
baidu,dcdb004b067f2de5c27da2fd,麦当劳(东风大街欧亚车百店),东风大街1038号一层,吉林省,长春市,绿园区,(0431)87645661,unknown,
baidu,8583cd7e6bb3b081ad080f2b,如家早餐,长春市绿园区锦程大街九物业小区,吉林省,长春市,绿园区,,unknown,
baidu,04f6eb8cee1e8daf0bccddcd,鑫枫林砂锅麻辣烫(迎春美食城店),欧亚车百南门斜对面300米美食城内,吉林省,长春市,绿园区,15500004368,unknown,
baidu,0e7f237bfdac1301ad31e568,李记熏肉大饼(车百美食城店),车百B座地下,吉林省,长春市,绿园区,13154394290,unknown,
baidu,14f976ad968810b2cb2915bf,luckincoffee瑞幸咖啡(长春欧亚车百店),汽车产业开发区东风大街1038号欧亚车百一层,吉林省,长春市,绿园区,18043441129,unknown,
baidu,0c41928fb3d2ed724e55473f,强子烧烤(香苑路店),汽车开发区文明路五站减震器招待所1楼,吉林省,长春市,绿园区,13844197877,unknown,
baidu,ce1eed779e2c4a5104026fea,华莱士·全鸡汉堡(车百店),汽车开发区迎春路848号迎春商场门市-2号,吉林省,长春市,绿园区,18088610703,unknown,
baidu,f85dff97c4810a4888fc0666,恩燕烤鸭(车百店),迎春路848号,吉林省,长春市,绿园区,13353115366,unknown,
baidu,bd0358262594cee67adbd295,辣小鸭(天茂中央店),创业大街汽车开发区一汽13、14B街区天茂泊林丽郡30-31栋101号,吉林省,长春市,绿园区,15144190655,unknown,
baidu,92311fb34f531feac26c14b8,融合菜主题餐厅,长春市绿园区东风大街万沅大厦,吉林省,长春市,绿园区,,unknown,
baidu,9a593a5cbcbd3fee08f5eb28,米村拌饭(锦城大街店),锦程大街天茂城中央A区南门24幢128号房,吉林省,长春市,绿园区,17790008037,unknown,
baidu,f08aeb4259e25a4a373a71ea,南方包子馄饨(一汽22街区店),一汽集团公司一生活区195栋4单元102室,吉林省,长春市,绿园区,15171528070,unknown,
baidu,20b6615e26eb50a23010af61,帅小帅原味烧烤,进化街东胡同公交宿舍5栋,吉林省,长春市,朝阳区,15043005618,unknown,
baidu,ad3f722d12e2ca6c8f1a8932,三品阁过桥米线(一汽3街区店),三街区40栋102室,吉林省,长春市,绿园区,18946683902,unknown,
baidu,cb1db0157fc02b967ab55c22,芝遇手工披萨(一汽8B街区店),文光路8A街区129栋5门1102室,吉林省,长春市,绿园区,18686696230,unknown,
baidu,a64baf513267321f6f3e1b16,蜜雪冰城(车邻里店),四联大街好事多车城邻里购物中心006号摊位,吉林省,长春市,绿园区,13774481888,unknown,
baidu,3f84c3999d6ab058cb213d7a,福贵家常菜馆(一汽9街区店),汽车开发区锦程大街9街区114-1栋102号,吉林省,长春市,绿园区,(0431)85988846,unknown,
baidu,c7545f234b27ec741fe999c3,二道淑圆酸菜汤多味饼(天茂城店),锦程大街天茂·城中央A区（近越野路口）,吉林省,长春市,绿园区,15104407274,unknown,
baidu,23a5803339bcc696b2077dc7,味多美有饭有面,吉林省长春市绿园区锦程大街44号中国第一汽车集团有限公司115-1栋,吉林省,长春市,绿园区,18243039555,unknown,
baidu,1b8dcb9f8d93fac793114c78,二小姐蛋糕坊(天茂店),创业大街与文明路交口天茂·城中央A区底商,吉林省,长春市,绿园区,17743017287,unknown,
baidu,6f6e7bdeff61ca466c3e1b20,二姐川香味麻辣烫(迎春路店),迎春路35栋3门19室,吉林省,长春市,绿园区,18943113022,unknown,
baidu,527525623009f10d26d2bb8f,胡记真不同(支农大街店),振兴路西与支农大街北交汇54街区6栋02号,吉林省,长春市,绿园区,(0431)85768764,unknown,
baidu,5fb23b87abe6433836b06c6a,maky米旗(车百店),东风大街1038号欧亚车百一楼3号门入口处,吉林省,长春市,绿园区,19997192090,unknown,
baidu,d535446927f6ef9d2b06ce13,杭州小笼包山西刀削面,吉林省长春市绿园区锦程一汽9街区西北(锦程大街南),吉林省,长春市,绿园区,,unknown,
baidu,54ceebadac72a05cd8d89138,鹅千味烤鹅(车百店),东风大街1038号欧亚超市车百店1楼6号商铺,吉林省,长春市,绿园区,17390029991,unknown,
baidu,fcca25513f9edd3e52e5c5c7,川味麻辣香锅,锦城大街南九街区113-1栋商业用房1层（锦城大街文明路交汇）,吉林省,长春市,绿园区,,unknown,
baidu,4d61fb14f5e3a0e6c61e514a,二姐黄焖鸡烧烤(一汽8B街区店),吉林省长春市绿园区城西镇锦程大街34号,吉林省,长春市,绿园区,15354507151,unknown,
baidu,0e5e4cd142344e25dc1e527d,好实惠小吃店,长春市绿园区迎春南路一汽3街区,吉林省,长春市,绿园区,17771733544,unknown,
baidu,1af07c2446a83f89b4265513,鼎丰真(越野路店),越野路368号,吉林省,长春市,绿园区,15948304523,unknown,
baidu,ac347f852011010642d63ec1,馅饼实惠菜,长春市绿园区长青路一汽3街区,吉林省,长春市,绿园区,,unknown,
baidu,e3f7f27ba115238c16c90542,麦乡手擀面(天茂城中央A区店),文明路天茂城中央A区18号楼104号,吉林省,长春市,绿园区,18946754647,unknown,
baidu,d5e4f9ef4dbdc87440e1926f,原味街边烤串(四联大街店),洛阳路一汽22街区378栋1楼101室,吉林省,长春市,绿园区,18943955005,unknown,
baidu,bc5f496f07497dc05d17c3b0,中之杰(好事多店),四联大街610号,吉林省,长春市,绿园区,15704318950,unknown,
baidu,73ab1e60db9010662cb17e01,真子(欧亚车百店),东风大街1038号欧亚车百F2层,吉林省,长春市,绿园区,,unknown,
baidu,c189cc845b48af663010afbb,宝弟小吃部(一汽3街区店),吉林省长春市绿园区东风大街3街区三街区44栋,吉林省,长春市,绿园区,13604324324,unknown,
baidu,f0a320f8f76e5cf14d776ed7,宝发熏酱馆(一汽29街区店),长春市绿园区锦程大街3308号,吉林省,长春市,绿园区,"13944172681,15043019919",unknown,
baidu,621db8436a7ea6d70e3dda8a,陕西岐山臊子面腊汁肉夹馍(汽车厂店),锦程街道锦程大街与越野路交汇处东北角(工商银行旁),吉林省,长春市,绿园区,15143021746,unknown,
baidu,9531f05282cc9f3c3be4a6c7,辣怪鸭(天茂城店),吉林省长春市绿园区锦程街道锦程大街一汽13、14B街区天茂泊林丽郡小区24栋128号,吉林省,长春市,绿园区,15568822197,unknown,
baidu,3fb9646ce409163e734b878c,德馨小吃(一汽9街区店),锦程大街115号一栋,吉林省,长春市,绿园区,13504324858,unknown,
baidu,c1cfe77f9ea576e6e9f8535c,重庆渝井巷老火锅(长春3504店),桦甸街3504小区院内,吉林省,长春市,朝阳区,18643070032,unknown,
baidu,365862ff433d0c8828d7ab88,周小柒超级麻辣拌(一汽9街区店),汽车开发区锦程大街9街区115-1栋2门1楼14中,吉林省,长春市,绿园区,16643129875,unknown,
baidu,f186104fe72e10ed82a12e07,重庆小面米饭套餐(一汽9街区店),锦程大街天茂·城中央A区正门对面门市,吉林省,长春市,绿园区,13756657784,unknown,
baidu,a313019315dcccde14b54bee,淑青嫂麻辣烫(总店),锦程大街南九街区133-1栋102室,吉林省,长春市,绿园区,15679994445,unknown,
baidu,32eb957fe5a30e058d772706,老五烧烤(香苑路店),吉林省长春市绿园区东风大街与越野路交汇金舫足道楼下,吉林省,长春市,绿园区,,unknown,
baidu,ea1add09d92c91ed841541e7,老昌食品(车百分店),东风大街38号欧亚车百超市二楼,吉林省,长春市,绿园区,13756531720,unknown,
baidu,47e5af64ac9b2b7c40e192ce,胖土豆土豆粉(创业大街店),创业大街22街区190栋101室,吉林省,长春市,绿园区,13943130802,unknown,
baidu,8066f9724cfa12b3c056ac25,萍记安徽板面(四联大街店),四联大街598号好事多车城邻里购物中心西033号,吉林省,长春市,绿园区,13844891000,unknown,
baidu,204bf92c621e788486420ec5,麻辣烫米线,长春市绿园区车百路二乙街区,吉林省,长春市,绿园区,,unknown,
baidu,57fe5e00a21288e672455b24,红彤彤麻辣烫(好事多店),吉林省长春市绿园区四联大街598号好事多购物中心A1-26,吉林省,长春市,绿园区,15043418448,unknown,
baidu,5a566cad285c9eaaed74f8bb,忆福缘麻辣烫(一汽2B街区店),迎春路35栋1单元102室,吉林省,长春市,绿园区,15643635865,unknown,
baidu,2e55e522999edff2e50738b0,派乐汉堡·炸鸡(四联大街店),汽车开发区好事多车城邻里购物中心东003位置,吉林省,长春市,绿园区,18043014344,unknown,
baidu,ef7f4b5cd44c0fbb93114cf5,甜小白蛋糕甜品,一汽13、14B街区天茂.泊林丽郡8/9[幢]103号房,吉林省,长春市,绿园区,,unknown,
baidu,ce4915bc5aa0d63b7ec876c1,柠城手打柠檬,汽车开发区一汽1314B街区天茂泊林丽郡24幢130号一楼门市,吉林省,长春市,绿园区,18088662580,unknown,
baidu,f5ded672ea9d2d9a41d63e5e,川渝多味面(好事多店),四联大街与洛阳路交汇好事多,吉林省,长春市,绿园区,18946568451,unknown,
baidu,418c75b6c51cbd25c9c3db4f,肯德基(宽平店),红旗街与宽平大路交汇都会大厦一楼,吉林省,长春市,朝阳区,(0431)85920654,unknown,
baidu,2521fb10f1fd5bdcc5effbd7,王云飞骨汤麻辣烫(香苑路店),文明路53号(五站减震器招待所1楼3室),吉林省,长春市,绿园区,18844078567,unknown,
baidu,30de1911073c592a5e0d028a,丰家大院百姓菜馆(抚松路店),抚松路486号,吉林省,长春市,朝阳区,(0431)88837779,unknown,
baidu,b5e28e2f592e28f8f7e73bdc,王记火锅烤肉店,吉林省长春市东风大街金纺足道旁,吉林省,长春市,绿园区,,unknown,
baidu,7db50f2905acb40b2bd7ab00,新派炸鸡与奶茶(天茂城中央A区店),锦程大街与文明路交叉口西160米,吉林省,长春市,绿园区,15948090580,unknown,
baidu,523027a91686f6335fd4fe4a,炭火烤鸭烤五花肉(车城邻里购物中心店),四联大街好事多M011,吉林省,长春市,绿园区,18743124026,unknown,
baidu,75fc1c57b19ba0f8bea24066,正面堂(一汽22街区店),吉林省长春市绿园区城西镇创业大街2412,吉林省,长春市,绿园区,13180880007,unknown,
baidu,89e9231814dea6eebe4842eb,饮客源水吧(车城邻里购物中心店),吉林省长春市绿园区城西镇四联大街554号,吉林省,长春市,绿园区,,unknown,
baidu,6e8c8cedb5d578d7c91b95fd,闫记大碗面,吉林省长春市绿园区城西镇四联大街554号,吉林省,长春市,绿园区,13894875931,unknown,
baidu,e6a651a9bc15b396ee74f850,叶氏板面(一汽3街区店),吉林省长春市绿园区迎春南路42栋1门楼2中门,吉林省,长春市,绿园区,15590596035,unknown,
baidu,03b5e473d60f50ac4251c05e,中国兰州拉面(天茂城中央A区店),创业大街与越野路交汇处天茂城中央,吉林省,长春市,绿园区,18097017542,unknown,
baidu,3396296d8bf0254088db7331,枣糕峰(长春店),车城名仕家园B区21栋101号,吉林省,长春市,绿园区,15904426525,unknown,
baidu,184b963ff0fc4b132dfaa747,欧菲克生日蛋糕(四联大街店),四联大街598号好事多超市一楼,吉林省,长春市,绿园区,17767740234,unknown,
baidu,b292b3aa8264474fbf484282,欧亚车百,吉林省长春市绿园区东风大街1038号,吉林省,长春市,绿园区,(0431)87652530,unknown,
baidu,4e0ecc1c8cf7addb4afc8d45,好事多果蔬(车城邻里购物中心店),四联大街598号,吉林省,长春市,绿园区,13341593712,unknown,
baidu,8719d7b5a7ee03d7095cb39f,吉乐福自选超市(一汽7街区店),锦程大街1506号门市,吉林省,长春市,绿园区,,unknown,
baidu,884267de17bc96e41811d579,越越超市(八街区店),吉林省长春市绿园区文光路b街区116栋,吉林省,长春市,绿园区,,unknown,
baidu,53e7ff8fb6531e3adcee8b69,大润发(长春店),吉林省长春市绿园区创业大街456号,吉林省,长春市,绿园区,(0431)89572315,unknown,
baidu,6c711fbd379682dd4f3a5968,大视野超市(天茂·城中央B区店),锦程大街2019号,吉林省,长春市,绿园区,15164379899,unknown,
baidu,d24e48eb40fa97b4afee7a02,迎春商场(车城店),长春市绿园区东风大街与昆仑二路交叉路口往东约50米,吉林省,长春市,绿园区,13894825468,unknown,
baidu,4e9c097b6147edc2fda778cc,欧亚超市(越野店),西环城路8211号（越野路口）,吉林省,长春市,绿园区,(0431)85786995,unknown,
baidu,12a80e94c76f5312abf729c7,金丽百货超市(昆仑二路店),吉林省长春市绿园区昆仑二路1号一汽15街区77栋1门101号,吉林省,长春市,绿园区,15844081298,unknown,
baidu,97c9ce30863708574d2fdf79,优客超市(天茂店),吉林省长春市绿园区文明路39号,吉林省,长春市,绿园区,17767732343,unknown,
baidu,1b5544cce9c876dded74f8bc,洪源超市(一汽8B街区店),西新经济技术开发区一汽一生活区126栋6门1楼,吉林省,长春市,绿园区,13009117606,unknown,
baidu,1b149d7b2feb72b745e27434,金山松柏平价超市(文光路店),吉林省长春市绿园区文光路137号,吉林省,长春市,绿园区,15143191839,unknown,
baidu,6561e79ecc1be74b081cc700,红运食品批发超市,长春市绿园区昆仑二路15街区,吉林省,长春市,绿园区,13756202393,unknown,
baidu,6bf43688ff9c2db4b52655e0,鸿泰生鲜超市,文明路662号,吉林省,长春市,绿园区,13844984867,unknown,
baidu,f22afa3c924b0662100daab9,昭昱超市,长春市绿园区昆仑一路一汽6街区,吉林省,长春市,绿园区,13578877677,unknown,
baidu,1b0fe08f392050d909a8d483,福祉批发超市(天茂城中央A区店),汽车开发区天茂泊林丽郡小区13/9栋106号,吉林省,长春市,绿园区,13630712977,unknown,
baidu,81e703518216ce9e9fec2b3d,汇百家生鲜连锁超市(越野路店),吉林省长春市绿园区支农大街54号c区14栋,吉林省,长春市,绿园区,,unknown,
baidu,c36bb987de4f1fd38c1a8904,朝阳超市(迎春南路店),长春市绿园区欧亚车百34栋,吉林省,长春市,绿园区,,unknown,
baidu,7bc487e47c74370313293518,小酒喔酒类直供(天茂城店),长春汽车开发区锦城大街与文明路交汇北行30米,吉林省,长春市,绿园区,(0431)81223911,unknown,
baidu,c1bd25b2bb1a17c42902e13f,车百电器城,东风大街1029号,吉林省,长春市,绿园区,15144661111,unknown,
baidu,d4ea68b41ea667c052e5c586,集市生活超市24h(开运街店),领秀朝阳B区西门,吉林省,长春市,朝阳区,16643777337,unknown,
baidu,58280aa07fca677ec9291510,成人用品24小时无人售货,吉林省长春市绿园区创业大街2230号,吉林省,长春市,绿园区,,unknown,
baidu,79230622ea6a16367f29bdee,回味超市,吉林省长春市绿园区锦程大街b区37栋,吉林省,长春市,绿园区,,unknown,
baidu,011cae03d4a295058bf15da1,承天顺(汽车厂总店),吉林省长春市绿园区锦程大街2153号,吉林省,长春市,绿园区,13364690555,unknown,
baidu,da93553f672083e1b35c6a61,金亿达超市(车城苑店),吉林省长春市绿园区和平大街2680号,吉林省,长春市,绿园区,17386862117,unknown,
baidu,0022802785be3f622b3a9fe1,千嘉惠服饰批发城(名仕店),吉林省长春市绿园区城西镇四联大街777,吉林省,长春市,绿园区,,unknown,
baidu,e0662d99b255874e0a5cb3d6,亮子汇购超市(南阳路店),吉林省长春市绿园区西环城路6778号,吉林省,长春市,绿园区,13166896563,unknown,
baidu,667ef79258cb4181f7e73bc0,善缘阁(八街区店),吉林省长春市绿园区城西镇文光路2号,吉林省,长春市,绿园区,,unknown,
baidu,bfd30634a0fcc2b0b4265564,德利门业,吉林省长春市绿园区创业大街汽车厂22街区195栋,吉林省,长春市,绿园区,13578628282,unknown,
baidu,5f622c57883e57a05abbbcf2,三邦蜜蜂园(天茂城店),吉林长春市绿园区锦程大街30号,吉林省,长春市,绿园区,,unknown,
baidu,a5b0ad82bd7609c8b5f42f8f,安踏(欧亚车百店),东风大街1038号欧亚车百F5层,吉林省,长春市,绿园区,,unknown,
baidu,0b721b365e82e7bff5c59ce1,盼盼生鲜超市(天一家源1953小区店),自立街999号家园1953,吉林省,长春市,绿园区,(0431)85758384,unknown,
baidu,5535cfc348ee6beeb35c6ac1,万圆泉老酒坊(连锁153店),吉林省长春市绿园区城西镇文明路37号,吉林省,长春市,绿园区,,unknown,
baidu,13dd3ef95880db7a11882468,自然堂(欧亚车百店),东风大街1038号欧亚车百一层,吉林省,长春市,绿园区,4008882788,unknown,
baidu,a3af965b1bbbae8c88b9882b,山水烟酒超市,吉林省长春市绿园区铁西街道东风大街1065号,吉林省,长春市,绿园区,,unknown,
baidu,ec507a529b01a994100daaf1,百顺便利店(自立街店),汽车产业开发区自立街与西环城路交汇天一家源1953小区20栋,吉林省,长春市,绿园区,13943059005,unknown,
baidu,cfed29a164e51e5bab0dd8ef,A gochuntian(欧亚车百店),吉林省长春市绿园区东风大街1038号欧亚车百F3,吉林省,长春市,绿园区,,unknown,
baidu,8881babf2919bca61fe99919,美的(欧亚车百店),吉林省长春市绿园区东风大街1038号欧亚车百F2,吉林省,长春市,绿园区,4008899315,unknown,
baidu,e522ff0f2aa9bf0b6f3e1b3b,巴黎欧莱雅L'OREAL(车百店),东风大街1038号欧亚车百一楼,吉林省,长春市,绿园区,4008215098,unknown,
baidu,2e4f0212b9de69a52cb17ef2,服装百货鞋帽箱包,长春市绿园区车百路二乙街区西侧,吉林省,长春市,绿园区,,unknown,
baidu,881a28e7f8593147f942b238,新华书店(一汽书店),东风大街1217号,吉林省,长春市,绿园区,(0431)85902576,unknown,
baidu,609ea5df9c3ab048e81e97f3,大明火锅超市(天茂城中央店),吉林省长春市绿园区文明路580号,吉林省,长春市,绿园区,13159603123,unknown,
baidu,46b8e888194f3638ae080f5a,RELX悦刻(文明路店),吉林省长春市绿园区文明路596号同心堂综合门诊左侧门斗,吉林省,长春市,绿园区,15643320615,unknown,
baidu,01048fe3be9f087242ab9af5,浩同食杂店(一汽3街区店),长春汽车产业开发区迎春南路34栋,吉林省,长春市,绿园区,,unknown,
baidu,6db07190b2216ebb0ab93af9,老北京布鞋(欧亚车百店),吉林省长春市绿园区东风大街1038号欧亚车百F4,吉林省,长春市,绿园区,,unknown,
baidu,5f6a05d5136f9a900782c23f,华奕烟酒超市,吉林省长春市绿园区昆仑二路1号,吉林省,长春市,绿园区,,unknown,
baidu,8ceb5006677e3757b8bd6343,飞飞家(汽车城人防商场店),迎春路848号,吉林省,长春市,绿园区,18946519092,unknown,
baidu,d583c591a85d39df6b49f3bb,佳视力眼镜(迎春路店),美食城1号门东60米,吉林省,长春市,绿园区,(0431)85979688,unknown,
baidu,be04287c242e62fcb11e3614,迎春五金日杂,昆仑二路13号,吉林省,长春市,绿园区,13894825468,unknown,
baidu,87a93e2f5ab051a92d473311,英礼烟酒,吉林省长春市绿园区文明路102号,吉林省,长春市,绿园区,13756944798,unknown,
baidu,c9375a88b4b9f8e540afe610,米多女装(迎春商场店),迎春路848号,吉林省,长春市,绿园区,18943611178,unknown,
baidu,927572afc5e53cbe51e5c5a0,延梅食杂店(一汽3街区店),吉林省长春市绿园区长青路三街区47栋2门,吉林省,长春市,绿园区,15104455717,unknown,
baidu,001139be39fb3d82c72ba111,百战渔具户外(一汽28B街区店),长春市绿园区创业大街428栋1单元1层,吉林省,长春市,绿园区,13843155664,unknown,
baidu,9f3547c1a72a8b1c4c3a59c6,五金电料水暖,吉林省长春市绿园区文明路39号,吉林省,长春市,绿园区,18088622515,unknown,
baidu,b535f0c85813c4c655bfffef,殊妙乃尔(欧亚车百店),吉林省长春市绿园区东风大街1038号欧亚车百F3,吉林省,长春市,绿园区,,unknown,
baidu,320059f7385cc7ff3904b1da,TOMMY GIORGIO(欧亚车百店),吉林省长春市绿园区东风大街1038号欧亚车百F4,吉林省,长春市,绿园区,,unknown,
baidu,83e249b5e560a34e17948e4e,永发系统门窗,吉林省长春市绿园区创业大街上海浦东发展银行(文明路支行)北侧约160米,吉林省,长春市,绿园区,,unknown,
baidu,163887fa740d6a53e6e96599,日韩家居用品店(欧亚车百店),吉林省长春市绿园区东风大街1038号欧亚车百F4,吉林省,长春市,绿园区,,unknown,
baidu,8ff152b34f2e6bc3fda778d6,爱宠漫步宠物店(一汽15街区店),锦程大街82栋,吉林省,长春市,绿园区,18686668339,unknown,
baidu,48eb0058ee7cf4ac2fe67b6f,一汽通信科技公司98栋营业厅,吉林省长春市绿园区东风大街51号,吉林省,长春市,绿园区,(0431)85980000,unknown,
baidu,e2052e47207698fb30f71d9b,迦南房地产(八街区店),吉林省长春市绿园区锦程大街26号125栋1楼1门,吉林省,长春市,绿园区,13843018990,unknown,
baidu,621cfe7f4810b87db9bd6357,中国体育彩票(锦程大街店),吉林省长春市绿园区锦程大街2226号129栋,吉林省,长春市,绿园区,95086,unknown,
baidu,9edbb99a9e0b0ecb80a00c71,公共厕所,吉林省长春市绿园区锦程大街1240号,吉林省,长春市,绿园区,,unknown,
baidu,994c11ca1df3f22d83a00c44,海馨织补刺绣改貂改制店,吉林省长春市绿园区创业大街74栋2单元104号门市,吉林省,长春市,绿园区,"13654409759,15948077262",unknown,
baidu,936b5311643c388f213bf210,公共厕所,长春市绿园区九院胡同机械工业第九设计研究院,吉林省,长春市,绿园区,,unknown,
baidu,b514759c94df3e7b4afd3f8d,中国邮政(汽车城邮政支局),汽车产业开发区东风大街40-1号,吉林省,长春市,绿园区,(0431)87624114,unknown,
baidu,c1cb78f3b63fbbb87adbd2c9,工驿站(汽车经济技术开发区新红旗社区),绿园区日新路370号,吉林省,长春市,绿园区,,unknown,
baidu,0c859df6fa6e234ebe484211,弹棉花(创业大街店),长春市绿园区创业大街一汽22街区东北门东南侧约50米,吉林省,长春市,绿园区,,unknown,
baidu,10a0bfbdb6e6354916a1900a,吉林省华夏星辰劳动服务有限公司,吉林省长春市绿园区迎春路1007号,吉林省,长春市,绿园区,,unknown,
baidu,b27f7670fe74fb2a6849f39f,中国体育彩票(迎春路店),吉林省长春市绿园区东风大街787号,吉林省,长春市,绿园区,95086,unknown,
baidu,7e1d320f70884a58dc1e5217,长春小红娘婚恋服务有限公司,车百路65号大碗面旁边,吉林省,长春市,绿园区,13147644977,unknown,
baidu,32807e2a1d46e0c0774ff1db,车乐防伪印章,吉林省长春市绿园区迎春南路1010号,吉林省,长春市,绿园区,(0431)85992436,unknown,
baidu,fa5671622e0f24147f29bd35,开换锁修鞋,长春市绿园区文明路天茂·城中央-B区,吉林省,长春市,绿园区,,unknown,
baidu,5e79ed47fbb1f803f42310dd,长春水务集团汽开供水分公司服务网点,吉林省长春市绿园区车百路68号,吉林省,长春市,绿园区,(0431)89812345,unknown,
baidu,e5fb86aa716bfb49c7f50d40,公共厕所,吉林省长春市绿园区四联大街与洛阳路交叉口东60米,吉林省,长春市,绿园区,,unknown,
baidu,b87fdb7d20c064031029359e,中国体育彩票(一汽22街区西区店),吉林省长春市绿园区创业大街2189号,吉林省,长春市,绿园区,18343063436,unknown,
baidu,2843da69f4a44a5afbf0cbe5,明了心理咨询中心,16街区73栋2单元10中门,吉林省,长春市,绿园区,,unknown,
baidu,51792c919ea14eabcb213d32,鸿运礼品回收,长春市绿园区文明路天茂·城中央-B区,吉林省,长春市,绿园区,13500825228,unknown,
baidu,4f62c2e2e695433196f08c31,菜鸟驿站(长春天茂城中央A区5栋店),绿园区汽车产业开发区天茂城中央A区5栋124车库,吉林省,长春市,绿园区,15568731345,unknown,
baidu,7ca67f2c53574e10250bd0a8,亨特洗衣美鞋,吉林省长春市绿园区锦程大街113号,吉林省,长春市,绿园区,15568855086,unknown,
baidu,3ef704c5b5c62912badf8f7c,服装改制(天茂城店),长春市绿园区文明路天茂·城中央-B区,吉林省,长春市,绿园区,,unknown,
baidu,f04c3a915a0525cd8c55ec44,中国福利彩票(迎春路店),吉林省长春市绿园区东风大街1038号欧亚车百F1,吉林省,长春市,绿园区,954168,unknown,
baidu,89d3f54cca90ff32d12dd678,洗手间,吉林省长春市绿园区东风大街1038号欧亚车百F3,吉林省,长春市,绿园区,,unknown,
baidu,79e63db869635d636d20b947,新红旗社区党群服务中心,长春市绿园区日新路中国一汽老年大学(日新路),吉林省,长春市,绿园区,,unknown,
baidu,cde9e2c716052ac9e81e97ff,中国电信(一汽七街区店),吉林省长春市绿园区汽车产业开发区东风大街一汽七街区98号楼,吉林省,长春市,绿园区,(0431)81113399,unknown,
baidu,6f64e60b25ad2d5d5f0d02a2,如意修鞋,吉林省长春市绿园区洛阳路179号,吉林省,长春市,绿园区,,unknown,
baidu,c2e0f5169488fd1659bbbcc5,罗曼花园婚礼殿堂,吉林省长春市绿园区创业大街1447号,吉林省,长春市,绿园区,(0431)85989999,unknown,
baidu,f5c38eb6b95065894d776e6a,配钥匙,吉林省长春市绿园区四联大街645号,吉林省,长春市,绿园区,,unknown,
baidu,6375048fda0252b1ebe582d8,兰喵大头鱼宠物用品店(四联大街店),汽车产业开发区四联大街好事多花鸟鱼市场内第三家,吉林省,长春市,绿园区,18843293265,unknown,
baidu,eb734aef91a62ce425d2bb61,公共厕所,S105(西环城路),吉林省,长春市,绿园区,,unknown,
baidu,fc300c8d8f9cb4b417c8f68c,二次供水泵站维修处,吉林长春市绿园区日新路2号,吉林省,长春市,绿园区,,unknown,
baidu,7e2163aff7f1517551e5c528,名源地产(二乙街区店),长春市绿园区恒信路二乙街区,吉林省,长春市,绿园区,18626725059,unknown,
baidu,f273f6ffe89d0852ca09f00b,衣福特洗衣(四联大街店),吉林省长春市绿园区四联大街600号,吉林省,长春市,绿园区,13404332127,unknown,
baidu,df01a075a18f8fcdaa059d7c,佳艺摄影(名仕B区环路店),四联大街598号四联大街,吉林省,长春市,绿园区,(0431)85767931,unknown,
baidu,0e09befc003175bb85420e8b,花园酒店-洗手间,长春市绿园区西新区创业大街1447号(近昆仑二路),吉林省,长春市,绿园区,,unknown,
baidu,0c227693a0381b6ae215f9bd,林枫洗衣(迎春南路店),吉林省长春市绿园区迎春南路550号,吉林省,长春市,绿园区,15144148333,unknown,
baidu,c66b3357fac088a4d92f28a7,农情暖域工会驿站(中国农业银行长春创业大街支行),吉林省长春市绿园区创业大街2388号,吉林省,长春市,绿园区,,unknown,
baidu,5b25f446e01fd69711293594,依本色洗衣(汽车厂店),汽车产业开发区创业大街与越野路交汇2825号28b街区5栋,吉林省,长春市,绿园区,,unknown,
baidu,ab1e95fa33223d46db131829,联想电脑维修(西环城路店),吉林省长春市绿园区越野路22街区400栋,吉林省,长春市,绿园区,(0431)85759649,unknown,
baidu,a6d003ab7474d973f7231032,诚艺修鞋店,西环城路与自兴路交叉口,吉林省,长春市,绿园区,18704495389,unknown,
baidu,95d15b91a2f8514dcafa5fd2,体彩福彩,长春市绿园区昆仑一路一汽十七街区,吉林省,长春市,绿园区,,unknown,
baidu,56a0441b2276cf155fd4fe82,爱侣动物医院(西环城路店),吉林省长春市绿园区西环城路8276号22街区398栋2门101室,吉林省,长春市,绿园区,(0431)85905272,unknown,
baidu,60dd170ddf8c44943b04b1a8,彩艺图文(一汽22街区店),汽车产业开发区西环城路8296号汽车厂区398栋,吉林省,长春市,绿园区,(0431)81226307,unknown,
baidu,74d32814b463a892ce04efad,东子手机维修,长春市绿园区西环城路五十四-C区东侧,吉林省,长春市,绿园区,,unknown,
baidu,aa39d17fdbd94f9a7ab55c76,万众梁硕家政服务,长春市绿园区创业大街16街区,吉林省,长春市,绿园区,13843074760,unknown,
baidu,4eb3b533e7e0cb754302453a,琦琦动物医院(迎春社区东南),迎春南路178号,吉林省,长春市,绿园区,(0431)87652678,unknown,
baidu,d99bad2c5f7f9632b7265531,一汽通信营业厅(西环城路营业厅),吉林省长春市绿园区杨柳大街98栋,吉林省,长春市,绿园区,,unknown,
baidu,2e44a3b2a070b64c4d2fdf16,超市干洗店,吉林省长春市绿园区长安路383号,吉林省,长春市,绿园区,,unknown,
baidu,16c36157614d12a1a8f729d9,中国体育彩票(锦程大街店),长春市绿园区锦程大街27街区,吉林省,长春市,绿园区,95086,unknown,
baidu,fdf4d78d4938051732f71d9b,晓明开锁店(开锁换锁配车库遥控器电梯卡),吉林省长春市西新经济技术开发区一汽22街区400栋3号门市,吉林省,长春市,绿园区,13341405502,unknown,
baidu,93f392f37159f798c3364433,中国体育彩票(一汽22街区店),吉林省长春市绿园区西环城路8552号,吉林省,长春市,绿园区,95086,unknown,
baidu,f4460918b4516717b01e3694,百丝特洗衣(一汽名仕店),吉林省长春市绿园区四联大街788号,吉林省,长春市,绿园区,18088678626,unknown,
baidu,9e59007a6757e075f02d8391,志刚开锁公司,吉林省长春市绿园区迎春路二甲街区3栋,吉林省,长春市,绿园区,,unknown,
baidu,ff2612ab9b28f5dffd0eb0ca,锁博士开锁公司,吉林省长春市绿园区创业大街3165号,吉林省,长春市,绿园区,"043185900005,13504421868",unknown,
baidu,7e66d5f83fdc6bc840afe619,金夫人婚纱影楼(正阳街店),正阳街92号,吉林省,长春市,绿园区,"13596153347,18204049232",unknown,
baidu,bc330daf8bd1f83111882417,宴喜楼·宴会厅,正阳广场与南阳路交汇处新奥蓝城1号楼,吉林省,长春市,绿园区,(0431)89384888,unknown,
baidu,aeee1b94e98e737fd3ff23d6,祥瑞服务中心,长春市绿园区西环城路长青小区,吉林省,长春市,绿园区,,unknown,
baidu,b6f7a5591b4f3706430245d9,公共厕所,锦程大街吉林省工程技术学校东侧约30米,吉林省,长春市,绿园区,,unknown,
baidu,0922dd923eb316bb8af15d1f,久泰护理(开运店),吉林省长春市朝阳区开运街1839号,吉林省,长春市,朝阳区,,unknown,
baidu,24a1a025ee1894fe0ab93a31,长纺早市便民疏导点,创业大街二期27栋1门,吉林省,长春市,绿园区,,unknown,
baidu,bc82dd44499554addc1e526c,鸿运彩票,长春市绿园区西环城路车城名仕家园-B区,吉林省,长春市,绿园区,15304404444,unknown,
baidu,270aa25dca7b605a46e2740b,公共厕所,长春市绿园区南阳路碧水云天西北侧约40米,吉林省,长春市,绿园区,,unknown,
baidu,e972ca256765e24cb9df8f08,长春天然气集团(锦程客户服务中心),吉林省长春市绿园区汽车产业开发区天茂城中央44-104,吉林省,长春市,绿园区,(0431)85988839,unknown,
baidu,0eb2165ebc905990c72ba14e,德信地产租售中心,文光路129栋,吉林省,长春市,绿园区,,unknown,
baidu,1e1ef238c586d8f2ae080f5a,机械工业第九设计研究院-接待室,吉林省长春市绿园区创业大街1958号,吉林省,长春市,绿园区,,unknown,
baidu,863d3fad734e67db882fb5a2,捷成广告,长春市绿园区迎春南路二乙街区西南侧,吉林省,长春市,绿园区,,unknown,
baidu,5d05783486ca77926c4760cc,街电(上鲸斑鱼坊锦程大街店),长春市绿园区锦程大街2139号,吉林省,长春市,绿园区,(0431)88110999,unknown,
baidu,33621d0a9b17b8602811d1e8,花园酒店(创业大街店)-大堂,长春市绿园区汽车产业开发区创业大街1447号,吉林省,长春市,绿园区,,unknown,
baidu,237511104a33084a8505bf27,街电(车之谷汽车主题文化餐厅汽开店),长春市绿园区锦程大街2403号,吉林省,长春市,绿园区,4006868588,unknown,
baidu,bd7fa5bb6d8e890725d2bbbe,家港房地产(四联店),吉林省长春市绿园区四联大街788号,吉林省,长春市,绿园区,13504412858,unknown,
baidu,135c946f44b4a8657c29bdb0,街电(长春一汽实业众捷汽车销售有限公司),吉林省长春市绿园区东风大街575,吉林省,长春市,绿园区,4006868588,unknown,
baidu,df8bfad24488c81a13293542,新发地产(汽车厂街区店),吉林省长春市绿园区支农大街51号,吉林省,长春市,绿园区,18143005097,unknown,
baidu,cc0849a004c00c2e94031921,中国电信(宽平大路营业厅),吉林省长春市宽平大路1467号,吉林省,长春市,朝阳区,18946790901,unknown,
baidu,3bfe712b629b6c52c2f1cf7d,吉视传媒(西南湖大路营业厅),吉林省长春市朝阳区南湖大路56号世纪家园,吉林省,长春市,朝阳区,,unknown,
baidu,86fa3249ac662fc9d13ce301,国家电网,吉林省长春市绿园区普阳街87号,吉林省,长春市,绿园区,95598,unknown,
baidu,0cf68cc04315faa731870a4a,国家电网(长春市绿园区供电局),吉林省长春市绿园区正阳街2916号,吉林省,长春市,绿园区,(0431)89956513,unknown,
baidu,606ab0d0f659002a0e3dda35,绿园供电营业厅,吉林省长春市绿园区正阳街2916号,吉林省,长春市,绿园区,(0431)89956513,unknown,
baidu,5e635db87af087fe88db73c3,世纪名剪(锦程大街店),锦程大街1989号,吉林省,长春市,绿园区,(0431)85903331,unknown,
baidu,a113e155cc13ff73abf0cd7e,金玲美容瘦身养生堂(一汽7街区店),汽车厂七街区昆仑二路29号,吉林省,长春市,绿园区,(0431)85907477,unknown,
baidu,a0ea2697af6e96c3c26c1478,美妍集·诗婷美丽空间(欧亚电器城店),汽车产业开发区东风大街1029号欧亚电器城6层,吉林省,长春市,绿园区,,unknown,
baidu,2501f2cbd7d90fd59ff77963,金剪刀染烫(文光路店),锦城大街文光路116栋1门4中,吉林省,长春市,绿园区,,unknown,
baidu,7aaa3a29a9335756626858ef,名流发型(一汽7街区店),东风大街与昆仑二路交汇7街区95栋1单元101号,吉林省,长春市,绿园区,15843112213,unknown,
baidu,96de8478b64b1e654107c116,瑞菁瘦丽人专业减肥(天茂店),汽车开发区一汽天茂,吉林省,长春市,绿园区,18943676569,unknown,
baidu,53fb8306e7d04f514657268c,美亿生美容院,天茂城中央A区16栋三单元106,吉林省,长春市,绿园区,15143188804,unknown,
baidu,a0cef29b66be762894ec84f4,焕颜美肤工作室,东风大街欧亚车百电器城西侧,吉林省,长春市,绿园区,"13174405779,15143169907",unknown,
baidu,a043734ae3c6abba3310af55,泡泡甲坊美甲美睫(一汽22街区店),创业大街与越野路交汇东行500米,吉林省,长春市,绿园区,18243056762,unknown,
baidu,dede053addf98d7879b55cd0,摩染植物染发(汽车厂店),西环城路品泰丰隔壁,吉林省,长春市,绿园区,(0431)80551515,unknown,
baidu,0586b390f699f106d12dd6fa,鑫玥发型设计室(迎春南路店),汽车厂迎春南路38栋1楼,吉林省,长春市,绿园区,13944888933,unknown,
baidu,bc25f20c8b99e5546c476002,金梦经典发型室(一汽25街区店),一汽四联476栋2门67中门经典发型,吉林省,长春市,绿园区,13614309586,unknown,
baidu,0a897e9cb93ec680cafa5fe5,名媛美甲(车百店),东风大街1043号附近,吉林省,长春市,绿园区,18626725059,unknown,
baidu,d6337401a39b5e77c16c1485,奈斯·日式美甲美睫(汽车厂店),创业大街与越野路交叉口,吉林省,长春市,绿园区,,unknown,
baidu,b2aa3d35ce881df32ce67b4f,时尚2046造型(越野路店),西环城路一汽22街区底商,吉林省,长春市,绿园区,"17390064882,17843364618",unknown,
baidu,c71fca6a52a74765cae33cf1,焕颜抗衰美容养生会所(车城邻里购物中心店),四联大街598号好事多车城邻里购物中心东001号门市,吉林省,长春市,绿园区,15506012997,unknown,
baidu,8188f749222bc3432b201abe,大世界造型店(红旗街店),红旗街2256号,吉林省,长春市,朝阳区,"(0431)85960951,17604305556",unknown,
baidu,e47f86c0e8a062d763180980,尚艺造型(车城名仕家园B区店),四联大街778号,吉林省,长春市,绿园区,18088606681,unknown,
baidu,947a2ea39870f88bd518b7e0,大拇指发型设计(一汽2B街区店),迎春路与车百路交汇,吉林省,长春市,绿园区,,unknown,
baidu,c939632b3e1e69d002294fee,苗方清颜专业祛痘(绿园店),万福街与锦阳路交汇新奥蓝城小区30栋102门市,吉林省,长春市,绿园区,15104482149,unknown,
baidu,c9df68ef28edeb57b64f543b,遇见美美甲店,四联大街车城名仕商城内,吉林省,长春市,绿园区,15104412366,unknown,
baidu,600bebbf2a469a7c3310af60,溪络妮科技皮肤管理(融和嘉苑店),锦阳路423号,吉林省,长春市,绿园区,18946687521,unknown,
baidu,a0dfacdcf6ae3478c4f0256a,丽减美瘦吧(四联大街店),四联大街788号车城名仕家园B区7栋104号房,吉林省,长春市,绿园区,13844840519,unknown,
baidu,0da9041c99463a0a96f08c2d,玉指缘美甲美睫(一汽6街区店),东风大街6街区52栋（车百卖当劳对面）,吉林省,长春市,绿园区,,unknown,
baidu,c9037499fd5f19992811d1c7,Nice日式美甲美睫青春化皮肤管理(汽车厂店),长春市绿园区创业大街13B街区189栋,吉林省,长春市,绿园区,15604467722,unknown,
baidu,752fd95b85cc098405fef5cf,伊颜堂美容美体会馆,吉林省长春市绿园区锦程大街与文光路交汇117栋,吉林省,长春市,绿园区,18643121483,unknown,
baidu,3192dbdb58ddc02a8d7727df,领绣·美容馆,长春市绿园区昆仑二路一汽七街区,吉林省,长春市,绿园区,,unknown,
baidu,d3719fc1ac5a3e363617dc3a,超姬美美容会所(汽开区),锦城大街与日新路交汇63栋二单元二楼18中,吉林省,长春市,绿园区,13844807297,unknown,
baidu,232673dd2c92954014b54b39,国际眼部理疗美容连锁机构(天茂城中央a区店),长春市绿园区文明路天茂·城中央-A区,吉林省,长春市,绿园区,,unknown,
baidu,6375e776ed91a70f364aae8f,悦己美容美甲(八街区店),文光路8A街区117栋1楼3单元35中,吉林省,长春市,绿园区,15584280288,unknown,
baidu,6502de393e1013fc4207c1ec,佳世上都美容美体中心,汽车产业开发区一汽22街区400栋,吉林省,长春市,绿园区,18943625813,unknown,
baidu,f326c679aab32f15f423102b,时尚飞发(东风大街店),昆仑一路488号,吉林省,长春市,绿园区,,unknown,
baidu,4d7b0fc58913e9691b11d53e,梵·美泉(迎春南路店),长春市绿园区迎春南路二乙街区南侧,吉林省,长春市,绿园区,,unknown,
baidu,ecae330d0f2f77f8f2193778,嘉懿美容美甲会馆,其它区汽车厂迎春路与昆仑二路交汇,吉林省,长春市,绿园区,13843093237,unknown,
baidu,3684af11323382d56f3e1b88,大巍发型,长春市绿园区22街区400栋龙泉冷饮食杂店旁,吉林省,长春市,绿园区,13944809160,unknown,
baidu,2d3fdd8801b5be4428201af9,妍如护肤养生,吉林省长春市绿园区创业大街长青小区东南侧约210米,吉林省,长春市,绿园区,13844143788,unknown,
baidu,fc9bc193026a66762bd7ab47,丽人美发(支农大街店),汽车产业开发区创业大街越野路400栋,吉林省,长春市,绿园区,,unknown,
baidu,cd042e2cfb66471f33621242,爱尚艺造型(一汽18街区店),长春市绿园区汽车厂18街区锦程大街与日新路交汇261栋,吉林省,长春市,绿园区,18844103133,unknown,
baidu,af114fd77de094535e17c3ee,仟发美丽从头开始,长春市绿园区春晓街欧亚车百东侧约40米,吉林省,长春市,绿园区,,unknown,
baidu,860aaebfd60cff65fd0eb0fb,小乔美甲用品批发,吉林省长春市绿园区越野路汽车厂22街区399栋,吉林省,长春市,绿园区,18043686888,unknown,
baidu,3e7e584d2a86562472210b0e,爱尚美甲瘦身工作室,长春市绿园区春晓街二乙街区北侧约40米,吉林省,长春市,绿园区,18604442731,unknown,
baidu,75775c8f4099c705047ce895,紫环美容,吉林省长春市绿园区和平大街17街区905栋1楼1单元,吉林省,长春市,绿园区,,unknown,
baidu,dcd0c688abb000a2882fb570,自然美发(一汽18街区店),吉林省长春市绿园区锦城大街18街区261栋,吉林省,长春市,绿园区,,unknown,
baidu,537bd9dc879efaeac51e515f,晨宇造型,天茂城中央A区创业大街侧5栋门市,吉林省,长春市,绿园区,17833115755,unknown,
baidu,75e4d4565ab6ea801ce9995d,苗颜坊专业祛痘(辉南街店),松辉路与抚松路交汇工程学院13号楼2门,吉林省,长春市,朝阳区,13756862412,unknown,
baidu,f168d8ff88eab8743010afa1,大鹏哥发型设计,开运街4236号,吉林省,长春市,朝阳区,15043147934,unknown,
baidu,91e7f403bd0a1e2acae33c23,搜秀美发(一汽22街区店),越野路欧亚超市439栋,吉林省,长春市,绿园区,13944129501,unknown,
baidu,391f7e5f57c2bd4d96ca07c5,小志造型(绿园店),支农大街53街区17栋,吉林省,长春市,绿园区,13596051443,unknown,
baidu,cf9923aa9686665cbe4842c3,馨香兰专业减肥养生(全国连锁四联店),长春市绿园区四联大街22街区375栋5门1楼,吉林省,长春市,绿园区,(0431)85988584,unknown,
baidu,7e54ce6976990dd9a8f0cdc0,梵希美甲美睫护肤,一汽六街区51栋,吉林省,长春市,绿园区,19969599950,unknown,
baidu,1173e3eb0f722b9d62685892,妙妃专业减肥(锦阳路店),锦阳路441路秋菊烟酒茶楼上,吉林省,长春市,绿园区,13578698778,unknown,
baidu,12204b25fa8b08f332870a0c,恩典美甲店,长春市绿园区迎春南路二乙街区,吉林省,长春市,绿园区,,unknown,
baidu,1121f0d8bc22e26dc42ba1cb,银星造型(锦江店),春城大街与锦江路交汇西行100米路北,吉林省,长春市,绿园区,13298881355,unknown,
baidu,c7787d2de0eb4b397ab55c0c,艺指美美甲美睫,汽车产业开发区四联大街与洛阳街交汇好事多购物中心,吉林省,长春市,绿园区,18843560512,unknown,
baidu,0057872293d705d0a8f0cdd0,首嘉造型(保利·拉菲公馆C区店),汽车产业开发区汽车厂西环城路与越野路交汇保利拉菲C5栋,吉林省,长春市,绿园区,(0431)85992278,unknown,
baidu,28cac5172f39256a631c67eb,梵格造型,春城大街与锦程大街交汇锦程大街东行100,吉林省,长春市,绿园区,13331588763,unknown,
baidu,dce70337ef437726f21937e0,甲如遇见美甲美睫(一汽6街区店),东风大街辅路与日新路交叉口西南方向94米,吉林省,长春市,绿园区,13610704467,unknown,
baidu,e124f0c9702c0b49c6effb10,完美先生男士理发馆,春城大街与锦城大街交汇处,吉林省,长春市,绿园区,13039105550,unknown,
baidu,fd5518084ae7797103ec014a,纤芥美甲店(车城名仕家园店),汽车厂四联大街车城名仕B区788号,吉林省,长春市,绿园区,18686456582,unknown,
baidu,634132566a2190bcd42ce250,3RM发型(锦阳路店),万福街与锦阳路交汇南行100米,吉林省,长春市,绿园区,18243073997,unknown,
baidu,6c755fd69d8e5f6e9a00507d,小王美发(车城邻里购物中心店),吉林省长春市绿园区洛阳街3291号,吉林省,长春市,绿园区,15948718858,unknown,
baidu,163711abeedf13d1b23c8187,筱芡美甲美睫,创业大街与越野路交汇一汽22街区190栋门店,吉林省,长春市,绿园区,,unknown,
baidu,4c233b09ef163c843904b130,西部造型空间(迎春路店),吉林省长春市汽车开发区东风街道迎春南路5号212栋1楼,吉林省,长春市,绿园区,15754333347,unknown,
baidu,c3e3fe62c28da9fa6e20b943,眉与指间美甲美睫,万福街与锦阳路交叉口东北100米,吉林省,长春市,绿园区,15567778177,unknown,
baidu,6d9c33409ce9bcd53fe231a9,靓点美发(西部快速路店),长春市绿园区西部快速路大众花园-三期西南侧约40米,吉林省,长春市,绿园区,,unknown,
baidu,f486ead14a292c8dbe484236,银星造型(新奥蓝城店),万福街与锦阳路交汇西行50米路南（融合嘉苑门市）,吉林省,长春市,绿园区,15590512517,unknown,
baidu,8f9f373df839b5b2d92f28a2,蓝花指美甲美睫,车城邻里购物中心,吉林省,长春市,绿园区,,unknown,
baidu,78f773a37deaec004e55478f,鸿运美发,长春市绿园区自立街23街区-南区,吉林省,长春市,绿园区,,unknown,
baidu,77d5a237104e8817d8d89135,如初美甲美睫(宜家7080店),电台街611号宜家7080小区门口,吉林省,长春市,朝阳区,15843138978,unknown,
baidu,56f357d7670e6aa40bb93a75,美的美容美发养生,吉林省长春市绿园区西环城路8211号400栋,吉林省,长春市,绿园区,"(0431)85971966,15948712655",unknown,
baidu,d22ad236d673b4cf71210bc4,C+7染烫专业店,西环城路8211号保利拉菲公馆C1栋102号,吉林省,长春市,绿园区,15844262829,unknown,
baidu,fe928aca9ffc5ea771455b20,耶耶,长春市绿园区西环城路长青小区,吉林省,长春市,绿园区,,unknown,
baidu,060f5e53f7a2cca9081cc727,小燕子造型(辉南街店),辉南街192号松辉小区一期7号楼门市,吉林省,长春市,朝阳区,18626667894,unknown,
baidu,c703ddec789db8be00ec01bb,进口美甲美睫,长春市绿园区自兴路保利拉菲公馆c,吉林省,长春市,绿园区,17790086082,unknown,
baidu,69feab9c983b324396f08c70,天艺美容美发化妆造型(一汽28b街区店),长春市绿园区创业大街车城名仕雅园南侧约60米,吉林省,长春市,绿园区,,unknown,
baidu,76c2b34995bbf4dd6f20b9e5,非主流时尚发艺,吉林省长春市绿园区春城大街4150号,吉林省,长春市,绿园区,,unknown,
baidu,3f826ed398931f47d1f49e3b,共青团花园,吉林省长春市绿园区东风大街与昆仑一路交汇处,吉林省,长春市,绿园区,,unknown,
baidu,008d4751940c6ed7725e809c,侵华日军第100部队遗址公园,吉林省长春市绿园区振兴路与红领巾路交叉口东北200米,吉林省,长春市,绿园区,,unknown,
baidu,be160fbe015a3f29631c67cb,锦江公园,吉林省长春市绿园区春城大街与锦阳路交汇,吉林省,长春市,绿园区,,unknown,
baidu,9f6e9aaf1ed35f6f1c1d116f,锦程公园,长春市绿园区奔驰路与锦程大街交叉路口往东北约120米,吉林省,长春市,绿园区,,unknown,
baidu,d4034eb3cf31608bc1364499,锦绣公园,吉林省长春市长春汽车经济技术开发区锦程街道奔驰路1746号,吉林省,长春市,绿园区,,unknown,
baidu,0dc6f9f150e8fdab1d580006,第一汽车制造厂1号门景观喷泉,吉林省长春市绿园区东风大街68号,吉林省,长春市,绿园区,,unknown,
baidu,101bc61b3ac72da3c42ba122,孟家基督教堂,长春市朝阳区电台街25号,吉林省,长春市,朝阳区,,unknown,
baidu,a1e6622ab5494c99130daa8b,李国华车模博物馆,长春市绿园区锦程大街天茂·城中央-A区,吉林省,长春市,绿园区,,unknown,
baidu,ac506c8d9cb52859fbf0cb2b,宽平基督教堂,吉林省长春市朝阳区进化街59号,吉林省,长春市,朝阳区,,unknown,
baidu,f909a1249ab8d16c4e776efc,锦程公园-奇石园,吉林省长春市绿园区锦程大街锦程公园,吉林省,长春市,绿园区,,unknown,
baidu,d1671e6b120fd5a26f4760cb,荷花池,长春市绿园区奔驰路1746号锦绣公园,吉林省,长春市,绿园区,,unknown,
baidu,da031a481a61914da2d2307d,锦绣园,长春市绿园区奔驰路1746号锦绣公园,吉林省,长春市,绿园区,,unknown,
baidu,30ae74f1c17d812b96f08cb3,维京体育公园,吉林省长春市绿园区正阳街4272号,吉林省,长春市,绿园区,,unknown,
baidu,52336a001a8f6f338b2fb5ab,锦江公园-静心岛,长春市绿园区锦江路邮政支局附近锦江公园,吉林省,长春市,绿园区,,unknown,
baidu,eebf6a282f916ab72b11d194,锦绣公园-亲水平台,长春市绿园区奔驰路1746号锦绣公园,吉林省,长春市,绿园区,,unknown,
baidu,e8d775dfe8a41ce4cafa5f05,清音堂,长春市绿园区昆仑一路一汽6街区,吉林省,长春市,绿园区,,unknown,
baidu,3622a4deb01cc634a7c75694,吟赏亭,长春市绿园区锦程大街锦程公园,吉林省,长春市,绿园区,,unknown,
baidu,c0370cf449561d75ce04efbc,卵石浅滩,长春市绿园区奔驰路1746号锦绣公园,吉林省,长春市,绿园区,,unknown,
baidu,8de2b2c5b52380d29e9d6856,观瀑,长春市绿园区奔驰路1746号锦绣公园,吉林省,长春市,绿园区,,unknown,
baidu,003f38354056f0b9b6147fb7,飞流,长春市绿园区奔驰路1746号锦绣公园,吉林省,长春市,绿园区,,unknown,
baidu,7a50f646efbfcff33913fd19,龙柱,长春市绿园区奔驰路1746号锦绣公园,吉林省,长春市,绿园区,,unknown,
baidu,061208708b3d8a5ea1046411,锦绣亭,长春市绿园区奔驰路1746号锦绣公园,吉林省,长春市,绿园区,,unknown,
baidu,818bcb86b9e800c928d7ab0d,嘉和亭,长春市绿园区奔驰路1746号锦绣公园,吉林省,长春市,绿园区,,unknown,
baidu,b723edf3a98ab87de6e9656c,康宁榭,长春市绿园区奔驰路1746号锦绣公园,吉林省,长春市,绿园区,,unknown,
baidu,2020fa7ff4add625631809f7,锦程礼拜堂,吉林省长春市绿园区创业大街326号,吉林省,长春市,绿园区,,unknown,
baidu,610852117b1e31dcc41b7594,春城基督教会-大广礼拜堂,吉林省长春市绿园区同心街道革新路1538号,吉林省,长春市,绿园区,(0431)85758477,unknown,
baidu,cd649527a162ba015e0d020f,锦江公园-美人蕉园,长春市绿园区春城大街锦江公园内,吉林省,长春市,绿园区,(0431)87997889,unknown,
baidu,623431b960c602a93b221cf4,吉林省长春市第一汽车制造厂历史文化街区,长春市绿园区东风大街第一汽车制造厂一号门北侧约100米,吉林省,长春市,绿园区,,unknown,
baidu,c61bd30533ddcf68c27da222,基督教礼拜堂,吉林省长春市朝阳区松辉路299号,吉林省,长春市,朝阳区,,unknown,
baidu,30f001570a94c1e8770269d6,枫林水景,长春市绿园区湖西路与泰来街交汇中东七彩城4层,吉林省,长春市,绿园区,,unknown,
baidu,0c4000c934d7ed1c9122e06d,七彩城冰雪乐园,吉林省长春市绿园区正阳街3667号,吉林省,长春市,绿园区,13948256363,unknown,
baidu,d0629213213ce762bca2404c,优鼻健康养生馆,长春市绿园区锦程大街八街区,吉林省,长春市,绿园区,13944107078,unknown,
baidu,44ef16345580c37a40ab9a0e,聚汇电竞(迎春路店),迎春路848号,吉林省,长春市,绿园区,15948073777,unknown,
baidu,bc635e2f490bf7a59868b4bd,汤泉宫,南阳路与万福街交叉口东50米（新奥蓝城22、23幢-104号房）,吉林省,长春市,绿园区,(0431)89628888,unknown,
baidu,08f53889ccf8d183f03cba8d,名红养生(车百店),昆仑二路860号（昆仑二路与迎春南路交汇北侧、欧亚车百邮局）,吉林省,长春市,绿园区,(0431)85756111,unknown,
baidu,a9283c8610ab05d4df1e5245,重庆漫心足道馆(锦程大街店),锦程大街2403号天茂·城中央A区,吉林省,长春市,绿园区,,unknown,
baidu,75f133e46133307ea2d23019,雅度御足(绿园店),春城大街与创业大街交汇,吉林省,长春市,绿园区,(0431)89366222,unknown,
baidu,c185ee9a65040dca8715419a,鑫鸿瑞棋牌室,迎春南路20号2街区门市145栋1单元101室一楼,吉林省,长春市,绿园区,14794361117,unknown,
baidu,813586287fa193adf4b916dc,天池宝石浴(春城店),吉林省长春市绿园区春城大街3026号银龙小区4号,吉林省,长春市,绿园区,(0431)88951666,unknown,
baidu,46d39850ac99ec69077ce8fd,海云天洗浴,创业大街3294号,吉林省,长春市,绿园区,(0431)85901666,unknown,
baidu,6b7021a98d06946c5d0d026d,108轰趴馆,吉祥街东安·开运福里B区（开运街与孟家一路交汇南200米）,吉林省,长春市,朝阳区,18844074484,unknown,
baidu,b16937f3a63183b551e5c5df,浩瀚网吧,永平路157号,吉林省,长春市,朝阳区,15584292586,unknown,
baidu,b7c4709c8226e85faeb22add,源發棋牌会所,天一朝阳地矿花园,吉林省,长春市,朝阳区,15948011762,unknown,
baidu,698af1802b6aaaeb9322e0a9,苗苗宝石浴,开运街开运福里小区B区北门,吉林省,长春市,朝阳区,,unknown,
baidu,05dd7d5f38193f18ac080fe5,金舫足道(汽开区店),革新路与杨柳大街交汇处同欣花园西门（支农大路45街区7栋103-105号）,吉林省,长春市,绿园区,(0431)85991777,unknown,
baidu,44372f61dad5e11f9d95deb2,钱钱厚厚棋牌室,开运街1952号宽平住宅小区1栋113号,吉林省,长春市,朝阳区,16604457723,unknown,
baidu,648e47c513960fa1cafa5fe4,慕茗阁茶社(天茂·城中央店),文明路710号,吉林省,长春市,绿园区,16643137566,unknown,
baidu,edd64ce17542aa913fe2313c,金酷KTV(汽车厂店),同心街道汽车开发区支农大街1039号(近46街区),吉林省,长春市,绿园区,,unknown,
baidu,2f12c3de543e7f1ae315f959,一佳电竞,开运街与湖西路南三胡同交叉口东100米（星宇名家6栋）,吉林省,长春市,朝阳区,"17045040999,18946693087",unknown,
baidu,f9398425b0b035e03617dc1e,银领KTV,创业大街2777号,吉林省,长春市,绿园区,,unknown,
baidu,fb5c9590aa9adb6f4afc8d82,宝艺盲人按摩院,吉林省长春市绿园区汽车厂一区东风大街与文光路交汇116栋,吉林省,长春市,绿园区,,unknown,
baidu,71cee5fc409ec2c3e0110348,佳康盲人按摩院(八街区店),汽车产业开发区锦城大街与文光路交汇117栋,吉林省,长春市,绿园区,,unknown,
baidu,04a666f7e46e42278605bf97,明辉按摩,吉林省长春市绿园区车百路与迎春南路交叉口西50米,吉林省,长春市,绿园区,,unknown,
baidu,caf664d95c517f64c61b75d4,柯德网咖(豆包店),文明路与锦程大街交叉口东北侧,吉林省,长春市,绿园区,,unknown,
baidu,677c53cadf06f4d59ff779d9,赵氏按摩(八街区店),文光路与锦程大街交汇（南行20米）,吉林省,长春市,绿园区,13214493299,unknown,
baidu,4df07cba55a7836472455b4e,洺池宝石浴(抚松路店),开运街2094号松宇花园2幢1单元119号房,吉林省,长春市,朝阳区,(0431)81675351,unknown,
baidu,47a19839892299527dc8769b,柳强按摩,西新经济技术开发区一生活区34栋3门24中,吉林省,长春市,绿园区,,unknown,
baidu,93832e9f8cd7dd64d5b74efc,清鑫保健按摩馆,长春市绿园区迎春南路一汽2街区,吉林省,长春市,绿园区,,unknown,
baidu,5ce7a6b526cbdbac2b201ad3,中国第一汽车集团有限公司老干部活动中心,吉林省长春市绿园区长青路1041号,吉林省,长春市,绿园区,,unknown,
baidu,7e4ac4473838078d0f0e6b8c,沐源保健馆,吉林省长春市绿园区创业大街22街区191栋,吉林省,长春市,绿园区,,unknown,
baidu,0fbbaa7a239c0199774ff1bc,红旗厂区140广场,长春市绿园区2号路汉庭酒店(长春一汽店)南侧约100米,吉林省,长春市,绿园区,,unknown,
baidu,f425415e584f0cd6eb1e97b2,秘方修脚(一汽22街区店),创业大街252号7号街区22街区190栋,吉林省,长春市,绿园区,18946735319,unknown,
baidu,2800659f38db2f5d364aae44,振远舞厅,春城大街3560号,吉林省,长春市,绿园区,,unknown,
baidu,4fe997cde3044202d13ce381,悦水瑶大众热水浴,长春市绿园区洛阳路与南阳路交汇碧水云天6栋,吉林省,长春市,绿园区,,unknown,
baidu,896eaa38ae2c005b246e9880,沐莲池洗浴演艺中心,吉林省长春市绿园区东风大街79号,吉林省,长春市,绿园区,,unknown,
baidu,480177454c40e0b3c5f50d1b,养正推拿馆,长春市绿园区昆仑二路15街区,吉林省,长春市,绿园区,,unknown,
baidu,ba450472055f4cf9f942b2f9,足益康修脚治脚(长春三店),吉林省长春市绿园区文明路556号,吉林省,长春市,绿园区,,unknown,
baidu,88b2d71f4c6629db41d63e1b,鑫焱盲人按摩养生馆(一汽22街区店),吉林省长春市绿园区文明路428号一汽22街区386栋2单元102室,吉林省,长春市,绿园区,,unknown,
baidu,836fda4041d82d5ba20464ac,龍玺养生足浴采耳修容(春城店),东风街道春城大街68号大众花园二期二栋107号,吉林省,长春市,绿园区,(0431)88888678,unknown,
baidu,dffd631c5e5e13a539221cf3,绿园区锦江广场,吉林省长春市绿园区春城大街68号大众花园二期2栋,吉林省,长春市,绿园区,,unknown,
baidu,5b25f446fe9d20eb1029351e,教育广场,长春市绿园区四联大街278号,吉林省,长春市,绿园区,,unknown,
baidu,ba15f9a9ca41a48d43e19272,星光不夜城,长春市绿园区东风大街一汽新世纪购物广场西南侧,吉林省,长春市,绿园区,,unknown,
baidu,0c0171021ddac4c7e3110384,固本推拿艾灸堂(车城名仕店),长春市绿园区四联大街车城名仕家园-A区,吉林省,长春市,绿园区,,unknown,
baidu,7f49fcff5d70f8ae4c3a59cd,壹号会馆,吉林省长春市绿园区创业大街2906号,吉林省,长春市,绿园区,,unknown,
baidu,4a13074eb3e72826b64f54e0,溪源经络调理,长春市绿园区创业大街一汽22街区,吉林省,长春市,绿园区,,unknown,
baidu,6ce79c8fc2535a62b2077d09,棋麟棋牌室,锦程大街2337号旁边新天地超市楼上,吉林省,长春市,绿园区,15044141555,unknown,
baidu,4e049b8460a23039a3acc482,古耳道采耳·头疗·足疗,湖西路北与泰来街西交汇(原双德乡红旗村西水屯)泰来街2099号独栋楼1至2层,吉林省,长春市,绿园区,,unknown,
baidu,199571a4753b42baebe582a4,再现网咖,光谷大街（电台街与光谷大街交汇处电台街湖光花园小区26号楼104号房）,吉林省,长春市,朝阳区,18744022625,unknown,
baidu,5c0524d6930c6bb93f9a5ed7,经络点穴推拿,吉林省长春市绿园区汽车产业开发区22街区190栋2门1楼,吉林省,长春市,绿园区,13756946659,unknown,
baidu,2ffbead752703525364aae34,力康推拿按摩,长春市绿园区汽车产业开发区创业大街191栋,吉林省,长春市,绿园区,,unknown,
baidu,7fd05c62f03b07e142d63ec2,博文网吧,吉林省长春市绿园区文明路626号,吉林省,长春市,绿园区,,unknown,
baidu,032efe6bf989d72fafee7a86,佳鑫陈氏经络推拿正骨(一汽22街区店),长春市绿园区自兴路一汽22街区,吉林省,长春市,绿园区,,unknown,
baidu,77777037016bcc2c0aa8d4bc,指悦轩江南排湿(保利拉菲公馆店),长春市绿园区自兴路保利拉菲公馆c,吉林省,长春市,绿园区,,unknown,
baidu,f85db8bc1c3077c2990050c8,天成之美抗衰管理中心,长春汽车产业开发区西环城路保利拉菲公馆s1栋107门市,吉林省,长春市,绿园区,(0431)81223508,unknown,
baidu,a40c9088e8c4013c6fc02c00,晟晟保健按摩馆(一汽53街区店),第二生活区53街区16栋5元1楼49中门109室,吉林省,长春市,绿园区,,unknown,
baidu,fde8ea318fe9bc659f09f726,芳之蔷薇·经络疏通·美胸·头皮Spa,湖西路与泰来街交汇溜哒七彩城4层,吉林省,长春市,绿园区,,unknown,
baidu,bb0a4d12ea2ca7d5e856fa06,凤宁号茶行隐庐茶馆(德意名典东区店),自立西街德意名典6—7号楼门市,吉林省,长春市,绿园区,18166829799,unknown,
baidu,812a9fe2aaba4872d518b70d,情缘阁私人影院,开运街车城名仕12栋101门市二楼情缘阁私人影院,吉林省,长春市,朝阳区,17386820673,unknown,
baidu,dfcf2ff37682baa2be484282,麦巷精酿啤酒工厂(天茂城中央店),创业大街2150号,吉林省,长春市,绿园区,,unknown,
baidu,70e4a81d4769f2a672455b3a,虞美人国际美容连锁机构(天茂城店),锦程大街与文明路交汇天茂城中央A区南门东行50米,吉林省,长春市,绿园区,,unknown,
baidu,9c646ca04192e0bf2afc482a,蓝BOX未来城(七彩城店),6·DA七彩城,吉林省,长春市,绿园区,(0431)87095888,unknown,
baidu,f176e33b73bf62bd5e0d0216,無湖酒馆,普阳街湖西大院南侧,吉林省,长春市,绿园区,15543607979,unknown,
baidu,6169ea3fb8b5bd937702697c,颠倒博物馆(长春店),吉林省长春市绿园区春城街道湖西路与泰来街交汇处万达居家生活广场101号6·Da七彩城4层B1、B2-1号商铺,吉林省,长春市,绿园区,18303585351,unknown,
baidu,197d909d23bb5fa1ae080f6d,长春佳尔乐商务宾馆,东风大街1299号,吉林省,长春市,绿园区,"(0431)85766111,17743459136",unknown,
baidu,9d71e43eb0e950076ca3cce9,宜必思酒店(长春东风大街一汽解放店),汽车产业开发区锦程大街30号,吉林省,长春市,绿园区,(0431)87079777,unknown,
baidu,8681742616a4a2023ae4a6a5,长春天园宾馆,昆仑二路970号,吉林省,长春市,绿园区,(0431)85757026,unknown,
baidu,04bdbe0eec12d17e6e3e1b64,长春睡八时尚宾馆,文明路588号,吉林省,长春市,绿园区,(0431)85742488,unknown,
baidu,81a10cb19c47d994dc1e524e,长春绿园祥和旅馆,东风大街106号3门1楼17,吉林省,长春市,绿园区,18043029288,unknown,
baidu,2a675afedc0aba99260bd011,长春盈佳商务宾馆,创业大街2138号天茂城中央小区,吉林省,长春市,绿园区,"(0431)85906262,18166816415",unknown,
baidu,09f073224bf32768250bd004,秴秴宾馆(长春二店),汽车产业开发区锦城大街天茂城中央25栋118室,吉林省,长春市,绿园区,(0431)85988668,unknown,
baidu,c4cece22f35097a4b9df8f2c,长春爱菲尔时尚宾馆,迎春南路20号（近欧亚车百商场）,吉林省,长春市,绿园区,16643176465,unknown,
baidu,379e814cdaafd889a80dd848,长春绿园彩虹宾馆,西环城路与南阳路交汇华盛碧水云天2栋,吉林省,长春市,绿园区,(0431)85992211,unknown,
baidu,042554cca481d7e349fc8d72,加州之旅假日酒店(一汽吾悦广场店),正阳广场南阳路1777号,吉林省,长春市,绿园区,(0431)81885277,unknown,
baidu,5019903b4f95ec102806ce89,长春希悦商务宾馆,正阳街与锦城大街交汇、锦城大街62号,吉林省,长春市,绿园区,13022122255,unknown,
baidu,7eb06ab2f39fc7db49fd3f66,全季酒店(长春一汽店),吉林省长春市绿园区创业大街819号,吉林省,长春市,绿园区,0431-85535333,unknown,
baidu,7da2f37621fc0a4516c9055d,汉庭酒店(长春一汽东风大街店),文明路53号,吉林省,长春市,绿园区,"(0431)82836888,13756658089",unknown,
baidu,cf4b4bc76ab23ba595ca0796,汉庭酒店(长春一汽西站店),汽车产业开发区西环城路保利拉菲公馆S2栋,吉林省,长春市,绿园区,(0431)85765959,unknown,
baidu,6ec4885b063130f4d81318d1,君奥酒店(长春一汽东风大街店),文明路53号110栋,吉林省,长春市,绿园区,(0431)80557999,unknown,
baidu,8684d2111931c018a8f0cdd6,麗枫酒店(长春一汽店),南阳路900号,吉林省,长春市,绿园区,13353206319,unknown,
baidu,c86bf2a3620643f0f7b9168f,太阳岛宾馆(长春创业大街店),吉林省长春市绿园区创业大街31号5楼,吉林省,长春市,绿园区,(0431)84749777,unknown,
baidu,130e1707daef764ac9c3db88,汉庭酒店(长春一汽创业大街店),创业大街3098号（与振兴路交汇处）,吉林省,长春市,绿园区,(0431)85909966,unknown,
baidu,a25c409d55574e15744ff1d1,长春佳园时尚宾馆,北方尚品第2栋116、117（名车广场北门对面）,吉林省,长春市,绿园区,13664406889,unknown,
baidu,89285d6c1274ef4f2ad7ab5f,克丽丝假日酒店,正阳广场消防特勤旁正阳街与正普路交汇,吉林省,长春市,绿园区,(0431)87688885,unknown,
baidu,4dfabd62bc8d2873f82d6120,全季酒店(长春一汽西站店),汽车开发区保利拉菲公馆S2幢108号（四联大街与红领巾路交汇）,吉林省,长春市,绿园区,(0431)85908882,unknown,
baidu,5c56edd653ad5d43a0d230ac,长春平安居宾馆,抚松路与辉南街交汇,吉林省,长春市,朝阳区,(0431)85961618,unknown,
baidu,1eeed5465c42fb8cb5147f21,OYO轻享紫苑客栈(宽平大路店),宽平大路与大屯街交汇,吉林省,长春市,朝阳区,13756637891,unknown,
baidu,ad525b6b294fe83a58109328,长春富宇时尚宾馆,开运街与抚松路交汇,吉林省,长春市,朝阳区,18743060100,unknown,
baidu,e3082848216dfdc1b34c4923,长春铭仕商务宾馆,车城铭仕花园（汽车厂南门）,吉林省,长春市,朝阳区,13252606977,unknown,
baidu,9c4265923f529706c7f50dc4,锦江IU酒店(长春红旗街大学城店),红旗街都会大厦407号,吉林省,长春市,朝阳区,(0431)89578999,unknown,
baidu,97ad89aedfb379a8eddfcaee,长春金冠时尚宾馆,创业大街562号,吉林省,长春市,绿园区,(0431)87691666,unknown,
baidu,97ad0d56566cf46b364aae39,金洋宾馆(长春红旗街这有山店),湖西路南三胡同99号,吉林省,长春市,朝阳区,(0431)81693111,unknown,
baidu,a74481d6ecd2d43bf503b8c1,长春鑫美嘉旅馆,吉林省长春市绿园区锦江路85号,吉林省,长春市,绿园区,"13578993114,18186823114",unknown,
baidu,fb088d7d90cba4af3a04b197,欧尚假日酒店(长春七彩城店),湖西大院1号楼,吉林省,长春市,绿园区,(0431)81786666,unknown,
baidu,26621a61ac4973cf49fc8d77,长春万豪时尚宾馆,和平大街与南阳路交汇锦江广场旁,吉林省,长春市,绿园区,13844853678,unknown,
baidu,5b3cc7ca22b1eed0931fc967,OYO长春雅之家宾馆,开运街地矿花园小区16号楼107室,吉林省,长春市,朝阳区,18943963219,unknown,
baidu,a908889b717893e6aaf0cd13,阿良的家公寓(抚松路分店),抚松路富豪花园西华苑5栋,吉林省,长春市,朝阳区,,unknown,
baidu,bf67ad0f51171c6cadb22a37,长春鑫月时尚宾馆,西环城路6719号,吉林省,长春市,绿园区,(0431)88046189,unknown,
baidu,c8afb3dc0ad70586abf72939,长春尚庭宾馆,西环城路与南阳路交汇B46栋112室,吉林省,长春市,绿园区,(0431)81255115,unknown,
baidu,8d065615e1859cb643ab9acf,长春蓝瑟时尚宾馆,开运街车城名仕花园1栋108,吉林省,长春市,朝阳区,(0431)81758199,unknown,
baidu,3f826ed384591b5fd1f49e55,喜客多宾馆(长春交通学院店),桦甸街与南湖大路交汇华宇小区19号,吉林省,长春市,朝阳区,(0431)88760000,unknown,
baidu,0598738ce117283b1fe9993b,祺含主题宾馆(长春七彩城店),湖西路平安街交汇处卫生局家属楼,吉林省,长春市,绿园区,(0431)89891968,unknown,
baidu,95cc5143413429b1770269ae,炜彤旅馆,吉林省长春市绿园区汽车产业开发区22街区400栋,吉林省,长春市,绿园区,(0431)85738828,unknown,
baidu,f982b5c64e1284cbd8eced66,拾六城市民宿(开运街分店),吉林省长春市朝阳区开运街4730号铭仕商务宾馆2楼,吉林省,长春市,朝阳区,17390902015,unknown,
baidu,5054a972e1e79d064151c0bd,长春新嘉实时尚宾馆,正阳街79号28室,吉林省,长春市,绿园区,15543673220,unknown,
baidu,3bf8d062b0a7791fc2f1cf61,缘胜居LOFT精品商务民宿酒店(欧亚卖场店),长春市双德街道开运街与电台街交汇南100米开运公馆A1栋1单元522室,吉林省,长春市,朝阳区,15543452677,unknown,
baidu,32127aea62e86303c056acb7,长春阿兰朵宾馆,湖西路与开运街交汇南行200米,吉林省,长春市,朝阳区,17790007816,unknown,
baidu,8e89df8d9d8a001f4107c1c9,星月时尚宾馆(抚松路店),吉林省长春市朝阳区抚松路612号,吉林省,长春市,朝阳区,,unknown,
baidu,89f1f1089e9886af8605bfe5,云苑精品酒店式公寓(长春欧亚卖场店),南湖大路与开运街交汇东安开运公馆A1栋,吉林省,长春市,朝阳区,17502222424,unknown,
baidu,504d6113ca1707aa46572658,长春森泰宾馆(长春一汽店),汽车产业开发区东风大街与越野路交汇,吉林省,长春市,绿园区,,unknown,
baidu,f29d532f5ad3a9f3f603b8ea,长春春夏民宿,长春绿园区创业大街452-3号展轮新世界,吉林省,长春市,绿园区,13069134641,unknown,
baidu,61f634f60e0af6066b49f321,万沅时尚宾馆(一汽店),吉林长春市绿园区东风大街890号,吉林省,长春市,绿园区,,unknown,
baidu,7d2ddff3ac52d59685420ed7,长春高尔夫商务酒店,吉林省长春市绿园区锦程大街3131号,吉林省,长春市,绿园区,(0431)85982226,unknown,
baidu,e4aaf988590bc879cc06a4aa,阳光时尚宾馆(正阳广场店),吉林长春市绿园区创业大街120号,吉林省,长春市,绿园区,,unknown,
baidu,030e5df9eae5a39bd0ff230c,长春唯沃时尚宾馆(南湖大路轻轨站店),吉林省长春市朝阳区西开运街3327号6楼,吉林省,长春市,朝阳区,,unknown,
baidu,6f2f60febfc3afae08f5eb1a,吉悦酒店,吉林省长春市朝阳区电台街319号,吉林省,长春市,朝阳区,(0431)84657777,unknown,
baidu,dec7a56985e863cf0e0e6b9a,爱家时尚客房(长春大屯街店),吉林省长春市朝阳区大屯街800号易安花园8号楼110室,吉林省,长春市,朝阳区,13258845699,unknown,
baidu,68a74510cc571d2df7231072,长春途掌柜橙途日式简约民宿,长春市绿园区锦阳路融和嘉苑,吉林省,长春市,绿园区,,unknown,
baidu,2fa4ea76730ea0e7b8bd6350,九龙时尚旅馆(革新路),吉林省长春市绿园区革新路1433号,吉林省,长春市,绿园区,,unknown,
baidu,7f137f716542a872d92f2869,长春viney公寓,长春绿园区碧水云天(东门),吉林省,长春市,绿园区,,unknown,
baidu,56a7a4a7f8394ef2f70e7741,全屋空调可做饭日租房公寓(孟家五路分店),长春市朝阳区孟家五路车城名仕花园,吉林省,长春市,朝阳区,13756853076,unknown,
baidu,2233d706f3eb9bbe1f389494,长春宏洋旅店,创业大街银松小区2号楼1门202号,吉林省,长春市,绿园区,18943906471,unknown,
baidu,9b1e3393da9a32c98505bf26,1953酒店,长春市绿园区洛阳路高力·中国北方汽贸城,吉林省,长春市,绿园区,,unknown,
baidu,dc3ddc17b416cb0b1e58003a,长春王力成公寓,吉林省长春绿园区南阳路/春城大街,吉林省,长春市,绿园区,,unknown,
baidu,9edadcf40f7984f5c3364476,长春小土豆917公寓(3号店),吉林省长春市绿园区雅森公馆,吉林省,长春市,绿园区,,unknown,
baidu,7fae54ebca5aa7d809a8d40b,长春李禹佳公寓(2号店),吉林省长春绿园区锦江花园,吉林省,长春市,绿园区,,unknown,
baidu,8e9553d64dc1f2c7593ac8f9,长春吾悦小鱼家公寓(锦江路分店),吉林省长春市绿园区中海·凯旋门(普阳街)(中海凯旋门A5栋),吉林省,长春市,绿园区,,unknown,
baidu,60b653d56d641c358bb988e9,长春森林浪人公寓,吉林省长春市绿园区正阳街3132,吉林省,长春市,绿园区,18744067888,unknown,
baidu,c8ce1adb1abaf571970319c2,汉庭酒店长春一汽西站店大堂,长春市绿园区西环城路保利·拉菲公馆S区,吉林省,长春市,绿园区,,unknown,
baidu,e81c012bfeb3bc53b05c6ab6,泽霖汽车服务,天茂城中央B区33栋110室,吉林省,长春市,绿园区,13341597778,unknown,
baidu,d647ca79d2d59ae9d6b74e1e,金鼎汽车租赁,吉林省长春市绿园区锦程大街30号,吉林省,长春市,绿园区,18169277777,unknown,
baidu,a29e9ef193008059a6da39e1,尊羽租车,吉林省长春市绿园区锦程大街1725号,吉林省,长春市,绿园区,17045329999,unknown,
baidu,a8c98151e0949a404bcc4ac9,善元汽车租赁,长春市绿园区锦程大街八街区,吉林省,长春市,绿园区,,unknown,
baidu,799fc1dc5b2880521e58008d,长春一汽实业众捷汽车销售有限公司,长春市绿园区东风大街669号,吉林省,长春市,绿园区,"(0431)85908163,(0431)85976947",unknown,
baidu,aca566161f6926726849f399,吉林省朋诚汽车服务有限公司,长春市绿园区锦程大街天茂·城中央-A区,吉林省,长春市,绿园区,17058771777,unknown,
baidu,a6192374839cfb85abf0cd76,鼎龙汽修,吉林省长春市绿园区创业大街2402号天茂小区5栋,吉林省,长春市,绿园区,15568837100,unknown,
baidu,39b4383f750dfec1cf06a489,嘉路喜汽车维修中心,吉林省长春市绿园区迎春南路758号,吉林省,长春市,绿园区,13404300013,unknown,
baidu,859b92cc5ad38db6cc06a42a,铁达租车,吉林省长春市绿园区城西镇文光路152号,吉林省,长春市,绿园区,19969588880,unknown,
baidu,146454366934c8c97bb55c4b,亿源汽车服务(26街区店),吉林省长春市绿园区西环城路7779号,吉林省,长春市,绿园区,,unknown,
baidu,20009091a329ebab4c6d461b,吉林省智逸汽车销售服务有限公司,长春市朝阳区开运街2903号,吉林省,长春市,朝阳区,(0431)80863939,unknown,
baidu,6e9ed465851f3f7445572670,车美美(四联大街店),西环城路8166号（保利拉菲公馆对面）,吉林省,长春市,绿园区,15590037611,unknown,
baidu,ebe1713821fdae4cb7265564,小宋汽车修配厂,吉林省长春市东风大街477号,吉林省,长春市,绿园区,,unknown,
baidu,ad1999282e2ee8cc8a36ee82,吉利汽车(长春华通正阳街店),吉林省长春市绿园区正阳街4188-b号,吉林省,长春市,绿园区,,unknown,
baidu,7a76928df1465890f2193716,途虎养车工场店(长春春城大街店),春城大街与创业大街交汇口,吉林省,长春市,绿园区,18514381990,unknown,
baidu,9900ddb43f63ebeec9c3db65,春雷汽修,长春市绿园区迎春南路105号附近车城名仕花园三期3栋112号,吉林省,长春市,绿园区,15904436065,unknown,
baidu,d72d1e037c0b959023f0176d,一汽大众特许经销商(车百店),吉林省长春市绿园区东风大街17-1,吉林省,长春市,绿园区,,unknown,
baidu,62c0c626402b2ea91576439b,车行天下汽车服务(汽开店),汽车经济技术开发区四联大街788号车城名仕家园B区3栋102号房,吉林省,长春市,绿园区,"(0431)85778001,17074360888",unknown,
baidu,18d425a3fd7639967369d37f,小丁汽修机油保养补胎,吉林省长春市绿园区和平大街2839号904栋1号,吉林省,长春市,绿园区,13756096814,unknown,
baidu,716a5b7e82ea3ef6bbbd63c8,滨城壹号汽车服务,吉林省长春市绿园区洛阳路与自立街交汇处北200米路东,吉林省,长春市,绿园区,17620678999,unknown,
baidu,daa642571d8b02140f0e6be3,名仕洗车美容装饰,长春市绿园区创业大街车城名仕雅园,吉林省,长春市,绿园区,15584556664,unknown,
baidu,d3afa8ba70304167cf04efa6,好快省汽修,西环城路8136号,吉林省,长春市,绿园区,13944129441,unknown,
baidu,3be4d9c467e154ec4bcc4a5d,胜利汽修,开运街3058号领秀朝阳上院A8栋103室,吉林省,长春市,朝阳区,13354304403,unknown,
baidu,577d19e753913674a2a934d6,明达汽车快修,吉林省长春市绿园区迎春南路508号,吉林省,长春市,绿园区,,unknown,
baidu,fd7f80f004c39db18505bf2a,吉林省瑞成汽车销售服务有限公司(长春瑞成江淮4S店),长春市绿园区洛阳街2100号,吉林省,长春市,绿园区,"(0431)82003055,(0431)82003066",unknown,
baidu,bd469dd3fd47b25ae6073873,长安汽车·皮卡,吉林省长春市绿园区铁西街道东风大街477号,吉林省,长春市,绿园区,13894820178,unknown,
baidu,5ce2637dfa64822cae31e572,万达国际车城,长春市绿园区正阳街4088号,吉林省,长春市,绿园区,17543053666,unknown,
baidu,d3fd745b151a1d1af02d8340,比亚迪汽车王朝网(吉林嘉旺正阳街城市展厅),吉林省长春市绿园区正阳街4088号万达国际车城汽车文化园1层108号,吉林省,长春市,绿园区,(0431)81318755,unknown,
baidu,b83b3cb8c45fc03f3617dceb,鑫龙波汽车油改气,吉林省长春市绿园区迎春南路252号,吉林省,长春市,绿园区,13578777229,unknown,
baidu,eb22beb3a8a4ea3cc51e51f6,宏旭名车,19街区241栋,吉林省,长春市,绿园区,13404320135,unknown,
baidu,8b337735f7b35d7a25e0a07d,乾璐洗车美容汽车装潢,吉林省长春市绿园区西环城路8156号,吉林省,长春市,绿园区,15714441717,unknown,
baidu,b21e87b95bf7d30ac16c1471,信盟精品车行,长春市绿园区春城街道春城大街4232号,吉林省,长春市,绿园区,13331776606,unknown,
baidu,587056cdba35a7cc0782c244,24小时自助洗车,迎春南路141号,吉林省,长春市,绿园区,13943078569,unknown,
baidu,00f1c7fb66ba7e62c156ac95,长春润驰特福莱汽车装饰有限公司,吉林省长春市绿园区西环城路8128号,吉林省,长春市,绿园区,13224371817,unknown,
baidu,74be9e75d7e98878fea7789c,天启名车维修,迎春南路141号(宽平桥地铁站出入口步行460米),吉林省,长春市,绿园区,13331777992,unknown,
baidu,c2bbd6a7abd220d3d8d8918d,征宏汽修,吉林省长春市绿园区迎春路6号,吉林省,长春市,绿园区,,unknown,
baidu,ee8a8c9eb410ef59882fb5e3,明哥洗车行,吉林省长春市绿园区振兴路516号,吉林省,长春市,绿园区,,unknown,
baidu,2f8ada83b6646fea130daae0,比亚迪汽车海洋网(长春盛世路骐4S店),长春市绿园区-洛阳路2100号,吉林省,长春市,绿园区,,unknown,
baidu,6ce1ada0b9a1612e6f3e1b6a,精修汽车钣金喷漆,长春市绿园区西环城路车城名仕家园-B区,吉林省,长春市,绿园区,15044082777,unknown,
baidu,6e48bf8a762b905da2a9344e,佳翼汽车维修,长春市绿园区迎春南路车城名仕花园-三期,吉林省,长春市,绿园区,,unknown,
baidu,9e942009192bba56ae31e595,迦南轮胎,吉林省长春市绿园区锦程大街2610号一汽27街区402栋,吉林省,长春市,绿园区,"13511057533,15144184119",unknown,
baidu,a40a448920097b1e95ca072b,高力·中国北方汽贸城-G区,吉林省长春市绿园区高力南路与速腾路交叉路口往东南约180米,吉林省,长春市,绿园区,17519462100,unknown,
baidu,9f9821a3d6f6782e7402693c,德通汽车维修,吉林省长春市绿园区革新东路126号,吉林省,长春市,绿园区,,unknown,
baidu,5d80f6818999365672210bb6,达兴汽服连锁(富豪店),抚松路817号,吉林省,长春市,朝阳区,"13039343299,13943008531",unknown,
baidu,6bfd74ca2d8b67a32dfaa70c,佳赫大众奥迪专修,迎春南路156号,吉林省,长春市,绿园区,17743410007,unknown,
baidu,a37db92db2756b65306212d2,安鑫汽车维修店,吉林省长春市绿园区振兴路516号,吉林省,长春市,绿园区,,unknown,
baidu,fdda21a099f50eaa3b221c6d,弘达汽修,长春市绿园区洛阳路一汽25街区东北侧约110米,吉林省,长春市,绿园区,,unknown,
baidu,27f4bdd3e3102d83d6b74e29,途虎养车认证店(长春绿园区迎春南路店),吉林省长春市绿园区迎春南路141号,吉林省,长春市,绿园区,(0431)87689909,unknown,
baidu,7055e35da939373a08f5ebf2,盛义汽车维修,吉林省长春市朝阳区电台街319号轻铁湖光花园二期5栋103室,吉林省,长春市,朝阳区,13258888579,unknown,
baidu,49ec10cf1d1b67c4704b87ca,鸿诚汽车电子,吉林省长春市绿园区创业大街大众花园一期3栋101室,吉林省,长春市,绿园区,15044033423,unknown,
baidu,2ac1ac0cd68ebadfc5effbb9,美容装饰洗车,长春市绿园区迎春南路车城名仕花园三期东1门西北侧约50米,吉林省,长春市,绿园区,,unknown,
baidu,0bc00f1feb0bbad872455b10,一嗨租车(开运街店),吉林省长春市朝阳区开运街3491号(地矿花园北侧),吉林省,长春市,朝阳区,13394314691,unknown,
baidu,fbde43247ffb260dd23ce349,禾风租车,吉林省长春市绿园区铁西街道东风大街433号,吉林省,长春市,绿园区,18704439444,unknown,
baidu,af1cfb80a8773aff25e0a0b5,宏泰汽车修配厂,长春市绿园区洛阳路一汽25街区东北侧约120米,吉林省,长春市,绿园区,18743054666,unknown,
baidu,263010624ececa2d8a36ee31,靓车汇汽车装饰(支农大街店),越野路与支农大街交汇西行100米处,吉林省,长春市,绿园区,13756271989,unknown,
baidu,a258a68e6e0b61ecf7b916f4,红倩洗车行,长春市绿园区洛阳路23街区-南区北侧约90米,吉林省,长春市,绿园区,,unknown,
baidu,e735705a0974ecb159bbbc4e,顶盛汽车凹陷修复,吉林省长春市绿园区迎春南路车城名仕三期109门市,吉林省,长春市,绿园区,13756000824,unknown,
baidu,d946f63a01849f7d21026265,老宁汽车修理部,长春市绿园区西部快速路大众花园-三期西南侧约80米,吉林省,长春市,绿园区,13944198796,unknown,
baidu,6a939cd2d2bc3d201fe99930,铖铭快修,吉林省长春市绿园区东风街道迎春南路198号,吉林省,长春市,绿园区,"15844039881,18943900156",unknown,
baidu,a8c16cccf2287f0bd3ff2351,大海轮胎大全,长春市绿园区洛阳路碧水云天东南侧约80米,吉林省,长春市,绿园区,13596072649,unknown,
baidu,c7952a7990a5895226e0a0b9,晓波汽车精品装饰,吉林省长春市绿园区东风大街279号,吉林省,长春市,绿园区,15948728838,unknown,
baidu,4b7f09fd633b4342ede4a5c2,圣鑫名车维修中心,迎春南路200号,吉林省,长春市,绿园区,"13341425688,18644970050",unknown,
baidu,183d3eb790eca5bde5073853,车之星汽修江淮瑞风专修,长春市朝阳区开运街沈阳铁路公安局长春公安处长春南站派出所西北侧约230米,吉林省,长春市,朝阳区,13504412792,unknown,
baidu,c0f87cba2b9edec8d22dd6ed,小马汽修,长春市绿园区迎春南路车城名仕花园-三期,吉林省,长春市,绿园区,,unknown,
baidu,94f7c9972919129fd618b774,领豪名车,长春市绿园区迎春南路车城名仕花园-三期,吉林省,长春市,绿园区,,unknown,
baidu,0a1189fb128566b5ae080f55,明隆轮胎批发,吉林省长春市绿园区东风大街271号,吉林省,长春市,绿园区,13844999302,unknown,
baidu,37e0313e9e18e1016849f316,小杨洗车行,长春市绿园区春城大街一汽18街区东北侧约60米,吉林省,长春市,绿园区,,unknown,
baidu,6f78b75ebf357463f6c59c04,广州连顺自动变速箱专修连锁(长春分公司),吉林省长春市绿园区自立街8号,吉林省,长春市,绿园区,,unknown,
baidu,55cadf1eef2ec664e6e96529,众智诚汽修,长春市绿园区迎春南路车城名仕花园-三期,吉林省,长春市,绿园区,,unknown,
baidu,d175808de18cc4ec9b68b4b1,极速汽车钥匙,长春市绿园区迎春南路1街区,吉林省,长春市,绿园区,17549648805,unknown,
baidu,65d34875da9cff0f72210b17,一汽解放青岛,长春市绿园区春城大街四街区东北侧约60米,吉林省,长春市,绿园区,,unknown,
baidu,3e13b4d22e755f08aaf0cd71,小袁汽车修配厂,长春市绿园区锦程大街长春市机械工业学校西北侧约60米,吉林省,长春市,绿园区,"13159772217,18843183069",unknown,
baidu,1e36249937d87341260bd093,一汽解放卡车厂(东风大街店),长春市绿园区东风大街76号,吉林省,长春市,绿园区,(0431)85732289,unknown,
baidu,796de162ee8ee786c4f50de1,达兴行租车,吉林省长春市绿园区创业大街49号,吉林省,长春市,绿园区,15764473335,unknown,
baidu,cf2ffef9351054e6b1077dbb,开运电器(高力·德国村3栋店),长春市绿园区洛阳街与南阳路交汇高力德国村3栋,吉林省,长春市,绿园区,,unknown,
baidu,2cd9bcf519ecbcebb52655b0,陈师傅专修汽车发电机起动机,吉林省长春市朝阳区开运街3020号,吉林省,长春市,朝阳区,13159773606,unknown,
baidu,78b5b56ef4a1ed84b5f42f87,一汽总医院-物资管理部,吉林省长春市绿园区东风大街2643号,吉林省,长春市,绿园区,,unknown,
baidu,fe4481aa1a19839977026958,汇腾二手车交易市场,长春市绿园区高力南路高力·德国村西北侧约160米,吉林省,长春市,绿园区,(0431)87963808,unknown,
baidu,24f6d4f485f5169f7069d369,众慧源吊车叉车出租公司,长春市汽车开发区西环城路保利拉菲公馆S1号楼1301室,吉林省,长春市,绿园区,4008755165,unknown,
baidu,945ca739d5545f649d82eae8,献血屋(车百),长春市绿园区迎春路汽车厂东风大街欧亚车百门前,吉林省,长春市,绿园区,(0431)81773946,unknown,
baidu,49d95938d5fcee3ec71e5194,同心堂综合门诊,吉林省长春市绿园区文明路596号,吉林省,长春市,绿园区,(0431)85768866,unknown,
baidu,3bce5061d393ac8cc4f02533,程氏筋骨堂,长春市绿园区文光路八街区,吉林省,长春市,绿园区,,unknown,
baidu,95f6631c7cd49736fa0cad98,汽开区瑞君堂综合门诊部,吉林省长春市汽车开发区一汽13、14B街区天茂泊林丽郡25、26幢114号房,吉林省,长春市,绿园区,,unknown,
baidu,c7ca004598c91a98f03cbaa2,迎春社区卫生服务中心,吉林省长春市绿园区迎春南路858号,吉林省,长春市,绿园区,(0431)84455866,unknown,
baidu,f36b21812d41f5525fbe864d,新立社区卫生服务中心,吉林省长春市绿园区四联大街645号,吉林省,长春市,绿园区,,unknown,
baidu,b0d056f26932057ecac3db3c,永新康健综合门诊,吉林省长春市绿园区西环城路8432号400栋,吉林省,长春市,绿园区,(0431)81753010,unknown,
baidu,9ee392b895d5553cbabd6394,林华中西医结合诊所,吉林省长春市绿园区文明路642号,吉林省,长春市,绿园区,,unknown,
baidu,7d86a371a4cffd97e115f92d,初存健康小屋(车百店),迎春路与车百路交汇迎春商场2楼15号商铺,吉林省,长春市,绿园区,13331641192,unknown,
baidu,a1bd859a20bd9276e31103a4,益牙优齿科,长春市绿园区汽车产业开发区迎春路与昆仑二路交汇人防商场2层(欧亚车百正门对面),吉林省,长春市,绿园区,"(0431)81700276,(0431)87653299",unknown,
baidu,af1ae56b014f376e4207c130,名仕综合门诊,吉林省长春市绿园区四联大街788号车城名仕家园25B区17栋101号,吉林省,长春市,绿园区,15843080601,unknown,
baidu,8d1b4ff353d6ff95118824b5,种植正畸儿牙牙周,长春市绿园区锦程大街天茂·城中央-B区,吉林省,长春市,绿园区,,unknown,
baidu,2e532f837e008e6b0c0a70d5,吉林省一汽总医院-门诊部,吉林长春市东风大街吉林大学第四医院6楼,吉林省,长春市,绿园区,,unknown,
baidu,28b28b4356ebc2ec8c1a8912,西医内科诊所,长春市绿园区四联大街车城邻里购物中心,吉林省,长春市,绿园区,,unknown,
baidu,39d43f828b7afe86a8059d3b,陆继明西医内科诊所,迎春南路83号车城名仕花园三期2栋,吉林省,长春市,绿园区,,unknown,
baidu,0336479b7d5a9fbdf50e77a2,汽开区何钢西医内科诊所,吉林省长春市绿园区迎春南路208号,吉林省,长春市,绿园区,,unknown,
baidu,02fe0fdbc373d327d12dd64c,汽开区颖时眼科诊所,吉林省长春市绿园区一汽四联大街名仕家园B区,吉林省,长春市,绿园区,"(0431)85909249,18946509961",unknown,
baidu,6828f42c5f80bbd6bd484206,吉林省一汽总医院,吉林省长春市汽开区东风大街2643号,吉林省,长春市,绿园区,"(0431)85902329,(0431)85909100",unknown,
baidu,d083c797b04d3833ad31e52c,郭洪香中医诊所(四联大街店),吉林省长春市绿园区四联大街22街区375栋4单元104室,吉林省,长春市,绿园区,,unknown,
baidu,bc96bac94d6e7ebac51e5141,辛原中医内科诊所,吉林省长春市绿园区洛阳路一汽25街区465栋102号,吉林省,长春市,绿园区,(0431)88003025,unknown,
baidu,ccd031f71ba5c3e9d03ce3ab,汽开区孙明宇中医内科诊所(自兴路店),吉林省长春市绿园区首创大路1999号,吉林省,长春市,绿园区,,unknown,
baidu,4cb085605f9f88a9b64f540a,吉林大药房(汽车厂三站店),吉林省长春市绿园区东风大街51号,吉林省,长春市,绿园区,15304300395,unknown,
baidu,24dff08baa60b9cd95ca0733,吉林省一汽总医院-住院部,吉林省长春市绿园区东风大街2643号,吉林省,长春市,绿园区,,unknown,
baidu,aaa939254c4b21ffc7f025b6,峰力助听器(东风大街),长春市绿园区汽车开发区汽车产业开发区东风大街103栋,吉林省,长春市,绿园区,,unknown,
baidu,38202d4fc441f9b90e3dda91,长春市康誉喜来健医疗器械有限公司,长春市绿园区自兴路车城名仕家园-B区东侧,吉林省,长春市,绿园区,13842900036,unknown,
baidu,b28e14ad6df4f56d6e20b9c1,奥莱依医美,吉林省长春市绿园区正阳街4205号,吉林省,长春市,绿园区,,unknown,
baidu,4d1c1acd765013f88bb988a8,吉林大药房(迎春路连锁店),吉林省长春市绿园区迎春路987号,吉林省,长春市,绿园区,(0431)88732999,unknown,
baidu,0044acbf6c7199d3a0acc452,增视优目视力服务中心(长春锦程大街店),吉林省长春市绿园区锦程大街18街区261栋1单元102号,吉林省,长春市,绿园区,,unknown,
baidu,a1e972488c3022192bb97c3e,吉林大药房(文明路店),吉林省长春市绿园区文明路556号,吉林省,长春市,绿园区,(0431)81912693,unknown,
baidu,1421db78161a7638e607380f,康泰园养老院,长春市绿园区康宁路高力·德国村北侧约120米,吉林省,长春市,绿园区,,unknown,
baidu,02295b046da9e1a32bd7ab54,西医内科诊所,吉林省长春市绿园区越野路22街区399栋,吉林省,长春市,绿园区,13324308388,unknown,
baidu,c9ed50ea48fafeeef82213f9,长春馨康中医院,长春市绿园区南阳路1288号(正阳广场与南阳路交汇处),吉林省,长春市,绿园区,"(0431)81171120,(0431)85663160",unknown,
baidu,ae90fe5a0b4077fa9e95de12,汽开区陈凤英中医内科诊所(支农大街店),吉林省长春市绿园区支农大街54号,吉林省,长春市,绿园区,,unknown,
baidu,a315b60da19d3a8309a8d4fc,长春市朝阳区前进社区卫生服务中心,吉林省长春市朝阳区孟家二路188-212号开运福里5栋,吉林省,长春市,朝阳区,,unknown,
baidu,089237d949ea109ad9eced90,张代科西医内科诊所,吉林省长春市绿园区和平大街54号905栋2单元,吉林省,长春市,绿园区,15604403950,unknown,
baidu,d3c95bb4ffe21a6512293550,吉林省一汽总医院-东区,吉林省长春市汽开区东风大街2643号,吉林省,长春市,绿园区,,unknown,
baidu,318519c64a1f9514a8175aa3,妙来堂大药房,吉林省长春市绿园区文明路35号,吉林省,长春市,绿园区,,unknown,
baidu,41572e00de96f3adb55f1ead,吉林大药房(越野路店),吉林省长春市绿园区越野路天茂城中央14栋127号,吉林省,长春市,绿园区,18043676687,unknown,
baidu,54767086a72af7b7d1f49efa,吉林省一汽总医院-病案科,吉林省长春市绿园区汽车产业开发区东风大街2643号,吉林省,长春市,绿园区,,unknown,
baidu,5d7c3f8421be40cec61e5185,汽开区养生堂中医康复诊所,长春市绿园区锦程大街一汽18街区,吉林省,长春市,绿园区,,unknown,
baidu,9efb5a59a00391afda2f287d,土馋品参茸行,吉林省长春市绿园区创业大街22街区195栋,吉林省,长春市,绿园区,,unknown,
baidu,03af966dc354095008f5eb7b,恒爱大药房(车百店),吉林省长春市绿园区迎春路848号,吉林省,长春市,绿园区,13944002891,unknown,
baidu,8111bf5810008978e215f9f9,吉林省一汽总医院-发热门诊,吉林长春市绿园区东风大街2755号,吉林省,长春市,绿园区,,unknown,
baidu,e735c7cc12c3010aafee7a1d,国大药房(锦程大街店),吉林省长春市绿园区锦程大街2337号,吉林省,长春市,绿园区,13278288808,unknown,
baidu,4803b588b9d712d1f4e73ba0,宝康源大药房(四联大街店),吉林省长春市绿园区四联大街645号,吉林省,长春市,绿园区,,unknown,
baidu,7be6afe53ec0fb4578f79635,刘薇西医内科诊所,吉林省长春市绿园区正阳街2525号汽贸小区8栋,吉林省,长春市,绿园区,,unknown,
baidu,b6844258b787505b5810930f,吉林省一汽总医院-核医学科,长春市绿园区东风大街2755号长春一汽总医院,吉林省,长春市,绿园区,,unknown,
baidu,3810c879dd0a63f69d09f791,吉林大药房(日新路店),吉林省长春市绿园区东风大街775号,吉林省,长春市,绿园区,15304300502,unknown,
baidu,8adcb10da13832b0ce04efeb,永新堂大药房(一汽四联店),吉林省长春市绿园区四联大街788号,吉林省,长春市,绿园区,(0431)85734757,unknown,
baidu,b2128045cd14902095ca07c1,易正堂健康工作室,长春市绿园区迎春南路二乙街区西南侧约30米,吉林省,长春市,绿园区,,unknown,
baidu,fd3299e7528c4e2d4f3a595e,鼎易大药房(好事多分店),吉林省长春市绿园区四联大街好事多市场,吉林省,长春市,绿园区,16643515152,unknown,
baidu,8eea2549ad4d658c3310af7c,益枫大药房(迎春南路店),吉林省长春市绿园区迎春南路37-8号,吉林省,长春市,绿园区,17767730159,unknown,
baidu,0dbf8dc153a929a20aa8d4f3,宏顺大药房(四联大街店),吉林省长春市绿园区四联大街605号,吉林省,长春市,绿园区,(0431)87080290,unknown,
baidu,e554153cbd17ddcfbda24017,吉林大药房(保利拉菲店),长春市绿园区自兴路保利拉菲公馆c,吉林省,长春市,绿园区,18904401714,unknown,
baidu,dd12587efa3791c7be4842b3,易正堂大药房(五十四分区店),吉林省长春市绿园区支农大街151号,吉林省,长春市,绿园区,15844040097,unknown,
baidu,f7cc6dab066d5dd13010af2e,康捷大药房(车城名仕店),吉林省长春市绿园区四联大街788号车城名仕家园B区12号楼103号房,吉林省,长春市,绿园区,15045690828,unknown,
baidu,9d4ae487a3f86e64d5b74eed,恒爱大药房(越野路路店),吉林省长春市绿园区西环城路8512号欧亚超市400栋,吉林省,长春市,绿园区,18166810073,unknown,
baidu,c47d995691e347ddadcb6637,国大药房(东风大街店),吉林省长春市绿园区春郊路胡同571号朝阳小区1~5栋,吉林省,长春市,绿园区,17519138309,unknown,
baidu,5e2fb40495178a752efaa722,福百草大药房(电台街店),吉林省长春市朝阳区电台街435号,吉林省,长春市,朝阳区,"(0431)84433022,13756905387",unknown,
baidu,d023b8f9130043358bb988fa,九台医药超市(车城名仕店),长春市绿园区汽开区四联大街788号车城名仕家园B区17栋5号门市,吉林省,长春市,绿园区,14717233088,unknown,
baidu,3766cab7c8289147b8bd6317,正开大药房(越野路分店),长春市绿园区东风街道汽车经济开发区支农大街与西环城路欧亚超市(越野路店)对面,吉林省,长春市,绿园区,"13039212066,13039212666",unknown,
baidu,8be1bed7cc32faadb4265557,益源大药房(保利店),吉林省长春市绿园区西环城路8211号保利拉菲公馆c2栋,吉林省,长春市,绿园区,"13039006773,18686638797",unknown,
baidu,406c2c395bd2fc0b4e2fdf99,禹成药房(越野路店),长春市绿园区自兴路保利拉菲公馆c,吉林省,长春市,绿园区,,unknown,
baidu,907cc683cbe3ac2e2102625c,瑞佳口腔,吉林省长春市绿园区锦程大街1963号,吉林省,长春市,绿园区,,unknown,
baidu,d35866181120bfd41894c68c,优沪口腔,吉林省长春市绿园区锦程大街2033号,吉林省,长春市,绿园区,,unknown,
baidu,ad09aac8d6e7448d80a00c97,刘东生口腔,吉林省长春市绿园区文明路682号,吉林省,长春市,绿园区,(0431)85908128,unknown,
baidu,98226b017a637fa1b2077dc7,路晶口腔诊所,吉林省长春市绿园区文光路165号,吉林省,长春市,绿园区,,unknown,
baidu,4cafb0997707cc80a21de951,达瓦口腔,吉林省长春市朝阳区南湖大路地矿花园4栋,吉林省,长春市,朝阳区,,unknown,
baidu,69c2c3d246f9977df32d83d6,杨秀波口腔诊所,吉林省长春市绿园区西环城路22街区398栋,吉林省,长春市,绿园区,,unknown,
baidu,6c1c0ed4237dbc35f5c59cb4,杨桂芬口腔诊所,吉林省长春市绿园区四联大街598号,吉林省,长春市,绿园区,18943658858,unknown,
baidu,dfe230a34dd3cf2ac61b75c2,池艳军口腔诊所,吉林省长春市绿园区迎春南路318号,吉林省,长春市,绿园区,,unknown,
baidu,bc64c49eea3b43e6306212fd,路莹口腔诊所,吉林省长春市绿园区日新路路莹口腔68栋,吉林省,长春市,绿园区,15543770631,unknown,
baidu,a43f50d61fd653d594ec842f,爱馨口腔,吉林省长春市朝阳区开运街4666号,吉林省,长春市,朝阳区,(0431)85759847,unknown,
baidu,bdc7cb9dbc71bfb43686f41c,张立新陈福口腔,吉林省长春市绿园区西环城路8480号,吉林省,长春市,绿园区,,unknown,
baidu,55ef791fa9f6a37432f71d86,近视矫正防控中心,长春市绿园区支农大街一汽22街区南门西侧约70米,吉林省,长春市,绿园区,,unknown,
baidu,67ac09f9d75239e1bea2402b,易视顿眼科(汽开区),吉林省长春市绿园区奔驰路2319号,吉林省,长春市,绿园区,0431-89285888,unknown,
baidu,79ab6a3d7faf9f897c29bde3,百乐乐口腔(绿园门诊部),吉林省长春市绿园区泰来街2078号,吉林省,长春市,绿园区,(0431)89961222,unknown,
baidu,e629502848678ae53f9a5e05,万福居,长春市绿园区锦阳路14号,吉林省,长春市,绿园区,,unknown,
baidu,2ea764aa9c68890ef6c59ca2,熊宝少儿美术馆,吉林省长春市绿园区锦程大街2019号门市,吉林省,长春市,绿园区,19904403307,unknown,
baidu,be1ea5efbca441bf14948e35,一汽实验幼儿园,吉林省长春市绿园区东风大街1585号,吉林省,长春市,绿园区,(0431)85904152,unknown,
baidu,cd44dabe4f789d85d7851f63,比格莱恩教育,吉林省长春市绿园区文明路650号,吉林省,长春市,绿园区,(0431)88038111,unknown,
baidu,44909803ce3839b10869d964,一汽大学(解放分校),吉林省长春市绿园区长青路507号,吉林省,长春市,绿园区,,unknown,
baidu,71642cb0f17274d049fd3f82,致知教育,吉林省长春市绿园区锦程大街天茂城中央正门,吉林省,长春市,绿园区,18686500805,unknown,
baidu,d19f49bb1aaac5041df74d2c,铭艺吉他工作室,吉林省长春市绿园区四联大街554号,吉林省,长春市,绿园区,18686586128,unknown,
baidu,28410ed434ea2a01cc04ef6a,泓传教育,吉林省长春市绿园区洛阳路23街区478栋1楼4单元,吉林省,长春市,绿园区,19944881889,unknown,
baidu,bfc329a358298d7f43e19280,长春市庆华舞蹈培训学校(一汽26街区南),吉林省长春市绿园区西环城路8211号保利拉菲公馆大都汇3楼308室,吉林省,长春市,绿园区,13504471353,unknown,
baidu,88a7d61156d79d628f55ec87,长春市奇同教育培训学校,长春市绿园区自兴路保利·拉菲公馆-一期,吉林省,长春市,绿园区,,unknown,
baidu,913268f075fb53e979f79694,雏鹰艺校(越野路),吉林省长春市绿园区越野路357号（锦程街道）,吉林省,长春市,绿园区,(0431)85785837,unknown,
baidu,ce603a077edb0ea7bea240a1,UP街舞工作室,吉林省长春市绿园区西环城路保利拉菲公馆s1栋101室,吉林省,长春市,绿园区,18186886886,unknown,
baidu,6ef5b9e3f87602ae43e192ec,佩尔成长中心(一汽保利拉菲校区),吉林省长春市绿园区汽车产业开发区西环城路与红领巾路交汇保利拉菲公馆E2门市,吉林省,长春市,绿园区,,unknown,
baidu,d3c6617b93d510bfa8f0cdf3,昊瀚搏击俱乐部,西环城路与四联大街交汇保利大都汇s区6楼616室,吉林省,长春市,绿园区,18244063071,unknown,
baidu,f31dc38860618cf9c9291519,心智青中老年大学(绿园汽车厂校区),吉林省长春市绿园区锦程大街2045号,吉林省,长春市,绿园区,17833143606,unknown,
baidu,f20b9fdd9e398de99d9d68f8,梓望宝贝成长中心,吉林省长春市朝阳区开运街3489号,吉林省,长春市,朝阳区,13166803337,unknown,
baidu,fc646f2e522c1d2ea8f729a4,快乐成长,吉林省长春市绿园区锦程大街汽车经济技术开发区第一小学,吉林省,长春市,绿园区,,unknown,
baidu,429ca6d56276aa40f60e770a,金榜学霸升学规划服务中心(汽贸城银行家属楼),吉林省长春市绿园区东风大街111号,吉林省,长春市,绿园区,18043375557,unknown,
baidu,ff3868e47d2c38fbe21103c7,王燕大语文国学,吉林省长春市绿园区西环城路8211保利拉菲公馆大都汇4楼403室,吉林省,长春市,绿园区,18043153923,unknown,
baidu,d6c41019c58e5f01dbeced68,千李外语(越野路校区),吉林省长春市绿园区越野路一期4楼,吉林省,长春市,绿园区,,unknown,
baidu,c723fad3cdfe639980a00c85,长春汽车经济技术开发区教师进修学校,吉林省长春市绿园区四联大街101号,吉林省,长春市,绿园区,,unknown,
baidu,ff615a4c319fef8cc056acc4,幸福教育,长春市绿园区锦程大街汽车经济技术开发区第一小学,吉林省,长春市,绿园区,,unknown,
baidu,d26eac96a8a019b2871541cc,C大调音乐学校,吉林省长春市绿园区西环城路8211号保利拉菲公馆大都汇4楼415室,吉林省,长春市,绿园区,"15643750371,15643750571",unknown,
baidu,69818554c3175f1ab817e734,吉林省社区老年大学(长春国际汽车城校区),吉林省长春市绿园区日新路370号,吉林省,长春市,绿园区,,unknown,
baidu,f675e56954d6a1a995f08cd5,长春汽车经济技术开发区第四小学,吉林省长春市绿园区文明路与香苑路交叉路口往北约90米,吉林省,长春市,绿园区,(0431)85771613,unknown,
baidu,14ec6ba06a64c7a2cc06a42e,奕林教育培训学校,吉林省长春市绿园区西环城路保利拉菲公馆s区s1栋608,吉林省,长春市,绿园区,18143075271,unknown,
baidu,a4820f84354a1269ca09f0c3,阳光艺术,长春市绿园区越野路车城名仕雅园东侧约40米,吉林省,长春市,绿园区,,unknown,
baidu,59d17e7ec830afd94c3a5922,兴隆驾校(孟家分校),吉林省长春市朝阳区南湖大路3776号(近轻轨南湖大路站),吉林省,长春市,朝阳区,,unknown,
baidu,a29eb13371212a67d5b74eae,柠檬艺术中心,吉林省长春市绿园区支农大街51号,吉林省,长春市,绿园区,(0431)80805000,unknown,
baidu,0da205783b9f063a96ca0749,印乐音乐,长春市绿园区自兴路保利·拉菲公馆-一期,吉林省,长春市,绿园区,,unknown,
baidu,cb26b3cc78ac3d652bfc4878,北广设计学院,吉林省长春市朝阳区开运街2116号洛城广场1栋2116号,吉林省,长春市,朝阳区,17767774470,unknown,
baidu,ce8e99213ad8abd39d9d68fa,长春汇通驾校(孟家分校),吉林省长春市朝阳区南湖大路7668号(吉福国际茶城南门),吉林省,长春市,朝阳区,15584493762,unknown,
baidu,eef0ebdb76ebcc37e5e96530,奇林美术,吉林省长春市绿园区自兴路,吉林省,长春市,绿园区,18584341168,unknown,
baidu,4ff850cc31e0b36de215f9de,艺术学院附属艺校,吉林省长春市绿园区西环城路8211号保利拉菲公馆大都汇4楼402/412号,吉林省,长春市,绿园区,13610737563,unknown,
baidu,5c494c0b2e4efe98c909f07e,汽车经济技术开发区第一小学,吉林省长春市锦程大街1125号,吉林省,长春市,绿园区,(0431)85904728,unknown,
baidu,0eaf1e71a86c0c8ea7c7561a,长春汽车经济技术开发区第四中学,吉林省长春市绿园区东风大街708号,吉林省,长春市,绿园区,,unknown,
baidu,022c59b5dbddf9b170455be3,雏鹰心之音幼儿园(天茂校区),吉林省长春市绿园区锦程大街天茂·城中央A区28号楼,吉林省,长春市,绿园区,(0431)85775220,unknown,
baidu,9232c355f3b8ec9026d2bb70,及第坐标教育(汽开校区),吉林省长春市绿园区保利拉菲公馆S区1113室,吉林省,长春市,绿园区,,unknown,
baidu,85114fbdde3472c14e5547b0,机械工业第九设计研究院有限公司南院,吉林省长春市绿园区创业大街1958号,吉林省,长春市,绿园区,,unknown,
baidu,c6e580074028167a00ec018e,长春汽车经济技术开发区实验小学,吉林省长春市绿园区四联大街219号,吉林省,长春市,绿园区,(0431)85904123,unknown,
baidu,0696436a6e336a296cc02cc6,第四小学幼儿园,吉林省长春市绿园区东风大街1951号（一汽8b街区西南1门旁）,吉林省,长春市,绿园区,15844044319,unknown,
baidu,428fe23845911fe6c929157d,清扬琴舍古琴工作室,长春市朝阳区小马路地矿花园东北侧,吉林省,长春市,朝阳区,18604300806,unknown,
baidu,3028e3ac9a29a9e29e95dea0,个性化学习中心,吉林省长春市绿园区汽车产业开发区创业大街与越野路交汇学大教育,吉林省,长春市,绿园区,,unknown,
baidu,cbf5314f42509e5f1388248a,阳光培训学校(越野路),长春市绿园区越野路车城名仕雅园东侧约30米,吉林省,长春市,绿园区,,unknown,
baidu,f623b9d3281f56bf8c55ec43,断木24H自习室,西环城路8211号保利拉菲-大都汇1506室,吉林省,长春市,绿园区,13159770011,unknown,
baidu,fedee6e999d56c2da1a934e1,一汽解放商用车开发院,吉林省长春市绿园区创业大街1063号,吉林省,长春市,绿园区,,unknown,
baidu,8eb48fa18868e0a6f32d8335,一汽幼儿保教中心锦程幼儿园,吉林省长春市绿园区锦城大街820号汽车产业开发区,吉林省,长春市,绿园区,(0431)85904697,unknown,
baidu,d1b87f6cf8d81f8a29fc48f4,孙小涵硬笔书法,吉林省长春市绿园区四联大街与西环城路交汇-保利拉菲公馆1号楼304室,吉林省,长春市,绿园区,13353245342,unknown,
baidu,dddf30b9bd1611d81ce999a9,羽宸舞蹈艺术学校,长春市绿园区南阳路银龙小区,吉林省,长春市,绿园区,"15500019971,15643117969",unknown,
baidu,6d96acd76e88347b90114cd8,办理电工焊工上岗证,长春市朝阳区开运街世纪馨园西北侧约40米,吉林省,长春市,朝阳区,,unknown,
baidu,2c6c98699171643e9c82ea5b,彩虹堂艺术学校,吉林省长春市绿园区西环城路8211号3楼314室,吉林省,长春市,绿园区,18043672618,unknown,
baidu,399e42666fbfbf43c91b95cb,长春市心之音越野幼儿园有限公司,吉林省长春市绿园区越野路357号,吉林省,长春市,绿园区,18621677415,unknown,
baidu,188449f13d4fbd4caeb22ae5,绘奕美术,长春市绿园区迎春南路1街区,吉林省,长春市,绿园区,,unknown,
baidu,dcf61567a599ed16276e9892,德旭交规科一科四理论速成长春旗舰店(西环城路),绿园区长春市西环城路与南阳街交汇东行50米道南,吉林省,长春市,绿园区,"16722891333,17543991131",unknown,
baidu,28377108350cedec7269d319,长春汽车经济技术开发区第一中学,汽车产业开发区四联大街9号,吉林省,长春市,绿园区,(0431)85902570,unknown,
baidu,7bfa08fc6c74fb7f25d2bb35,长春市机械工业学校,长春市绿园区东风大街293号,吉林省,长春市,绿园区,"(0431)81819333,(0431)81819366",unknown,
baidu,55292b1fcd61a02f3310af30,那么秀艺术培训学校,吉林省长春市绿园区春城大街52号,吉林省,长春市,绿园区,(0431)84897888,unknown,
baidu,ee50c917511453c0c91b95d3,骐昂乒乓球馆,吉林省长春市绿园区西环城路8211号保利拉菲公馆S1号楼610号,吉林省,长春市,绿园区,18166835151,unknown,
baidu,f68fca251ccac5e930621248,长春现代商务职业技术学校,吉林省长春市朝阳区孟家五路西1号,吉林省,长春市,朝阳区,(0431)81909907,unknown,
baidu,31f9101b2cb025b926e0a035,长春市十一高中,长春市绿园区景阳大路2666号,吉林省,长春市,绿园区,(0431)87628131,unknown,
baidu,19d2f79bd06a7a9d9b68b491,长春汽车研究所,长春市绿园区汽研,吉林省,长春市,绿园区,,unknown,
baidu,997cb4a3fa05ea7fdbd89114,赵阳舞韵艺术中心,吉林省长春市绿园区西环城路8211号,吉林省,长春市,绿园区,18604319005,unknown,
baidu,7aea43b7ed2551f87c29bd35,吉林省工程技术学校,吉林省长春市绿园区锦程大街203号,吉林省,长春市,绿园区,(0431)87657583,unknown,
baidu,a6b550b7a5622d50ca09f023,维也纳音乐艺术中心(浑江街),吉林省长春市朝阳区浑江街与抚松路交汇西行,吉林省,长春市,朝阳区,"13943175633,13943184313",unknown,
baidu,6c00d4cdab5b0f01cd04ef72,实验小学幼儿园,长春市绿园区四联大街与四联一路交叉路口往北约140米,吉林省,长春市,绿园区,,unknown,
baidu,4f7390e6c7061865a7c75637,吉林艺术学院(红旗校区),红旗街2077号,吉林省,长春市,朝阳区,(0431)89156008,unknown,
baidu,5358824cc4ce71646268583f,佳境美术,吉林省长春市朝阳区开运街2166号,吉林省,长春市,朝阳区,18043073312,unknown,
baidu,e3e2cd9d50718be3c7f50d34,吉林省建筑科学研究设计院,吉林省长春市绿园区春城大街4398号,吉林省,长春市,绿园区,(0431)87604512,unknown,
baidu,ef2854b160e68ba71811d5a1,长春市第十中学,吉林省长春市朝阳区大屯街505号,吉林省,长春市,朝阳区,"(0431)81339288,(0431)81339289",unknown,
baidu,5a7d5423cc1d470c0c0e6b0c,长春市建安职业培训学校,长春市朝阳区开运街世纪馨园西北侧约40米,吉林省,长春市,朝阳区,(0431)81707338,unknown,
baidu,881a28e7c54dee39f942b223,绿园区锦程学校,吉林省长春市绿园区春城大街68号（南阳路与万福街交叉口）,吉林省,长春市,绿园区,(0431)87680536,unknown,
baidu,550fd5f92cfdd078931fc9ed,安民小学,吉林省长春市朝阳区红旗街2809号,吉林省,长春市,朝阳区,,unknown,
baidu,25836b1eb5376f8a15a190b4,吉米拉美术,吉林省长春市朝阳区抚松路松宇花园东侧约90米（安民小学西南侧约70米）,吉林省,长春市,朝阳区,13610728579,unknown,
baidu,75d0881aa05e674c3a04b12b,长春市第四十五中学(小学部),吉林省长春市朝阳区进化街512号湖西路南二胡同与进化街交汇处,吉林省,长春市,朝阳区,,unknown,
baidu,a04ebf58588aa92ab1077d85,启迪双语幼儿园,吉林省长春市朝阳区小马路59号（开运街小马路交汇）,吉林省,长春市,朝阳区,13514495086,unknown,
baidu,24d055083ee897af1288243f,一汽幼儿保教中心奔驰幼儿园,吉林省长春市绿园区锦程大街3589号,吉林省,长春市,绿园区,(0431)85764358,unknown,
baidu,61f634f63d0a29786b49f32a,长春市希望学校,吉林省长春市朝阳区开运街4940号,吉林省,长春市,朝阳区,(0431)85512361,unknown,
baidu,489ec898afd74b2bbea240d9,长春市朝阳实验学校,吉林省长春市朝阳区湖西街道宽平大路1341号,吉林省,长春市,朝阳区,"(0431)85928286,(0431)85969955",unknown,
baidu,060f5e5324dc13d7081cc7de,长春市朝阳实验小学(集安路),吉林省长春市朝阳区集安路507号,吉林省,长春市,朝阳区,(0431)85928286,unknown,
baidu,b31fb04c36a40b409c09f73f,宏声音乐工作室,吉林省长春市绿园区春城街道南阳路88号,吉林省,长春市,绿园区,,unknown,
baidu,7d93b0333a467d269fec2b68,长春工业大学继续教育学院分院,吉林省长春市绿园区东风大街2061号一汽综合楼4楼,吉林省,长春市,绿园区,,unknown,
baidu,1bf85b25f9f46ea5a1a93432,长春汽车产业开发区第七小学,吉林省长春市绿园区革新路431号（近创业大街）,吉林省,长春市,绿园区,,unknown,
baidu,480b24d03aada6f19cec2b3f,一汽创业幼儿园,吉林省长春市绿园区创业大街3709号,吉林省,长春市,绿园区,(0431)85764363,unknown,
baidu,5ffb181679f3685f6f4760d9,长春黄金研究院,吉林省长春市朝阳区南湖大路6760号,吉林省,长春市,朝阳区,(0431)85530995,unknown,
baidu,0aaf72b7f40e3141c42ba197,福娃贝贝幼儿园,吉林省长春市绿园区同心街道西环城路蓝调倾城小区24栋福娃贝贝幼儿园,吉林省,长春市,绿园区,,unknown,
baidu,d24e48eb409f97b4afee7ad9,吉林省交通科学研究所,吉林省长春市朝阳区进化街908号,吉林省,长春市,朝阳区,(0431)86026040,unknown,
baidu,6cafef9e9fcf2cd1ce04ef1e,长春市绿园区八十七中小学(南校区),吉林省长春市绿园区红领巾路677号,吉林省,长春市,绿园区,,unknown,
baidu,5c56edd63644fa5aa1d2303f,长春汽车经济技术开发区第十二小学,吉林省长春市绿园区奔驰路1118号,吉林省,长春市,绿园区,(0431)85769815,unknown,
baidu,18171580fccd0dc49e95de79,长春市技师学院招生咨询办事处,长春市绿园区东风大街汽贸城银行家属楼,吉林省,长春市,绿园区,,unknown,
baidu,5e8914597941e1ba1288243d,宝玉第一幼儿园,吉林省长春市绿园区南阳路银龙小区6栋,吉林省,长春市,绿园区,13843056227,unknown,
baidu,da485a78777107e1c9e33c20,宝玉学前教育,南阳路银龙小区6栋,吉林省,长春市,绿园区,13843056227,unknown,
baidu,3887740c015b64e17ab55c35,吉林省工程技术学校教学楼,长春市绿园区锦程大街吉林省工程技术学校,吉林省,长春市,绿园区,,unknown,
baidu,8448c7c19b8905936c3e1b7e,工业技工学校(开运分校),长春市朝阳区开运街39号,吉林省,长春市,朝阳区,,unknown,
baidu,43a92a6137959fff601c671f,省直文化系统幼儿园,吉林省长春市朝阳区开运街领袖朝阳一期14栋,吉林省,长春市,朝阳区,(0431)85644503,unknown,
baidu,4169cb34d757d28740afe60b,星绘艺术创作馆,南洋路银龙小区2号楼103门市,吉林省,长春市,绿园区,,unknown,
baidu,19f9a014a6e55e1ead31e53a,第一设计研究院,吉林省长春市绿园区正阳街4326号吉林建苑设计集团4楼,吉林省,长春市,绿园区,,unknown,
baidu,80bb2facf075e8a6e5e9656a,伍陆柒捌国学幼儿园,吉林省长春市绿园区南阳路碧水云天小区1栋,吉林省,长春市,绿园区,,unknown,
baidu,4f94ce24109caaf1b42655da,大桥素养成长中心(四联大街),吉林省长春市绿园区四联大街597号,吉林省,长春市,绿园区,4008831992,unknown,
baidu,810ee6b05d4cb62ff7231072,缪斯音乐,东风大街1号普阳街与正阳街交汇汽贸城银行家属楼101室,吉林省,长春市,绿园区,,unknown,
baidu,ff94ccfb456e5832b5f42f96,长春市朝阳区天天幼儿园,长春市朝阳区开运街与小马路交叉路口往东约200米,吉林省,长春市,朝阳区,,unknown,
baidu,29e2e60e07f26407ee74f8a7,绿园区同心幼儿园(红领巾路),吉林省长春市绿园区红领巾路755号,吉林省,长春市,绿园区,"(0431)81508450,13944843469",unknown,
baidu,34cdbf8e3797c050f8dc8516,长春市朝阳区第二实验幼儿园,开运街128号(孟家屯地铁站出入口步行260米),吉林省,长春市,朝阳区,,unknown,
baidu,92a7c3350d1c66d78bdb73cf,八街区-地上停车场,长春市绿园区长青路八街区,吉林省,长春市,绿园区,,unknown,
baidu,2132c34e51c7cfcd6e20b9c7,一汽文化宫,108路;139路;143路;157路;G252路;G7路,吉林省,长春市,绿园区,,unknown,
baidu,145bbcf4963d1f271ee99912,三站,143路,吉林省,长春市,绿园区,,unknown,
baidu,15e8eb0ee659fd533686f421,汽车厂三站,135路;138路;143路;156路;157路;G119路;G150路;G221路;G251路;Z167路;Z188路;Z232路,吉林省,长春市,绿园区,,unknown,
baidu,a3fbe729b3ca212d250bd04f,昆仑二路,108路;157路;G252路;G7路,吉林省,长春市,绿园区,,unknown,
baidu,ab556cb7672455d4ae080f55,天茂城中央,108路;139路;143路;G252路;G7路,吉林省,长春市,绿园区,,unknown,
baidu,971d5c53d40e1e9df90cade8,一汽二号门,135路;138路;156路;G119路;G150路;G221路;G251路;Z167路;Z188路;Z232路,吉林省,长春市,绿园区,,unknown,
baidu,dcd9755508401a52ae31e530,停车场,长春市绿园区锦程东风大街一汽8B街区东门,吉林省,长春市,绿园区,,unknown,
baidu,91a826d43fc78a0fb64f5468,欧亚车百,135路;138路;143路;156路;G119路;G150路;G221路;G251路;G252路;Z159路;Z167路;Z188路;Z232路,吉林省,长春市,绿园区,,unknown,
baidu,8f3ee51ea0a27af977026954,一汽实验小学,108路,吉林省,长春市,绿园区,,unknown,
baidu,b65d84b7bf2e12b5b14c4959,抚松路,轨道交通3号线,吉林省,长春市,朝阳区,,unknown,
baidu,28578e8afc15798cb42655bc,长春南站(货运站),吉林省长春市朝阳区开运街3881号,吉林省,长春市,朝阳区,(0431)12306,unknown,
baidu,96f0835cca77ba0c5d0d0210,宽平桥站,长春市朝阳区开运街洛城广场西侧约50米,吉林省,长春市,朝阳区,,unknown,
baidu,7c1d532994fb88054acc4a59,孟家屯,轨道交通3号线,吉林省,长春市,朝阳区,,unknown,
baidu,be12d582ad959141d72ce2ec,花园酒店,231路;G197路;G19路;G7路;Z159路,吉林省,长春市,绿园区,,unknown,
baidu,e889a744827f53b58605bf38,华奥石油加油加气站(迎春CNG站),吉林省长春市绿园区迎春南路32号,吉林省,长春市,绿园区,95388,unknown,
baidu,843f8c396822cb6296ca0710,昆仑一路,G7路;Z159路,吉林省,长春市,绿园区,,unknown,
baidu,3bbb4ff768b039602bfc4859,宽平桥,轨道交通3号线,吉林省,长春市,朝阳区,,unknown,
baidu,80133043f8467d80fd0eb086,长青路,139路;157路;231路;G197路;G19路;Z159路,吉林省,长春市,绿园区,,unknown,
baidu,d64c00450b488f6fa6c7560e,吉大四院,108路;121路;135路;138路;139路;143路;156路;231路;G119路;G150路;G221路;G251路;G252路;G7路;Z167路;Z188路;Z232路,吉林省,长春市,绿园区,,unknown,
baidu,b62490ba758d89aa1088247c,汉庭长春东风大街一汽红旗酒店东北侧-临时停车点,吉林省长春市绿园区昆仑二路汉庭长春东风大街一汽红旗酒店东北侧,吉林省,长春市,绿园区,,unknown,
baidu,deb7beef80fbbc2f9a68b4eb,长春花园酒店(创业大街店)-停车场,长春市绿园区昆仑一路花园酒店,吉林省,长春市,绿园区,,unknown,
baidu,1b15ca0977be49e8c81b95b5,天茂城中央-地下停车场,长春市绿园区汽车产业开发区创业大街2122号,吉林省,长春市,绿园区,,unknown,
baidu,a1ca9b31b1764c61ad080f82,文光路,157路;231路,吉林省,长春市,绿园区,,unknown,
baidu,b09c591b9e50c79ef50e77b7,文明路,157路;231路;G19路,吉林省,长春市,绿园区,,unknown,
baidu,60f5a91da87bb856e81e97a9,15街区-停车场,长春市绿园区昆仑二路1号,吉林省,长春市,绿园区,,unknown,
baidu,bc5e731d8d65c36b82a00c6c,宽平大桥,267路;G119路;G19路;G212路;G222路;G252路;G54路;G55路;G9路;T104路;Z129路;Z159路;Z232路;Z245路;Z52路,吉林省,长春市,朝阳区,,unknown,
baidu,bbaabbe5ce76982a03ec0109,迎春商场(车城店)-停车场,长春市绿园区东风大街迎春广场,吉林省,长春市,绿园区,,unknown,
baidu,378e806252db29ad9ee321b2,一汽3街区-停车场,吉林省长春市绿园区长青路18号,吉林省,长春市,绿园区,,unknown,
baidu,26ddb2bdadff32eca2046427,中国石油加油站(长春春城站),长春市绿园区春城大街2525-2761号,吉林省,长春市,绿园区,,unknown,
baidu,31b55cbe5666a2c36cc02c66,停车场,长春市绿园区长青路一汽3街区南侧约40米,吉林省,长春市,绿园区,,unknown,
baidu,f5f3954db5422425e81e9725,如家酒店长春一汽店停车场,长春市绿园区长青路如家酒店(长春一汽店),吉林省,长春市,绿园区,,unknown,
baidu,3ea7c2a7c41a7e9dabf7295d,停车场(开运商厦西南),长春市绿园区长青路一汽3街区南侧约30米,吉林省,长春市,绿园区,,unknown,
baidu,674178bb670179103310afd1,天茂城中央-中央地下停车场,长春市绿园区锦程大街天茂·城中央-B区,吉林省,长春市,绿园区,,unknown,
baidu,fc87ed86917f231f7ec876ce,停车场,长春市绿园区文光路八街区南侧约240米,吉林省,长春市,绿园区,,unknown,
baidu,0480e6a1c55c04daa11de9a0,天茂城中央A区-地上停车场,长春市绿园区汽车厂锦程大街2377号,吉林省,长春市,绿园区,,unknown,
baidu,917ccc3043faf13a83a00c9f,中国第一汽车股份有限公司西南侧-停车场,长春市绿园区创业大街一汽22街区东侧约100米,吉林省,长春市,绿园区,,unknown,
baidu,3514c52619c0964d9b00500e,一汽七号门,121路;138路;231路;G221路;G251路;G7路;Z188路;Z232路,吉林省,长春市,绿园区,,unknown,
baidu,fd7557de2bfafdcdabf72959,欧亚电器城(一汽6街区店)-地上停车场,长春市绿园区东风大街一汽6街区,吉林省,长春市,绿园区,,unknown,
baidu,ac8378fc0e4b738515b54b59,湖光路,轨道交通3号线,吉林省,长春市,朝阳区,,unknown,
baidu,290242427294696dd6b74e55,一汽8b街区-停车场,长春市绿园区文明路一汽8b街区,吉林省,长春市,绿园区,,unknown,
baidu,52a25b8f1925987a59bbbcb4,迎春南路北侧临时停车点,长春市绿园区迎春南路一汽3街区,吉林省,长春市,绿园区,,unknown,
baidu,5af14cf962b3cf98ae31e59b,富豪花园,149路;282路;Z255路,吉林省,长春市,朝阳区,,unknown,
baidu,588c4d7afeb6ff0cc1f1cfad,16街区-地上停车场,长春市绿园区创业大街16街区,吉林省,长春市,绿园区,,unknown,
baidu,c9c5893eda3dcfa60482c220,停车场,长春市绿园区1号路一汽综合楼东南侧约120米,吉林省,长春市,绿园区,,unknown,
baidu,a7c06951c2ec6dc27c29bda1,停车场,长春市绿园区迎春南路一汽3街区东南侧约60米,吉林省,长春市,绿园区,,unknown,
baidu,4b14cb885b03a3c0cac3db8a,一汽动能分公司-停车场,长春市绿园区洛阳路一汽22街区东北侧,吉林省,长春市,绿园区,,unknown,
baidu,eb6d0d899376f5e16e20b9bb,开迈斯充电站(一汽集团生产物流部地上直流站(内部专用站)),吉林省长春市绿园区创业大街1959号,吉林省,长春市,绿园区,4006657666,unknown,
baidu,503d26ef4cc47e299a68b4a0,停车场(一汽9街区西),长春市绿园区锦程大街九物业小区,吉林省,长春市,绿园区,,unknown,
baidu,ec909ae4e0cb915b6c3e1bf2,一汽解放汽车销售有限公司西南侧-停车场,吉林省长春市绿园区迎春路617号,吉林省,长春市,绿园区,,unknown,
baidu,f2e9496a4215bb34dbeced17,迎春南路北侧临时停车点,长春市绿园区迎春南路一汽3街区东侧约30米,吉林省,长春市,绿园区,,unknown,
baidu,348e37e5df4bb2af260bd0de,停车场(日新路),长春市绿园区日新路一汽6街区,吉林省,长春市,绿园区,,unknown,
baidu,39043ff0b174e5840ab93a13,好事多果蔬(车城邻里购物中心店)-地上停车场,长春市绿园区洛阳路车城邻里购物中心,吉林省,长春市,绿园区,,unknown,
baidu,caac51eedc5fdae3abf0cdc8,长春水务集团汽开供水分公司服务网点西侧-地上停车场,长春市绿园区迎春路30号,吉林省,长春市,绿园区,,unknown,
baidu,32dae6fd6b9e48f006026f5f,中东七彩城,155路;156路,吉林省,长春市,绿园区,,unknown,
baidu,1340cf48a87161f27e29bd05,电车公司,155路;G150路;G240路;G54路;Z245路,吉林省,长春市,绿园区,,unknown,
baidu,6a380306e25873b2fb2d617a,第一汽车制造厂东北侧停车场,长春市绿园区东风大街九物业小区南侧约60米,吉林省,长春市,绿园区,,unknown,
baidu,4c716c030d03bbbd8a36ee9e,华港二手车市场,151路;G280路,吉林省,长春市,绿园区,,unknown,
baidu,de78b17d1cbf442796ca075b,万沅大厦-停车场,长春市绿园区东风大街万沅大厦,吉林省,长春市,绿园区,,unknown,
baidu,d9710d3a3f81523721026263,迎春南路南侧临时停车点,长春市绿园区迎春南路二乙街区南侧,吉林省,长春市,绿园区,,unknown,
baidu,33e6ff32da964b393010af8e,长春金樱桃商务宾馆停车场,长春市绿园区香苑路九物业小区,吉林省,长春市,绿园区,,unknown,
baidu,5f060778e92c83de40ab9a0d,长春汽车经济技术开发区实验小学-停车场,长春市绿园区四联一路长春汽车经济技术开发区实验小学,吉林省,长春市,绿园区,,unknown,
baidu,4bea54c94dd92e3fcac3db9e,长春汽车经济技术开发区教育局教育大楼停车场,长春市绿园区四联大街长春汽车经济技术开发区实验小学东南侧约30米,吉林省,长春市,绿园区,,unknown,
baidu,2a28e16582622ac88f1a8957,二乙街区南侧临时停车点,长春市绿园区迎春南路二乙街区,吉林省,长春市,绿园区,,unknown,
baidu,ebadfe70e5e6370379b55c48,一汽解放汽车有限公司大厦-B座停车场,长春市绿园区越野路九物业小区,吉林省,长春市,绿园区,,unknown,
baidu,408141b5f522086c343a710b,停车场(迎春路),吉林省-长春市-绿园区-迎春路20号,吉林省,长春市,绿园区,,unknown,
baidu,241b681fc1ab9f6526e0a0ab,临时停车点,长春市绿园区2号路与长青路交叉路口往东南约220米,吉林省,长春市,绿园区,,unknown,
baidu,9679ec67cfcd38585bf6be89,一汽18街区-停车场,吉林省长春市绿园区创业大街32号,吉林省,长春市,绿园区,,unknown,
baidu,c210fcbe54cbc57c57bfffb0,停车场,长春市绿园区2号路与长青路交叉路口往东南约240米,吉林省,长春市,绿园区,,unknown,
baidu,db48a3f59df2e2ae90114cd7,电台街轻轨站,205路;208路,吉林省,长春市,朝阳区,,unknown,
baidu,36787a36ce22a11c22022035,一汽解放汽车销售有限公司东南侧-停车场,长春市绿园区迎春路一汽2街区西北侧,吉林省,长春市,绿园区,,unknown,
baidu,b2eae3ab8adc3678d3ff23f4,一汽22街区-西区-停车场,长春市绿园区创业大街一汽22街区,吉林省,长春市,绿园区,,unknown,
