source,bd_uid,name,address,province,city,area,tel,poi_type,tag
baidu,327570e7ee3df3525cd4fed6,吉祥餐馆(灯福街店),灯福街142号,福建省,泉州市,丰泽区,15859508771,unknown,
baidu,3b8aa8920ff005d0a0acc42c,皇叔家漳州四果汤(泉州市电业局大厦店),丰泽街道丰迎路13号(津淮街西街南侧),福建省,泉州市,丰泽区,18876338660,unknown,
baidu,308060b029682d993f9a5e77,老兵饭店(泉秀店),泉秀路615-1号,福建省,泉州市,丰泽区,(0595)22012219,unknown,
baidu,b703e96b3aea3fe38f1a8932,一心冰品(迎津街店),迎津街122号,福建省,泉州市,丰泽区,15392239265,unknown,
baidu,12a18e25974acce67369d31f,荟聚小酒馆,泉秀街与津坂路交叉口西140米,福建省,泉州市,丰泽区,,unknown,
baidu,e08684ddd5df8b8c82a12e68,圆宝台湾小吃(迎津街店),迎津街164-166号,福建省,泉州市,丰泽区,15159599788,unknown,
baidu,803708f1955600790189723d,龙梅饭店(六灌路店),津坂路128号（前坂商贸城2号楼17号店）,福建省,泉州市,丰泽区,13808549988,unknown,
baidu,5046578c537189ca1ef74ded,古茗(义全街店),义全街1-17号,福建省,泉州市,丰泽区,19905058780,unknown,
baidu,55fa2c0b5e6596341ce99918,香喷喷湘菜馆(六灌路店),津坂路126号,福建省,泉州市,丰泽区,(0595)22286298,unknown,
baidu,c08a4b16aae45acf4151c0ff,面头师(泉州温陵南路店),义全街1-19号,福建省,泉州市,丰泽区,15960834553,unknown,
baidu,8c413ff36f3c571c52e5c5aa,亮仔小龙虾(泉州前坂店),前坂路交通大队斜对面,福建省,泉州市,丰泽区,15059836680,unknown,
baidu,95561f952161ce9615c905e4,吴家小院(赣菜王第八分店),丰泽街道津坂路46号,福建省,泉州市,丰泽区,(0595)22889588,unknown,
baidu,e810edc385f7235251e5c593,景都大酒楼(景都店),泉秀路768景都大酒店2-4、8层,福建省,泉州市,丰泽区,"(0595)22570080,(0595)22570083",unknown,
baidu,8247f954ccacfe11d12dd6b5,陈小姐四果汤(泉州店),灯福街87号-8,福建省,泉州市,丰泽区,13506095443,unknown,
baidu,a098f09672798a8014948ea5,蜀美人(泉秀店),福建省泉州市丰泽区灯福街32号,福建省,泉州市,丰泽区,18259509429,unknown,
baidu,5210eb10096233845c17c31b,泮宫卤面(宝洲店),临江街道温陵南路3号,福建省,泉州市,丰泽区,18859956208,unknown,
baidu,ec94ce24b3a1dea5adee7a0c,k大叔滋补蒸鸡(泉州店),灯福街44号,福建省,泉州市,丰泽区,15160312625,unknown,
baidu,b3e2076aae48d5c5b726554c,肯德基(泉州大洋店),泉秀路与温陵路交叉口福华商厦大洋百货1层,福建省,泉州市,丰泽区,(0595)22990928,unknown,
baidu,686c237121c5c50f46e274c5,古蜀印象·集市火锅(丰泽店),泉秀街道华丰社区泉秀街615号3楼A区,福建省,泉州市,丰泽区,18016625303,unknown,
baidu,12b66f008e838aed97031907,奈雪的茶(泉州大洋百货店),温陵南路92号福华商业中心大厦一楼A2（奈雪的茶）,福建省,泉州市,丰泽区,18559577201,unknown,
baidu,1b67cd96338ea12aed74f8a6,辉哥烤鱼店,灯洲社区灯福街124号,福建省,泉州市,丰泽区,15959864188,unknown,
baidu,9f28390f3d1ba6212911d174,阿财烧烤店,灯福街127号,福建省,泉州市,丰泽区,13599992758,unknown,
baidu,59620d226ecbbd822b201a9d,华莱士·全鸡汉堡(127新城店),温陵南路新城大厦35-36号店,福建省,泉州市,丰泽区,(0595)22977762,unknown,
baidu,7fb0cf2145263cc6d4851f1c,贤记烧腊快餐(大洋店),义全街1-14号新城大厦1-14号,福建省,泉州市,丰泽区,18050861358,unknown,
baidu,24d05508743821b612882447,麦当劳(福华店),温陵南路福华商业中心一楼,福建省,泉州市,丰泽区,(0595)22569518,unknown,
baidu,2364df57ce32cfe5f90cad35,梁家快餐(沟后店),温陵南路2号巷43号,福建省,泉州市,丰泽区,15559517160,unknown,
baidu,d0bc4603e9dd87f888db73b6,明程大排档,福建省泉州市丰泽区泉秀街道灯福街146号,福建省,泉州市,丰泽区,13860715048,unknown,
baidu,7a67fc10694737b797ec8411,老渝记重庆小面(景都大酒店),泉秀街力达苑A幢05号,福建省,泉州市,丰泽区,,unknown,
baidu,6db7ca85a8a33cae86420e79,星巴克咖啡(泉州大洋百货分店),大洋百货地上一层1F-A01店铺,福建省,泉州市,丰泽区,(0595)65218596,unknown,
baidu,4671f20fc94a44971e5800bf,德化排骨饭(大洋百货店),泉秀街635号(路边小灶隔壁),福建省,泉州市,丰泽区,18659090600,unknown,
baidu,8023318d8ce38bf1843304c7,沙县小吃(旗舰店),泉秀街力达苑A幢06号,福建省,泉州市,丰泽区,"15959396097,18876263772",unknown,
baidu,3956d560704377e72dfaa730,沙县小吃(泉州第009店),新城大厦-1号楼,福建省,泉州市,丰泽区,13313897962,unknown,
baidu,d68a0b32018aa0c23a04b17e,三米粥铺(丰泽区店),泉秀街806号,福建省,泉州市,丰泽区,15005011678,unknown,
baidu,a2243e4b1b472f7e3904b128,淮南牛肉汤·特色锅贴(丰泽店),泉秀街613号巷71-1号店,福建省,泉州市,丰泽区,"15160379832,15260976532",unknown,
baidu,9e61c0ec600b587926d2bb66,早安包铺煎包现磨豆浆手工包子(力达苑店),泉秀街808号,福建省,泉州市,丰泽区,13570218204,unknown,
baidu,bf41a987ba2de5f9c9fa5fcc,阿嬷卤肉饭台式三杯鸡(丰泽店),灯福街78号,福建省,泉州市,丰泽区,15905914851,unknown,
baidu,9022348b44933c805abbbc53,酣客家宴(灯福街店),灯福街泉二搬公寓西北侧,福建省,泉州市,丰泽区,,unknown,
baidu,5f21d7b856d59817b13c814e,憨憨厨(大洋百货店),义全街1号新城大厦F1层,福建省,泉州市,丰泽区,18859908990,unknown,
baidu,60694eadc68c67c632870a47,斯丹姜母鸭(田安南路店),田安路525号（外代大厦斜对面信和公交站）,福建省,泉州市,丰泽区,13489488299,unknown,
baidu,717437c76dd412691b94c64a,福鼎一姐正版福鼎肉片(丰泽泉秀店),福建省泉州市丰泽区灯福街48,福建省,泉州市,丰泽区,15280490550,unknown,
baidu,671167acd551788ad92f2831,田小婉麻辣烫·凉皮·炸串(大洋百货店),泉秀街大洋百货(泉州店),福建省,泉州市,丰泽区,17350788606,unknown,
baidu,012b9071633e2cddce06a4d9,新疆和田羊肉烧烤店(津霞街店),淮津霞街311号,福建省,泉州市,丰泽区,13899469453,unknown,
baidu,611bc7c66cd2583ff603b84d,盱眙虾哲腾小龙虾,前坂街87号,福建省,泉州市,丰泽区,13375998923,unknown,
baidu,a98c4780c27b84414c6d46a4,兰州牛肉面(力达苑店),泉秀街804号,福建省,泉州市,丰泽区,17268520931,unknown,
baidu,1d01b4bd32bf1857af080f03,小螺仙柳州螺蛳粉(灯福街店),灯福街38号,福建省,泉州市,丰泽区,18876216967,unknown,
baidu,2a9e5f0df95e82394054d7c5,晋江亮仔餐饮有限公司丰泽分公司,泉州市丰泽区丰泽街道前坂路静远阁105B号,福建省,泉州市,丰泽区,,unknown,
baidu,083a55faa46a8660246e985b,潮味潮州砂锅粥(前坂总店),丰泽街道津坂路30号(交警支队对面),福建省,泉州市,丰泽区,(0595)22982001,unknown,
baidu,eb8a7a6b4ec6a7937adbd294,黄先森烤鱼,福建省泉州市丰泽区泉秀街道泉秀街613号巷82-1号,福建省,泉州市,丰泽区,"13067095673,15559055605",unknown,
baidu,25302bb1251def45a8f72991,阿肥发扁食(泉秀店),泉秀街593号,福建省,泉州市,丰泽区,18900306699,unknown,
baidu,95f0969b5c4dd92e9a68b4bc,桥仔头醋肉(东鲁店),临江街道温陵南路309、311号(海滨街道湖美假日酒店(东鲁店)对面),福建省,泉州市,鲤城区,13506099673,unknown,
baidu,933fb2292dbde7cf33169ba4,浓情BAR,福建省泉州市丰泽区丰泽街道前坂街98号二楼,福建省,泉州市,丰泽区,18900222293,unknown,
baidu,49526acf4fc2b42403ec01f6,唐啊姨鸡蛋汉堡(七中后门店),义全街55号,福建省,泉州市,鲤城区,13959897835,unknown,
baidu,a64a6471eb71653beaf853f6,泰粗卤加热卤味(义全店),幸福社区义全街33-3号,福建省,泉州市,丰泽区,15260385686,unknown,
baidu,40a2cf06c49f169b6fc02c15,阿慧牛排馆,前坂街85号,福建省,泉州市,丰泽区,15880958028,unknown,
baidu,ea5a9daf941c755bdbecedad,阿彬美食,福建省泉州市鲤城区义全街69号,福建省,泉州市,鲤城区,15359987986,unknown,
baidu,0335b6c896b7eab5da2f2826,烧腊快餐,泉州市丰泽区泉秀街力达苑,福建省,泉州市,丰泽区,,unknown,
baidu,7cacab8ba816b8d94d776ede,江西瓦罐煨汤(泉秀店),丰泽街道泉秀路772号（景都大酒店旁）,福建省,泉州市,丰泽区,19101508505,unknown,
baidu,93acd688fbc0961b250bd079,七彩星牛肉馆(丰泽店),泉秀街道泉秀路587号,福建省,泉州市,丰泽区,18750557738,unknown,
baidu,e0fac9a83b0106f0bfa82201,秉正堂(天后宫总店),天后路1-3号,福建省,泉州市,鲤城区,(0595)22206692,unknown,
baidu,2882a3ebd28cea9fdb2f284d,尖果恋糖炒栗子四果汤(温陵店),义全街1-4号店,福建省,泉州市,丰泽区,15805032218,unknown,
baidu,4cc68b62fb0248dedeee8ba6,六合沙茶火锅(泉州店),津淮街314号,福建省,泉州市,丰泽区,15959876130,unknown,
baidu,665e820a32d33d09c27da2a3,九丫婆猪脚烧鸭饭(丰泽店),宝洲街678号,福建省,泉州市,丰泽区,13559298522,unknown,
baidu,50467d4424cd609516c90516,万惠香扁食(时代广场店),宝洲街丰泽时代广场692号,福建省,泉州市,丰泽区,13395061899,unknown,
baidu,bb678c737d54c03af8dc85cb,DN咖啡馆,福建省泉州市丰泽区泉秀路769号景都大酒店停车场2层,福建省,泉州市,丰泽区,18606956998,unknown,
baidu,73a952b0d437d70397ec846a,贵妃品·鲜炖燕窝·鱼胶海参,温陵南路时代广场二期s173号店,福建省,泉州市,丰泽区,18960370359,unknown,
baidu,affbaf2614044c86901fc97f,沐野吊锅·撸串·夜宵酒馆(六灌路店),迎津街30号,福建省,泉州市,丰泽区,15159729357,unknown,
baidu,2e84ad04a723c273077ce8e4,如如糯米铺(六灌路店),丰迎路3号,福建省,泉州市,丰泽区,15859700006,unknown,
baidu,ef8797c1eb01be15246e9889,赖皮鸡滋补蒸鸡(时代广场店),丰泽时代广场2期S209号店,福建省,泉州市,丰泽区,18960395606,unknown,
baidu,e756e14a460a9cc3ab0dd8f7,春哥铁板烧(泉秀旗舰店),泉秀街586号1楼,福建省,泉州市,丰泽区,15059528755,unknown,
baidu,35f41a066034f0bdc42ba1bd,兴化杨府面馆(静远阁店),津坂路56号,福建省,泉州市,丰泽区,(0595)28189537,unknown,
baidu,7fe9cea007e9c3bf90114c44,钦啊小吃店(前坂总店),津坂路34号,福建省,泉州市,丰泽区,18965650828,unknown,
baidu,83f9316b892fbd65203bf247,零度奶爆,灯洲社区613巷18号,福建省,泉州市,丰泽区,15892064142,unknown,
baidu,05b46e6620c8edf2b2077d4a,佳惠快餐(宝城华苑店),津霞街宝城华苑3号05号店,福建省,泉州市,丰泽区,15160338204,unknown,
baidu,501ad5429961886d25e0a042,金牌肠粉王(前坂店),前坂街63号,福建省,泉州市,丰泽区,,unknown,
baidu,993087cd7f7b3b4325e0a01a,古乐牛香·鲜牛肉牛杂火锅(泉秀路形象店),泉秀路538-544号（大华酒店斜对面）,福建省,泉州市,丰泽区,18960258126,unknown,
baidu,5d60377f3c405719e7e96553,小桥边卤味(义全街店),福建省泉州市丰泽区义全街泉百公寓南侧,福建省,泉州市,丰泽区,18359869791,unknown,
baidu,a9d61013dbaa7d63fa42b2e9,吴记高汤米粉,津坂路22号,福建省,泉州市,丰泽区,13505922353,unknown,
baidu,e3f0b133658954a41e580000,沙县特色小吃(义全街店),福建省泉州市丰泽区义全街1-18号,福建省,泉州市,丰泽区,"(0595)22160056,15396506218",unknown,
baidu,846cac0d7a75889e3a04b188,蒸味美(丰泽店),泉州市丰泽区灯福街五矿大厦北侧,福建省,泉州市,丰泽区,,unknown,
baidu,7e10496ff99c3e893913fd6e,泉友炖罐(泉秀店),泉秀路716号,福建省,泉州市,丰泽区,13960247125,unknown,
baidu,92b25b5e2afaee6af33cba47,明记馒头店(前坂店早餐包子豆浆),前坂街49号,福建省,泉州市,丰泽区,15159598913,unknown,
baidu,f8d1b210327e30d6465726de,乌嘟嘟台湾卤肉饭,泉兴街94-96号,福建省,泉州市,丰泽区,15980012712,unknown,
baidu,28bae279aee4ac61c1f1cf8b,泉州菜粿,斗门头33-6号,福建省,泉州市,鲤城区,18965653982,unknown,
baidu,dc3494483f798fd4b23c813e,叶记饮品,泉州市鲤城区横街乌岸头52号院西南侧约30米,福建省,泉州市,鲤城区,,unknown,
baidu,1b224bf900b617802b201a81,赣湘民间土菜,泉州市丰泽区津坂路静远阁,福建省,泉州市,丰泽区,,unknown,
baidu,e82949c5446ae531f8dc8521,怡莱精品酒店(泉州津淮美食街店),迎津街87-1号,福建省,泉州市,丰泽区,(0595)28666611,unknown,
baidu,0dc3d82dd461357575e5b6c6,大洋百货(泉州店),福建省泉州市丰泽区温陵南路92号,福建省,泉州市,丰泽区,(0595)22658888,unknown,
baidu,dffd46422f501ab33d9a5e85,顺顺百货,天后路南教场华联商厦,福建省,泉州市,鲤城区,"(0595)22202299,18065270699",unknown,
baidu,a948f7a2000516eccac3dbf6,九号电动车(全球授权服务中心),福建省泉州市丰泽区温陵南路43号,福建省,泉州市,丰泽区,18050811538,unknown,
baidu,e507e3b18fd4128a93114c51,星期天花店,泉州市丰泽区G324(旧)泉州新车站,福建省,泉州市,丰泽区,18060010086,unknown,
baidu,a3e8341cfb8414e84afd3f41,大家庭超市(灯福街店),泉秀街新奄38号,福建省,泉州市,丰泽区,15160336056,unknown,
baidu,92b806d28d598cfe79b55c3c,永相逢(温陵店),温陵南路150-156号,福建省,泉州市,丰泽区,(0595)22592835,unknown,
baidu,844a750e8fc1feb96268583c,永相逢(宝洲店),宝洲电业小区鸿泉大厦东北门旁,福建省,泉州市,丰泽区,(0595)22572220,unknown,
baidu,be1d5cdf53bb30c5008972f5,奥维体育,福建省泉州市丰泽区泉秀路876号福华商厦24楼,福建省,泉州市,丰泽区,,unknown,
baidu,0a5ff9cb915481fdf90cad3a,福华商厦(泉州大洋百货店),泉秀路876号,福建省,泉州市,丰泽区,13799532709,unknown,
baidu,ac6e9f17d7932660ae045742,酒仙网国际名酒城(泉秀店),福建省泉州市丰泽区泉秀街784~788号,福建省,泉州市,丰泽区,13055329999,unknown,
baidu,b59803619fb267da09a8d4e4,东大路商业城-5幢,福建省泉州市丰泽区东大路商业城5栋(金亚花园附近),福建省,泉州市,丰泽区,,unknown,
baidu,ef773a0f2d0cb9342202203c,苏宁易购(泉州远太店),温陵南路远太大厦1-2层,福建省,泉州市,丰泽区,13506035812,unknown,
baidu,a08b43c70160f46a88db7332,金华便利店(灯福街店),福建省泉州市丰泽区灯幅街166号,福建省,泉州市,丰泽区,,unknown,
baidu,00aabd8845dc7e8636b06ca7,福客来便利店(泉秀街店),丰泽区泉秀街与G324交叉路口往东南约200米怡景大厦,福建省,泉州市,丰泽区,,unknown,
baidu,a3f21eee4cdfed392fb17e06,德胜家居广场(泉州大洋百货店),福建省泉州市丰泽区义全街东煌广场德胜家居1层9号店,福建省,泉州市,丰泽区,(0595)86666666,unknown,
baidu,8ce72b21a6ec62ac0289727e,全友便利,福建省泉州市丰泽区泉秀路613-7号,福建省,泉州市,丰泽区,(0595)22509872,unknown,
baidu,5aa4e917bd883bcf1d580052,自然堂(大洋百货泉秀店),新车站旁大洋百货一层,福建省,泉州市,丰泽区,13600785306,unknown,
baidu,e36c098c5a99a113715e80f3,东大路商业城4栋(东大路商业城店),福建省泉州市丰泽区东大路商业城4栋(泉州汽车站西),福建省,泉州市,丰泽区,,unknown,
baidu,02c5cbb76bb78a0a0e3ddaa5,金剪刀布艺(泉州新城大厦店),义全街新城大厦1-25号,福建省,泉州市,丰泽区,(0595)28991866,unknown,
baidu,ad1dce22c991a6f38505bf66,东大路商业城-1栋,G324汇金广场东北侧约30米,福建省,泉州市,丰泽区,,unknown,
baidu,6f13177289455ee5adcb66bb,惠而好便利店,丰泽区泉秀街道灯洲社区泉秀街613号巷64号店,福建省,泉州市,丰泽区,18705920199,unknown,
baidu,34059f97fa639c5471455b3e,南菜市场,天后路62号,福建省,泉州市,鲤城区,,unknown,
baidu,18293bbdd8cb5a0751e5c522,正泰电器(义全街店),泉州市丰泽区义全街新城大厦北侧,福建省,泉州市,丰泽区,,unknown,
baidu,1a137692a8c4dea700ff2dc6,卡沙丽奥(泉州大洋百货店),福建省泉州市丰泽区温陵南路92号大洋百货F2,福建省,泉州市,丰泽区,,unknown,
baidu,fdd351bff7b31b093f9a5e71,荣思商行,福建省泉州市丰泽区福瑞新村灯福街87-1,福建省,泉州市,丰泽区,,unknown,
baidu,94855cc52f182981d6b74efa,B-SMAN(泉州大洋百货店),福建省泉州市丰泽区温陵南路92号大洋百货F2,福建省,泉州市,丰泽区,,unknown,
baidu,ea0215b341ac5b32adb22a96,嘉缘便利店,福建省泉州市丰泽区泉秀街822号,福建省,泉州市,丰泽区,13107653163,unknown,
baidu,1a6936cc7c545a0da80dd8c0,佳欣布艺行,福建省泉州市丰泽区温陵南路29号,福建省,泉州市,丰泽区,(0595)22760369,unknown,
baidu,7c2d4e6ecf2e384afea7785e,鑫盛铜接头总汇(泉州大洋百货店),义全街1号新城大厦F1层,福建省,泉州市,丰泽区,"(0595)22205152,13960393225",unknown,
baidu,156f747d5580e6efb11e36c3,新辉煌(怡景大厦店),福建省泉州市丰泽区泉秀街道泉秀路679号,福建省,泉州市,丰泽区,,unknown,
baidu,39ad09ee69396eeb0782c2dd,LUCKY GIRL,福建省泉州市丰泽区温陵南路92号大洋百货F2,福建省,泉州市,丰泽区,,unknown,
baidu,d991e116b4f407551f389401,丰泽时代广场(西一门店),宝洲路660号(宝洲路与温陵南路交叉),福建省,泉州市,丰泽区,,unknown,
baidu,486fbd7080b6def5f942b23f,三兴美发用品,福建省泉州市丰泽区泉秀街637-7号,福建省,泉州市,丰泽区,13506099846,unknown,
baidu,c81fe56f82a4f4556849f375,剪刀兄弟美发师装备,福建省泉州市丰泽区温陵南路42号,福建省,泉州市,丰泽区,13850727809,unknown,
baidu,e1ec44f57181caef97ec8452,丰阳食品机械,福建省泉州市丰泽区温陵南路38号,福建省,泉州市,丰泽区,"(0595)28885196,15060982186,17750906896",unknown,
baidu,d7e16647e785c809b54f5447,凯鑫密封圈商行(泉州新城大厦店),新城大厦10号店面义全街110号,福建省,泉州市,丰泽区,(0595)22216278,unknown,
baidu,8cbbf378edefbf218c1a895f,三锋美发用品(金亚花园店),福建省泉州市丰泽区温陵南路金亚花园25号,福建省,泉州市,丰泽区,"(0595)22263716,15359593716",unknown,
baidu,a1dc0e976d715cbbc1f1cf8b,糖心服饰店,泉州市丰泽区泉秀街怡景大厦,福建省,泉州市,丰泽区,,unknown,
baidu,64ff3be1438dbfc690114c73,婉珍花艺商行(金亚花园店),福建省泉州市丰泽区温陵南路2~4号,福建省,泉州市,丰泽区,(0595)28224111,unknown,
baidu,3d1df1fe1ee748c4f4e73b36,营兴食杂店,泉州市丰泽区泉秀街泉州新车站,福建省,泉州市,丰泽区,(0595)22583971,unknown,
baidu,1467f957b0087b132cb17ed4,防腐木景观,泉州市丰泽区温陵南路金亚花园,福建省,泉州市,丰泽区,15059729899,unknown,
baidu,1f229e2af96fbe6e41d63e1b,雅迪电动车(泉州大洋百货店),福建省泉州市丰泽区前坂街52号,福建省,泉州市,丰泽区,18900313901,unknown,
baidu,78c143991cfdfd704e5547e2,航彩照明(时代广场店),温陵南路时代广场3期2-7号,福建省,泉州市,丰泽区,15260770089,unknown,
baidu,82d6d3e9f2f58e0ef22d83a8,华美布艺(东大路商业城店),温陵南路77号,福建省,泉州市,丰泽区,(0595)22202017,unknown,
baidu,eb13c48c9cb50b6282a12e4a,三人行鞋业,福建省泉州市鲤城区义全街107号,福建省,泉州市,鲤城区,13860762908,unknown,
baidu,889d19b7f652c1cc8505bf0c,华盛布艺行(东大路商业城店),福建省泉州市丰泽区温陵南路27号,福建省,泉州市,丰泽区,(0595)22205193,unknown,
baidu,3a0fbba87dbc8e589fe32184,国美电器(远太店),温陵南路大洋百货负一层（新车站斜对面）,福建省,泉州市,丰泽区,4008113333,unknown,
baidu,16d51f1e112cca435a3ac8e3,爱登堡(泉州大洋百货店),福建省泉州市丰泽区温陵南路92号大洋百货F2,福建省,泉州市,丰泽区,,unknown,
baidu,aec2f329d111432ae6e96526,有家窗饰(东大路商业城店),福建省泉州市丰泽区温陵南路73号商业城4栋101室,福建省,泉州市,丰泽区,(0595)22126776,unknown,
baidu,ca598bea50efd2dc1ce999a1,妙山韵香茶庄,泉州市丰泽区灯福街福瑞新村西北侧,福建省,泉州市,丰泽区,13960392858,unknown,
baidu,e448c73f2dfc0f539b005011,小米授权体验店(泉州苏宁远太店),泉州市温陵南路远太大厦1层,福建省,泉州市,丰泽区,4001005678,unknown,
baidu,37f1ff089e065faf0869d905,晓美布艺行,福建省泉州市丰泽区温陵南路19号,福建省,泉州市,丰泽区,(0595)22207560,unknown,
baidu,06d2dffd17dc4ef688f15d06,雅丰布艺商行,东大路商业城东北门南50米,福建省,泉州市,丰泽区,(0595)22510178,unknown,
baidu,d1d9ac0301bab96d0f0a708b,扬锐通讯(大洋店),福建省泉州市丰泽区前坂社区福华商业中心1楼(停车场入口),福建省,泉州市,丰泽区,(0595)22198800,unknown,
baidu,37e8872991f09023f2193704,圆圆窗饰(东大路商业城店),福建省泉州市丰泽区温陵南路东大路商业城1楼,福建省,泉州市,丰泽区,(0595)22205503,unknown,
baidu,720a626f6fdeb345eaf85338,佳煌美容美发用品商行(灯福街店),福建省泉州市丰泽区温陵南路时代广场三期2~3号,福建省,泉州市,丰泽区,(0595)28955935,unknown,
baidu,6559ce0f1e1637b8bd484252,百姓书房(德济门阅读点),万寿路128号,福建省,泉州市,鲤城区,,unknown,
baidu,4cd9003c5ee412ba9b68b49a,德力西电器(泉州大洋百货店),福建省泉州市丰泽区温陵南路92号大洋百货(泉州店)F2,福建省,泉州市,丰泽区,13805918718,unknown,
baidu,f3b8569d683f4971eedfca3d,新丽雅布艺,泉州市丰泽区G324(旧)华丰社区(港仔墘),福建省,泉州市,丰泽区,18959894768,unknown,
baidu,386dc5a9ec3e300fb020a8d7,亚民酒行,福建省泉州市丰泽区灯福街51号,福建省,泉州市,丰泽区,15060618015,unknown,
baidu,515c4e1fe7309f3a7ab55ca5,德兴布艺批发,福建省泉州市丰泽区温陵南路8号楼,福建省,泉州市,丰泽区,15906002728,unknown,
baidu,981c8fceaeab5b606c4760b9,云逸数码,福建省泉州市丰泽区宝洲路981号,福建省,泉州市,丰泽区,15260700038,unknown,
baidu,a58aa9e1e8c7b3c8774ff18c,新升布艺(灯福街店),福建省泉州市丰泽区温陵南路7号,福建省,泉州市,丰泽区,(0595)22382952,unknown,
baidu,f8b6d2482a72f347a8175ad4,小叶窗帘,福建省泉州市丰泽区温陵南路新车站对面华丰新村21幢1层101室,福建省,泉州市,丰泽区,(0595)22234705,unknown,
baidu,9934e0c22c06dcea43e192db,明丰五金电料灯饰行(泉州大洋百货店),义全街11号,福建省,泉州市,丰泽区,13905058471,unknown,
baidu,73f46ebdc9ef207fca09f0f6,豪居布艺(东大路商业城店),福建省泉州市丰泽区温陵南路69号,福建省,泉州市,丰泽区,13799583672,unknown,
baidu,25803fb90dd66d4c0aa8d47a,步步高布艺,福建省泉州市丰泽区泉秀街道温陵南路83号,福建省,泉州市,丰泽区,13375991917,unknown,
baidu,e96b44201fdb2f5a82288a01,雄发布艺行(东大路商业城店),福建省泉州市丰泽区温陵南路25号,福建省,泉州市,丰泽区,(0595)28982558,unknown,
baidu,2eac6fde59225442eedfcaed,添迎软装,泉州市丰泽区G324(旧)华丰社区(港仔墘),福建省,泉州市,丰泽区,15759856836,unknown,
baidu,8a7566eba25e316d38221cab,阿华布艺(东大路商业城店),福建省泉州市丰泽区温陵南路39号,福建省,泉州市,丰泽区,18965873768,unknown,
baidu,50422d34050a1773c41b75af,OPPO官方授权服务体验中心（丰泽泉秀路店）,福建省泉州市丰泽区泉秀街道泉秀路637-13号,福建省,泉州市,丰泽区,17859150333,unknown,
baidu,fdc08e7d8361be09b9df8f3b,专业维修电动车,泉州市丰泽区G324(旧)泉州新车站,福建省,泉州市,丰泽区,,unknown,
baidu,3651a55f040993cbc1f1cf5e,公共厕所,福建省泉州市丰泽区温陵南路92号,福建省,泉州市,丰泽区,,unknown,
baidu,bfe11e72a26ca03d73455b14,中国体育彩票(东大路商业城店),福建省泉州市丰泽区G324泉州新车站西侧约40米,福建省,泉州市,丰泽区,95086,unknown,
baidu,9b87b46542ac2293c91b9501,售后维修,福建泉州市丰泽区义全街1-20号大洋百货b座20楼,福建省,泉州市,丰泽区,,unknown,
baidu,96aefbb13bdd21493586f413,刀磨剪刀行(泉州店),福建省泉州市丰泽区温陵南路时代广场3期2-14号,福建省,泉州市,丰泽区,(0595)28072208,unknown,
baidu,c746fcb13bbba29a6c476033,制卡中心,福建省泉州市丰泽区泉秀路824号泉州农行大厦三楼,福建省,泉州市,丰泽区,,unknown,
baidu,024d0666e1e0749cd4851f70,麦当劳(福华店)-洗手间,泉州市丰泽区温陵南路福华商业中心一楼,福建省,泉州市,丰泽区,,unknown,
baidu,fe0750592991eff69cec2bb6,巧房通签约中心,泉州市丰泽区泉秀路802号力达苑A栋101室,福建省,泉州市,丰泽区,,unknown,
baidu,95649b0097e836929cf779e4,菜鸟驿站(泉州丰泽前坂14栋一楼一号店),泉秀街道前坂街47号前坂新村西区14栋楼一号店面,福建省,泉州市,丰泽区,,unknown,
baidu,b38f0dcec144eb3472210bac,思源房产(泉秀签约中心),福建省泉州市丰泽区泉秀路802号力达苑,福建省,泉州市,丰泽区,,unknown,
baidu,393bdf1466a9569800ec015c,中国福利彩票(福瑞新村店),灯福街87-7号,福建省,泉州市,丰泽区,18960390299,unknown,
baidu,c1ab9226d3e250c2d2f49e6d,黑湖小工单营销服务中心,泉州市丰泽区温陵路福华商业中心大洋百货F1,福建省,泉州市,丰泽区,,unknown,
baidu,e0a893986165fc1103ff2d63,圆通速递(新车站分部),福建省泉州市丰泽区灯福街20号,福建省,泉州市,丰泽区,18159305986,unknown,
baidu,6046cf134f49cf06afee7a7c,千禧缘照相馆(丰泽时代广场店),灯福街137号,福建省,泉州市,丰泽区,18959890689,unknown,
baidu,b0f83766611255b8d7851fba,苏宁快修(苏宁易购店),福建省泉州市丰泽区温陵南路远太大厦1楼,福建省,泉州市,丰泽区,13675912220,unknown,
baidu,8f8bcb466d4ab2e7c91b952e,百灵照相馆,景都大酒店西南门旁,福建省,泉州市,丰泽区,(0595)22582388,unknown,
baidu,dce9df2137147a994657268c,公共厕所,福建省泉州市丰泽区跃进社区科普楼院(横街东100米),福建省,泉州市,丰泽区,,unknown,
baidu,eeb7c02dc79a5c61c61e51d9,德邦快递(泉州丰泽区温陵南路经营分部),福建省泉州市丰泽区温陵南路3-17号,福建省,泉州市,丰泽区,,unknown,
baidu,e457bf2906eb4a75c17da253,丰巢快递柜(前坂新村西区店),福建省泉州市丰泽区丰泽街道前坂街55,福建省,泉州市,丰泽区,,unknown,
baidu,a362385e30598f825abbbcb0,丰巢自提柜(丰泽时代广场西一门店),福建省泉州市丰泽区灯福街148号,福建省,泉州市,丰泽区,,unknown,
baidu,ce8fe085e9998a774bcc4a27,手机维修中心(丰泽时代广场西一门店),福建省泉州市丰泽区温陵南路670号,福建省,泉州市,丰泽区,,unknown,
baidu,1b8019876bd5b667aecb6667,申通快递(泉秀二部),泉州市丰泽区宝洲街丰泽时代广场,福建省,泉州市,丰泽区,95543,unknown,
baidu,edd64ce1c894f7ec3fe23169,中国邮政(东大邮政支局),温陵南路106号,福建省,泉州市,丰泽区,(0595)22271089,unknown,
baidu,32bb5a2660117c9afb2d6188,泉州雷森空调加氟清洗移机维修中心,义全街水产大厦11层,福建省,泉州市,丰泽区,,unknown,
baidu,35083c1861ff3124acb22a98,街电(泉州海丝酒店有限公司),泉州市丰泽区尚客优快捷酒店泉秀路灯福街31号五矿大厦旁,福建省,泉州市,丰泽区,4006868588,unknown,
baidu,38ada73354b2ff332b3a9f55,补鞋配钥匙,泉州市丰泽区前坂街东华公寓西侧,福建省,泉州市,丰泽区,,unknown,
baidu,04095a217dca490c2902e171,9号图文,福建省泉州市丰泽区宝洲街947号,福建省,泉州市,丰泽区,15060453831,unknown,
baidu,5184e719abd439df2ce67b01,为美广告器材(泉州店),福建省泉州市丰泽区宝洲路南丰新城玉兰苑16-17号,福建省,泉州市,丰泽区,(0595)22563089,unknown,
baidu,e37aeaf463bc58178bf15d53,菜鸟驿站(泉州丰泽泉兴街60号店),福建省泉州市丰泽区泉秀街道泉兴街60号,福建省,泉州市,丰泽区,951966,unknown,
baidu,fce78de25827133006fef587,中国福利彩票(横街店),福建省泉州市鲤城区横街2-3号,福建省,泉州市,鲤城区,18150585031,unknown,
baidu,604fdfcc1a992ffab11e3687,力威图文数字印刷(田安旗舰店),田安南路493、495号,福建省,泉州市,丰泽区,15260770086,unknown,
baidu,2479848948699a0a4f3a5930,莉娜君的宠物店(宝洲街店),宝洲街937号,福建省,泉州市,丰泽区,15860300351,unknown,
baidu,0df9b73126afa3add13ce392,锐奇,义全街38号,福建省,泉州市,鲤城区,,unknown,
baidu,1e42def150a140a49cec2ba0,菜鸟驿站(泉州丰泽泉秀新村小区南14号店),福建省泉州市丰泽区泉秀街道田安南路373-375,福建省,泉州市,丰泽区,951966,unknown,
baidu,5aaa5b064271a4f0ae31e501,跃进社区新时代文明实践站,福建省泉州市鲤城区斗门头33号,福建省,泉州市,鲤城区,(0595)22209141,unknown,
baidu,302cbbc532a707ff4207c126,电子坪地磅,福建省泉州市鲤城区义全街135号,福建省,泉州市,鲤城区,"(0595)22204809,18605954488",unknown,
baidu,d2aa2f33692e3bea5d0d026e,天后宫-公共厕所,泉州市鲤城区天后路福建省泉州市第七中学(天后路)西侧约50米,福建省,泉州市,鲤城区,,unknown,
baidu,f0cda1eb8d8fa9ab4251c0e1,憬萱养生馆,福建省泉州市丰泽区温陵南路服装大厦205号店面,福建省,泉州市,丰泽区,,unknown,
baidu,9bec60bd21ba21702cb96d8e,黄金回收行,福建省泉州市丰泽区泉秀街淮秀路22号3号楼1号店,福建省,泉州市,丰泽区,4009170623,unknown,
baidu,ea2a1b101fb09938ad31e59b,中国体育彩票(港仔墘店),斗门头75-5号,福建省,泉州市,鲤城区,95086,unknown,
baidu,f603e731c5fc199440e1926c,公共厕所,福建省泉州市丰泽区田安南路380汀洲新村,福建省,泉州市,丰泽区,,unknown,
baidu,77628b58742edda649cc4aa1,尚源广告设计,福建省泉州市丰泽区田安路宝成大厦2号楼8号,福建省,泉州市,丰泽区,"13665938771,15880893099",unknown,
baidu,1bbe9599ff2c129bafb22a5e,涌宏环保公共厕所,泉州市丰泽区津淮街后坂裕达小区-B区西侧约70米,福建省,泉州市,丰泽区,,unknown,
baidu,949ce31700a8d465430245b9,中国体育彩票(津霞街店),福建省泉州市丰泽区津霞街272号,福建省,泉州市,丰泽区,(0595)22551963,unknown,
baidu,98fa45b64c74420b3586f49b,福友电器维修服务中心,福建省泉州市鲤城区土地路11号,福建省,泉州市,鲤城区,(0595)22397120,unknown,
baidu,eea3d4317c4b003609b93ad9,中国福利彩票(丰迎路店),福建泉州市丰泽区丰迎路26号,福建省,泉州市,丰泽区,"13506098580,13959927079",unknown,
baidu,34f68ab04e548d748f55ec0f,公共厕所,福建省泉州市丰泽区霞淮街224号,福建省,泉州市,丰泽区,,unknown,
baidu,b9e5d0b8dd1ee6c280a12ebe,公共厕所,福建省泉州市丰泽区宝洲街432-5,福建省,泉州市,丰泽区,,unknown,
baidu,16d263d627c4c2eeb5147ff4,公共厕所,泉州市鲤城区泉州侨乡商品街中国工商银行(泉州鲤城支行)西侧约40米,福建省,泉州市,鲤城区,,unknown,
baidu,0a85344f15ecf4c128d7abdc,缘份婚媒,泉州市丰泽区迎津街泉州市电业局大厦西南侧约30米,福建省,泉州市,丰泽区,,unknown,
baidu,cc1647aaf77522a436b06c8b,华为授权服务中心(泉州聚鑫广场),温陵北路117号聚鑫通讯广场5-6店面（温陵医院对面）,福建省,泉州市,鲤城区,(0595)22863270,unknown,
baidu,24405d1e3bef8c0335b06c0e,公共厕所,涂门街162之16-17号附近,福建省,泉州市,鲤城区,,unknown,
baidu,cc65e15c35f8737716c905d5,公共厕所,堤后路90-92附近,福建省,泉州市,鲤城区,,unknown,
baidu,3f28cc1beb970245e0110348,喵屋,丁荣路42号水岸人家1号楼喵屋（泉秀幼儿园对面）,福建省,泉州市,丰泽区,18065558788,unknown,
baidu,3e64d6512dd9ac6833169b30,仓库(大洋百货),福建省泉州市丰泽区温陵南路92号大洋百货F4,福建省,泉州市,丰泽区,,unknown,
baidu,a206987431a91ce140afe630,国顺广告材料(时代广场店),福建省泉州市丰泽区温陵南路时代广场三期s256,福建省,泉州市,丰泽区,,unknown,
baidu,ac3c2b700d85bd697dc876e3,大洋百货-收银台,福建省泉州市丰泽区温陵南路92号大洋百货F4,福建省,泉州市,丰泽区,,unknown,
baidu,fbd420e3f90f615c80a00c43,大洋百货-收银台,福建省泉州市丰泽区温陵南路92号大洋百货F2,福建省,泉州市,丰泽区,,unknown,
baidu,4e3257387916f82bb2077d0f,大洋百货-收银台,福建省泉州市丰泽区温陵南路92号大洋百货F2,福建省,泉州市,丰泽区,,unknown,
baidu,85c5e9ffa431860bb817e760,街电(味知晓纸包鱼津坂店),泉州市丰泽区津坂路30号,福建省,泉州市,丰泽区,4006868588,unknown,
baidu,7a524df64dba054caecb66c9,大洋百货-收银台,福建省泉州市丰泽区温陵南路92号大洋百货F3,福建省,泉州市,丰泽区,,unknown,
baidu,0c3cbec93a39374b28201a81,众鑫广告(灯福街),福建省泉州市丰泽区温陵南路时代广场三期240号,福建省,泉州市,丰泽区,,unknown,
baidu,d99a0d977ef4f03825e0a041,天能电动车维修电动车,泉州市丰泽区津坂路静远阁西南侧,福建省,泉州市,丰泽区,18065207977,unknown,
baidu,9fab2cab8fdf84c0077ce851,兴华物料配送,泉州市鲤城区义全街幸福新村,福建省,泉州市,鲤城区,,unknown,
baidu,70925eafe3497f4e1d1d115b,泉州宝洲路宏昌亚朵酒店-大堂,泉州市丰泽区宝洲路宏昌亚朵酒店,福建省,泉州市,丰泽区,,unknown,
baidu,b67c49abbb8df7f6d7851f92,维修电动车,福建省泉州市丰泽区泉兴街67号,福建省,泉州市,丰泽区,,unknown,
baidu,ff924547672220a8eb1e973f,宏达不锈钢工程部脚手架出租,泉州市丰泽区前坂街26号,福建省,泉州市,丰泽区,"13799891385,18396220879",unknown,
baidu,e81ee3360be2d78f0b1cc709,精瑞广告,福建省泉州市丰泽区泉秀街道泉秀路555,福建省,泉州市,丰泽区,,unknown,
baidu,afa5dd9f4e76065f3fe231a9,街电(川霸子串串香火锅),泉州市丰泽区津坂路44号(交警支队对面),福建省,泉州市,丰泽区,4006868588,unknown,
baidu,e3a7339926a8162acd06a4a1,街电(A家连锁酒店泉州温陵店),泉州市丰泽区温陵南路130号(新车站商业区近泉州大洋百货),福建省,泉州市,丰泽区,4006868588,unknown,
baidu,4a4659565b2e2c2bb23c81ff,恒达房产(宝城店),福建省泉州市丰泽区津霞街290号,福建省,泉州市,丰泽区,18558983066,unknown,
baidu,25ffa58835b075424054d7cc,街电(正宗重庆鸡公煲津坂路),福建省泉州市丰泽区丰泽街道津坂路74号,福建省,泉州市,丰泽区,4006868588,unknown,
baidu,39a8d5c60a72eafc7adbd2dd,街电(柳家RYUS COOK韩国小酒馆),泉州市丰泽区迎津街54号富贵人家小区楼下周麻婆旁边旁,福建省,泉州市,丰泽区,4006868588,unknown,
baidu,5eaf1dfd50b8f11643ab9a5b,万远地产(兴源店),泉州市丰泽区津霞街宝城华苑,福建省,泉州市,丰泽区,,unknown,
baidu,c53103ff343a87580d0e6b70,天宇房产(灯荣路店),福建省泉州市丰泽区泉州大桥头南丰新城牡丹苑41号,福建省,泉州市,丰泽区,,unknown,
baidu,ab1d9638f03a10c32cb96d8f,闽东电梯,泉州市鲤城区义全街中石化森美(泉州鲤城义全加油站)北侧,福建省,泉州市,鲤城区,13805999962,unknown,
baidu,a7c56ee04d5121cda3acc46e,艾伦数字印刷(津淮总店),津淮街五洲苑A幢1-2号店吊牌标签包装印刷礼盒定制PVC桌工作证导视,福建省,泉州市,丰泽区,"(0595)22583051,(0595)22583052",unknown,
baidu,4be92a2f4382ef42d22dd69d,黛俪佳妍美颜健康调理机构,津坂路18号(津坂路交警支队斜对面),福建省,泉州市,丰泽区,(0595)22666988,unknown,
baidu,23813957e6422f98704b8752,觅诗造型(大洋百货店),大洋商场里面一楼,福建省,泉州市,丰泽区,13559142273,unknown,
baidu,10a18c810e5c4c2cf7eafcda,微妮美甲美睫·皮肤管理·半永久(大洋百货泉州店),大洋百货二楼扶梯上来左边,福建省,泉州市,丰泽区,17606005902,unknown,
baidu,afe338de3e5fbda4c8e33cbf,SOR索尔祛痘·面部肌肤管理(田安店),田安南路357、359号店（外代大厦对面公交站：信和公交站）,福建省,泉州市,丰泽区,(0595)22836110,unknown,
baidu,22235b905a707bfcbfa8224c,彩丽妍国际美容会所(旗舰店),迎津街中段宝德大厦（全芳面包楼上）,福建省,泉州市,丰泽区,18160915793,unknown,
baidu,23b954037d2ba2aa01ec01e6,新主张美发沙龙(沟后店),沟后新庵村32号,福建省,泉州市,丰泽区,13055326634,unknown,
baidu,8f0622a447c61c13f4e73bc4,精剪世家(前坂店),前坂街93号店,福建省,泉州市,丰泽区,"(0595)22955085,(0595)22986808",unknown,
baidu,e2ea5a16a188059e72210b99,美尚女(前坂新村西区店),前坂街31号,福建省,泉州市,丰泽区,13799503294,unknown,
baidu,cdbe3c1ed13baaefcf06a4ce,欧歌形象发型设计(泉百公寓店),义全街泉百公寓30-4号店,福建省,泉州市,丰泽区,13400885162,unknown,
baidu,9df0a7d5067d517187154105,斑马小铺·美馆(宝城华苑店),前坂津霞街306号,福建省,泉州市,丰泽区,18959799440,unknown,
baidu,7b7f68fc4af82daebbbd633d,痘院士专业祛痘皮肤管理(津淮店),田安路津淮街575号门店，安欣酒店旁边,福建省,泉州市,丰泽区,15880770551,unknown,
baidu,6c208339feb9cf4141d63e29,铭妍美肤(南丰新城芙蓉苑店),灯荣路南丰新城,福建省,泉州市,丰泽区,(0595)22025827,unknown,
baidu,3d3ba69df19fefb2d7851f78,仙妮儿绿色抗老中心(迎津街店),迎津街富贵人家30-2号店,福建省,泉州市,丰泽区,(0595)22580102,unknown,
baidu,1666bc79e8c16bd86ca3cc03,秀色美妆(霞淮街店),霞淮街305号,福建省,泉州市,丰泽区,15880972814,unknown,
baidu,77e6119f9944a3fe3a04b133,悦心减龄站(祥泰商城店),福建省泉州市丰泽区丰泽街道东淮社区福田路105号,福建省,泉州市,丰泽区,18959919187,unknown,
baidu,6096c29b97fa687771455b23,美转角发艺,五矿大厦旁边灯福街47号,福建省,泉州市,丰泽区,13850772332,unknown,
baidu,01545bb5ce9b59692bb97cd6,时创sc造型,前坂街20号,福建省,泉州市,丰泽区,15160772375,unknown,
baidu,6549f0fa81104dd42b06ce5c,沐心品质沙龙(富贵人家店),迎津街66号,福建省,泉州市,丰泽区,18100526615,unknown,
baidu,bd675f6a0fb0581672455b89,氧肤·美甲美睫皮肤管理,迎津街165号,福建省,泉州市,丰泽区,15059713430,unknown,
baidu,32e9da8bed507c1eb35c6ab3,苏蜜如棠美学中心旗舰店,美食街69号-12号（泉州特警队对面）,福建省,泉州市,鲤城区,18659708200,unknown,
baidu,c9fbe8baed409d7b1e58000b,诗美女王美容院,福建省泉州市丰泽区田安南路671号千亿大厦六楼6G,福建省,泉州市,丰泽区,15396628705,unknown,
baidu,035ab7754a0cda34ae0457d5,柒月美甲美睫(浦西店),"浦西路283号（一百分时尚造型楼下,大华酒店对面）",福建省,泉州市,丰泽区,15980325606,unknown,
baidu,c95584adcaeb90d930621274,欣隆美容店,泉州市丰泽区灯福街丰泽时代广场东北侧约50米,福建省,泉州市,丰泽区,18750415588,unknown,
baidu,8b1a3c4f9b0b53b43686f420,Aisini造型(时代广场店),温陵南路时代广场3期251号店,福建省,泉州市,丰泽区,15060879291,unknown,
baidu,cc65811244aedd94f50e7724,兴意造型,福建省泉州市丰泽区灯福街65号,福建省,泉州市,丰泽区,15280886289,unknown,
baidu,5d2c94edd0cfa5539d95dee8,千姿荟逆龄美肤,福建省泉州市丰泽区田安路津霞街312号前坂东区27号,福建省,泉州市,丰泽区,13599263797,unknown,
baidu,1bca969f82789985ee74f837,纤指佰媚美容美甲化妆,泉秀街东方酒店左侧巷50米处,福建省,泉州市,丰泽区,13400885320,unknown,
baidu,3b07a34de0edcbec51e5c5aa,Li美发造型,泉州市丰泽区灯福街丰泽时代广场北侧约30米,福建省,泉州市,丰泽区,18905081257,unknown,
baidu,8d0d1c7bbf77932ad42ce22f,朔美美甲化妆纹绣,泉州市丰泽区泉秀街金洲大酒店东南侧约70米,福建省,泉州市,丰泽区,13559542703,unknown,
baidu,3d86aa23a7e3c8f64d554767,美佳美容养生,泉州市丰泽区宝洲街南丰新城,福建省,泉州市,丰泽区,,unknown,
baidu,692a7875b875b2909122e07d,华健理发店,泉州市丰泽区青龙巷华丰社区(港仔墘),福建省,泉州市,丰泽区,13489891103,unknown,
baidu,e9cddebac924cdbda21de92d,紫罗境界美容养生会所,福建省泉州市鲤城区东鲁路41号,福建省,泉州市,鲤城区,(0595)22318577,unknown,
baidu,26b26185c784d69225d2bb33,飘新理发店,福建省泉州市丰泽区泉兴街130号,福建省,泉州市,丰泽区,,unknown,
baidu,8c9d9b5924a11d4cb21e36f2,永红理发店(津霞街店),津霞街288号宝城华苑,福建省,泉州市,丰泽区,18859557332,unknown,
baidu,a2d681237ce822cba0acc43e,建平理发店,泉州市鲤城区义全街乌岸头52号院北侧约50米,福建省,泉州市,鲤城区,,unknown,
baidu,cf3dbf3292c46da99ff7793e,陶美甲美容美甲彩妆(泉州大洋百货店),福建省泉州市丰泽区前坂街西区17号,福建省,泉州市,丰泽区,,unknown,
baidu,da788bb3a1b30fdcadcb666c,纤纤纹绣美甲(泉州大洋百货店),福建省泉州市丰泽区温陵南路211号,福建省,泉州市,丰泽区,13101458172,unknown,
baidu,7582b383d6a19338f7b9169c,雅梦美学馆(南丰新城玉兰苑店),泉秀街道宝洲街南丰新城玉兰苑D116店,福建省,泉州市,丰泽区,"13655912051,18016732028",unknown,
baidu,0efe52359491385ed91318ea,圣源壹品·头部养生馆(津头埔店),津淮街美食街对面丰迎路56-1号（名家之人二楼）,福建省,泉州市,丰泽区,18815999218,unknown,
baidu,78d4d07d6b48985ff33cbac4,洪潮专业烫染(宝洲电业小区鸿泉大厦店),宝洲路897号,福建省,泉州市,丰泽区,(0595)22568536,unknown,
baidu,16206c4d02b194f7471a32ae,11号造型沙龙(津坂路店),福建省泉州市丰泽区津坂街180号11号,福建省,泉州市,丰泽区,13799592019,unknown,
baidu,43b8ec9f434f2c169cec2bf8,YoYo彩妆美发,津淮街705号,福建省,泉州市,丰泽区,13559072936,unknown,
baidu,811a6f4142c2121a128824f1,阿华理发店(津霞街店),津霞街270号2号店,福建省,泉州市,丰泽区,(0595)22234666,unknown,
baidu,e41e8ecf257252d7102935ed,朝阳美发室(迎津街店),迎津街125号,福建省,泉州市,丰泽区,13559570002,unknown,
baidu,f32164d0c6fb6f5c364aae4f,Hair salon(泉州大洋百货店),福建泉州市丰泽区博东路5h,福建省,泉州市,丰泽区,15259570827,unknown,
baidu,add727375dfe20844d776e74,蓝俪人美容会所,福建泉州市丰泽区田安南路丰盛假日城堡13幢d021号,福建省,泉州市,丰泽区,,unknown,
baidu,cfa66a8a55b81ab2f7eafc0f,好朋友美容美发中心(南丰新城店),福建省泉州市丰泽区宝洲街981号南丰新城芙蓉苑16号店,福建省,泉州市,丰泽区,18959729997,unknown,
baidu,c3d61060636e50dac909f0cb,10元洗剪吹,福建省泉州市丰泽区东塘头路98-2号,福建省,泉州市,丰泽区,,unknown,
baidu,54a9ef982d8fc674b1077de5,魅缔头道·养发按摩(假日城堡店),泉秀街丰盛假日城堡西大门14栋10号店,福建省,泉州市,丰泽区,15060625102,unknown,
baidu,f7e90ab5908df910d518b713,名思美发室(南丰新城红梅苑店),福建省泉州市丰泽区红梅苑D23号,福建省,泉州市,丰泽区,,unknown,
baidu,e4b3702dccce2174f90cad7f,特别特·快剪(浦西店),浦西路237号（浦西煎包旁）,福建省,泉州市,丰泽区,15555565593,unknown,
baidu,609e6020872c941e6849f3e9,奈斯Nice美妆馆,福建省泉州市丰泽区丰盛假日城堡14号楼1层14号,福建省,泉州市,丰泽区,"13459566796,13960466609",unknown,
baidu,1d21ba41659d97318b2fb585,Summer森墨造型(金帝文化广场店),丰泽街道田安路金帝文化广场28号店(85度隔壁),福建省,泉州市,丰泽区,(0595)22022062,unknown,
baidu,109715f6e8134cd052e5c5b0,遇见造型(浦西店),淮福路258号草埕花园北,福建省,泉州市,丰泽区,15859575284,unknown,
baidu,4195d678c1b18889ede4a5e3,锋艺时尚造型,福建省泉州市丰泽区宝洲路南丰新城玉兰苑47号,福建省,泉州市,丰泽区,18759538615,unknown,
baidu,36f928bf2d614058e5e96508,小艺星精剪,泉州市丰泽区津淮街津头埔,福建省,泉州市,丰泽区,15259436789,unknown,
baidu,e6a245488fb3ee3d1576435f,雅姿妍·皮肤管理(富林新天地店),富临新天地3楼369号（近金逸富临影城）,福建省,泉州市,鲤城区,13905968812,unknown,
baidu,3f2bad918fb1399b9f09f7dd,欧派造型美甲美睫,迎津街98号,福建省,泉州市,丰泽区,18016600992,unknown,
baidu,96e2dc39bda0704b57bfff57,欧灵造型(田安北路店),田安北路62号,福建省,泉州市,丰泽区,"(0595)22987298,13159253686",unknown,
baidu,edee44321335a06d3a13fde8,贝儿美甲工作室,大淮新村13栋105室,福建省,泉州市,丰泽区,15396666103,unknown,
baidu,a71c1e2ed81580304e776e18,ZY美甲美睫美容(崇德华庭店),灯荣路崇德华庭3幢2梯1306室,福建省,泉州市,丰泽区,,unknown,
baidu,c667bc5e80abaf04c51e512f,领艺造型(万寿店),福建省泉州市鲤城区万寿路127号,福建省,泉州市,鲤城区,18750423360,unknown,
baidu,25f56b9b33c3e181ef74f85c,藤野造型(浦西万达店),江滨北路万达金街105号二楼（室外步行街）,福建省,泉州市,丰泽区,,unknown,
baidu,12561eefb476bdeaa3acc482,歌瑞丝烫染SALON(田安路店),田安北路150号,福建省,泉州市,丰泽区,(0595)22205330,unknown,
baidu,4f60f0471030e3879de321cc,唐潮造型(浦西路店),浦西路225号汀洲新村,福建省,泉州市,丰泽区,15059760202,unknown,
baidu,25629fe5801769ae5d0d02fd,阿辉理发店,福建泉州市鲤城区江滨土地路1栋14号店面,福建省,泉州市,鲤城区,13960208281,unknown,
baidu,0a926cb419d85e598b2fb5d5,AZ形象工作室(喜临津店),涂门后街灵慈街3号,福建省,泉州市,鲤城区,15906053969,unknown,
baidu,0a30604827439d11b1077dbe,佐伊私人订制(迎津街店),福建省泉州市丰泽区迎津街51号,福建省,泉州市,丰泽区,,unknown,
baidu,2fc558b51713e1fea2d2305f,领秀造型形象设计工作室,田安南路丰盛假日城堡14橦5号店,福建省,泉州市,丰泽区,18965738992,unknown,
baidu,7f7e53874ff65b1214948e89,美莎形象设计(瑞祥楼店),涂门社区涂门街123号,福建省,泉州市,鲤城区,17689479583,unknown,
baidu,c329db747c4895297bf7962a,顶点形象设计,福建省泉州市丰泽区津淮街假日城堡7号店14栋7号店,福建省,泉州市,丰泽区,18359401170,unknown,
baidu,bdcfeb30ee98bf6de115f9a0,WE素可造型,宝洲街689号万达公馆北区1-2楼D069号,福建省,泉州市,丰泽区,19959995197,unknown,
baidu,0a18baf808093dcb6cc02c26,几美沙龙(浦西万达店),滞洪路万达金街S300号,福建省,泉州市,丰泽区,19105058892,unknown,
baidu,33a80e1a6f89dc94f8f0cbfe,艺首造型(总店),福建省泉州市鲤城区九一路龙宫点a号楼210号,福建省,泉州市,鲤城区,15859525088,unknown,
baidu,3729bf4cae131d3c1994c6e9,瞧·享轻奢美甲美睫(泉州浦西万达店),宝洲街679号万达SOHOB座1610室,福建省,泉州市,丰泽区,17706050021,unknown,
baidu,3be309bee6d91e0175e5b68e,N3美学,鲤中街道丰泽街富临新天地24号25号,福建省,泉州市,鲤城区,"13600784656,13685936266",unknown,
baidu,0233bdc494d2ae4a7c29bdeb,姜力头道(泉州津坂店),津坂路127号,福建省,泉州市,丰泽区,18649953986,unknown,
baidu,b16d0282762c9adba3acc4b6,清源君,东鲁社区东鲁路48号,福建省,泉州市,鲤城区,,unknown,
baidu,f5e3bcae0c6730c15e17c301,江南公园,福建省泉州市晋江市江滨南路38号,福建省,泉州市,晋江市,,unknown,
baidu,25c60a786c26f9accac3dbe2,通淮关岳庙,福建省泉州市鲤城区涂门街186~198号,福建省,泉州市,鲤城区,(0595)28011018,unknown,
baidu,aacea9355ce1f9c74e5547ae,德济门遗址,福建省泉州市鲤城区南门天后宫正对面,福建省,泉州市,鲤城区,,unknown,
baidu,606ab0d09a553c2a0e3dda39,天莲寺,泉州市丰泽区宝洲街580号,福建省,泉州市,丰泽区,(0595)22579925,unknown,
baidu,87248d9652c39fb32806ce01,泉郡富美宫,福建省泉州市鲤城区万寿路1~7号,福建省,泉州市,鲤城区,,unknown,
baidu,82264d815b1ff9a5a5da3940,泉州北滨江公园田安园,福建省泉州市丰泽区田安大桥下,福建省,泉州市,丰泽区,,unknown,
baidu,f5c6d84abe319cac58109359,飞天迎宾城雕,泉州市丰泽区义全街1号,福建省,泉州市,丰泽区,,unknown,
baidu,59e1911ae9e5592ac5effb9b,释迦寺,泉州市鲤城区东鲁巷津临喜,福建省,泉州市,鲤城区,,unknown,
baidu,c6d450e1af72146f0c0a70ef,泉州天后宫,福建省泉州市鲤城区南门天后路一号,福建省,泉州市,鲤城区,(0595)22203731,unknown,
baidu,fa44676e3960249abadf8f3c,顺济桥遗址,泉州市鲤城区江南公园,福建省,泉州市,鲤城区,,unknown,
baidu,9b96e6086b8fdc6840ab9a5a,东湖公园-动物园,泉州市丰泽区温陵北路448号东湖公园内,福建省,泉州市,丰泽区,,unknown,
baidu,aaf9e770df699aa2c909f0f9,五堡公园,福建省泉州市鲤城区义全街,福建省,泉州市,鲤城区,,unknown,
baidu,9fbfeef2ed739a38ede4a541,后城旅游文化街,福建省泉州市鲤城区鲤中街道涂门街160号(古厝茶馆对面),福建省,泉州市,鲤城区,,unknown,
baidu,e116be54bb76bf78c91b9503,东观西台吴氏大宗祠,泉州市鲤城区东观西台1号,福建省,泉州市,鲤城区,,unknown,
baidu,8d96925ceaa81f45c1f1cf39,承天禅寺,福建省泉州市鲤城区南俊路36号,福建省,泉州市,鲤城区,(0595)22272857,unknown,
baidu,7e00593698a5b5499cec2bf9,北滨江公园·浦西园,福建省泉州市丰泽区泉秀街道江滨北路,福建省,泉州市,丰泽区,,unknown,
baidu,abb1486a3307d2b61576431c,溜石塔公园,福建省泉州市晋江市江滨南路北50米,福建省,泉州市,晋江市,,unknown,
baidu,5e53af1a53f43f5f4151c001,释雅山公园,泉州市鲤城区温陵北路205号,福建省,泉州市,鲤城区,(0595)22253256,unknown,
baidu,35debf299c4a575da7da39b0,泉州府文庙,福建省泉州市鲤城区中山中路附近,福建省,泉州市,鲤城区,,unknown,
baidu,60a003fd818745092cb96d81,东湖公园,福建省泉州市丰泽区温陵北路448号,福建省,泉州市,丰泽区,,unknown,
baidu,b533ea4a8a71f5584f6d4603,刺桐公园,福建省泉州市丰泽区东涂街1号,福建省,泉州市,丰泽区,(0595)22578935,unknown,
baidu,61fc30bd426684790f0a7048,青龙古地,福建省泉州市鲤城区青龙巷78号,福建省,泉州市,鲤城区,,unknown,
baidu,6787f1d249e29ca6a01de9b3,新庵福古地,泉州市丰泽区灯福街泉二搬公寓西北侧约50米,福建省,泉州市,丰泽区,,unknown,
baidu,6ac6bfbe179d8f0aca1b95a1,晋江万安关帝庙,泉州市晋江市田安大桥桥下,福建省,泉州市,晋江市,,unknown,
baidu,69130523d37ec011735e80b9,元妙观,泉州市鲤城区新府口56号,福建省,泉州市,鲤城区,(0595)22278210,unknown,
baidu,14fe60197d49d65eeb56fafb,钟楼,福建省泉州市鲤城区东西街十字路,福建省,泉州市,鲤城区,,unknown,
baidu,bd2667855894ea63167643ea,崇阳门楼遗址,泉州市鲤城区承天巷泉州实验幼儿园西侧约100米,福建省,泉州市,鲤城区,,unknown,
baidu,804614b184d3c242260bd001,百源清池,泉州市鲤城区百源路百源村北侧,福建省,泉州市,鲤城区,,unknown,
baidu,66290736f43d7a9f3686f4ff,平天圣母,福建省泉州市鲤城区鲤中街道礼让巷19号,福建省,泉州市,鲤城区,,unknown,
baidu,9ff2d8023831dee9d4851f08,中山路历史文化街区,福建省泉州市鲤城区中山南路98号,福建省,泉州市,鲤城区,,unknown,
baidu,d6ee87244c3158e0a8f0cd39,朵莲寺,泉州市鲤城区江滨南路2-12号,福建省,泉州市,鲤城区,,unknown,
baidu,5e88853d79b55ae409b93ab2,来远驿旧址,福建省泉州市鲤城区聚宝街82号,福建省,泉州市,鲤城区,,unknown,
baidu,2cc3c8e839acaad64d2fdf01,李贽故居,泉州市鲤城区万寿路123号,福建省,泉州市,鲤城区,(0595)22200659,unknown,
baidu,bcaebff848e26954c9e33c01,芳草园,新门街与新华路交叉口西60米,福建省,泉州市,鲤城区,,unknown,
baidu,a4becc2916f6023921f01784,江滨公园,福建省泉州市鲤城区江滨北路,福建省,泉州市,鲤城区,,unknown,
baidu,09946606ee6afc5638221c45,苏廷玉故居,福建省泉州市鲤城区通政巷4号,福建省,泉州市,鲤城区,,unknown,
baidu,b67a398124a4663dab175a8d,定心塔,泉州市鲤城区井亭巷69号,福建省,泉州市,鲤城区,,unknown,
baidu,3336e7f56033bd5c1d58000a,上帝宫,福建省泉州市鲤城区鲤中街道小商品街上帝宫(聚鑫公寓旁),福建省,泉州市,鲤城区,,unknown,
baidu,46ea4fa8a0f7bbae40ab9a30,泉州市花巷天主教堂,福建省泉州市鲤城区许厝埕25号,福建省,泉州市,鲤城区,"(0595)22380105,(0595)22381742",unknown,
baidu,637df60acd4a997240afe639,清净寺,福建省泉州市鲤城区涂门街108~110号,福建省,泉州市,鲤城区,(0595)22193553,unknown,
baidu,ef773a0f0eccd8492202207b,开闽三王祠,南俊路三王祠(近承天寺),福建省,泉州市,鲤城区,(0595)22277339,unknown,
baidu,56b71b6fedcda5c3c26c145e,林廉平海蛎壳厝,泉州市鲤城区青龙巷32号,福建省,泉州市,鲤城区,,unknown,
baidu,dad38121e01b8315138824d6,仁风街土地公宫,泉州市丰泽区仁风街152号,福建省,泉州市,丰泽区,,unknown,
baidu,53cebd50934fa5612a02e139,基督教泉南堂,泉州市鲤城区中山中372号、374号,福建省,泉州市,鲤城区,(0595)22278354,unknown,
baidu,f1168a2afef3412fb8bd6321,泉郡天王宫,福建省泉州市鲤城区横街36号,福建省,泉州市,鲤城区,,unknown,
baidu,d59a9e12ea5f9fa9eaf8530a,观棋楼,泉州市鲤城区涂门街涂门小区,福建省,泉州市,鲤城区,,unknown,
baidu,06ce4bd8434e28fe9d9d68b6,东观西台,福建省泉州市鲤城区涂门街中闽百汇商场(涂门街店)南侧约30米,福建省,泉州市,鲤城区,,unknown,
baidu,eb5cf95cda62335172455bdb,登美水尾宫,福建省泉州市丰泽区淮秀路66号,福建省,泉州市,丰泽区,,unknown,
baidu,e6ee2fd27b0c11482b11d139,金莲寺,泉州市鲤城区后田村52号,福建省,泉州市,鲤城区,,unknown,
baidu,2fd2beab1f6b1c527adbd201,泉郡溪灵宫,泉州市鲤城区五堡街257号,福建省,泉州市,鲤城区,,unknown,
baidu,2ad32cc318773c8f9d95de01,天后宫及闽台关系史博物馆,泉州市鲤城区天后路1号天后宫内,福建省,泉州市,鲤城区,(0595)22203731,unknown,
baidu,823ead99b1228cf1250bd076,圣公宫壁画,福建省泉州市鲤城区第三巷84号,福建省,泉州市,鲤城区,,unknown,
baidu,f633606a7d779c4e0b69d939,铜佛寺,福建省泉州市鲤城区百源路68号,福建省,泉州市,鲤城区,,unknown,
baidu,8fde79cc01d822be95ca07f1,花桥慈济宫,泉州市鲤城区中山南路553号,福建省,泉州市,鲤城区,(0595)22272039,unknown,
baidu,cec4f7578415b6ecacee7a24,李硕卿故居,福建省泉州市鲤城区温陵北路203号,福建省,泉州市,鲤城区,(0595)22255789,unknown,
baidu,dd1530fbf12155b81d58000a,泉州市舶司遗址,福建省泉州市鲤城区水沟2号,福建省,泉州市,鲤城区,"(0595)22522565,18065373788",unknown,
baidu,46e86fdd0462e06fd13ce301,施琅故居,泉州市鲤城区温陵路205号,福建省,泉州市,鲤城区,(0595)85221345,unknown,
baidu,94f9e197b55a4e6b9de321c2,泉郡黄帝宫,泉州市鲤城区天后路30号(德济门遗址),福建省,泉州市,鲤城区,,unknown,
baidu,3ef3a28858c25fb807026f09,紫云大哥公,福建省泉州市鲤城区西街263-1号,福建省,泉州市,鲤城区,18815983755,unknown,
baidu,85cbc239c8ec84eb940319a6,片仔癀博物馆,泉州市丰泽区丰泽街59-63号(群星广场),福建省,泉州市,丰泽区,(0595)22661008,unknown,
baidu,d460638aca0b8da5a80dd845,登瀛古地,泉州市丰泽区灯荣路宝新华庭小区北侧,福建省,泉州市,丰泽区,,unknown,
baidu,3def68e3358f6806c6effb71,东湖游乐园,东湖公园内（东湖公园东门往里100米）,福建省,泉州市,丰泽区,,unknown,
baidu,4c5fe0a6728efc0ef8dc85b5,太岁殿,福建省泉州市鲤城区天后路泉州天后宫,福建省,泉州市,鲤城区,(0595)22203731,unknown,
baidu,bd5046e8bb7a1d41d72ce239,泉州市基督教聚宝堂,泉州市鲤城区聚宝街111号,福建省,泉州市,鲤城区,,unknown,
baidu,7b016fe2b245c6df2fb17e76,义春古地,福建省泉州市鲤城区鲤中街道通政巷7号,福建省,泉州市,鲤城区,,unknown,
baidu,1500fcc7f6eb9ed83010afc5,古泉州(刺桐)史迹申遗点,泉州市鲤城区天后路福建省泉州市第七中学(天后路)西南侧约30米,福建省,泉州市,鲤城区,,unknown,
baidu,cc92326a3f9634c7b4265523,泉州市舶司水仙宫,福建省泉州市鲤城区水门水沟2号,福建省,泉州市,鲤城区,,unknown,
baidu,6f013d64350281108605bfcb,宝海庵,福建省泉州市鲤城区临江街道南门后山社14号,福建省,泉州市,鲤城区,,unknown,
baidu,1b8792c2ce4960398c1a894b,新庵胜境,泉州市丰泽区泉秀街613号,福建省,泉州市,丰泽区,,unknown,
baidu,223d7ee1c83362cb5fbe86be,天宫中-正殿,泉州市鲤城区天后路一号天后进宫,福建省,泉州市,鲤城区,(0595)22203731,unknown,
baidu,b04dc7f394156338ed74f873,泉州府文庙-大成门,泉州市鲤城区府学路泉州府文庙,福建省,泉州市,鲤城区,,unknown,
baidu,3ab7169eb1176f55931fc997,李妙森故居,泉州市鲤城区青龙巷5号,福建省,泉州市,鲤城区,,unknown,
baidu,22f5a4f9c450c904a5da3917,文相宫,福建省泉州市鲤城区义全后街74号,福建省,泉州市,鲤城区,,unknown,
baidu,29f121feca4d423b4f3a59cc,泉郡南门土地公,福建省泉州市鲤城区横街42号,福建省,泉州市,鲤城区,,unknown,
baidu,c5fe45decf24554db13c81a7,蔡鼎常故居,泉州市鲤城区横街32号,福建省,泉州市,鲤城区,,unknown,
baidu,1de95a0e9e8008832fb96d4a,泉州市江滨体育公园,泉州市丰泽区江滨北路泉州市江滨体育公园,福建省,泉州市,丰泽区,,unknown,
baidu,9cef43d67826bde82d473310,泉郡鳌旋宫,福建省泉州市鲤城区临江街道万寿路99号,福建省,泉州市,鲤城区,,unknown,
baidu,275550e0843681d100ec019c,锡兰侨民旧居,福建省泉州市鲤城区涂门街174号～184号,福建省,泉州市,鲤城区,,unknown,
baidu,4d7656b0d362031a15c905b0,七星拱月,福建省泉州市丰泽区温陵北路448(东湖公园),福建省,泉州市,丰泽区,(0595)22280149,unknown,
baidu,2ff0dbc8d0ae57d8d4851f7e,翁氏祖厅,福建省泉州市丰泽区丰泽街道迎津新村16栋,福建省,泉州市,丰泽区,,unknown,
baidu,68028e8881a6f83a871541d3,旧馆驿古街巷,福建省泉州市鲤城区鲤中街道旧馆驿10号,福建省,泉州市,鲤城区,,unknown,
baidu,6d02da94574b06463904b19e,黄雪珍民居,青龙巷7号,福建省,泉州市,鲤城区,,unknown,
baidu,19c392c09ccd5931e111035d,陈振辰古民居,泉州市鲤城区许厝埕24号,福建省,泉州市,鲤城区,,unknown,
baidu,98c34d380b541f1f4151c0ad,奉天坛(古礼拜殿),福建省泉州市鲤城区清净寺(中闽百汇商场东南150米),福建省,泉州市,鲤城区,,unknown,
baidu,a052665ffe85e36ff02d83fc,万春古地,泉州市丰泽区迎津街泉州市电业局大厦东南侧约90米,福建省,泉州市,丰泽区,,unknown,
baidu,e13680dcb997b2fb233bf285,泉郡后山宫,泉州市鲤城区江滨北路聚宝新城西北侧约150米,福建省,泉州市,鲤城区,,unknown,
baidu,59b4f57e796779fa130daacd,世居陶宅,泉州市鲤城区五堡路伍堡新风小区东侧,福建省,泉州市,鲤城区,,unknown,
baidu,b272870ae2aff5231d1d11cc,明善堂(礼拜殿),福建省泉州市鲤城区涂门街中闽百汇商场涂门街店东南侧约100米,福建省,泉州市,鲤城区,,unknown,
baidu,ade4c8079b866f585ed4fe41,黄宗汉故宅,泉州市鲤城区镇抚巷51号,福建省,泉州市,鲤城区,,unknown,
baidu,e44cdcf57750cf239cec2b69,黄厚忠故居,泉州市鲤城区聚宝街127号,福建省,泉州市,鲤城区,,unknown,
baidu,40b302885da652877ec8760e,真济仙姑宫,泉州市鲤城区井亭巷6号,福建省,泉州市,鲤城区,,unknown,
baidu,c1b450cf3b6f799114c8f6f9,泉郡灵应宫,泉州市鲤城区青龙巷12号,福建省,泉州市,鲤城区,,unknown,
baidu,60d9f9d466e9232ebca82248,通淮文创中心,泉州市鲤城区近圣路涂门小区西北侧,福建省,泉州市,鲤城区,,unknown,
baidu,09185c564a5c865df119371a,法莲净寺,福建省泉州市晋江市池店镇泉安北路1441号,福建省,泉州市,晋江市,,unknown,
baidu,b325a7ac2ac4a79178f79672,泉州市文化宫南音社,泉州市鲤城区九一街2号泉州工人文化宫文艺楼2层,福建省,泉州市,鲤城区,,unknown,
baidu,2cdab306f925965ceee4a551,许邦光故居,泉州市鲤城区古榕巷621号,福建省,泉州市,鲤城区,,unknown,
baidu,4668d96437cee2ae35b06cdf,文庄蔡公祠,福建省泉州市鲤城区府文庙广场西侧,福建省,泉州市,鲤城区,,unknown,
baidu,42dc41f9fa915e2695ca0759,泉州历史名人纪念馆,福建省泉州市鲤城区涂门街与百源路交叉口西北侧(百源川池西畔),福建省,泉州市,鲤城区,,unknown,
baidu,caf0ad4f19d3516288fc06d0,泉州市南音传承中心,泉州市鲤城区新门街芳草园北侧约50米,福建省,泉州市,鲤城区,,unknown,
baidu,bfcdd6c00847c39a94ec8490,涂门水关,福建省泉州市鲤城区涂门街后坂街涂门水关(长城戴斯酒店旁),福建省,泉州市,鲤城区,,unknown,
baidu,fbaeb93445d3bc466240a9e8,东湖亭,泉州市丰泽区东湖公园内,福建省,泉州市,丰泽区,,unknown,
baidu,b86431575e05ae71f02d83a5,忠义关夫子庙,福建省泉州市鲤城区市鲤城区忠义巷,福建省,泉州市,鲤城区,,unknown,
baidu,cde494d16ff4fb9395ca07f6,仁风古地,福建省泉州市丰泽区河岸路玉屏大厦西北100米(东湖公园北),福建省,泉州市,丰泽区,,unknown,
baidu,64a23982533956115cbe8639,东湖公园-二公亭,福建省泉州市丰泽区温陵北路448号东湖公园内(西侧),福建省,泉州市,丰泽区,(0595)22280149,unknown,
baidu,60eccd7f5bc180a1223bf2f0,通淮古地,泉州市鲤城区近圣路涂门小区西北侧约30米,福建省,泉州市,鲤城区,,unknown,
baidu,7e0b1cc0bdb2e50174026914,万正色故宅,福建省泉州市鲤城区第三巷64号,福建省,泉州市,鲤城区,,unknown,
baidu,2231dec5c10de137cae33c71,御殿古地,福建省泉州市丰泽区泉秀街道田安南路水岸人家,福建省,泉州市,丰泽区,,unknown,
baidu,3a32641961cb242af5b91646,万善同归,泉州市鲤城区宫塔巷鲤城临江中心幼儿园西侧约70米,福建省,泉州市,鲤城区,,unknown,
baidu,89b96fdee87cf47df603b85f,青龙古地康王宫,福建省泉州市丰泽区江滨北路与泉州金街交叉口西北约200米,福建省,泉州市,丰泽区,,unknown,
baidu,fd76068c8fba7894c909f0d1,津头埔郑氏家庙,福建省泉州市丰泽区津淮街迎津新村11栋,福建省,泉州市,丰泽区,,unknown,
baidu,2a3719ddd31d3c614c6d4653,翁氏家庙,泉州市丰泽区迎津新村16号楼2楼,福建省,泉州市,丰泽区,,unknown,
baidu,079746cf943b6e8085420e51,老范志大厝,福建省泉州市鲤城区九一街61号后面,福建省,泉州市,鲤城区,,unknown,
baidu,7977ddf7dd880cb1f03cba32,鹫峰遗教,泉州市鲤城区东鲁巷津临喜,福建省,泉州市,鲤城区,,unknown,
baidu,f575c0c8e880c6a56c3e1b76,辅德庙,福建省泉州市鲤城区惠存巷3号,福建省,泉州市,鲤城区,,unknown,
baidu,4199bab429b96936e60738e8,金紫杨氏家庙,福建省泉州市鲤城区田仔墘18号,福建省,泉州市,鲤城区,18960053234,unknown,
baidu,39f72b14d83a89902b06ce01,津头古地,福建省泉州市丰泽区津淮街迎津新村,福建省,泉州市,丰泽区,,unknown,
baidu,4d18233d1bcd3032276e98fa,泉州市津头埔观音宫,福建省泉州市丰泽区津淮街迎津综合楼,福建省,泉州市,丰泽区,18960296161,unknown,
baidu,285c871af7dd01620bf5ebc2,陈光纯故居,福建省泉州市鲤城区中山中路345号(玉犀巷口正对面),福建省,泉州市,鲤城区,18060093351,unknown,
baidu,5b403bbb6589ec5f0869d911,傅维早故居,泉州市鲤城区新华北路新门社区东北侧约90米,福建省,泉州市,鲤城区,,unknown,
baidu,50ca5a75ed906396f7e73b81,忠孝廉节牌坊,福建省泉州市鲤城区鲤中街道三朝巷22号,福建省,泉州市,鲤城区,,unknown,
baidu,f08c32479354204329fc4838,侍郎第,泉州市鲤城区井亭巷47号,福建省,泉州市,鲤城区,,unknown,
baidu,1899df4ea410fd8c59bbbc48,叶氏华侨旧居,泉州市鲤城区镇抚巷38号,福建省,泉州市,鲤城区,,unknown,
baidu,4d59bf3f7994e834028972cd,七步莲香禅文化馆,涂门街152号七步莲香禅文化,福建省,泉州市,鲤城区,"15980084848,17750105893",unknown,
baidu,9dbbead3729eabbc11882497,顺济桥旱闸,福建省泉州市鲤城区江滨南10号、12号附近,福建省,泉州市,鲤城区,,unknown,
baidu,483b179d6323d9844151c0c2,泉州宋元中国的世界海洋商贸中心,福建省泉州市鲤城区古榕巷54号,福建省,泉州市,鲤城区,,unknown,
baidu,cb772b44d9427827b120a808,泉州市第一医院-孙中山纪念楼,福建省泉州市鲤城区东街250号,福建省,泉州市,鲤城区,,unknown,
baidu,53b4ed9730eb342f00ff2ddd,悟雀玩娱共享俱乐部(大洋店),大洋百货5楼,福建省,泉州市,丰泽区,,unknown,
baidu,08e2030e6f8eccc10ab93a6e,茶语共享茶室·棋牌(泉秀店),灯福街21号,福建省,泉州市,丰泽区,13505024922,unknown,
baidu,dfc9073c6af246c9095cb324,Kgego精品自助KTV(泉州温陵店),温陵北路25号长城戴斯酒店附属楼,福建省,泉州市,鲤城区,,unknown,
baidu,6ed3083a5a52e6b72b3a9f39,青苹果美容(前坂街店),前坂街82-86号二楼,福建省,泉州市,丰泽区,,unknown,
baidu,0aa9321f792286b18f55eca1,寻乐园网吧,津坂路20号,福建省,泉州市,丰泽区,15359511171,unknown,
baidu,0e859d6be553093dfa42b2c8,鸿悦会馆,田安南路591号,福建省,泉州市,丰泽区,,unknown,
baidu,c3dd5953d752dfc682a12e0a,品尚生态水疗,田安北路中段恒丰商厦1-4层,福建省,泉州市,丰泽区,(0595)28282816,unknown,
baidu,289b428a5f029e3bcb1b9509,好饮生啤商店,丰迎路17号,福建省,泉州市,丰泽区,18559580407,unknown,
baidu,ee32d92863eab812f40e77c9,梦田音乐LiveHouse(刺桐店),刺桐路66号,福建省,泉州市,丰泽区,13313831785,unknown,
baidu,7cc910575490755ae6e96571,德心堂足浴养生店,丰泽街道津霞街312号,福建省,泉州市,丰泽区,,unknown,
baidu,a8b5983ec643b6bf3617dc64,映山红(六灌路店),迎津街六灌路62号,福建省,泉州市,丰泽区,,unknown,
baidu,9929290eb1528900c6effb0d,澜庭会所推拿·SPA·药浴,津坂路147号,福建省,泉州市,丰泽区,,unknown,
baidu,01edc4a7a70edddd54bfff97,欢乐迪KTV(泉秀店),泉秀路五洲大厦1L,福建省,泉州市,丰泽区,(0595)22585828,unknown,
baidu,c0ec3926774e3721d22dd66c,太会养生馆,时代广场二期S193号,福建省,泉州市,丰泽区,15906062272,unknown,
baidu,3bc0f85d72d90eb72dfaa7a1,幸府鲤酒吧,义全街114-1号2楼,福建省,泉州市,鲤城区,15715972005,unknown,
baidu,6ea0f64b28566abb0ab93a42,别馆,新府口82号,福建省,泉州市,鲤城区,15605043582,unknown,
baidu,98e75f4f7709445b5cbe867c,铂金娱乐会所(泉秀街店),泉秀街153号铂金酒店四层,福建省,泉州市,丰泽区,,unknown,
baidu,1b9a7b69dcddf085455726db,泉海足道会馆(金亚花园店),华丰社区温陵南路12号店,福建省,泉州市,丰泽区,,unknown,
baidu,ea26abe153005e35a7c7569b,御品汇泡澡·SPA·推拿(温陵美食街店),津淮街731号,福建省,泉州市,丰泽区,,unknown,
baidu,933fb2292dbde7cf33169ba4,浓情BAR,福建省泉州市丰泽区丰泽街道前坂街98号二楼,福建省,泉州市,丰泽区,18900222293,unknown,
baidu,925b4e6c1d110f160a5cb3b2,丰泽莹津舞厅,泉州市丰泽区丰迎路津头埔,福建省,泉州市,丰泽区,,unknown,
baidu,4e793cd5a210998fa11de923,金妃养生馆(宝城华苑店),津霞街314号,福建省,泉州市,丰泽区,,unknown,
baidu,256bf458beacbf7c17948e12,万德喜棋牌桌游吧(田安店),田安南路529号祥泰大厦4楼,福建省,泉州市,丰泽区,17268485459,unknown,
baidu,389fc2c3b61fd77ef32d8392,艾灸养生馆,泉州市丰泽区前坂街东华公寓东南侧,福建省,泉州市,丰泽区,,unknown,
baidu,87248d96548891b22806cecf,丰泽广场,泉州市丰泽区田安路与丰泽街路口,福建省,泉州市,丰泽区,,unknown,
baidu,abfb7eaf55176c8ac909f090,凤凰国际娱乐,前坂街东华公寓西侧约30米,福建省,泉州市,丰泽区,,unknown,
baidu,30f0796c34f53262eb56fa53,华星花园网咖(温陵路店),前坂路104号,福建省,泉州市,丰泽区,(0595)22536997,unknown,
baidu,acef60bde991587ed12dd658,梦桃源保健推拿足浴,福建省泉州市丰泽区泉秀街与浦西路交叉路口往西南约50米(聚豪特区),福建省,泉州市,丰泽区,,unknown,
baidu,459004c9733bcc66b5f42fce,悦享会茶语康养SPA(泉州大洋百货店),福建省泉州市丰泽区丰泽街道前坂街89号,福建省,泉州市,丰泽区,,unknown,
baidu,38cf771a214c9f93ac080f91,紫云采耳足浴,泉州市丰泽区泉秀街维也纳酒店(泉州汽车站店)南侧约70米,福建省,泉州市,丰泽区,,unknown,
baidu,b099733c5d6b19b249fc8d7e,泉州聂教棋院(南丰新城教学点),福建省泉州市丰泽区南丰新城郁金苑北门东南80米,福建省,泉州市,丰泽区,15396623188,unknown,
baidu,9668350f67e8043c8bf15d93,阿角推拿馆,宝洲路南丰新城牡丹苑D109室,福建省,泉州市,丰泽区,,unknown,
baidu,198c8f7db2ae5887ca2915cb,松奈推拿院spa馆(千亿华园店),田安南路524号千亿华园11A室,福建省,泉州市,丰泽区,,unknown,
baidu,7459812e3d68e7c0c0364483,耳知晓采耳(津淮街店),津淮街757-1号,福建省,泉州市,丰泽区,,unknown,
baidu,e447019ae5977276260bd0f5,悦足轩(迎津街店),泉州市丰泽区丰迎路泉州市电业局大厦东北侧,福建省,泉州市,丰泽区,,unknown,
baidu,47fd603bd895bc66a31de969,集耳堂可视采耳(津淮街店),福建省泉州市丰泽区津淮街745号,福建省,泉州市,丰泽区,,unknown,
baidu,b9d6d35191513542f60e771a,至阳盲人推拿,宝洲路时代广场西门（里面右侧店铺）,福建省,泉州市,丰泽区,13489898811,unknown,
baidu,78bd50f72980d04231870a31,泉州影剧院,西街20号近钟楼,福建省,泉州市,鲤城区,(0595)22379286,unknown,
baidu,c5791fb3e36ac4a18415413e,大正象棋苑(田安校区),福建省泉州市丰泽区田安南路627号广益花园a栋3楼,福建省,泉州市,丰泽区,,unknown,
baidu,ff3710435d68de2e5cbe86e6,浦西茶馆,江滨北路田安园内,福建省,泉州市,丰泽区,13705059445,unknown,
baidu,737524151b623f874051c0f9,一指禅祖传推拿,泉州市丰泽区福田路113号,福建省,泉州市,丰泽区,,unknown,
baidu,d1498aec0e82db35223bf2cf,三足汇,泉州市鲤城区天后路泉州汽车站东南侧,福建省,泉州市,鲤城区,,unknown,
baidu,6a54b7efbb5106c5bfa822b7,前坂社区文体活动广场,泉州市丰泽区前坂街47号前坂西区,福建省,泉州市,丰泽区,,unknown,
baidu,53261105163bd15a54bfff10,万达影城(泉州浦西万达广场店),宝洲街与泉州金街交叉口西约80米,福建省,泉州市,丰泽区,(0595)28586688,unknown,
baidu,91033387363d4d5d0c0a7065,溪香老茶舍(津坂路店),前坂街30号巷24号,福建省,泉州市,丰泽区,(0595)22124400,unknown,
baidu,cd6400d9ed8e6e1979dbd2c6,音乐茶座(温陵南路店),泉州市丰泽区前坂街速8酒店(泉州新车站店)东侧约60米,福建省,泉州市,丰泽区,,unknown,
baidu,63ff75af6181378889b98872,法治文化广场,泉州市丰泽区浦西路泉淮社区,福建省,泉州市,丰泽区,,unknown,
baidu,540ab94c3390193157bfff94,海晟通仙茶社,福建省泉州市丰泽区温陵南路92号大洋百货(泉州店)F4,福建省,泉州市,丰泽区,,unknown,
baidu,31f9101b45848eba26e0a003,泉州南音艺苑,新门街483号南音艺苑,福建省,泉州市,鲤城区,(0595)28125891,unknown,
baidu,9320bd78f3aba77494ec84bb,泉祥源(绿榕苑店),福建省泉州市丰泽区泉秀街704号绿榕苑C栋,福建省,泉州市,丰泽区,13905980749,unknown,
baidu,31ba77cd332bac57c16c144f,横店电影城(全激光影厅),新华南路207号T淘园3楼（近新华桥）,福建省,泉州市,鲤城区,(0595)28790012,unknown,
baidu,a248a0c02f4cbd450e3dda99,名茶村(田安店),田安南路567-1号（广益花园底商）,福建省,泉州市,丰泽区,(0595)86191912,unknown,
baidu,16e59b38c0b6db1132f71db1,彭乡阁茶行(田安南路店),福建省泉州市丰泽区泉秀路660号宝成大厦2号楼3号店,福建省,泉州市,丰泽区,,unknown,
baidu,fba582670d7e61258bfc0601,泉府小鲤埕,福建省泉州市鲤城区西街新街21号,福建省,泉州市,鲤城区,13313833989,unknown,
baidu,02eb58a293dffde1babd6310,每天精酿鲜啤(富贵人家小区店),迎津街(六罐路)56号,福建省,泉州市,丰泽区,18960251829,unknown,
baidu,956cde43443de4377ab55cc1,辰色酒馆(领秀天地店),刺桐南路领秀天地乐中道综艺B馆2F,福建省,泉州市,丰泽区,,unknown,
baidu,6d8476d276540935b8bd637f,精酿啤酒馆(津头埔店),丰迎路66号津头埔（丰迎路）,福建省,泉州市,丰泽区,15280448239,unknown,
baidu,5032113cd909f61df4e73b21,桔子酒店(泉州万达泉秀路店),泉秀路615号,福建省,泉州市,丰泽区,(0595)68292999,unknown,
baidu,e98f45d82509da281e580007,如家睿柏·云酒店(泉州浦西万达店),温陵南路汇金广场1楼,福建省,泉州市,丰泽区,17350060273,unknown,
baidu,5bda5747a89c4f95b4265547,华庭酒店(泉州万达时代广场店),灯福街182号时代广场三期Q幢,福建省,泉州市,丰泽区,(0595)22003966,unknown,
baidu,2cb8044cdd872f6a2b3a9fe2,泉州城市假日酒店(西街古城店),海滨街道东鲁社区东鲁路2号,福建省,泉州市,鲤城区,(0595)22989999,unknown,
baidu,b4388e6eb15b8742db1318dd,99优选酒店(泉州万达店),田安南路332号,福建省,泉州市,丰泽区,(0595)68292299,unknown,
baidu,bed2fb265a5cbb2b0a5cb316,城适优选酒店(泉州浦西万达店),温陵南路计量统计大楼（海关大楼斜对面）,福建省,泉州市,丰泽区,(0595)28895899,unknown,
baidu,c9e583358218f3029122e06a,如家精选酒店(泉州古城温陵北路店),温陵北路100-106号,福建省,泉州市,鲤城区,(0595)28262999,unknown,
baidu,5290f0f79008eec142d63e1c,服装宾馆(泉州温陵南路店),温陵路南段门牌113号,福建省,泉州市,丰泽区,(0595)22286093,unknown,
baidu,2fbe009752fc54fe704b878f,泉州泊捷时尚酒店(大洋百货店),福建省泉州市丰泽区温陵南路204号,福建省,泉州市,丰泽区,(0595)68281555,unknown,
baidu,1a8e0e2fc2f11e59b4147fb6,汉庭优佳酒店(泉州万达店),宝洲路398号,福建省,泉州市,丰泽区,13338573626,unknown,
baidu,295e73f93fc9bf8d76e5b670,维也纳酒店(泉州浦西万达泉秀路店),泉秀街768号,福建省,泉州市,丰泽区,(0595)36617888,unknown,
baidu,e82949c5446ae531f8dc8521,怡莱精品酒店(泉州津淮美食街店),迎津街87-1号,福建省,泉州市,丰泽区,(0595)28666611,unknown,
baidu,28e00dd54ac81e360af5ebba,如家商旅酒店(泉州万达广场店),福建省泉州市丰泽区乌洲路239号,福建省,泉州市,丰泽区,(0595)28583355,unknown,
baidu,a1418eb4f2880e66eae58293,泉州大华酒店(万达店),泉秀路,福建省,泉州市,丰泽区,(0595)22551688,unknown,
baidu,35debf29812d5a5da7da3989,泉州东海大酒店,宝洲路432号,福建省,泉州市,丰泽区,"(0595)22574888,18965733337",unknown,
baidu,e81ba51fafcce4754f3a5961,舒曼酒店(泉州古城义全街店),义全街105号,福建省,泉州市,鲤城区,(0595)22972333,unknown,
baidu,ea4a3dc9895a782e4e554739,泉兴舒适酒店(浦西万达店),南淮路98号,福建省,泉州市,丰泽区,(0595)22666677,unknown,
baidu,eff9241ac383eb1c4251c0cf,怡莱酒店(泉州美食街店),美食街183号,福建省,泉州市,鲤城区,(0595)22881925,unknown,
baidu,78bd50f7d474df4230870a8a,泉州滨海大酒店,福建省泉州市丰泽区美桐街中段28号,福建省,泉州市,丰泽区,(0595)22135555,unknown,
baidu,b5834d719916cd95931fc923,星程酒店(泉州万达店),泉秀街道宝洲街424号明洲大厦,福建省,泉州市,丰泽区,(0595)22809966,unknown,
baidu,2cf4ef9f5d19fea395f08cea,吾居吾宿民宿(泉州中山路天后宫店),临江街道公婆巷5号B,福建省,泉州市,鲤城区,15359585227,unknown,
baidu,2184c47613243866d8131825,绿泉酒店(泉州美食街店),丰泽街道温陵路津头埔路5号,福建省,泉州市,鲤城区,(0595)28768787,unknown,
baidu,43f24d6b218920019df779b6,迎新宾馆(泉州古城关帝庙店),津淮街广鑫大厦4楼,福建省,泉州市,丰泽区,"(0595)22162515,15859778100",unknown,
baidu,24d05508737520b613882480,泉州酒店,福建省泉州市鲤城区庄府巷22号,福建省,泉州市,鲤城区,(0595)22182268,unknown,
baidu,c0c4ad1f85bf673530621293,亚朵酒店,泉州市丰泽区宝洲街582号,福建省,泉州市,丰泽区,(0595)28289999,unknown,
baidu,5b851cd6c3f35a02c2f1cfcb,泉州悦华酒店,福建省泉州市丰泽区刺桐南路129号,福建省,泉州市,丰泽区,059528019999,unknown,
baidu,04bdf4a31d0ecd4f354aae3e,泉州华泉商务宾馆,温陵南路58-66号,福建省,泉州市,丰泽区,(0595)22187839,unknown,
baidu,95e0ae0139b1151ac17da221,泉州洛尚优选酒店(万达广场领show店),南淮路30号晶都国际B幢4楼,福建省,泉州市,丰泽区,13328511133,unknown,
baidu,8fa14fc36d3a4f77f6eafc98,泉州花园大酒店,湖心街472号,福建省,泉州市,丰泽区,(0595)28988888,unknown,
baidu,9fbfeef27704705cece4a58c,泉州金明宾馆,温陵北路58号,福建省,泉州市,鲤城区,(0595)22869543,unknown,
baidu,77048e7875dbe6dbfbf0cba3,皇盛优选酒店(泉州万达广场星光不夜城店),福建省泉州市丰泽区泉秀路478号B栋（欢乐迪对面）,福建省,泉州市,丰泽区,(0595)28221133,unknown,
baidu,e56bf5e3818efe5d0682c298,泉州金星大酒店,东街120号（南俊路与东街交汇口）,福建省,泉州市,鲤城区,(0595)22277819,unknown,
baidu,c516dd442c4458aab64f549d,城适旅休酒店(泉州美食街店),美食街69号，临近丰泽街、温陵北路、机场,福建省,泉州市,鲤城区,(0595)68085888,unknown,
baidu,a7b81bb613fb707fd8d8910b,如家睿柏·云酒店(泉州西街开元寺店),福建省泉州市鲤城区县后路13号,福建省,泉州市,鲤城区,"(0595)22832000,19926579833",unknown,
baidu,2cd19251006ffda114c8f62d,泉州友德大酒店,刺桐北路与田淮街交接处泉州轻艺大厦1楼,福建省,泉州市,丰泽区,(0595)28662811,unknown,
baidu,28e700f16bcb4518085cb388,泉州丰泽大酒店,津准街东路36,福建省,泉州市,丰泽区,(0595)22550188,unknown,
baidu,2f9d54510b0b41ecd42ce233,泉州厦航酒店,福建省泉州市丰泽区丰泽街339号(泉州儿童医院对面),福建省,泉州市,丰泽区,(0595)22164888,unknown,
baidu,fa835ce2005db7afe912e498,泉州华侨大厦,福建省泉州市鲤城区百源路1号,福建省,泉州市,鲤城区,"(0595)22172000,(0595)22282192",unknown,
baidu,2349799c0a3665612cb90893,象家公寓(涂门街分店),泉州市涂门街264号,福建省,泉州市,鲤城区,15259715667,unknown,
baidu,69fcd6df83df7e36cb29159e,泉州宝洲宾馆,宝洲街923号,福建省,泉州市,丰泽区,"(0595)22573737,(0595)22573739,15305953737",unknown,
baidu,fb79c994a2ed08cddeee8b12,柒居自助影院公寓(泉州丰泽津淮美食街店),泉州市田安路源和大厦5楼大堂,福建省,泉州市,丰泽区,17348862920,unknown,
baidu,297097523bfb7ef645e27400,小呀小松鼠公寓(霞淮街分店),泉州市霞淮街196号二、三、四层,福建省,泉州市,丰泽区,18876527571,unknown,
baidu,19c007ea5e5a90696d20b972,斯尓雅民宿,福建省泉州市丰泽区泉秀街道灯福街116,福建省,泉州市,丰泽区,,unknown,
baidu,12f2e0f157bbe415705e800d,东大酒店,福建省泉州市丰泽区温陵南路108号,福建省,泉州市,丰泽区,(0595)22269333,unknown,
baidu,50fb64ff8b2f7f5ee9f853d3,商业招待所(泉州领SHOW天地浦西万达店),福建省泉州市丰泽区迎津街235号（市商业局大楼）,福建省,泉州市,丰泽区,(0595)22981793,unknown,
baidu,68700fffff8431526240a99b,西遇民宿(泉州温陵路美食街店),福建省泉州市鲤城区温陵北路20号资生健康大厦2楼,福建省,泉州市,鲤城区,15980063668,unknown,
baidu,3eef531a0e73b96cc9e33cea,悦享时尚公寓,福建省泉州市丰泽区温陵南路201号,福建省,泉州市,丰泽区,,unknown,
baidu,817cdac9c594bcb22ce67b37,就是等你主题公寓,福建省泉州市丰泽区温陵南路253~255号,福建省,泉州市,丰泽区,(0595)22880805,unknown,
baidu,f176c9a199c71910ddee8b75,达喜市酒店(泉州新车站店),福建省泉州市丰泽区温陵南路3号汇金广场,福建省,泉州市,丰泽区,(0595)28595500,unknown,
baidu,1d45f9b92f4608334e776e0c,七桃之家青年旅舍(天后宫店),福建省泉州市青龙巷70号飞达公寓101室,福建省,泉州市,鲤城区,13181662830,unknown,
baidu,aceff401a1dddbd48bf15d25,兔途小家公寓(温陵南路分店),福建省泉州市丰泽区泉秀街道温陵南路11号,福建省,泉州市,丰泽区,,unknown,
baidu,cbd9dd5a9527961f1f3894a0,房东彩虹么么哒公寓(南淮路分店),福建省泉州市丰泽区丰泽街道南淮路25号,福建省,泉州市,丰泽区,,unknown,
baidu,7a788084fe70b19686420e56,泉州风的季节公寓,泉州市涂门街298号新开数码后面,福建省,泉州市,鲤城区,,unknown,
baidu,aeb87111d42a684815c8f6f2,大华酒店·宴会厅(客房部),泉秀街429号（近浦西路口）,福建省,泉州市,丰泽区,(0595)22551688,unknown,
baidu,49e718a818483d14ca09f0f7,泉州映宿YS专业电影主题宿中的私人影院公寓(宝洲街分店),福建省泉州市丰泽区宝洲路658,福建省,泉州市,丰泽区,18620777703,unknown,
baidu,c03ddb2c1e69e3514d5547e8,邻家朗月公寓(霞淮街分店),福建省泉州市丰泽区丰泽街道田安南路638号,福建省,泉州市,丰泽区,,unknown,
baidu,99aa790cd4f9d8b69f09f7f4,泉州设设之家公寓(津霞街分店),福建省泉州市丰泽区南淮路105号,福建省,泉州市,丰泽区,,unknown,
baidu,8b7220e9362a2f77c6effb6f,泉运集团汽车技术服务分公司,福建省泉州市丰泽区泉秀路619号,福建省,泉州市,丰泽区,13505077234,unknown,
baidu,544a4a3e99ec03fe41d63e42,特使汽车美容(津霞街店),津霞街271-275号,福建省,泉州市,丰泽区,,unknown,
baidu,a037703f740757e8aeb22a08,泉运集团汽车服务中心,华丰社区泉秀街619号,福建省,泉州市,丰泽区,"(0595)22284141,15859777120",unknown,
baidu,a02101308751daf3df1e52fa,仁发汽车服务,福建省泉州市丰泽区津霞街258号,福建省,泉州市,丰泽区,15805056899,unknown,
baidu,6ed3083ac2016eae2b3a9ffd,泉州机动车综合性能检测中心,福建省泉州市丰泽区泉秀街619号综合楼,福建省,泉州市,丰泽区,,unknown,
baidu,7513c046991129bb601c676a,101汽车服务中心(田安南路店),福建省泉州市丰泽区田安南路282号(泉秀派出所旁边),福建省,泉州市,丰泽区,15959551150,unknown,
baidu,7351dac9563a5b159d95dedb,精诚汽车美容,宝洲街895号,福建省,泉州市,丰泽区,13960393171,unknown,
baidu,67bbb8267583ce69b2077d44,建行龙卡汽车卡定点洗车,福建省泉州市丰泽区津霞街273号前坂新村西区15幢406室,福建省,泉州市,丰泽区,18659558859,unknown,
baidu,4cf8d24ebceb43fd9df779fb,万宝龙汽车护理生活馆,泉秀街道宝洲街925号(近宏昌宾馆),福建省,泉州市,丰泽区,"(0595)22302020,15905051551",unknown,
baidu,9fc0312ab0e2c10f2b06ce02,补胎换胎洗车,泉州市丰泽区田安南路宝洲商住楼东北侧,福建省,泉州市,丰泽区,,unknown,
baidu,e889d7b447b70d3e744ff149,客新轿车精养,泉州市丰泽区堤后路宝新华庭小区,福建省,泉州市,丰泽区,,unknown,
baidu,3dc683974494e594f32d83d3,马超汽车改装,田安南路169号门店,福建省,泉州市,丰泽区,15260832360,unknown,
baidu,da883c246cc05e22130daa98,顺川汽修商行,田安南路290-292号,福建省,泉州市,丰泽区,18905952783,unknown,
baidu,c47d7951daa0c757bb17e7f4,鲤城区德兴汽车修理厂,新华路与金洲街交叉口东50米,福建省,泉州市,鲤城区,"(0595)22126007,(0595)22370122",unknown,
baidu,f4a33da9a0258a103010af26,天时捷汽车快修中心,丰盛假日城堡5号楼店面,福建省,泉州市,丰泽区,(0595)22077789,unknown,
baidu,e7110327928185f32202206e,京东轮胎(南丰新城特许店),福建省泉州市丰泽区丁荣路274号,福建省,泉州市,丰泽区,(0595)22701010,unknown,
baidu,1fdcefe75b4a45908505bf72,盛辉轮胎(途虎养车店),福建省泉州市丰泽区津霞街257号,福建省,泉州市,丰泽区,(0595)22852469,unknown,
baidu,bbbcce0e2ee584690f0a70aa,99靓车坊,福建省泉州市丰泽区宝洲街895号99,福建省,泉州市,丰泽区,(0595)22569799,unknown,
baidu,91c13f93c34b57f921f01700,泉州市大长江丰田汽车销售服务有限公司(华洲店),福建省泉州市晋江市池店镇华洲村泉安北路大长江汽车城内,福建省,泉州市,晋江市,"(0595)22925222,(0595)22925333",unknown,
baidu,e7df121978697825871541b7,广汽三菱(华而盛店),福建省泉州市丰泽区东涂街164-178号,福建省,泉州市,丰泽区,,unknown,
baidu,8f277618f7729807b5147fa1,杰其汽配,泉州市丰泽区红梅苑D03号,福建省,泉州市,丰泽区,(0595)22513793,unknown,
baidu,6ca8083e2d7fc09e33169b0c,丰财轮胎店,田安南路326号,福建省,泉州市,丰泽区,13506028559,unknown,
baidu,11ce24ab73d9483dd8131825,客二公司轿车维修中心,福建省泉州市丰泽区宝新华庭4号楼1346,福建省,泉州市,丰泽区,18965534141,unknown,
baidu,07e03a49980be47d10293549,鑫宇汽修,福建省泉州市丰泽区浦西路61号,福建省,泉州市,丰泽区,,unknown,
baidu,295909ff75badcfc9f82eab1,丰泽区车捷汽车服务中心维修救援,和昌花苑三号楼A19店田淮街198号,福建省,泉州市,丰泽区,13559542818,unknown,
baidu,6ec0c659e9245e05f90cad0e,祥源汽车美容服务中心(经典名门店),福建省泉州市丰泽区刺桐路经典名门7-01号店,福建省,泉州市,丰泽区,15860508588,unknown,
baidu,0279c278acd195caf82213fb,车管家汽车服务,东美社区妙云街77号,福建省,泉州市,丰泽区,13959961930,unknown,
baidu,c4f3e3bfbec300f8b14c4959,君驰汽车服务·保养·美容·维修,刺桐路妙云街75号,福建省,泉州市,丰泽区,(0595)22760188,unknown,
baidu,c5cda2bb6f1b0e546f476096,日胜汽车租赁,福建省泉州市丰泽区田安南路358号泉安公寓a栋,福建省,泉州市,丰泽区,,unknown,
baidu,fd2f046d798b13f1c27da20b,车与家自助洗车(泉州浦西万达店),万达广场负二楼永辉超市旁边,福建省,泉州市,丰泽区,,unknown,
baidu,8823862d0b98bfad077ce82d,310专业维修换屏(精诚店),泉州市鲤城区泉州侨乡商品街涂门小区,福建省,泉州市,鲤城区,,unknown,
baidu,f024f6d7744779e1f119370d,阿伍修车店,福建省泉州市鲤城区福中路1号5号楼,福建省,泉州市,鲤城区,"(0595)22277939,15359591939",unknown,
baidu,6c94c7a37514a3b24251c00c,泉圣汽车维修中心,福建省泉州市丰泽区灯荣路水岸人家5号楼,福建省,泉州市,丰泽区,,unknown,
baidu,d7e995e6abc556efe4073855,宝驰汽车美容中心(明鑫花苑店),东涂街118号明鑫花苑a37号,福建省,泉州市,丰泽区,"(0595)22502832,15559153232",unknown,
baidu,0ed841fc1449b9348936ee2f,司马图汽车服务联盟,成洲社区刺桐路112号领SHOWA座102室,福建省,泉州市,丰泽区,15060620907,unknown,
baidu,8d96925c79c18846c1f1cfd0,欧宝汽车美容中心,和昌商城2期东南门旁,福建省,泉州市,丰泽区,13505967979,unknown,
baidu,c1a4dacbc144b0f76f47609f,福建万里路汽车服务有限公司,福建省泉州市丰泽区宝洲街721万达中心A座20层2006号,福建省,泉州市,丰泽区,(0595)22228088,unknown,
baidu,8b9a110ce729a05e2db96da4,创合汽车维修服务,福建省泉州市晋江市池店镇桥南社区海丝景城12栋115店面,福建省,泉州市,晋江市,,unknown,
baidu,862cf60575fac7ceb45f1e32,金顺汽车租赁服务中心(津霞街),福建省泉州市丰泽区刺桐路霞淮街丰盛假日城堡4幢,福建省,泉州市,丰泽区,13959926875,unknown,
baidu,2bbe30b11851d52c354aaeb0,华洲兄妹洗车美容店,华洲小区东南门西90米,福建省,泉州市,晋江市,13105066490,unknown,
baidu,732addeadd97216d0aa8d4a7,洗洋洋汽车美容中心(温秀街),宝洲路温秀街洗洋洋汽车美容中心（晚报社附近）,福建省,泉州市,丰泽区,(0595)22245789,unknown,
baidu,04bdf4a395574556354aaefe,柒柒爱车(津淮街店),福建省泉州市丰泽区津淮街171-179号,福建省,泉州市,丰泽区,15260778877,unknown,
baidu,2532e1110e09db23c41b75d7,东枫汽车租赁,福建省泉州市丰泽区田安南路272-1号,福建省,泉州市,丰泽区,15305002299,unknown,
baidu,310d39a1aacc840a4afd3f85,酷影爱车工坊(刺桐店),福建省泉州市丰泽区刺桐西路中联华庭3号店6号楼2~4号店,福建省,泉州市,丰泽区,(0595)22195775,unknown,
baidu,0fd5cb36d2c3eb1c4bcc4ab0,正新轮胎(浦西路店),福建省泉州市丰泽区成州路186号15栋1号店,福建省,泉州市,丰泽区,,unknown,
baidu,7557e68bcc0bf65352e5c535,泉州市豪杰轿车维修有限公司,泉州市丰泽区雅园路中升雅园西侧约30米,福建省,泉州市,丰泽区,(0595)28991586,unknown,
baidu,00f1c7fb39195b1ec056ac3c,泉州市鸿联汽车服务有限公司,坪山路224号,福建省,泉州市,丰泽区,13328988829,unknown,
baidu,cbcb2520ff5ea9500a5cb3cd,安顺机车用品,泉州市鲤城区中山南路鲤城实验小学东北侧约150米,福建省,泉州市,鲤城区,13805927515,unknown,
baidu,b471759b6a5d646d30621280,新恒达汽车租赁,福建省泉州市丰泽区刺桐路65-1号阳光曼哈顿2号店,福建省,泉州市,丰泽区,13514013669,unknown,
baidu,2f24b03277fb47df7ab55c7c,泉峰租车,福建省泉州市丰泽区津霞街108号,福建省,泉州市,丰泽区,(0595)28938111,unknown,
baidu,864b2354ddefe04117948e6e,佳兴汽车修理厂,福建省泉州市鲤城区海滨街道新华南路2号,福建省,泉州市,鲤城区,(0595)22370122,unknown,
baidu,64d460e65a2f7914b4265507,众鑫汽车维修有限公司,福建省泉州市丰泽区沉洲路19号,福建省,泉州市,丰泽区,(0595)28120033,unknown,
baidu,92f3382e12b65aadd8eced68,禧庆汽车美容中心(天使店),福建省泉州市丰泽区刺桐路416-7号国际华城3号楼20~21号,福建省,泉州市,丰泽区,(0595)22268865,unknown,
baidu,05fce7f94c5c0182a1d230a7,途虎养车工场店(泉州泉秀路店),福建省泉州市丰泽区泉秀路东段捷兴大厦1楼,福建省,泉州市,丰泽区,(0595)22003955,unknown,
baidu,75c5d223e9b6b40babf72981,京东养车(池峰路店),池峰路72号农科所后面,福建省,泉州市,晋江市,(0595)22325222,unknown,
baidu,56dd4a8728e9fe5816764318,驾捷乐汽车养护(国际华城店),祥远路国际华城三号楼三号店尚雅名媛美容3号楼5-8店,福建省,泉州市,丰泽区,13805990668,unknown,
baidu,31a2349897632288343a715b,汽车钥匙,泉州市丰泽区田安北路后坂小区,福建省,泉州市,丰泽区,,unknown,
baidu,aea70de93c84d1ec6e20b9bd,泉州市淘淘汽车销售有限公司,福建省泉州市丰泽区泉秀街道灯星社区宝洲街721号万达写字楼A幢2910室,福建省,泉州市,丰泽区,,unknown,
baidu,472dea2c656281baf82213e6,火补轮胎,福建省泉州市晋江市兴霞路52号,福建省,泉州市,晋江市,13600787493,unknown,
baidu,c6556f791373f04a9de32182,张云汽车美容中心,东渠路24号D102,福建省,泉州市,鲤城区,14700071544,unknown,
baidu,090b107f55e5464041d63efb,丰泽志辉分店(第二百三十四店),福建省泉州市丰泽区东霞街127号,福建省,泉州市,丰泽区,,unknown,
baidu,6dd45d81c93ef6a4e60738b8,丰泽区顺福轿车维修中心,福建省泉州市丰泽区东海街道妙灵路30号,福建省,泉州市,丰泽区,,unknown,
baidu,eff8c2cf50d8651020f017a6,超动力代驾车技术服务中心,福建省泉州市丰泽区董埭路349号,福建省,泉州市,丰泽区,13506910400,unknown,
baidu,32156f4620df4650b05c6a99,福建省文华汽车集团,福建省泉州市鲤城区温陵北路354号1栋20楼,福建省,泉州市,鲤城区,,unknown,
baidu,3a8a224a43f0086440e19242,泉州丰诚汽配,福建省泉州市丰泽区刺桐路先锋花园8栋3号,福建省,泉州市,丰泽区,15985991734,unknown,
baidu,3325e7185d6d1ea32dfaa743,EUROREPAR CAR SERVICE,泉州市丰泽区妙云街中国石化森美(泉州丰泽东美加油站)东侧,福建省,泉州市,丰泽区,,unknown,
baidu,d41927400ad917f98605bfc9,五十八,福建省泉州市鲤城区新华北路36号金山新村北区13幢101A室,福建省,泉州市,鲤城区,17895958882,unknown,
baidu,f574092af26323131e580001,盛源汽车轮胎,福建省泉州市丰泽区丰田街和昌商城二期2a号楼,福建省,泉州市,丰泽区,13505999552,unknown,
baidu,4a6576230c6f9878b13c8100,泉州中兴汽配,泉州市鲤城区卓辉海港城22号(福升石材旁边)在老店斜对面,福建省,泉州市,鲤城区,(0595)22925697,unknown,
baidu,e205e0ab4243b6e211882424,中国石油销售中心,福建省泉州市丰泽区刺桐路82号,福建省,泉州市,丰泽区,,unknown,
baidu,4709eceed03af65afd0eb0e7,晶隆利车片,福建省泉州市鲤城区新华南路与金宝桥巷交叉口东150米,福建省,泉州市,鲤城区,,unknown,
baidu,c43214db893b54a5725e80f8,加拿大石油养护,福建省泉州市丰泽区宝洲街与G324交叉路口往南约50米(南丰新城),福建省,泉州市,丰泽区,,unknown,
baidu,605dfd2f8de205b42dfaa7a8,飞乐汽修补胎搭电拖车道路救援,福建省泉州市鲤城区临江街道幸福社区义全街华联商厦A栋317室,福建省,泉州市,鲤城区,17555224431,unknown,
baidu,17940a83045d4c174bcc4a68,徽翔汽修补胎搭电拖车道路救援,泉州市鲤城区华联工业品批发市场A310号,福建省,泉州市,鲤城区,17555220254,unknown,
baidu,aab247669f8d0bdd990050c3,志远叉车总汇,福建省泉州市鲤城区堤后路54-58号,福建省,泉州市,鲤城区,13159034708,unknown,
baidu,642c17bb6abade77d4851f40,日盛租车(总店),福建省泉州市丰泽区田安南路358号10幢,福建省,泉州市,丰泽区,"059523046666,059523347777,18065959399",unknown,
baidu,98df822c3bacedbc5cbe86f8,智创汽车蓄电池,福建省泉州市丰泽区泉秀街道宝洲街977号牡丹苑A02号店铺,福建省,泉州市,丰泽区,,unknown,
baidu,01275ebcd260bce25cd4fe72,神州租车(泉州美食街服务点),福建省泉州市鲤城区美食街中段万星影城地下停车场,福建省,泉州市,鲤城区,(0595)22515153,unknown,
baidu,82d07d92c993b426901fc991,泉州运宝宝马摩托车4S店,福建省泉州市晋江市池店镇华洲村泉安北路1378号1层,福建省,泉州市,晋江市,(0595)83227777,unknown,
baidu,b10a37be4ea26bafc72ba152,厦门瑞德利校准检测,泉州市丰泽区运通路阳光巴黎二期-EF幢,福建省,泉州市,丰泽区,,unknown,
baidu,566a35c4b68b7e684251c0de,彬彬配件行,泉州市鲤城区小商品街聚鑫公寓,福建省,泉州市,鲤城区,13735899678,unknown,
baidu,16403ca6daf243072afc48b7,杰鑫配件商行,福建省泉州市鲤城区侨乡商品街聚融大厦西北侧约50米,福建省,泉州市,鲤城区,,unknown,
baidu,3b62666c2e5cad96ca2915a8,神州租车(北滨江公园田安园自助点),泉州市丰泽区田安大桥万达公馆西侧约190米,福建省,泉州市,丰泽区,18960282900,unknown,
baidu,56580349d42b7d2bd2f49e0a,碧莲盛植发(泉州分院),福建省泉州市丰泽区温陵南路92号福华商所业中心大厦A-7-1、2A-17~19号,福建省,泉州市,丰泽区,4008089772,unknown,
baidu,c1de538c042250e0b75f1ea3,泉州市第一医院妇产分院,福建省泉州市丰泽区温陵南路87,福建省,泉州市,丰泽区,(0595)22277091,unknown,
baidu,52747d325982b474ad0457a4,荣盛口腔,福建省泉州市丰泽区泉秀路659、661号,福建省,泉州市,丰泽区,(0595)22559922,unknown,
baidu,8b6fae34176f145bf50e77ca,DONKI东大医疗美容,福建省泉州市丰泽区田安南路344-348号,福建省,泉州市,丰泽区,"(0595)22345678,(0595)27272828",unknown,
baidu,8fde79cc9c91bfbf95ca0739,泉秀街道华丰社区卫生服务站,泉州市丰泽区灯福街丰泽时代广场北侧约30米,福建省,泉州市,丰泽区,(0595)22560498,unknown,
baidu,9bc5693d7db085ce5cbe8692,丰泽街道前坂社区卫生服务站,福建省泉州市丰泽区前坂街19-21号,福建省,泉州市,丰泽区,(0595)22586881,unknown,
baidu,708333dbbfe37b992afc4861,烨景堂中医诊所,福建省泉州市丰泽区田安南路153号,福建省,泉州市,丰泽区,"15259642360,18659032778",unknown,
baidu,c86364b2aa930ae3d6b74eff,庄氏中医诊所,泉州市鲤城区天后路义全大厦西南侧约100米,福建省,泉州市,鲤城区,(0595)22209487,unknown,
baidu,cc49cf6674151530f503b8f9,丰泽区杨银艳中医诊所,福建省泉州市丰泽区前坂街烟草大楼(温陵南路)东侧约140米,福建省,泉州市,丰泽区,,unknown,
baidu,04cb8b7ce172868d2fb17e2b,泉州广肤中医皮肤病医院-门诊大楼,福建省泉州市丰泽区田安南路420号,福建省,泉州市,丰泽区,,unknown,
baidu,9ff0aca70494920bc26c14d3,灯洲社区第一卫生所,福建泉州市丰泽区灯荣路南丰新城d118号,福建省,泉州市,丰泽区,(0595)22228759,unknown,
baidu,68d4db9e277c8720e5e9658c,陈氏传统正骨,福建省泉州市丰泽区温陵南路金亚花园,福建省,泉州市,丰泽区,,unknown,
baidu,a2aedc6bc8b14fd77bf79678,张幻瑜中医内科诊所,泉州市丰泽区宝洲街南丰新城,福建省,泉州市,丰泽区,,unknown,
baidu,5af2087accdc525a9de32191,许哲辉中西医诊所,泉州市丰泽区丰迎路泉州金城酒店南侧约90米,福建省,泉州市,丰泽区,,unknown,
baidu,f1a615a6f575b9c071210b20,泽雅森医疗器械体验店(时代广场店),福建省泉州市丰泽区宝洲路660号时代广场P栋198号铺,福建省,泉州市,丰泽区,15805060950,unknown,
baidu,45d1237f4a953421157643e9,丰泽泉康中医门诊部,福建省泉州市丰泽区津淮街263号,福建省,泉州市,丰泽区,,unknown,
baidu,bec3bdc016dede10afee7a05,李天赐中医骨伤科诊所,泉州市鲤城区迎津街泉州市公路局,福建省,泉州市,鲤城区,,unknown,
baidu,2460743dc7dc47419fec2b64,丰泽街道迎津社区卫生服务站,福建省泉州市丰泽区迎津街213~215号,福建省,泉州市,丰泽区,,unknown,
baidu,1c3654f98580189ec3364455,丰泽郭海燕中西医结合诊所,福建省泉州市丰泽区迎津街52号,福建省,泉州市,丰泽区,,unknown,
baidu,ebc1e0e89133a775e8e58278,鲤城区临江街道社区卫生服务中心,福建省泉州市鲤城区中山南路177-179号,福建省,泉州市,鲤城区,(0595)22372936,unknown,
baidu,80666ca1af0b61e6b9df8f91,泉州丰泽海盛医疗器械有限公司(泉秀分店),福建省泉州市丰泽区泉秀路676号宝成大厦1楼,福建省,泉州市,丰泽区,,unknown,
baidu,83aec4832ba3d0c711882490,鲤城区临江街道跃进社区卫生服务站,福建省泉州市鲤城区斗门头75-3号聚融苑A102-103店面,福建省,泉州市,鲤城区,"(0595)22261787,15159519976",unknown,
baidu,fcf17aa6ee7e733490114c74,益贴皮肤科,泉州市鲤城区聚宝街鲤城临江中心幼儿园南侧约70米,福建省,泉州市,鲤城区,,unknown,
baidu,b9cbf8f0217476876f4760e0,原黄冬梅诊所,泉州市丰泽区前坂街前坂新村-西区,福建省,泉州市,丰泽区,,unknown,
baidu,e93761f65fa2c915233bf2a4,泉州东南医院,泉州市丰泽区宝洲路765号,福建省,泉州市,丰泽区,"(0595)22582477,(0595)28986699",unknown,
baidu,b37e8d55bae55a136268587a,众福健康,泉州市丰泽区宝洲街丰泽时代广场,福建省,泉州市,丰泽区,,unknown,
baidu,1b73c53e0ee4255f7ec87663,叶晓志诊所,福建省泉州市鲤城区涂门街439-441号,福建省,泉州市,鲤城区,(0595)22250088,unknown,
baidu,2b905705654bce086949f37c,崇德中医诊所,泉州市丰泽区灯荣路南丰新城,福建省,泉州市,丰泽区,18960336128,unknown,
baidu,078e0c4c86ad8a5d58109312,丰泽区泉秀街道社区卫生服务中心,福建省泉州市丰泽区灯荣路29号,福建省,泉州市,丰泽区,(0595)28220052,unknown,
baidu,1bdf0a506390b0b31576435f,方伟诊所,泉州市丰泽区津淮街泉州泊捷时尚酒店(大洋百货店)东北侧约50米,福建省,泉州市,丰泽区,,unknown,
baidu,44575c36fbef1f5d4e5547a2,黄澄清诊所,泉州市鲤城区万寿路鲤城临江中心幼儿园西侧约50米,福建省,泉州市,鲤城区,,unknown,
baidu,691eb084c304f0a6f60e774e,仁福骨外科医院,云程路9号,福建省,泉州市,丰泽区,(0595)22109133,unknown,
baidu,01c77fa40b2ff8f8b4265570,彭氏西医诊所,福建省泉州市丰泽区迎津街218号,福建省,泉州市,丰泽区,(0595)22260089,unknown,
baidu,0487ee909fea938dbadf8f8a,茉莉春妇科,泉州市丰泽区迎津街泉州市电业局大厦,福建省,泉州市,丰泽区,,unknown,
baidu,6113ef773ec0e6178e7727d3,泉州市丰泽区丰泽街道社区卫生服务中心,福建省泉州市丰泽区霞淮街1号,福建省,泉州市,丰泽区,(0595)22571852,unknown,
baidu,15ed53cee004054d9322e0a4,泉州鲤城区妇幼保健院,福建省泉州市鲤城区九一街龙宫巷15号,福建省,泉州市,鲤城区,(0595)22985240,unknown,
baidu,c879fa0184632253c809f0a4,泉州市正骨医院,福建省泉州市丰泽区刺桐西路南段61号,福建省,泉州市,丰泽区,"(0595)22576423,(0595)22576470",unknown,
baidu,e09e1773d47d89a9c6effb33,自然之声助听器(泉州丰泽店),福建省泉州市丰泽区泉秀街道温陵南路7号,福建省,泉州市,丰泽区,18159316559,unknown,
baidu,4cbf912289cf55658f55ece7,福建省泉州市老年医院,福建省泉州市丰泽区田淮街51号,福建省,泉州市,丰泽区,(0595)28282309,unknown,
baidu,d5381f220f788416d82f2833,国大药房(新城大厦店),福建省泉州市丰泽区义全街1号,福建省,泉州市,丰泽区,(0595)22208976,unknown,
baidu,231169137b77e2e4724b87a4,泉州市妇幼保健院儿童医院,泉州市丰泽区丰泽街700号,福建省,泉州市,丰泽区,(0595)22130158,unknown,
baidu,3ebc2a8d37d12a1d9d82ea60,张氏内科门诊,福建省泉州市丰泽区迎津街富贵人家小区,福建省,泉州市,丰泽区,,unknown,
baidu,5eae6c6ca454fd0e2cb96d65,倪氏牙科诊所,福建省泉州市鲤城区义全街229号南区1幢705室,福建省,泉州市,鲤城区,(0595)22209980,unknown,
baidu,90368ad90a7266fbb6f42fd1,康佰家大药房(鲤城温陵2店),福建省泉州市丰泽区温陵南路92号大洋百货(泉州店)F2,福建省,泉州市,丰泽区,13959916245,unknown,
baidu,a88d6ccefbcc9168d5b74ee4,丰泽廖庆华中西医结合诊所,泉州市丰泽区福田路丰盛假日城堡,福建省,泉州市,丰泽区,,unknown,
baidu,7deed821f5e8b0b2d2f49e27,隐形牙齿矫正,福建省泉州市丰泽区田安南路外代大厦,福建省,泉州市,丰泽区,,unknown,
baidu,e159777077ee6d46a7c75627,万好医疗器械有限责任公司,福建省泉州市丰泽区田安南路536号外代大厦6楼,福建省,泉州市,丰泽区,,unknown,
baidu,3988eb7a08e756164354d7f2,中西医诊所,泉州市鲤城区中山南路鲤城实验小学东侧约130米,福建省,泉州市,鲤城区,,unknown,
baidu,eed75f8fccc679324e3a5973,泉州市眼科医院,福建省泉州市丰泽区丰泽街700号儿童医院内泉州眼科医院,福建省,泉州市,丰泽区,(0595)28100666,unknown,
baidu,46e86fdd8da96976d03ce3a4,泉州医学高等专科学校附属人民医院,福建省泉州市丰泽区丰泽街95号,福建省,泉州市,丰泽区,(0595)22283490,unknown,
baidu,9c9693349dc1af445b10937f,泉州市丽可医疗器械有限公司,津淮街581号金鑫商厦,福建省,泉州市,丰泽区,,unknown,
baidu,7fa54700ec14ac9509a8d430,宁心健康管理中心,丰盛假日城堡9幢D012,福建省,泉州市,丰泽区,,unknown,
baidu,7c5e480b2d1f08b7adb22ad3,海滨街道社区卫生服务中心,福建省泉州市鲤城区新华南路4号,福建省,泉州市,鲤城区,,unknown,
baidu,542c1c2d0964659d31f71d12,健康100大药房(宝洲新城分店),丰泽区泉秀街道南丰新城牡丹苑A23号,福建省,泉州市,丰泽区,"(0595)22322585,17758799585",unknown,
baidu,adbd41ec0266624a4557261a,庄川定中医诊所,福建省泉州市鲤城区温陵北路205号,福建省,泉州市,鲤城区,,unknown,
baidu,983e2ffa9405d7125fbe8640,泉州市第一医院,泉州市鲤城区东街248~252号,福建省,泉州市,鲤城区,(0595)22277650,unknown,
baidu,8cfdb808a64e510b4e776e5a,泉州市中心血站,泉州市丰泽区祥远路154号,福建省,泉州市,丰泽区,(0595)22150126,unknown,
baidu,b292b3aa77fbb056be48423e,顺和医药连锁(聚宝店),福建省泉州市鲤城区聚宝街128号,福建省,泉州市,鲤城区,13004890355,unknown,
baidu,4783dd8c53e2a79c1811d550,康佰家大药房(津坂店),福建省泉州市丰泽区津坂路182号,福建省,泉州市,丰泽区,13959918322,unknown,
baidu,646636a20a9cc76baecb66a3,丽华牙科诊所,福建省泉州市鲤城区天后路11号,福建省,泉州市,鲤城区,(0595)22961118,unknown,
baidu,9d07301af9ddebc108f5ebcf,含德医药(津淮店),福建省泉州市丰泽区津坂路109号,福建省,泉州市,丰泽区,(0595)28788120,unknown,
baidu,23bc21e9caffa6abca09f089,康佰家医药(温陵店),福建省泉州市丰泽区津坂路180号,福建省,泉州市,丰泽区,(0595)68502006,unknown,
baidu,082e01db7f893f94d02dd670,天健医械,福建省泉州市丰泽区温陵南路1913号,福建省,泉州市,丰泽区,"(0595)22273369,18960282988",unknown,
baidu,3f826ed375f60845d1f49ed6,顺和医药连锁(温陵店),福建省泉州市丰泽区丰泽街道温陵南路180-182号,福建省,泉州市,丰泽区,13004890355,unknown,
baidu,e6ee2fd2cd75c7362b11d1fd,东南医药(前坂分店),福建省泉州市丰泽区津霞街330号,福建省,泉州市,丰泽区,(0595)86737571,unknown,
baidu,e69e884afacded06e812e4df,国大药房(田安分店),福建省泉州市丰泽区田安南路651~653号,福建省,泉州市,丰泽区,(0595)22557356,unknown,
baidu,298ab3c19e6c3492cf06a471,康佰家大药房(田安店),福建省泉州市丰泽区田安南路550号,福建省,泉州市,丰泽区,18060488943,unknown,
baidu,f7518465d79f1acc0bccddb9,民心医药连锁(万祥分店),福建省泉州市丰泽区田安南路606号,福建省,泉州市,丰泽区,(0595)28862927,unknown,
baidu,60360e99704a4b662efaa710,东南医药连锁(田安南路分店),福建省泉州市丰泽区田安南路迎津街151719号,福建省,泉州市,丰泽区,(0595)68577156,unknown,
baidu,1133988bafa5bf680c0a7097,民心医药连锁(东涂社区分店),福建省泉州市丰泽区津淮街318号,福建省,泉州市,丰泽区,(0595)68296015,unknown,
baidu,b32973cffc3c04acbe484294,丰泽爱茹内科诊所-发热门诊,泉州市泉秀路451号,福建省,泉州市,丰泽区,,unknown,
baidu,d6223396c0909c8a22026250,大德康元(泉州田安店),福建省泉州市丰泽区田安南路602-604号,福建省,泉州市,丰泽区,(0595)22109222,unknown,
baidu,22a41424ab2d7b95ae045708,灵芝专营店,福建省泉州市丰泽区丁荣路210号,福建省,泉州市,丰泽区,"(0595)22512168,13599242838",unknown,
baidu,58d755cc9731f309e912e48f,美国康麦斯(泉州迎津店),福建泉州市丰泽区丰迎路52号,福建省,泉州市,丰泽区,(0595)22565891,unknown,
baidu,e66c05b541505c6fb54f54a7,贝和成美芽健康信息咨询中心(外代大厦店),福建省泉州市丰泽区田安南路538,福建省,泉州市,丰泽区,,unknown,
baidu,ec33caec718b5673631c67e3,明韩医疗美容(泉州大洋百货店),福建省泉州市丰泽区温陵南路165号,福建省,泉州市,丰泽区,,unknown,
baidu,de81672636ff36e92a201afb,鲤生医疗美容(泉州大洋百货店),福建泉州市丰泽区温岭南路165号,福建省,泉州市,丰泽区,,unknown,
baidu,0bf9f898ace59c310f0a70a9,振伟口腔,泉州市丰泽区G324(旧)汇金广场,福建省,泉州市,丰泽区,(0595)22509861,unknown,
baidu,a15a76beb2187da938e4a68f,傅苍山口腔,泉州市丰泽区津霞街静远阁,福建省,泉州市,丰泽区,,unknown,
baidu,31f203263af8a8d69d95dea1,杨群口腔(后坂店),福建省泉州市丰泽区津坂路157~161号,福建省,泉州市,丰泽区,"(0595)28207879,18905955879",unknown,
baidu,7b9ca54e5f9fa96188b9884b,安钢口腔门诊,福建省泉州市鲤城区迎津街13号,福建省,泉州市,鲤城区,"(0595)22165818,13328887758",unknown,
baidu,4563a0be1009087d17c8f63b,优尔特口腔(津淮街店),福建省泉州市丰泽区津淮街344-346号,福建省,泉州市,丰泽区,(0595)22101027,unknown,
baidu,3c577cb2b4c1d879100daa78,晶品口腔门诊部,义全街鲤城公安分局对面2层45-51号,福建省,泉州市,鲤城区,,unknown,
baidu,4eace81337ea2d6588db73da,馨百禾,泉州市丰泽区迎津街富贵人家小区,福建省,泉州市,丰泽区,18959929977,unknown,
baidu,886e8c3229a270ffcb213d4e,丰泽殷晓丹口腔诊所,福建省泉州市丰泽区泉秀路574号4号店,福建省,泉州市,丰泽区,13599227189,unknown,
baidu,02a2be680e9cb60fbea240e9,泉州广肤痘坑·色斑·疤痕专科(丰泽店),福建省泉州市丰泽区田安南路418号,福建省,泉州市,丰泽区,18559520353,unknown,
baidu,476e0855324bc26b2fb9087e,泉州市闽正口腔诊所,福建省泉州市丰泽区津淮街607-1号,福建省,泉州市,丰泽区,,unknown,
baidu,9c7d92842c75f5f146e274a2,落基山参茸行(六灌路总店),城监宿舍东北门旁,福建省,泉州市,丰泽区,13799899540,unknown,
baidu,4ae86a2c04cf735d90114c30,泉微家园,福建省泉州市丰泽区宝洲路885,福建省,泉州市,丰泽区,15905094923,unknown,
baidu,7b25f5232aac714c2cb9082d,阿柱哥全球海参文化馆,福建省泉州市丰泽区田安南路129、131号,福建省,泉州市,丰泽区,,unknown,
baidu,18b1d141eb59862ebca822e7,高新教育,泉州市温陵路远太大厦5楼3号,福建省,泉州市,丰泽区,18959788535,unknown,
baidu,3b0331e8ab4cf8ddf13cba92,中公教育(泉州分校),福建省泉州市丰泽区温陵南路169号速8酒店5楼(泉州海关斜对面),福建省,泉州市,丰泽区,"(0595)22833986,(0595)22833987",unknown,
baidu,ec57420a5c58be4b110daa1f,乔贝艺术培训中心,福建省泉州市鲤城区涂门街395号,福建省,泉州市,鲤城区,13599231690,unknown,
baidu,ed3bba4211ead1c7f02d8324,泉州市海都人力资源培训中心(泉州校区),福建省泉州市丰泽区灯福街61号劳动和社会保障局办公大楼二楼,福建省,泉州市,丰泽区,18965778955,unknown,
baidu,59860261062c306010293568,新东方(大洋百货泉州店),福建省泉州市丰泽区温陵南路92号大洋百货(福华商业中心大厦)四楼,福建省,泉州市,丰泽区,(0595)68319508,unknown,
baidu,cf301a766d6f1933d42ce222,盛宴网球俱乐部城市馆,华丰社区温陵南路44-2号,福建省,泉州市,丰泽区,18359717741,unknown,
baidu,0562f146a9f7d7710aa8d4be,多特儿童专注力(大洋百货泉州店),福建省泉州市丰泽区温陵南路92号大洋百货F3,福建省,泉州市,丰泽区,15859476095,unknown,
baidu,dee6ccfd9e3b6465593ac887,凤之舞(丰泽校区),福建省泉州市丰泽区温陵南路92号大洋百货F3,福建省,泉州市,丰泽区,"(0595)22010858,17359978302",unknown,
baidu,966606e1a44444d0be4842c9,蔡永辉美术培训学校,福建泉州市丰泽区前坂新村东区商贸楼026前坂22楼对面,福建省,泉州市,丰泽区,15905996082,unknown,
baidu,881beb6b06a28e0f0b69d9c7,泉州市丰泽区林则徐禁毒教育基地,福建省泉州市丰泽区泉秀路732号,福建省,泉州市,丰泽区,13860716171,unknown,
baidu,4e99f1eb947c4c07afcb66b0,鸿一书法,福建省泉州市丰泽区灯荣路与G324交叉路口往南约50米(南丰新城),福建省,泉州市,丰泽区,15980022691,unknown,
baidu,947f487a33eb688396ca07e8,莱德音乐(灯荣路),泉州市丰泽区灯荣路南丰新城,福建省,泉州市,丰泽区,,unknown,
baidu,a189a1e22f473413d12dd665,MQ DANCE流行舞街舞工作室(泉秀店),福建省泉州市丰泽区福田路1号丰盛大厦9楼,福建省,泉州市,丰泽区,19005951968,unknown,
baidu,9a15e78c9a9a0e482bd7ab70,龙学邦教育·初高中补习(龙文教育田安校区),福建省泉州市丰泽区泉秀街658号,福建省,泉州市,丰泽区,13655973710,unknown,
baidu,a724e86523801cf67702693f,泉州达安驾校,福建省泉州市丰泽区霞淮街232号,福建省,泉州市,丰泽区,15959873838,unknown,
baidu,e71ca60e748148414afc8d55,精舞门街舞(鲤城店),福建省泉州市鲤城区涂门街350号鲤城大厦2楼,福建省,泉州市,鲤城区,(0595)22009695,unknown,
baidu,cf8af7542240d6b00ab93a1a,海峡棋院(田安校区),福建省泉州市丰泽区津霞街246号广益花园a1栋3楼,福建省,泉州市,丰泽区,"(0595)22583460,15880869617",unknown,
baidu,0091e6eed72fa2f095ca0722,莱德音乐(田安路店),福建省泉州市丰泽区田安南路592号祥泰商城2楼,福建省,泉州市,丰泽区,13960240163,unknown,
baidu,aad719920d57cd90fda778cc,王耀教育,福建省泉州市丰泽区田安南路671号千亿大厦2层,福建省,泉州市,丰泽区,,unknown,
baidu,c15191f2269820af4f5547a7,善学堂(崇德实验小学店),福建省泉州市丰泽区宝洲街117号,福建省,泉州市,丰泽区,18060006133,unknown,
baidu,aa5ba91249a5df6796ca0701,音鸽艺术中心,福建省泉州市丰泽区丁荣路176号崇德华庭底商,福建省,泉州市,丰泽区,13805925062,unknown,
baidu,03252223bfe0462646572604,昂乐教育(卓越分校),福建省泉州市丰泽区福田路32号青少年教育基地3楼,福建省,泉州市,丰泽区,"13850728673,15396567090",unknown,
baidu,07828a7b32cd94d197031906,六艺学堂(后坂公寓西北),福建省泉州市鲤城区美食街183号,福建省,泉州市,鲤城区,13960244933,unknown,
baidu,c0be596a3e24c0384bcc4a3a,研途自习室,千亿大厦9楼G室(进大门右拐上电梯),福建省,泉州市,丰泽区,,unknown,
baidu,c00869b8d7205febc356ac7e,肆方艺术,福建省泉州市鲤城区涂门街421号（东鲁社区附近）,福建省,泉州市,鲤城区,17305078039,unknown,
baidu,17f82743fe144f44715e80cc,大地国际英语学堂,泉州市丰泽区宝洲街南丰新城,福建省,泉州市,丰泽区,,unknown,
baidu,58d70ee9828aef04705e8054,一本堂艺术培训,福建省泉州市丰泽区后坂街76号,福建省,泉州市,丰泽区,15059777395,unknown,
baidu,e6ee2fd27b0211482b11d13b,传春幼儿园,福建省泉州市鲤城区斗门头71号,福建省,泉州市,鲤城区,(0595)22203206,unknown,
baidu,c6e98f611b3f925f0d3dda96,一片瓦,泉州市鲤城区聚宝街聚宝新城北侧约110米,福建省,泉州市,鲤城区,18965733991,unknown,
baidu,cb6cc09b5beb810481288a0c,UFO舞蹈艺术空间,福建泉州市丰泽区津淮街188号（金帝文化广场沿街商铺）,福建省,泉州市,丰泽区,(0595)22221011,unknown,
baidu,29256fcaff3b2201b34c49fd,怀墨书室美术书法,福建省泉州市丰泽区泉秀路丰盛假日城堡13栋,福建省,泉州市,丰泽区,18160980306,unknown,
baidu,2cd665827e4316d9f32d8394,泉州市丰泽区维庭艺术培训中心,福建省泉州市丰泽区南淮路96号3楼,福建省,泉州市,丰泽区,22565066,unknown,
baidu,a3aae2277268b62e1ce999b7,鲤城区图书馆,福建省泉州市鲤城区义全街51号向阳花苑1号楼,福建省,泉州市,丰泽区,(0595)22176033,unknown,
baidu,0a15c7ec4f8260fced74f83b,福建省泉州市第七中学,福建省泉州市鲤城区天后路40号,福建省,泉州市,鲤城区,(0595)22204308,unknown,
baidu,adaf28ea7d46db67704b871e,悦峰艺术学校,泉州市丰泽区迎津街泉州商业大厦,福建省,泉州市,丰泽区,,unknown,
baidu,8e3bcfa13368835ed92f286c,丰盛乒乓球训练营,泉州市丰泽区丰盛假日城堡11幢D009室,福建省,泉州市,丰泽区,,unknown,
baidu,23116913f28a6bfd734b873b,泉州现代中学,泉州市丰泽区田安南路371号,福建省,泉州市,丰泽区,(0595)22576170,unknown,
baidu,81cad6ee3835d008a5da3959,日萱教育,泉州市丰泽区灯荣路南丰新城,福建省,泉州市,丰泽区,15905993063,unknown,
baidu,ce7dccb14ed3a26b0e3ddaca,六艺美术,福建省泉州市鲤城区美食街183号,福建省,泉州市,鲤城区,13960244933,unknown,
baidu,be45e5b2dc56ea23ca1b9581,睿桥英语,福建省泉州市丰泽区田安南路632号源和大厦2楼,福建省,泉州市,丰泽区,(0595)22889767,unknown,
baidu,5508504d0c5219cac6f025a2,市财贸幼儿园,福建省泉州市丰泽区泉秀路696号,福建省,泉州市,丰泽区,(0595)22582214,unknown,
baidu,455fc69fa45c42d858f6be79,云上自习室,泉秀路尊邸大厦1404号(星光不夜城对面),福建省,泉州市,丰泽区,13178217785,unknown,
baidu,d6702b817beee13cebe582eb,小珊瑚美术,福建省泉州市丰泽区丰盛假日城堡11幢D014-D015号,福建省,泉州市,丰泽区,13960228300,unknown,
baidu,75f2c7a8bdba50e328b97c3b,华诚美术工艺,灵慈街141号,福建省,泉州市,鲤城区,15559596677,unknown,
baidu,623c141902e36a210e3ddab5,南和创艺美术,福建省泉州市丰泽区灯荣路南丰新城芙蓉苑d123号,福建省,泉州市,丰泽区,15159515057,unknown,
baidu,1e73f24ee4842df1e215f91e,183艺术中心,福建省泉州市鲤城区美食街181号,福建省,泉州市,鲤城区,15392227799,unknown,
baidu,0c0b6fd49b1d0479b9df8fad,加加教育,福建省泉州市鲤城区兴才路39号,福建省,泉州市,鲤城区,,unknown,
baidu,4d3b5ffd5298e63701ff2d35,智慧星学堂,福建省泉州市丰泽区田安路丰盛假日城堡5号楼2层,福建省,泉州市,丰泽区,13645932277,unknown,
baidu,dea0e66429302ebffa0cad83,大众股民学校,福建省泉州市丰泽区涂门街骏达小区东侧约40米,福建省,泉州市,丰泽区,,unknown,
baidu,7baea739647a5869ad0457ce,南丰大地幼儿园,福建省泉州市丰泽区宝洲路981号南丰新城海棠苑1层,福建省,泉州市,丰泽区,"(0595)22567302,13305083377",unknown,
baidu,4c016904be9a2b4a8bb9882c,新灵艺术,泉州市鲤城区宣武巷龙光楼,福建省,泉州市,鲤城区,15059803070,unknown,
baidu,d899d70ae7fa6db67069d38a,育林少儿成长中心,福建省泉州市丰泽区浦西路132号,福建省,泉州市,丰泽区,"18860139623,19942813375",unknown,
baidu,430c382cb1b1fa58c7f0256a,丰泽区崇德实验小学,福建省泉州市丰泽区灯荣路301号,福建省,泉州市,丰泽区,,unknown,
baidu,4fc3161aff7bc0a93a13fd3b,泉州第九中学,津淮街102,福建省,泉州市,丰泽区,"(0595)22189160,(0595)22589160",unknown,
baidu,22e11407c03cbeb7d5b74ecf,泉州市丰泽区丰盛实验小学,福建省泉州市丰泽区福田路16号(丰盛假日城堡旁),福建省,泉州市,丰泽区,,unknown,
baidu,d0eab47ac8b210aeb9df8faf,鲤城实验小学,福建省泉州市鲤城区兴才路2号,福建省,泉州市,鲤城区,"(0595)22370288,(0595)22371237",unknown,
baidu,3d13151ec01fec3c8ab98897,泉州七中(金山校区),福建省泉州市鲤城区新华南路金山南区,福建省,泉州市,鲤城区,(0595)24669772,unknown,
baidu,2ad32cc318413c8f9d95de3b,丰泽区泉秀实验小学,福建省泉州市丰泽区泉秀街道浦西路18号,福建省,泉州市,丰泽区,(0595)22582297,unknown,
baidu,251374c9ee52303fa11de93b,泉州市丰泽区实验小学,福建省泉州市丰泽区东涂街100号,福建省,泉州市,丰泽区,(0595)22534699,unknown,
baidu,637df60acd44997240afe63b,立成小学,福建省泉州市鲤城区宣武巷55号,福建省,泉州市,鲤城区,(0595)22280703,unknown,
baidu,33fbfa83874ba9c10bf5eb3b,泉州市第二中心小学,福建省泉州市鲤城区海滨街道涂门街东观西台2号,福建省,泉州市,鲤城区,(0595)22176860,unknown,
baidu,2fd2beab1f5d1c527adbd23b,鲤城新星双语幼儿园,福建省泉州市鲤城区美食街120号,福建省,泉州市,鲤城区,"(0595)22289151,(0595)22289152",unknown,
baidu,2c9ae75e752c006ff7eafc91,霞淮幼儿园,泉州市丰泽区霞淮街286号,福建省,泉州市,丰泽区,(0595)28100099,unknown,
baidu,2cea2d5eebe408211811d534,福建省泉州第五中学(桂坛南校区),福建省泉州市鲤城区桂坛巷49号,福建省,泉州市,鲤城区,(0595)22274446,unknown,
baidu,1599d0e8248c72147ec876a6,泉州市第二实验小学,福建省泉州市丰泽区田安北路155号丰泽新村中心,福建省,泉州市,丰泽区,(0595)22196525,unknown,
baidu,39f6349100c97d2e2fe67bba,泉州丰泽区迎津幼儿园,福建省泉州市丰泽区津淮街623号迎津社区文化活动中心一楼,福建省,泉州市,丰泽区,,unknown,
baidu,8787a858dd41d1edf4b9165d,泉州鲤城建筑设计院,福建省泉州市丰泽区温陵南路313号,福建省,泉州市,丰泽区,,unknown,
baidu,6fddd7fdf87ae67f3517dc3b,泉州晋光小学,福建省泉州市鲤城区南俊路32号（近承天寺）,福建省,泉州市,鲤城区,(0595)22251158,unknown,
baidu,e8424a58af3bfa02a21de979,丰泽区文化示范点,泉州市丰泽区宝洲街899号,福建省,泉州市,丰泽区,,unknown,
baidu,8eb48fa1bc6adca6f32d833b,泉州师范学院附属中学,福建省泉州市丰泽区铭湖路176号,福建省,泉州市,丰泽区,(0595)22101773,unknown,
baidu,34f68ab03d5b5c0a8f55ec01,泉州职业技术大学(泉州校区),福建省泉州市丰泽区坪山路南段255号（东霞路与坪山路交叉口西140米）,福建省,泉州市,丰泽区,(0595)22500777,unknown,
baidu,bf4748a95eb352493062129e,丰泽区第三实验小学,福建省泉州市丰泽区津淮街36-9号,福建省,泉州市,丰泽区,,unknown,
baidu,65c94e32214da418b9df8f78,福建省泉州第五中学(桥南校区),福建省泉州市晋江市兴霞路与大华路交叉口东南150米,福建省,泉州市,晋江市,(0595)88067218,unknown,
baidu,48180a80b2019d34fa42b274,大红鹰幼儿园(江滨北路),福建省泉州市鲤城区金洲街9号,福建省,泉州市,鲤城区,(0595)28586899,unknown,
baidu,8f0034f3e71dc86ebfa8222b,深圳市市政设计院,福建省泉州市丰泽区泉秀路660号宝成大厦4栋11楼,福建省,泉州市,丰泽区,,unknown,
baidu,61f634f6691915786b49f33b,泉州湖心小学,福建省泉州市丰泽区铭湖路150号,福建省,泉州市,丰泽区,,unknown,
baidu,2de43b784128e3ffd718b7cb,泉州云谷小学,福建省泉州市丰泽区石埠路1号（东祥街与东云路交叉路口往南约140米）,福建省,泉州市,丰泽区,(0595)22103350,unknown,
baidu,005861084768cddb46e27466,泉州市第三实验小学,福建省泉州市鲤城区新华北路51号,福建省,泉州市,鲤城区,,unknown,
baidu,648d63d210342678d12dd665,泉州市中国人民解放军长江支队历史研究会,福建省泉州市丰泽区田安南路514号,福建省,泉州市,丰泽区,,unknown,
baidu,d0d0ce4cf1787bb7f7e73b8b,厦门市今点通研发中心,福建省泉州市丰泽区泉秀路477号泉州茶叶大厦F7,福建省,泉州市,丰泽区,,unknown,
baidu,ef3233f5d835d68826d2bb5a,泉州路发交通规划设计研究院,涂门街451号,福建省,泉州市,鲤城区,,unknown,
baidu,b1625a394af51bd888b98862,范潮电商园,福建省泉州市丰泽区秀惠街1号,福建省,泉州市,丰泽区,15060080653,unknown,
baidu,7133218557dc3f33ca09f0dd,泉州市行车人汽车服务有限公司,泉州市丰泽区浦西路大淮新村,福建省,泉州市,丰泽区,"15305003588,4006616617",unknown,
baidu,c088e4356ab9324f9de32154,泉州大唐丰盛幼儿园,福建省泉州市丰泽区田安南路丰盛假日城堡10栋,福建省,泉州市,丰泽区,(0595)28019799,unknown,
baidu,b08dece5b77fcfb6223bf200,鲤城临江中心幼儿园,福建省泉州市鲤城区聚宝街172号,福建省,泉州市,鲤城区,(0595)22202382,unknown,
baidu,6eac75d0d96ec04d49fd3f7b,柏利女鞋童鞋研究所,泉州市鲤城区迎津街涂门后街妙著楼南侧,福建省,泉州市,鲤城区,,unknown,
baidu,01336057947b2ac30b69d947,泉州早教Hi宝贝婴幼学苑,福建省泉州市丰泽区田安路千亿大厦671号大厅楼梯3楼,福建省,泉州市,丰泽区,15392169666,unknown,
baidu,6dfcdaa1d44c2cb30c0a70b8,怡景大厦-地下停车场,泉州市丰泽区泉秀街怡景大厦,福建省,泉州市,丰泽区,,unknown,
baidu,d41fbfa0bb83b641d518b745,温陵路公交首末站,28路;33路;42路;60路;602路;K207路;K307路;K503路;K601路;K702路长线;K702路短线;K8路;花博园定制1号接驳线,福建省,泉州市,丰泽区,,unknown,
baidu,984407b2ed4819be306212ef,金亚花园北侧-停车场,泉州市丰泽区G324(旧)泉州新车站,福建省,泉州市,丰泽区,,unknown,
baidu,3667ad83e994601ded74f8a3,泉秀街大桶水-停车场,福建省泉州市丰泽区丰泽街道泉秀路769号福华商业中心大洋百货B1,福建省,泉州市,丰泽区,,unknown,
baidu,b60209e5f4efcf0cbca82267,泉秀街西段(原泉州汽车站北门),4路;15路;17路;19路;21路;27路;49路;60路;601路;K201路;K601路;K702路长线;K702路短线;K7路;K8路;旅游2路,福建省,泉州市,丰泽区,,unknown,
baidu,e41fbaa052da624261685856,温陵路南段(原泉州汽车站西门),6路;17路;23路;24路;35路;602路;K201路;K202路;K203路;K207路;K306路;K501路;K601路;K602路;K603路;K612路;K702路长线;K702路短线;K7路,福建省,泉州市,丰泽区,,unknown,
baidu,4cf66806d24535bd725e8045,大洋百货(泉州店)-地下停车场,福建省泉州市丰泽区温陵南路92号大洋百货B1,福建省,泉州市,丰泽区,,unknown,
baidu,fd304cca55dd6862ca09f0ce,东方大酒店(悦来客栈店)-停车场,福建省泉州市丰泽区泉秀路613号,福建省,泉州市,丰泽区,,unknown,
baidu,8c1168065f6257fbdbecedd4,幸福街口,27路;K601路;K602路;K608路;旅游2路,福建省,泉州市,鲤城区,,unknown,
baidu,bca32cb0fac971d3c7f50d4d,宝洲街西段,6路;17路;20路;22路;24路;602路;K207路;K301路;K308路;K501路;K601路;K604路;K701路;K702路长线;K702路短线;K902路,福建省,泉州市,丰泽区,,unknown,
baidu,7ffe87c691c1b6c731870a41,海关大楼,4路;6路;15路;19路;21路;23路;24路;28路;33路;35路;49路;60路;601路;K202路;K203路;K306路;K501路;K608路;K8路,福建省,泉州市,丰泽区,,unknown,
baidu,5e0d0c307547ad3e2fe67b90,小桔充电充电站(泉州海丝创业园二期充电站),福建省泉州市丰泽区泉秀街道灯福街859号华丰社区,福建省,泉州市,丰泽区,4000610999,unknown,
baidu,bb2df44e9951dc21f8dc8588,中化石油加油站(丰泽区田安路南段站),福建省泉州市丰泽区泉秀街道田安路南段99号,福建省,泉州市,丰泽区,,unknown,
baidu,7015c362f717de84f4e73bfa,阳光康乐-停车场,福建省泉州市丰泽区泉秀路619号,福建省,泉州市,丰泽区,,unknown,
baidu,79f79f83c336f542343a711b,远太大厦-停车场,福建省泉州市丰泽区义全街262号22层,福建省,泉州市,丰泽区,(0595)22756669,unknown,
baidu,b8378c047e248af342d63ec1,小桔充电充电站(泉州海丝创业园充电站),泉州市丰泽区海丝创业园,福建省,泉州市,丰泽区,4000610999,unknown,
baidu,bebc181fc2d69751d5851f12,大洋百货(泉州店)-地上停车场,泉州市丰泽区泉秀街,福建省,泉州市,丰泽区,,unknown,
baidu,8280baa7e6539d17a2d230b1,维也纳酒店(泉州浦西万达泉秀路店)-停车场,福建省泉州市丰泽区泉秀街768号,福建省,泉州市,丰泽区,,unknown,
baidu,ace0423164be60f6067ce8ac,丰泽时代广场(西一门店)-地上停车场,泉州市丰泽区灯福街129号,福建省,泉州市,丰泽区,,unknown,
baidu,99c713a3a69b1533a3acc460,通淮关岳庙-地上停车场,福建省泉州市鲤城区涂门街186~198号,福建省,泉州市,鲤城区,,unknown,
baidu,741874eaf00cf34f5d0d025c,泉州海丝酒店有限公司东侧-停车场,泉州市丰泽区灯福街泉二搬公寓西侧,福建省,泉州市,丰泽区,,unknown,
baidu,b774dced1a4c9f2237b06cb6,特来电充电站(泉州汇金广场站),福建省泉州市丰泽区泉秀街道温陵南路3-3号汇金广场地下停车场,福建省,泉州市,丰泽区,4001300001,unknown,
baidu,ef29ea5eb64049bdf503b8d8,宝德大厦-地上停车场,泉州市丰泽区津坂路宝德大厦,福建省,泉州市,丰泽区,,unknown,
baidu,b84da1a6b64602c4ca1b955d,泉州市第一医院妇产分院-停车场,福建省泉州市丰泽区温陵南路87,福建省,泉州市,丰泽区,,unknown,
baidu,5b862bcb898c6217f7b91618,信和站,17路;19路;27路;40路;602路,福建省,泉州市,丰泽区,,unknown,
baidu,dcad7c2a42d01d4a5e0d02c2,向阳花苑-停车场,福建省泉州市丰泽区义全街51号,福建省,泉州市,丰泽区,,unknown,
baidu,3f80dc8e42f8afa3b75f1e6a,浦西路口,4路;21路;40路;42路;601路;K201路;K307路;K503路;K702路长线;K702路短线;K7路;旅游2路,福建省,泉州市,丰泽区,,unknown,
baidu,1e542dd88e0be9de9e95de2f,泉州农行大厦-立体停车场,泉州市丰泽区泉秀路824号泉州农行大厦,福建省,泉州市,丰泽区,,unknown,
baidu,009d97a7dab40be9cbc3dbac,汇金广场-地下停车场,泉州市丰泽区温陵南路3号,福建省,泉州市,丰泽区,,unknown,
baidu,2946cc5ca37c8745e8e5820e,浦西村口,6路;15路;17路;20路;22路;24路;K301路;K308路;K501路;K604路;K606路;K902路,福建省,泉州市,丰泽区,,unknown,
baidu,984595ad41e150a89d95def7,停车场(汇金广场公寓A座东北),泉州市丰泽区G324(旧)金亚花园,福建省,泉州市,丰泽区,,unknown,
baidu,52b17e5921d3f35f4354d73a,万德商贸大厦-停车场,福建省泉州市丰泽区G324万德商贸大厦,福建省,泉州市,丰泽区,(0595)22756669,unknown,
baidu,6cf3194b709e6c4eb34c49c8,万达广场(泉州浦西店)-地下停车场,泉州市丰泽区宝洲路679号泉州浦西万达广场B1~B2,福建省,泉州市,丰泽区,,unknown,
baidu,19a210befe0b651c250bd085,义宝大厦-地下停车场,泉州市鲤城区天后路义宝大厦,福建省,泉州市,鲤城区,,unknown,
baidu,06aacab213b489efd618b75b,聚融苑-地下停车场,福建省泉州市鲤城区临江街道温陵南路聚融苑,福建省,泉州市,鲤城区,,unknown,
baidu,ec4cfc1860394ba333169b64,东大路商业城-停车场,福建省泉州市丰泽区温陵南路35号,福建省,泉州市,丰泽区,,unknown,
baidu,56fac1e0cb4077b814b54bd2,凯泰大厦-地上停车场,福建省泉州市鲤城区胭脂巷4号,福建省,泉州市,鲤城区,,unknown,
baidu,02da5d9ea668ffd59fec2b44,商检大楼-停车场,泉州市丰泽区泉秀街862号,福建省,泉州市,丰泽区,,unknown,
baidu,bf095db32c1dee2dbe4842e0,泉州市公安局交通警察支队-立体停车楼,泉州市丰泽区津坂路88号,福建省,泉州市,丰泽区,15960733656,unknown,
baidu,5434a20ebb79d6cfeb12e433,泉州市电业局大厦-停车场,泉州市丰泽区丰迎路泉州市电业局大厦,福建省,泉州市,丰泽区,,unknown,
baidu,b2618939e21b3866a8f0cd29,跃进社区-科普楼院-停车场,泉州市鲤城区乌岸头45号,福建省,泉州市,鲤城区,,unknown,
baidu,9904c3b2f0f40413ba17e7b1,静远阁-停车场,福建省泉州市丰泽区津霞街309号,福建省,泉州市,丰泽区,,unknown,
baidu,e4a32088e5b10a7cc6f50dba,泉州市环境卫生中心-门口停车场,泉州市丰泽区泉秀路泉安公寓,福建省,泉州市,丰泽区,,unknown,
baidu,0ba13606bf2f19ae7f29bdd0,泉州宝洲宾馆-停车场,泉州市丰泽区宝洲街宝洲宾馆东北侧,福建省,泉州市,丰泽区,,unknown,
baidu,0bcf810dc0311f953686f414,泉州府文庙-南侧地上停车场,福建省泉州市鲤城区涂门街府学路泉州府文庙南(华侨大厦西),福建省,泉州市,鲤城区,,unknown,
baidu,50c0d48b69837598bca82232,泉州市工人文化宫-停车场,泉州市鲤城区打锡街157号,福建省,泉州市,鲤城区,,unknown,
baidu,38d8601e19e299834e5547c6,前坂新村西区-停车场,福建省泉州市丰泽区前坂街67号,福建省,泉州市,丰泽区,,unknown,
baidu,01ef615e40efbf4ceb12e45c,外代大厦-室外停车场,福建省泉州市丰泽区田安南路外代大厦(丰盛假日城堡西50米),福建省,泉州市,丰泽区,,unknown,
baidu,390d0fcc4636e4adddee8b58,宝洲街中段,6路;15路;17路;20路;22路;24路;K301路;K308路;K501路;K604路;K605路;K606路;K701路;K902路,福建省,泉州市,丰泽区,,unknown,
baidu,021ea0f09a9f2cb0c2f1cf52,文化宫,7路;10路;49路;K2路;K501路;K608路,福建省,泉州市,鲤城区,,unknown,
baidu,08217346d6129fc12d473338,小桔充电充电站(鲤城百脑汇充电站),福建省泉州市鲤城区鲤中街道桂坛巷68号百脑汇,福建省,泉州市,鲤城区,4000610999,unknown,
baidu,87442064c20c42ee40afe6f7,泉州商业大厦-停车场,泉州市丰泽区迎津街泉州商业大厦,福建省,泉州市,丰泽区,,unknown,
baidu,e3c5ae25b530dcdddbeced09,丰盛大厦-地下停车场,福建省泉州市丰泽区田安南路512号,福建省,泉州市,丰泽区,,unknown,
baidu,9023cb67b4a6dc9a01897200,幸福大厦-停车场,泉州市鲤城区义全街34号,福建省,泉州市,鲤城区,,unknown,
baidu,185b09d8589b520fad31e58f,泉州丰泽医院-停车场,泉州市丰泽区田安南路泉州市丰泽区人民法院,福建省,泉州市,丰泽区,,unknown,
baidu,8328e9324f23decf46e274ee,停车场(跃进社区西北),泉州市鲤城区天后路中石化森美(泉州鲤城义全加油站)西侧约60米,福建省,泉州市,鲤城区,,unknown,
baidu,2518f6007b19e457ebf853cf,泉秀街道办事处,15路;49路;602路;K207路;K601路;K702路长线;K702路短线,福建省,泉州市,丰泽区,,unknown,
baidu,85f6abb2dc1dca6aad04573b,向阳花苑-地下停车场,福建省-泉州市-丰泽区-义全街51号,福建省,泉州市,丰泽区,,unknown,
baidu,984285a2ff552ff543e19237,锦程海运商厦-停车场,福建省-泉州市-丰泽区-前坂街55号,福建省,泉州市,丰泽区,,unknown,
baidu,dae432aeae0967ba2b06ce5e,捷云科创园-停车场,泉州市鲤城区义全街中石化森美(泉州鲤城义全加油站)东侧约30米,福建省,泉州市,鲤城区,,unknown,
baidu,249f28f7643a0600057ce85a,前坂公寓-停车场,泉州市丰泽区津坂路静远阁南侧,福建省,泉州市,丰泽区,,unknown,
baidu,49bfd6f63667848d2b11d1e1,前坂新村西区-停车场,丰泽街道前坂街33号,福建省,泉州市,丰泽区,,unknown,
baidu,be4de71d57b8079f9d82ea79,民政福利大厦-地下停车场,泉州市丰泽区田安南路民政福利大厦,福建省,泉州市,丰泽区,,unknown,
baidu,70d4002ab40056ea81a12eb3,泉百公寓-停车场,泉州市丰泽区义全街32号,福建省,泉州市,丰泽区,,unknown,
baidu,b7e926adc0765ce399005068,金亚花园-停车场,福建省泉州市丰泽区温陵南路3号,福建省,泉州市,丰泽区,,unknown,
baidu,506a3184df4935e9f11937b1,客运中心站南门,1路;4路;11路;11路复线;21路;24路;40路;42路;305路;601路;K1路;K201路;K301路;K307路;K3路;K501路;K503路;K606路;K702路长线;K702路短线,福建省,泉州市,丰泽区,,unknown,
baidu,3640b5603b8e8cc89c09f7a5,富临新天地-地下停车场,福建省泉州市鲤城区丰泽街693号,福建省,泉州市,鲤城区,,unknown,
baidu,f9f38cb8e0f588d33b221c74,南丰新城金菊苑-停车场,福建省泉州市丰泽区灯荣路南丰新城,福建省,泉州市,丰泽区,,unknown,
baidu,369b1fcdbac931a277026945,福兴公寓-停车场,泉州市丰泽区灯福街29号,福建省,泉州市,丰泽区,,unknown,
baidu,f84586433661ca21b45f1e61,世纪王朝-地上停车场,福建省泉州市丰泽区田安南路世纪王朝东南(广益花园南),福建省,泉州市,丰泽区,,unknown,
baidu,afb95b31f432a31408f5eb72,商校宿舍东南侧-停车场,泉州市丰泽区迎津街泉州市电业局大厦南侧约40米,福建省,泉州市,丰泽区,,unknown,
baidu,78408fdb1b3539670869d9fd,蟠龙大厦-停车场,泉州市丰泽区温陵南路92号蟠龙大厦后门,福建省,泉州市,丰泽区,,unknown,
baidu,bc9ad77eed1ca77d97031934,南益广场购物中心-地下停车场,泉州市丰泽区田安北路南益·美岁天地B2~B3,福建省,泉州市,丰泽区,,unknown,
baidu,28cf17a006234f5fb2077d4b,祥泰大厦-停车场,泉州市丰泽区田安南路祥泰大厦,福建省,泉州市,丰泽区,,unknown,
baidu,5df04aa0a2d037afede4a5ad,建材公寓-停车场,泉州市丰泽区迎津街建材公寓,福建省,泉州市,丰泽区,,unknown,
baidu,7b3ab71873c62c7fc27da29e,丰华小区-停车场,泉州市丰泽区田安南路457号,福建省,泉州市,丰泽区,,unknown,
baidu,a2f6ba4643b40f43a80dd858,宝成大厦-地下停车场,泉州市丰泽区泉秀路宝成大厦,福建省,泉州市,丰泽区,,unknown,
baidu,37d3c629f3e45321c9213d94,千亿华园-停车场,泉州市丰泽区田安南路千亿华园,福建省,泉州市,丰泽区,,unknown,
baidu,35946eb4dc64536915a190c5,广益花园西南侧临时停车点,泉州市丰泽区津霞街广益花园,福建省,泉州市,丰泽区,,unknown,
baidu,fb3c0b81b4f72838faf0cbfa,群兴综合大厦停车场,泉州市丰泽区田安南路群兴综合大厦,福建省,泉州市,丰泽区,,unknown,
baidu,06d1f46053e2ee2c16c90531,华丰社区-停车场,泉州市丰泽区泉兴街华丰社区,福建省,泉州市,丰泽区,,unknown,
baidu,7cef7485ba8d83a158f6bef9,田安南路西侧临时停车点,泉州市丰泽区田安南路呈祥阁西侧约30米,福建省,泉州市,丰泽区,,unknown,
baidu,e7dc7a31cb6b4c6a95f08cce,世纪王朝-停车场,津霞街243号,福建省,泉州市,丰泽区,,unknown,
baidu,aa8fbec2d66640e4df1e52cc,钟楼,1路;3路;17路;21路;40路;55路;602路;K203路;古城旅游1号专线;旅游1路;旅游4路,福建省,泉州市,鲤城区,,unknown,
baidu,7e5d96db9f2635de167643e8,宝翠苑小区-停车场,泉州市丰泽区田安南路380号宝翠苑小区,福建省,泉州市,丰泽区,,unknown,
baidu,193e6c4d73ec079c22026201,泉州市公路事业发展中心-停车场,泉州市鲤城区迎津街41号,福建省,泉州市,鲤城区,,unknown,
baidu,935e79d37a9200748505bf6c,南丰新城玉兰苑-停车场,福建省泉州市丰泽区宝洲路849号,福建省,泉州市,丰泽区,,unknown,
baidu,b04672e730290b50aeee7a83,东门,1路;3路;10路;15路;17路;25路;37路;40路;55路;602路;K203路;K612路;旅游1路;旅游4路,福建省,泉州市,丰泽区,,unknown,
baidu,294a78a0d0ff2610a3acc493,人民医院(人民保险),3路;7路;30路夜班;35路;37路;K204路;K2路;K306路;K604路;K902路;龙岭专线;旅游3路;旅游3路夜班,福建省,泉州市,丰泽区,,unknown,
baidu,95698ddc9bae37d5eedfca5e,鸿泉大厦-停车场,福建省泉州市丰泽区大洋百货青龙巷南丰新城宝洲宾馆,福建省,泉州市,丰泽区,,unknown,
baidu,a850ddf41a518b6d89f15d9b,广益花园东南侧临时停车点,福建省泉州市丰泽区津霞街246号,福建省,泉州市,丰泽区,,unknown,
baidu,29e042c46f9577d2a8f0cddf,泉州水产大厦-停车场,泉州市丰泽区义全街新城大厦西北侧约60米,福建省,泉州市,丰泽区,,unknown,
baidu,21968408f4c2894f0d3dda83,国家税务总局泉州市鲤城区税务局-停车场,泉州市丰泽区前坂街国家税务总局泉州市鲤城区税务局,福建省,泉州市,丰泽区,,unknown,
baidu,a970567b799e5834cbe33c7f,泉州市公安局海防支队-停车场,泉州市丰泽区田安南路泉淮社区,福建省,泉州市,丰泽区,,unknown,
baidu,fa95652e3991bdcdfea778ed,泉州市消防救援支队-停车场,泉州市丰泽区灯福街五矿大厦东侧约30米,福建省,泉州市,丰泽区,,unknown,
