source,bd_uid,name,address,province,city,area,tel,poi_type,tag
baidu,7a42d68491bed3754f3a5996,巷子深菜馆(新华路店),新华路196号（新华路与郑州道交叉口）,天津市,天津市,和平区,18822026258,unknown,
baidu,c22da6ecec0ad21f0d3dda58,华竹食府(南海路店),南海路5号民进天津开明书院南行10米路东,天津市,天津市,和平区,"(022)23113283,(022)23316538",unknown,
baidu,3dc6aca42fa89bf3b320a85d,喜筵28·精细潮粤菜(五大道王府店),重庆道26-28号（庆王府对面）,天津市,天津市,和平区,(022)58319999,unknown,
baidu,7ae8bbbb041c57ef373a71fd,冒点儿·川小馆(五大道店),湖南路14号（张作相故居:先农大院西门入口处;星巴克对面）,天津市,天津市,和平区,16611850432,unknown,
baidu,b8a9e8fd895ade730869d960,福慧轩(五大道店),洛阳道23号（距五大道公园50m）,天津市,天津市,和平区,(022)23113398,unknown,
baidu,c9d1a5211a432d268f55ec8c,云上千禾云南味(五大道店),重庆道10号（重庆道与新华路交叉口）,天津市,天津市,和平区,(022)23302589,unknown,
baidu,04b997374534395610293567,多福小厨·民国津菜(五大道店),洛阳道7号,天津市,天津市,和平区,68768876,unknown,
baidu,379431084b1e527d93114c93,樘院,天津市和平区大理道5号,天津市,天津市,和平区,13116181159,unknown,
baidu,17fd648a86aa8d300e3ddaac,六小馆·津味创意酒馆(五大道店),重庆道33号（小白楼地铁站B口步行490米）,天津市,天津市,和平区,17695922303,unknown,
baidu,86d9d33af3727b6d0bf5eb21,大媚奶茶(五大道民园店),河北路320号201,天津市,天津市,和平区,18698162776,unknown,
baidu,76af28fcf3f787e43417dc9d,山海Dreamer·LT(五大道店),新华路216号（新华路与重庆道交口）,天津市,天津市,和平区,(022)23122297,unknown,
baidu,f300a16a46bd9786601c67bc,树先森beeer,重庆道12号2楼（卖酸奶楼上）,天津市,天津市,和平区,,unknown,
baidu,8313513e83b0207cf942b2f6,萌啊莫·缘素西餐厅(五大道店),河北路328号（下午不闭餐）,天津市,天津市,和平区,(022)23297608,unknown,
baidu,9e84c06c7ae3e0af03ec015d,五里关火锅(天津总店),南京路71号（天津国际大厦旁）,天津市,天津市,和平区,(022)85231580,unknown,
baidu,89bbc78dc1b403c2b817e742,走火铁板烧(剑桥大楼店),重庆道18号,天津市,天津市,和平区,17627763318,unknown,
baidu,8a56eae70e212cd54c3a591f,本来不想火·螺蛳粉火锅研究所(五大道店),五大道街湖南路9号南附楼-1号,天津市,天津市,和平区,15522062168,unknown,
baidu,a9a6e1fd7a775c0225d2bb95,太守宴·竹园(五大道店),九龙路5号,天津市,天津市,河西区,"(022)23262999,16611630210,16611630211,16611630212",unknown,
baidu,362d01013bfef2548bdb7372,朴饭儿朝鲜族料理(五大道店),河北路257号,天津市,天津市,和平区,"13116110448,13302180188",unknown,
baidu,1220d4c21275532204026f2d,乾园·宴会厅(五大道店),新华路241号,天津市,天津市,和平区,(022)23304452,unknown,
baidu,904a03fc43f301a579f796f4,LIME CARP·柠礼(咖啡烘焙店),重庆道24号剑桥大楼外沿楼梯2层（庆王府王府花园对面）,天津市,天津市,和平区,"(022)26449922,18920256780",unknown,
baidu,52fe793a46ef0f5b100daa68,那家·油麻菜馆(先农大院店),洛阳道先农大院4号,天津市,天津市,和平区,(022)23469095,unknown,
baidu,cf5f1d7031247eee2b11d1a0,山枫bistro(五大道店),河北路318号一楼,天津市,天津市,和平区,17622822537,unknown,
baidu,0e32e2b0cdb1ab271676432e,鸟内会(河北路店),五大道街道河北路280号(中国工商银行旁),天津市,天津市,和平区,18222387798,unknown,
baidu,15ed53ced95d7a4d9322e0ef,桂园餐厅(五大道店),成都道62号（张自忠旧宅旁）,天津市,天津市,和平区,"(022)23128866,(022)81227878",unknown,
baidu,b9e5d0b8bd5dc6a581a12e5a,狗不理(贵宾楼店),睦南道74号（桂林路口）,天津市,天津市,和平区,(022)23133888,unknown,
baidu,4b8a922473c5de0c373a71f2,Aisingoro Home,重庆道77号,天津市,天津市,和平区,,unknown,
baidu,3cad3db6b8e6b1e2ab0dd8d7,宝昇扒房·牛排专门店(五大道店),洛阳道49号,天津市,天津市,和平区,(022)82268668,unknown,
baidu,8d05d8f055bf2ab0ede4a5c1,渔鸽仔·烧烤乳鸽海鲜·夜宵(成都道店),成都道35号2楼,天津市,天津市,和平区,"17622623385,17622623829",unknown,
baidu,f3e5c78bb273426e3c9a5e26,凤厨·粤式·顺德菜(五大道店),洛阳道59号（先农大院内星巴克旁）,天津市,天津市,和平区,"(022)23337788,18698087577",unknown,
baidu,b698c2bc72bf6313a3acc428,MOUNT BUZHOU·不周山·食,河北路288号,天津市,天津市,和平区,,unknown,
baidu,f1868c9552c308eaf32d830b,简初SIMPLE CAFE(重庆道店),重庆道12号二楼,天津市,天津市,和平区,15620124625,unknown,
baidu,2f02ed94fbc8ca346849f3e2,我们的面包店,河北路255号1楼,天津市,天津市,和平区,13132299797,unknown,
baidu,05a90f08d18615819ee3218f,八宝煎饼果子(民园店),河北路大理道57号,天津市,天津市,和平区,18802239549,unknown,
baidu,4d027b13a8e78a3294ec84d3,Bricks Cacao爱巧巧克力专门店,重庆道60号,天津市,天津市,和平区,18630811385,unknown,
baidu,bf12799c7b02888843024581,筑艺咖啡(先农大院店),河北路306号,天津市,天津市,和平区,13682101986,unknown,
baidu,31febb96e1d757b3120daa87,瓜棠·面馆·盖码面(大理道店),"大理道7号-文明大院2楼（进文明大院后,见右侧绿色楼梯上楼）",天津市,天津市,和平区,13622196927,unknown,
baidu,d6b3da797265fa1eb13c8107,桂发祥·直营(南京路店),"君隆广场1,2号楼(南京路91-206号)",天津市,天津市,和平区,022-58565979,unknown,
baidu,72db7b1a857683a39ff7794c,祥禾饽饽铺·中式糕点(天津和平五大道店),河北路300-302号简良集1楼,天津市,天津市,和平区,18522362023,unknown,
baidu,5fd26472da028a1885420e32,天津市国唐餐饮服务有限公司,南京路75号天津国际大厦B1层B1号,天津市,天津市,和平区,,unknown,
baidu,06d2dffdc9b5088b88f15de4,星巴克咖啡(天津国际大厦店),南京路75号国际大厦一层,天津市,天津市,和平区,(022)23131133,unknown,
baidu,43faf78608e229ecc71b752a,耳朵眼会馆(五大道店),湖北路57号,天津市,天津市,和平区,(022)87253333,unknown,
baidu,42619ba5b1851cd8eee4a559,天禧餐饮管理经营部,天津市和平区洛阳道三号,天津市,天津市,和平区,,unknown,
baidu,14ebb7512fbf59909603194a,麦当劳(民园广场店),重庆道83号民园广场,天津市,天津市,和平区,(022)83127119,unknown,
baidu,32d73ded43f957d56a49f3ca,天津茉莉餐饮管理有限公司,天津市和平区五大道街湖南路先农大院5-6号,天津市,天津市,和平区,,unknown,
baidu,658e4b77ee60513b31870aeb,PIZZA BIANCA(民园店),重庆道83号民园广场北楼西区一层102号,天津市,天津市,和平区,(022)83122728,unknown,
baidu,d3acbc27b9b2950386420e7e,sweety cone甜蔻(五大道店),湖南路20号,天津市,天津市,和平区,15022633448,unknown,
baidu,c2c053943506075d1fe99937,睦南楼,天津市和平区睦南道32号,天津市,天津市,和平区,,unknown,
baidu,9330efb2ce399b9c82288aba,天津市毓正养和餐饮管理有限公司,天津市和平区五大道街道洛阳道59-61号,天津市,天津市,和平区,,unknown,
baidu,4f0b7198abad56e117c8f682,盈美术馆Coffee&Cocktail Bar,湖南路11号马占山旧居2楼,天津市,天津市,和平区,"(022)23463389,13820880060",unknown,
baidu,5ddcf543727766b59d95deeb,金永灿韩国传统烤肉(五大道店),重庆道83号民园广场西楼二层218号,天津市,天津市,和平区,(022)23151155,unknown,
baidu,fa059d39d0116eb846e2746f,谷川甜品(先农大院店),河北路306号底商,天津市,天津市,和平区,"13662183688,18526814815",unknown,
baidu,697b832fcaba309d6e20b928,SMOKI & CO(五大道店),重庆道83号民园体育场正门（近马车驿站，邻PIZZABIANCA）,天津市,天津市,和平区,(022)83122726,unknown,
baidu,844e2c87ab32e2a349fc8dd1,星巴克(天津五大道店),天津市和平区洛阳道61-73号69.71.73号楼一层,天津市,天津市,和平区,(022)83470680,unknown,
baidu,55e9c68e7ddac9344d776e0f,八宝煎饼果子(五大道店),五大道街道湖南路4号(先农大院星巴克对面),天津市,天津市,和平区,18802239549,unknown,
baidu,45747f3822f83140ff0eb009,小柠快跑·手打柠檬茶(五大道店),新华路228号,天津市,天津市,和平区,19523459254,unknown,
baidu,12245ee10259e10295ca07c4,小吊梨汤(五大道文化旅游区店),天津市和平区五大道街道湖南路30号,天津市,天津市,和平区,,unknown,
baidu,c896225ff3c77e632b06cede,CIAO PIZZA俏披萨意大利创意菜餐厅(五大道店),香港路2号别墅院内,天津市,天津市,和平区,16600325923,unknown,
baidu,93a8a8b2298de0c7abf7296e,库迪咖啡(先农大院店),成都道店35号渔鸽仔1层大堂,天津市,天津市,和平区,18622488631,unknown,
baidu,ec95144ce652977c9d82eade,登美寿司·日本料理(君隆广场店),南京路君隆广场底商B3西安道8号,天津市,天津市,和平区,(022)23117969,unknown,
baidu,0f7069dd95fb5af7400245ff,诚基串串香(诚基店),西安道诚基经贸中心3号底商,天津市,天津市,和平区,"18502687620,18602695046",unknown,
baidu,7bfbadde185f66418605bf83,根号八咖啡馆(义生里文明里巷店),大理道22号,天津市,天津市,和平区,13752596506,unknown,
baidu,94ab9e397f288baa8bf15dd5,VLCS酒吧(天津店),重庆道83号（民园广场正门）,天津市,天津市,和平区,,unknown,
baidu,d4416fb25bfd527db54f5476,YUJIAN CAFE·屿涧SOE自烘焙咖啡店,睦南道35号（黑色铁门入口小院内）,天津市,天津市,和平区,17622734472,unknown,
baidu,68a9933e16053d2fd2f49e70,mh小食(重庆道店),五大道历史博物馆东门旁,天津市,天津市,和平区,13920021361,unknown,
baidu,57188bea6ea72b55c356ac56,雷锋车站酸奶,天津市和平区新华路214号,天津市,天津市,和平区,,unknown,
baidu,77461a342ee6e27dff0eb011,来喜儿·morden & Café(五大道店),河北路300-302号先农大院简良集一楼,天津市,天津市,和平区,18822046691,unknown,
baidu,d219bb1dce0abb92f50e77c9,陈记锅巴菜(五大道店),天津市和平区五大道街道重庆道104号(重庆道与桂林路交叉口),天津市,天津市,和平区,13194686206,unknown,
baidu,96b672aa4baf4f6cce04ef3c,起士林(小白楼店),五大道街道浙江路29号（近小白楼地铁站A口）,天津市,天津市,和平区,"13462587901,13462587902",unknown,
baidu,b1d90a0ae98baa1a88db73be,正林骨汤麻辣烫,天津市和平区洛阳道9号,天津市,天津市,和平区,18920721913,unknown,
baidu,e3e2cd9d152446fac7f50dc3,壹佰号,五大道街道马场道100号(近桂林路),天津市,天津市,和平区,(022)23261000,unknown,
baidu,64eec62ffda0e83556bfffbc,Mila Store,大理道守善里2号,天津市,天津市,和平区,,unknown,
baidu,174022cbbe7f6820a1d230c4,MOMO's CAFE(和平店),睦南道35号（入口在侧面胡同内）,天津市,天津市,和平区,,unknown,
baidu,6998b850642effcb35b06c16,非遗烧烤,天津市和平区成都道35,天津市,天津市,和平区,,unknown,
baidu,1ceea7d89d48af4bfb22133a,蜜雪冰城(世纪都会店),南京路181、183号世纪都会商厦B1层B111,天津市,天津市,和平区,13920778099,unknown,
baidu,a63432ddedb15e09c17da2ce,八宝酸梅汤(湖南路店),天津市和平区湖南路福长里,天津市,天津市,和平区,,unknown,
baidu,2420440fc61d17373310afc6,正宗重庆火锅,天津市和平区南京路新三多里小区,天津市,天津市,和平区,,unknown,
baidu,b49b3b3d4bd07c689fec2b26,云上机场甜品咖啡小酒馆,睦南道35号门面,天津市,天津市,和平区,13902195157,unknown,
baidu,ac00b219f39e0be9c5effbda,天津市和平区壹定发小吃铺,天津市和平区五大道街道重庆道83号,天津市,天津市,和平区,15122329048,unknown,
baidu,3a1ad73241e38b3f2cb908f8,津门水爆肚武汉热干面,天津市和平区河北路民园广场,天津市,天津市,和平区,,unknown,
baidu,b2591f383d4b4e34d518b7b0,808 SWAG CLUB,天津市和平区大理道民园广场,天津市,天津市,和平区,,unknown,
baidu,17f588453997c341a3acc481,帕丽斯的跳蚤市集,重庆道53号3楼(重庆道与新华路交口),天津市,天津市,和平区,,unknown,
baidu,58c1402bf9809e87a1046449,都会轩,天津市和平区五大道街道尚友里社区南京路181号世纪都会商厦,天津市,天津市,和平区,,unknown,
baidu,9a43a2f3abb1ba1479b55c9d,大悦城(和平店),天津市和平区五大道街道尚友里社区南京路189号,天津市,天津市,和平区,(022)83196666,unknown,
baidu,24efc4b0709f03aa0a1cc756,世纪都会商厦,天津市和平区五大道街道尚友里社区南京路181号,天津市,天津市,和平区,(022)23303388,unknown,
baidu,c5ddcc08551216dfd813180a,滨江购物中心,天津市和平区开封道29号,天津市,天津市,和平区,(022)23131618,unknown,
baidu,bbb6e960f0563dacfb221301,天津国贸购物中心,天津市河西区南京路39号,天津市,天津市,河西区,,unknown,
baidu,87489c115f07c98938221cc0,津汇广场,天津市和平区五大道街道尚友里社区南京路189号大悦城底商,天津市,天津市,和平区,(022)83191818,unknown,
baidu,e72054b250cefa562fb96df0,7-11便利店(新华路南侧店),五大道街道五大道新华路258号(新182号),天津市,天津市,和平区,(022)23300807,unknown,
baidu,1dc13d72ea5e744e3fe2319a,欧陆风韵,天津市和平区重庆道83号,天津市,天津市,和平区,,unknown,
baidu,14b8678f91a8ad2b220220a9,丽晴复古商店,成都道93号,天津市,天津市,和平区,17695697285,unknown,
baidu,5cf49f3544978274715e80c9,7-11便利店(黄家花园店),天津市和平区山西路284号1层,天津市,天津市,和平区,(022)23115348,unknown,
baidu,55fb14aaee989cca8bfc0614,天心珠宝(天津国际大厦店),国际大厦218室,天津市,天津市,和平区,"13622025972,13920632230",unknown,
baidu,3d14c180edd90689ae080fec,小友谊商场,天津市和平区新华路174号(新华路与烟台道交叉口),天津市,天津市,和平区,13072051577,unknown,
baidu,29c3bcaf68e34c040a1cc76f,49珠宝汇,天津市和平区成都道28号,天津市,天津市,和平区,,unknown,
baidu,66dfd5f736d12b19f603b825,MUJI无印良品(世纪都会店),南京路181号1层,天津市,天津市,和平区,(022)59907658,unknown,
baidu,0d0df0ed094f3740ca1b955e,富蓝特商场,烟台道45号,天津市,天津市,和平区,(022)23122746,unknown,
baidu,57b7259c5475e5ec5c0d0272,小白楼朗香街,建设路88号（音乐厅地下广场）,天津市,天津市,和平区,(022)23303205,unknown,
baidu,470792689200ec49f02d83c9,名创优品(和平大悦城2店),和平大悦城4层,天津市,天津市,和平区,"18027440688,4009965022",unknown,
baidu,542187b992e553a82e4733ff,民园广场-自动售卖机,重庆道83号民园广场,天津市,天津市,和平区,,unknown,
baidu,1462b73e048c03149e95de66,小焱同学便利店(君隆店),天津市和平区河北路303号,天津市,天津市,和平区,,unknown,
baidu,d37f0a5ddebe94322cb9081c,7-11便利店(平安大厦店),马场道59号天津经济贸易中心首层A2,天津市,天津市,河西区,"18622182405,18622182416",unknown,
baidu,4bb2ae1149a20c581b11d5fb,五大道文化旅游区-小卖部,重庆道83号五大道文化旅游区,天津市,天津市,和平区,,unknown,
baidu,f842d3d4f19d459e49fc8d6e,君隆广场商业街,天津市和平区南京路99号2楼,天津市,天津市,和平区,,unknown,
baidu,3ddb14558d6c71c1c4f50d0f,宏家园外贸淘宝城(山西路店),南京路与山西路交口威斯丁酒店对面皇家花园,天津市,天津市,和平区,,unknown,
baidu,bb03dee6075a4175c27da2bf,宏达便民店(河北路店),天津市和平区河北路223号,天津市,天津市,和平区,,unknown,
baidu,2c976760a7995fc89122e04c,民园广场-自动售卖机,重庆道83号民园广场,天津市,天津市,和平区,,unknown,
baidu,eca4c37426c583fd25e0a0f9,大方便利(南京路三店),天津市和平区南京路诚基中心2号楼,天津市,天津市,和平区,,unknown,
baidu,07e02c7cdc3c9ca2028972c8,优货进口食品,天津市和平区大理道福进里西门西侧约50米,天津市,天津市,和平区,18222872388,unknown,
baidu,36abb792ea19ba149703196e,LOFE FLORA,重庆道24号剑桥大楼一楼左转内3,天津市,天津市,和平区,15602004588,unknown,
baidu,b1307c704fa152ec8505bf16,天津国际贸易中心,南京路与马场道交汇处,天津市,天津市,河西区,,unknown,
baidu,440a42f34d0b138f3813fd78,汾酒竹叶青专卖店(五大道店),天津市和平区河北路301号,天津市,天津市,和平区,18698012757,unknown,
baidu,790ce256595263ba1d58005d,二目鱼杂货铺,天津市和平区香港路6号小院内1-2层,天津市,天津市,和平区,18002104650,unknown,
baidu,bef9452e189563734557260c,草木籽花艺工坊,河北路306号,天津市,天津市,和平区,,unknown,
baidu,db53882c7c8db271e856fadb,寒友烟酒商店,大理道6号,天津市,天津市,和平区,18622578096,unknown,
baidu,3dc9befd77bd880fbfa24088,小宝栗子(西安道店),西安道18号,天津市,天津市,和平区,(022)23312885,unknown,
baidu,9e1c3d5e16fedc6c6c3e1b93,遇见进口文具,重庆道7号104室,天津市,天津市,和平区,17812258912,unknown,
baidu,445d24a1d6d44d93c336446f,那彦旗袍,天津市和平区重庆道55号,天津市,天津市,和平区,,unknown,
baidu,144bf3bd01c812b78bf15d3c,衣日记服装店,天津市和平区大理道20号,天津市,天津市,和平区,(022)23317008,unknown,
baidu,6b76b556455664a44051c0ab,ONE Vintage古着,天津市和平区马场道36号1楼,天津市,天津市,和平区,,unknown,
baidu,03615a06b6fa247988fc0624,名品烟酒行(新三多里小区店),南京路国际大厦旁,天津市,天津市,和平区,18222607007,unknown,
baidu,0b5c1e457787ffd22202205d,玉汕斋眼镜院(树德里小区店),河北路223号2门105室,天津市,天津市,和平区,(022)23127431,unknown,
baidu,9dc6d4bec308929d3517dcc4,烟酒食品,大理道85号一楼,天津市,天津市,和平区,,unknown,
baidu,8c83d6da86ffff3e4afc8df7,晗钰珠宝(天津国际大厦店),天津市和平区国际大厦一层116号商铺,天津市,天津市,和平区,13920606061,unknown,
baidu,e6988468dc5510062b3a9f07,中糖二商烟酒连锁有限公司(河北路店),河北路215号,天津市,天津市,和平区,(022)23217777,unknown,
baidu,750ec1653cdc902a4c3a59cb,新华书店(襄阳道店),天津市和平区襄阳道8号,天津市,天津市,和平区,(022)23302591,unknown,
baidu,20a32cd169e1e6715d0d0270,URBAN REVIVO(世纪都会商厦店),南京路181号天津世纪都会1层,天津市,天津市,和平区,(022)23469565,unknown,
baidu,f42cb37f0b401e8426d2bb1d,米粒珠宝,天津市和平区重庆道89-02号,天津市,天津市,和平区,15822501521,unknown,
baidu,a9a253e0704217fa16c905ec,天津朗朗眼镜,重庆道11号,天津市,天津市,和平区,"13072276060,13752381809",unknown,
baidu,13836f60b86971a86849f30c,爱香鲜花,小白楼街道四川路五湖里1号余门,天津市,天津市,和平区,18622139241,unknown,
baidu,821e9b4f3e323af9f12d8331,建立烟酒超市,湖北路55号(小白楼地铁站B口步行320米),天津市,天津市,和平区,18522284679,unknown,
baidu,d1d70abe9eaaebfa223bf292,美克·美家(南京路店),南京路99号（君隆广场B1）,天津市,天津市,和平区,,unknown,
baidu,2527be1ebf49d9ce4afc8d3a,建和便民菜店,和襄阳道19号,天津市,天津市,和平区,18902079270,unknown,
baidu,ffb460500146816d902ca3df,鞋库,新华路小区东南门旁,天津市,天津市,和平区,13114987898,unknown,
baidu,c76289c72a8f074da1d23002,SISISM姐妹主义原创女包,天津市和平区重庆道64号,天津市,天津市,和平区,13821992533,unknown,
baidu,05a96ec2a8ef0202d02dd652,大明人眼镜店(曲园店),南京路72号曲园1层121(小白楼地铁站A口步行230米),天津市,天津市,和平区,(022)84585119,unknown,
baidu,ecd5364456a1f16586420e12,领凡服装店,烟台道45号,天津市,天津市,和平区,13920791861,unknown,
baidu,f80890a5454feed1c4f50d1e,美丽女人(烟台道店),烟台道39号,天津市,天津市,和平区,,unknown,
baidu,d373c2a4db7965ab3062128d,沙伯基础创新塑料,天津市和平区南京路75号天津国际大厦19层1912室,天津市,天津市,和平区,,unknown,
baidu,a0542fcf4ae9edf0631809f8,嘉孚烟酒茶,天津市和平区湖北路和平社区(湖北路)北侧,天津市,天津市,和平区,16622085228,unknown,
baidu,7c7f5da5979182b59e95de4f,有感空间手碟工坊,天津市和平区五大道香港路齐乐里5号,天津市,天津市,和平区,13502108271,unknown,
baidu,5a09cf06e0d606766da3cce5,酤赫烟酒,烟台道66号,天津市,天津市,和平区,,unknown,
baidu,0b9418a4649344d0eb1e976c,Twenty Circle循环书店(香港路店),天津市和平区五大道香港路20号,天津市,天津市,和平区,,unknown,
baidu,3fa36719e70127ee7602695d,福生富烟酒(鸿德里店),长沙路50号,天津市,天津市,和平区,15822071377,unknown,
baidu,0b0513e6da9f7c5607fef5a0,小谢食品经营部,天津市和平区泰安道50号五湖里,天津市,天津市,和平区,18622157849,unknown,
baidu,ada3a347baed9a1a12882433,一杯金烟酒店,山西路284-1号（营口道地铁站C3口步行420米),天津市,天津市,和平区,,unknown,
baidu,ce18bc910d75ee6258f6bef0,蟹将军阳澄湖大闸蟹(成山公馆店),天津市和平区山西路308号成山公馆,天津市,天津市,和平区,18358919896,unknown,
baidu,f15d395a864218b44e5547cd,隆源五交化装饰材料商店,西安道39号(营口道地铁站C3口步行470米),天津市,天津市,和平区,(022)23323229,unknown,
baidu,03a218a967618406ddee8b9a,友谊男人店,天津市和平区烟台道45号,天津市,天津市,和平区,13802137581,unknown,
baidu,31e5222432d8905cf2193761,尚饰家居,天津市和平区烟台道39号,天津市,天津市,和平区,15620174379,unknown,
baidu,e267abb47135dcf5c9e33c26,The story of fime,天津市和平区大理道33号,天津市,天津市,和平区,"13512830615,13821178327",unknown,
baidu,2fadc81e7d2e8fcac61e51fb,庆王府内洗手间(非公共厕所),天津市和平区重庆道18号,天津市,天津市,和平区,,unknown,
baidu,bf07cc2b04ed1490940319f3,五大道文化旅游区庆王府-游客中心,天津市和平区重庆道83号五大道文化旅游区庆王府内,天津市,天津市,和平区,,unknown,
baidu,77984b80569c208a471a3275,庆王府展览馆-售票处,天津市和平区重庆道55号,天津市,天津市,和平区,,unknown,
baidu,aebc73351e672811c17da248,庆王府展览馆-游客服务中心,天津市和平区重庆道83号,天津市,天津市,和平区,,unknown,
baidu,681f0bd6c7ebddde0bf5ebba,婚尚空间一站式婚嫁体验馆,新华路245号2楼,天津市,天津市,和平区,,unknown,
baidu,425b0f79b2e2ebf5260bd06e,五大道博物馆游客服务中心,天津市和平区重庆道83号民园广场内,天津市,天津市,和平区,(022)23307222,unknown,
baidu,0a7ab3f0b2295ed28c55ec43,天津盛捷国际大厦服务公寓Somerset International Building Tianjin-洗手间,天津市和平区南京路75号(近湖北路、新华路),天津市,天津市,和平区,,unknown,
baidu,55b37794ea11cca47adbd28d,男洗手间,天津市和平区五大道街道重庆道83号,天津市,天津市,和平区,,unknown,
baidu,a1701fb26f0fec5e54bfffff,澳门路社区党群服务中心,天津市和平区五大道街道澳门路3号,天津市,天津市,和平区,(022)23396571,unknown,
baidu,907fa2000a336180a0acc460,叁先生的店·量脚定制皮鞋·手工定制皮具·文创,河北路296号一楼,天津市,天津市,和平区,15510411113,unknown,
baidu,0f7fbcc58588de3574026909,云缦婚纱礼服荟,南京路75号国际大厦37楼云缦厅,天津市,天津市,和平区,13132286827,unknown,
baidu,ee3276b54599b8998c1a89f5,睦南星空花园,天津市和平区南京路75号,天津市,天津市,和平区,,unknown,
baidu,46091a3fb1c84c84eb1e97cf,民园男公厕,重庆道83号,天津市,天津市,和平区,,unknown,
baidu,3915c2f69fd41a5e223bf269,蜜吖婚纱品牌集合店,天津市和平区新华路245号,天津市,天津市,和平区,,unknown,
baidu,df3f7b6f74010c47eedfcace,五大道博物馆-售票处,天津市和平区重庆道64号游客中心(近民园体育场)五大道博物馆内,天津市,天津市,和平区,,unknown,
baidu,d1469ee7db9ca260843304ff,中国邮政(民园邮政支局),长沙路101号,天津市,天津市,和平区,(022)23305181,unknown,
baidu,51993af4445aea05715e8073,民园邮电支局集邮营业厅,天津市和平区长沙路101号,天津市,天津市,和平区,,unknown,
baidu,bf1daa04214bcd9e2cb908ec,公共厕所,天津市和平区南京路99号,天津市,天津市,和平区,,unknown,
baidu,7dc77b5c0f620a8f028972dc,公共厕所,重庆道83号民园广场内,天津市,天津市,和平区,,unknown,
baidu,61727e67f9dc925916a19098,民园女公厕,天津市和平区南京路五大道文化旅游区内,天津市,天津市,和平区,,unknown,
baidu,68e2f8365732af44b817e789,公厕,南京路61号,天津市,天津市,和平区,,unknown,
baidu,2b9c8d6b4be150b02fb96d61,公厕,天津市和平区南京路五大道文化旅游区内,天津市,天津市,和平区,,unknown,
baidu,28633da798de2340373a71a0,公厕,大理道22号,天津市,天津市,和平区,,unknown,
baidu,a4a9dc4669bc1e1cb320a8ee,公共卫生间,天津市和平区南京路61号,天津市,天津市,和平区,,unknown,
baidu,cde5493a57c219d5b45f1eb7,艾米丽儿童摄影,新华路福进里1号（小白楼五大道民园体育场新华路国际大厦）,天津市,天津市,和平区,13001365573,unknown,
baidu,310c7020371280394c3a5950,公厕,南京路五大道文化旅游区内,天津市,天津市,和平区,,unknown,
baidu,d13c8bbae86e7b2b88fc0635,民园搬家运输服务有限公司,五大道街道成都道37号先农大院(星巴克),天津市,天津市,和平区,(022)23307004,unknown,
baidu,5bbfd072c7303ab4db131866,天津泓铭家政服务中心,成都道39号,天津市,天津市,和平区,,unknown,
baidu,7cae417beb0c418a081cc79c,公厕,重庆道83号民园广场,天津市,天津市,和平区,,unknown,
baidu,d802e8d761044c502ffaa79e,蜜悦母婴健康会所,天津市和平区新华路234-1号,天津市,天津市,和平区,(022)23336688,unknown,
baidu,d8d148eb0e0cd742fb2213be,怪兽充电(天津传统风味小吃),天津市和平区五大道街道新华路228号,天津市,天津市,和平区,4006703303,unknown,
baidu,fb5ed999d628eaf6ce04efca,工会驿站(五大道游客服务中心),天津市和平区重庆道83号,天津市,天津市,和平区,(022)23307222,unknown,
baidu,1055375dcca216e2b34c4994,天津君隆威斯汀酒店-洗手间,天津市和平区南京路101号,天津市,天津市,和平区,,unknown,
baidu,aa7c0344760456fa33169b0d,天津市文物交流中心,天津市和平区四川路2号,天津市,天津市,和平区,(022)27301485,unknown,
baidu,75036835cc79f2ae5e0d02c6,中国联通(烟台道营业厅苹果授权店),天津市和平区烟台道35号,天津市,天津市,和平区,022-23300000,unknown,
baidu,e0c6f514a4e53d46631809d7,国航天津营业部,南京路103号(营口道地铁站C3口步行410米),天津市,天津市,和平区,(022)23301547,unknown,
baidu,25d5f8ed4b5c7964c17da2f7,绘彩快印,诚基中心商业街A1116(营口道地铁站C3口步行420米),天津市,天津市,和平区,18222033222,unknown,
baidu,8b0e3f4400bfaf7708f5eb78,裁缝店,西安道39号,天津市,天津市,和平区,15922272697,unknown,
baidu,3985eb0bd68d3764f7b916ab,昀菲婚礼婚纱馆,天津市和平区中海广场钻石湾10-1-3305号,天津市,天津市,和平区,"18522722466,18802225340",unknown,
baidu,a284607acb16fa4285420e0e,公共厕所,潼关道与长沙路交叉口正西方向107米左右,天津市,天津市,和平区,,unknown,
baidu,55ef955bd2dc52061811d518,焕彩图文广告快印名片,南京路125号（诚基中心商业街一楼内A1035）,天津市,天津市,和平区,"13102002633,13102016059",unknown,
baidu,e388fe6dc26b06acae31e540,中国福利彩票(长沙路店),长沙路69号,天津市,天津市,和平区,13920445758,unknown,
baidu,cee372ac4e0935b73586f4ab,现代风情摄影工作室,马场道26号(近新华中学)小白楼地铁站B口步行490米,天津市,天津市,和平区,"(022)23399998,13299983268",unknown,
baidu,72bf2e8c9c9eefbd1d580009,天津站火车票代售处,天津市和平区南京路125号诚基中心A1171室,天津市,天津市,和平区,,unknown,
baidu,5b2e8dc02687df6f902ca316,公共卫生间,保定道新华路体育场,天津市,天津市,和平区,,unknown,
baidu,3a3fe4217d12f53db5f42f41,航美物流,天津市和平区小白楼街道南京路94号友谊宾馆办公楼3层,天津市,天津市,和平区,,unknown,
baidu,9786032c1d0f8ece725e8030,公共厕所,天津市河西区九龙路荣华小区西侧约30米,天津市,天津市,河西区,,unknown,
baidu,7f22ecae6e3a9b8ffb2d61bd,六六宠物美容馆,南京路诚基中心五大道商业街A1073,天津市,天津市,和平区,(022)23125550,unknown,
baidu,e01aeeecc29f2fcc16c9058e,怪兽充电(盛茂祥砂锅),天津市和平区五大道街道湖北路55号,天津市,天津市,和平区,4006703303,unknown,
baidu,6c47a4c7f94b9876e81e9781,天津市自来水集团有限公司(保定道),天津市和平区建设路54号,天津市,天津市,和平区,(022)23393887,unknown,
baidu,2527be1e08b676cd4afc8d46,公共厕所,山西路255号附近,天津市,天津市,和平区,,unknown,
baidu,50fb64ffc8923823e9f8536b,公共厕所,营口道105号,天津市,天津市,和平区,,unknown,
baidu,dcf4077272ef8d8da4c756c4,13号名表维修,天津市和平区西安道南京路125号,天津市,天津市,和平区,"15222332228,17502230796",unknown,
baidu,136b89025bb78ee3fb22134a,公共厕所,绍兴道120号附近,天津市,天津市,河西区,,unknown,
baidu,57e4931520f5d8308bb988ed,公共厕所,大沽北路184号,天津市,天津市,和平区,,unknown,
baidu,d09d97b8ab9b0380b35c6a8f,中国北方人才市场,天津市河西区友谊北路29号,天津市,天津市,河西区,(022)28013666,unknown,
baidu,3a7ffe7de4703321b72655f1,秀萍裁缝,天津市和平区诚基中心二号楼2号门西南50米,天津市,天津市,和平区,15922272697,unknown,
baidu,3f9052dbe7fe386ad81318cd,隔路摄影(一次成像体验馆),营口道116号104室,天津市,天津市,和平区,15222049905,unknown,
baidu,ace1ef1f89a2776ac16c1447,公共厕所,天津市河西区南京路安辛庄,天津市,天津市,河西区,,unknown,
baidu,e223106918eca8f4a8f7293b,怪兽充电(炙热青春怀旧主题餐厅睦南道店),天津市和平区河北路与睦南道交叉口330号(疙瘩楼对面),天津市,天津市,和平区,4006703303,unknown,
baidu,0cf901c87e39ec0d102935b5,公厕,赤峰道任凤苞旧居,天津市,天津市,和平区,,unknown,
baidu,992deddddb261874a1d230bd,公共厕所,天津市河西区敬重里社区卫生服务站对面,天津市,天津市,河西区,,unknown,
baidu,64ff3be1df381bba90114cca,公共厕所,天津市和平区营口道三德里,天津市,天津市,和平区,,unknown,
baidu,90edf5bd00b94eb1a2a9340a,公共厕所,南京路209号米莱欧百货(吉利店)5F层,天津市,天津市,和平区,,unknown,
baidu,c3ea0441b2671039e6e9650f,街电(态度咖啡AttitudeCaffe洛宽庭店),天津市和平区新华路186号洛华里3号洛宽庭,天津市,天津市,和平区,4006868588,unknown,
baidu,faf0ffda90a3b9ced1f49e17,街电(宝莱纳里仕满西餐酒吧洛阳道店),天津市和平区新华路243号(新华路与重庆道交叉口),天津市,天津市,和平区,4006868588,unknown,
baidu,ffd6d403b86aba8e17b54bca,第二劲松护养院,天津市和平区五大道街道河北路259号,天津市,天津市,和平区,(022)23192972,unknown,
baidu,9106367c11ba29f9adcb6639,LARDIN朗帝高级西装租赁·定制,新华路245号婚尚一站式会馆2楼,天津市,天津市,和平区,18002131375,unknown,
baidu,fb0b2724a7b37f13100daafe,睦南星空花园·云缦云熙宴会厅,南京路75号国际大厦37层,天津市,天津市,和平区,13132286827,unknown,
baidu,cbc2712b0af8662021f0170d,来电(蚝厘),河北路318号,天津市,天津市,和平区,4008845966,unknown,
baidu,d7090e22db90919d51e5c507,格林东方酒店(五大道店)-大堂,天津市和平区新华路228号,天津市,天津市,和平区,,unknown,
baidu,9ccbc4e0994c9b591e1d11d0,街电(用心餐厅),天津市和平区南京路75号天津国际大厦1层,天津市,天津市,和平区,4006868588,unknown,
baidu,c824dfe4fd5f02e1ede4a51d,五大道观光马车-售票处,民园马车驿站内,天津市,天津市,和平区,,unknown,
baidu,b687a6312e3c7f5ae6e96521,街电(遇见芸台),洛阳道55号,天津市,天津市,和平区,4006868588,unknown,
baidu,08210059703be9559cf77992,街电(七味活海鲜川式料理),天津市和平区湖南路6号,天津市,天津市,和平区,4006868588,unknown,
baidu,cdbba619176bfb7b30169bee,来电(遇见芸台),天津市和平区洛阳道55号,天津市,天津市,和平区,4008845966,unknown,
baidu,11ed43c568e16111afee7af9,来电共享充电宝(徽菜名门),天津市和平区重庆道2号,天津市,天津市,和平区,4008845966,unknown,
baidu,cc7e026de48b7af43517dc99,名片专营,湖北路55号(小白楼地铁站B口步行330米),天津市,天津市,和平区,(022)23191375,unknown,
baidu,4b43a228cc075d562b3a9fa0,天津君隆威斯汀酒店-大堂,天津市和平区南京路101号,天津市,天津市,和平区,,unknown,
baidu,fa7da3e86a2c291c43d63eaf,中国电信(保定道营业厅),天津市和平区保定道35号,天津市,天津市,和平区,18902008082,unknown,
baidu,4a707807594478137f29bd32,街电(马克西姆法餐厅和平店),天津市和平区常德道2号(近民园广场马车驿站),天津市,天津市,和平区,4006868588,unknown,
baidu,fc30629d9991607fa1d230e1,怪兽充电(东北城基串串香),天津市和平区五大道街道南京路125号-a1056,天津市,天津市,和平区,4006703303,unknown,
baidu,9ad487cea12161b3a6da393d,来电(花笙记小酒馆),天津市和平区成都道61号,天津市,天津市,和平区,4008845966,unknown,
baidu,7f25898c68e7404e471a3211,街电(爆狼人杀竞技馆),天津市和平区南京路诚基中心A座第五大道商业街A1125号,天津市,天津市,和平区,4006868588,unknown,
baidu,0d0b48433b271c8c4f6d46ff,富蓝特大酒店·宴会厅,新华路231号,天津市,天津市,和平区,,unknown,
baidu,3b4d1e0f74aa9e510f0a7027,来电共享充电宝(桃花坞小酒馆),天津市和平区河北路303号,天津市,天津市,和平区,4008845966,unknown,
baidu,45857fd3e4b36f2ec7f50dcb,来电共享充电宝(爆狼人杀竞技馆),天津市和平区南京路125号诚基中心A1125室,天津市,天津市,和平区,"13821228527,18522002451",unknown,
baidu,336b08577fbfe85304fef505,街电(乾宫粥王),天津市和平区成都道55号,天津市,天津市,和平区,4006868588,unknown,
baidu,16f87cd33538227b31169b83,街电(星宿日式调酒炭火烧肉成都道店),天津市和平区成都道69号,天津市,天津市,和平区,4006868588,unknown,
baidu,3e62027646011de296ca07cd,大家的家·天津泰安道城心社区,天津市和平区大沽北路184号,天津市,天津市,和平区,15620115578,unknown,
baidu,6f8c0333332d3eb96fc02cc7,来电(小伦敦西餐厅),天津市和平区成都道73号(近芷江路),天津市,天津市,和平区,4008845966,unknown,
baidu,4ff360295e251e287ab55cd7,街电(温手阁SPA养生馆),天津市和平区诚基中心商业街2层2140号,天津市,天津市,和平区,4006868588,unknown,
baidu,315ae40f50595ede96ca07c8,紫御细胞能量抗衰ZandTECH(国际大厦店),南京路75号天津国际大厦B层01号,天津市,天津市,和平区,(022)23113125,unknown,
baidu,ea777cf15f42153842d63e35,Grace美甲咖啡美睫SPA(五大道店),"洛阳道31号（五大道公园斜对面,近先农大院）",天津市,天津市,和平区,13662006972,unknown,
baidu,00d617e831809b917069d3e3,蕾特恩专业祛痘国际连锁(小白楼地铁站店),南京路小白楼朗香街7-11超市旁（小白楼地铁AD出口）,天津市,天津市,和平区,(022)23312301,unknown,
baidu,4a0c08bc29db25fe1676435e,梵莎轻奢美学(天津君隆广场店),南京路99号君隆广场B2-406室,天津市,天津市,和平区,,unknown,
baidu,6c4c3385fe84974d00ff2d3d,凯丽美容连锁(湖北路店),湖北路33-2号102室,天津市,天津市,和平区,17822183153,unknown,
baidu,7a2118c69853acf5b6f42fcf,贝缇丽皮肤管理·祛痘·问题肌肤调理,南京路39号凯德国贸购物中心A座19层,天津市,天津市,河西区,18322377428,unknown,
baidu,13a6f13b107e36326f4760fa,鑫俐来健康美容养生,兰州道14-4号（贵阳路与兰州道交叉口金德园底商）,天津市,天津市,和平区,"13516207373,15320127289",unknown,
baidu,40859e8f50752f56fd0eb0cf,Dili美甲美睫(山西路品牌店),山西路288号,天津市,天津市,和平区,"13821568787,18722599578",unknown,
baidu,cae1665f6fee12e70189729e,YIDONG美容(府上和平店),岳阳道与西安道交叉口合心园2-105-1,天津市,天津市,和平区,13388057631,unknown,
baidu,2f03dc89cbd5d9c982288a8f,秀呈美经络减肥(和平店),河北路与保定道交口宏达公寓1号楼底商（近耀华小学）,天津市,天津市,和平区,15822002119,unknown,
baidu,cca6a1ec50e01655f942b2da,雅斯娜·细胞夹祛痘中心,琳科中路126号222铺,天津市,天津市,河西区,18142268243,unknown,
baidu,7a6376563171d7046d20b9c4,莲姿娜·半永久纹绣纹眉(河西店国贸店),南京路国贸写字楼A座32层3214室,天津市,天津市,河西区,,unknown,
baidu,d2917d081fc11094d81318c1,尤米一站式美甲美睫(国贸店),南京路39号国际贸易中心A座2315,天津市,天津市,河西区,"13332018631,18002091089",unknown,
baidu,44601a96bcddc6645a3ac838,藤野造型(天津小白楼直营店),小白楼解放北路万通中心一楼106,天津市,天津市,和平区,"(022)23113675,13249875292",unknown,
baidu,1e69b7d519bfe9f98f55ec92,3am HAIR SALON烫发染发接发(世纪都会店),南京路183号世纪都会5层510,天津市,天津市,和平区,"(022)23465177,18722444868",unknown,
baidu,3d4b0d42cdbe5915bc4842f8,IMAI  Hair  Studio,重庆道197号,天津市,天津市,和平区,13012299117,unknown,
baidu,7a93a20166255ca10a5cb302,藤野造型(国际商场店),南京路国际商场A座四楼403,天津市,天津市,和平区,"(022)27813380,(022)27813380-022",unknown,
baidu,03d537c09d04d6323586f405,樱花美甲美睫(南京路店),南京路诚基中心商业街宏利多超市旁樱花美甲A1018,天津市,天津市,和平区,,unknown,
baidu,7e6f7be3171de49c4054d717,GT美发沙龙(府上和平店),府上和平2号楼底商,天津市,天津市,和平区,(022)23117905,unknown,
baidu,c63130ab331ee459ad31e52e,福满FOR MEN BARBER SHOP男士专属理发馆(赤峰道店),赤峰道88号,天津市,天津市,和平区,18622112200,unknown,
baidu,cce8fc5e26428caa077ce830,韩国李知恩形象设计(国金汇店),南京路108号国金汇南区负一层B1-06,天津市,天津市,和平区,02227816363,unknown,
baidu,66ea791d19f57f258c1a89c5,骉悦美容美体,天津市和平区睦南道72号,天津市,天津市,和平区,(022)23305959,unknown,
baidu,f4467207369c6c613617dcda,典班造型(津南里店),天津市和平区津南里,天津市,天津市,和平区,15522516716,unknown,
baidu,c50b924bb875f72f38e4a640,贝拉光电科技美肤,南京路凯德国贸大楼A座,天津市,天津市,河西区,"13662088828,18822625559,18822655559",unknown,
baidu,d224081446ddc2e60bccdd91,一东造型(府上和平店),新兴里小区,天津市,天津市,和平区,(022)23399157,unknown,
baidu,2c75b9deeb1355791ee9997e,唐潮造型(保定道店),保定道45号宏达公寓1号楼,天津市,天津市,和平区,(022)23306096,unknown,
baidu,048a3c1f6e65ddc5d4851f7d,元一·古方养发(南京路店),南京路诚基中心商业街一楼A1023,天津市,天津市,和平区,13381366726,unknown,
baidu,60d0a667079848079cf77979,美诗特造型工作室(前明德里店),西安道39号(营口道地铁站C3口步行470米),天津市,天津市,和平区,15399678456,unknown,
baidu,b0e4dea389ccfefe99005097,功夫肩颈S·NR美容连锁(和平店),天津市和平区五大道街道南京路125号-a1005,天津市,天津市,和平区,18622909585,unknown,
baidu,fa14c15b6d964b206f3e1bcd,104造型,马场道104号照耀里文明小区对面,天津市,天津市,和平区,(022)23257371,unknown,
baidu,d1c3e14d7f36b94ab2077d29,四季·予你日式美甲美睫Nail(河西店),南京路39号天津国际贸易中心A座40楼4011,天津市,天津市,河西区,18822702166,unknown,
baidu,3771bc146c976b1779dbd2e2,四七美学·半永久纹眉(天津旗舰店),营口道34号,天津市,天津市,河西区,"19107142944,19107142972",unknown,
baidu,d9a3bccb15cd3f1ceb56fa12,米娜造型(营口道店),南京路城基中心第五大道商业街一楼A1087简造型同店,天津市,天津市,和平区,15222152135,unknown,
baidu,ea4a3dc9ee5d03534e55473f,神奕发屋,和曲阜道85号附近,天津市,天津市,和平区,13820753967,unknown,
baidu,2a1856c40eb9730fafee7a33,温州发廊(芷江路店),芷江路2号,天津市,天津市,和平区,13587628536,unknown,
baidu,bb637d012480384772210bd9,阿明(河北路店),天津市和平区林东大楼后楼4门,天津市,天津市,和平区,,unknown,
baidu,237ee748f499f76d2dfaa75c,香杉丽颖,第五大道商业街A1078号,天津市,天津市,和平区,"13516184428,18649073736",unknown,
baidu,399254818763d97da1a934c4,韩国李知恩形象设计(永安道店),永安道185号元兴新里底商与绍兴道交口,天津市,天津市,河西区,(022)83863631,unknown,
baidu,77a574368df2ad03774ff1fd,一东造型(小白楼店),南京路21号增2号（金皇大酒店对面）,天津市,天津市,河西区,(022)23159326,unknown,
baidu,5d43eb67b330fcb5da2f284c,皇姿经络减肥中心(和平店),南京路万科世贸广场A座2403（耀华中学对面）,天津市,天津市,和平区,15620301717,unknown,
baidu,37d60a4622f55b791e1d11fd,晶奕空间专业脱毛连锁机构(国际商场店),南京路211号国际商场A座4层4002,天津市,天津市,和平区,(022)27830619,unknown,
baidu,a8125cf99e87abc8256e9898,指艺美甲美睫化妆(诚基中心店),南京路第五大道商业街A1076,天津市,天津市,和平区,13180919765,unknown,
baidu,9e5512c4aa963d0e32870a8b,菠萝男士发型设计(天河城店),赤峰道59号,天津市,天津市,和平区,16600342673,unknown,
baidu,7d0ff0fd768757a7921fc9ad,智纲纹身店(诚基中心店),南京路125号诚基中心2楼,天津市,天津市,和平区,13502187187,unknown,
baidu,c3a6fe0880e9cea11df74d2d,网红接发染发(诚基中心一店),南京路诚基中心五大道商业街一楼底商A1133,天津市,天津市,和平区,13612178672,unknown,
baidu,32ff1f153485dbd3cf06a460,UGIRL有个美甲(小白楼国贸店),南京路39号天津国际贸易中心a座16楼1613,天津市,天津市,河西区,17602282246,unknown,
baidu,3c0ea7c534183be2fbf0cbe7,九段发型Salon(陕西路店),陕西路与滨江道交叉口庆泰里底商6号（乐宾旁）,天津市,天津市,和平区,"(022)27210558,(022)27239568",unknown,
baidu,31af19769bb66f31d8eced30,尚帮造型,五大道街道南京路125号城基中心商业街1号楼1089号(超美化妆对过),天津市,天津市,和平区,18526817718,unknown,
baidu,6b04ce6c22bdbd0f8bf15df1,莎莎美妆造型工作室(和平大悦城店),南京路诚基中心三号楼一门3930号,天津市,天津市,和平区,15822649986,unknown,
baidu,07235e2ab09278be3b221cc4,kity house连锁主题美甲美睫会所(小白楼店),建设路88号小白楼朗香街B1层S008,天津市,天津市,和平区,13821588021,unknown,
baidu,d397648d8f6ebf060c0e6bcf,花眉睫美学中心(万科世贸广场店),万科世贸广场A座2102室,天津市,天津市,和平区,17612215305,unknown,
baidu,b589b8aa30325ab881288a63,Leisurely Nail Art,南京路与马场道交口天津国际贸易中心A座0724室,天津市,天津市,河西区,"13389933213,13752643213",unknown,
baidu,39a19f06bcbbd3539703198f,正树堂美肤美体总店(南京路万科世贸店),南京路万科世贸A座1504门（临近大悦城耀华中学、近地铁营口道站）,天津市,天津市,和平区,15002266001,unknown,
baidu,a7f8d2c202658ee778f79620,Free style自由风尚(格普澜轩店),汉阳道12号格普澜轩底商（贵州路）,天津市,天津市,和平区,(022)83136980,unknown,
baidu,096aaac85d887bd0f4c59cc2,瑞豪专业烫染连锁(诚基中心店),天津市和平区五大道街道南京路125号第五大道商业街西安道一侧诚基中心F2楼A2117号,天津市,天津市,和平区,15222152135,unknown,
baidu,8718e32de1533776cd04ef68,暮也Hair studio,天津市和平区南京路125号诚基中心商业街A1043,天津市,天津市,和平区,"17602207890,18920302710",unknown,
baidu,c7b56037805ad2de99005021,欧伊赫时尚私人定制发套(建设路店),建设路72号(科学会堂旁),天津市,天津市,和平区,(022)23302101,unknown,
baidu,040beb559666d55cb5147ff4,进喜理发馆,长春道130号,天津市,天津市,和平区,15122924913,unknown,
baidu,d5baf35315ae67f2d618b79f,韩国李秀妍形象设计(厦门路店),下瓦房街道富邦花园1号楼-号5底商,天津市,天津市,河西区,(022)85286529,unknown,
baidu,aae345089a05d6b3c056ac93,517烫染工作室(滨江道店),南京路诚基中心1041,天津市,天津市,和平区,17602207890,unknown,
baidu,71db3192502dba9a71210bf3,Top Lady日本美甲艺术沙龙,凯德国贸C座1309,天津市,天津市,河西区,(022)59000251,unknown,
baidu,1bd8f55f040eb1825d0d02dc,MIYABI雅·美甲美睫,南京路诚基中心1号楼第五大道商业街2楼(靠近南京路扶梯上来左手边),天津市,天津市,和平区,13001396117,unknown,
baidu,b5463b5ba7ec9b368936ee81,新界·玫丽盼日式色彩沙龙(国贸店),福安大街京东家居2楼,天津市,天津市,河西区,18822244181,unknown,
baidu,034ab010fa3484575bf6beda,韩派无痕接发(诚基中心店),琳科东路星品大厦1号楼17层1713室,天津市,天津市,和平区,18222479222,unknown,
baidu,2d90120bc579665c72210b25,零感专业无痕接发,南京路诚基中心商业街2楼A2006,天津市,天津市,和平区,18222473111,unknown,
baidu,e8c9ad1448e8331f94ec8493,Gellynn日式美甲美睫美肌(国贸店),大营门街道南京路39号天津国际贸易中心A座3505室,天津市,天津市,河西区,18522594523,unknown,
baidu,99c6de02c55cc09fd618b7cf,卡兮Tidal color(财经大学店),天津财经大学商业区A座10号商铺,天津市,天津市,河西区,18142274046,unknown,
baidu,faf649798daafe67f8f0cb15,大云子美学工作室,南京路39号天津国际贸易中心1号楼16楼1603室,天津市,天津市,河西区,,unknown,
baidu,4f22db2b5ed09f79a1acc447,YM·花梨日式美甲美睫,国贸A座2409,天津市,天津市,河西区,18920030395,unknown,
baidu,88d3309b1a32f77481288a24,依俪彩妆造型培训·YY STUDIO(五大道店),南昌路国贸购物中心A座22层,天津市,天津市,河西区,18522422404,unknown,
baidu,066a531950712d09bd4842e1,用心美妆工作室,国际贸易中心A座2313,天津市,天津市,河西区,,unknown,
baidu,77b737a5b2475b0115c905c8,U.N style(小白楼店),天津市和平区建设路88号b2楼,天津市,天津市,和平区,(022)23310113,unknown,
baidu,5e53af1a11b579224151c0fd,天津五大道文化旅游区,天津市和平区重庆道83号,天津市,天津市,和平区,(022)23307222,unknown,
baidu,61085211f6cdb4a0c51b75cc,中国瓷房子博物馆,天津市和平区赤峰道72号(近和平路商业街),天津市,天津市,和平区,(022)27123366,unknown,
baidu,eef2d5280053a1da3be4a636,庆王府,天津市和平区重庆道55号剑桥大楼对面,天津市,天津市,和平区,(022)58319915,unknown,
baidu,15a938106bd0f5bc14c8f63b,天津人民公园,天津市河西区徽州道29号,天津市,天津市,河西区,(022)23263286,unknown,
baidu,d41c548d30799d302efaa768,小白楼,天津市和平区安善里122号,天津市,天津市,和平区,,unknown,
baidu,da2118217ad32ddd2cb9081f,睦南府,睦南道93号,天津市,天津市,和平区,,unknown,
baidu,1640a4a6c242e2ba3ce23146,海河公园,天津市和平区台儿庄路3-10号,天津市,天津市,和平区,,unknown,
baidu,3a4e9cc7e410dda2081cc7f4,天津五大道石牌,天津市和平区河北路269号,天津市,天津市,和平区,,unknown,
baidu,f74596b7de94d7b1f7e73b62,五大道地标钟,睦南道与马场道交叉口西南50米,天津市,天津市,和平区,,unknown,
baidu,2c635617dae171116849f3c0,中心公园,天津市和平区和平医院一带,天津市,天津市,和平区,,unknown,
baidu,4ce10ce65ec1aea0441a32f4,疙瘩楼,天津市和平区河北路287、289号,天津市,天津市,和平区,,unknown,
baidu,f16ed36210aa005526d2bb63,抗震纪念碑,南京路99号君隆广场底商大华银行天津分行河北路一侧,天津市,天津市,和平区,,unknown,
baidu,c16534053d3bc578ab175a37,复兴公园,天津市和平区潼关道增1号(近津汇广场),天津市,天津市,和平区,,unknown,
baidu,e6082b006a91ebca34b06cc4,解放北园,天津市和平区泰安道167号,天津市,天津市,和平区,,unknown,
baidu,55fa2c0b4d89e5341de999ac,五大道历史博物馆,重庆道与河北路交叉口五大道游客服务中心F2,天津市,天津市,和平区,17627761727,unknown,
baidu,40a32bbd54e1906001294f57,天津北疆博物院,天津市河西区马场道117号(从天津外国语大学西北4门进入),天津市,天津市,河西区,(022)23263517,unknown,
baidu,fb441a3964edeba0abf7295f,五大道雕像,大理道守善里2号,天津市,天津市,和平区,,unknown,
baidu,852119697c11a4bcbd484247,睦南公园,睦南道110号,天津市,天津市,和平区,,unknown,
baidu,fd007c5e74f00f12a8f729e0,曾延毅旧居,常德道1号,天津市,天津市,和平区,,unknown,
baidu,43b7e889eeeb301758f6be2d,方先之旧宅,天津市和平区睦南道109号,天津市,天津市,和平区,,unknown,
baidu,93df0dc39a8cd756882fb53f,李氏旧居,河北路239号,天津市,天津市,和平区,,unknown,
baidu,72c921abdc2e1672e812e43d,香港大楼旧址,天津市河西区马场道10号(小白楼地铁站B口步行230米),天津市,天津市,和平区,,unknown,
baidu,0523a14180143e60b23c813c,蔡成勋旧居,大理道1号,天津市,天津市,和平区,,unknown,
baidu,cd5705603074bc5c2a02e1b5,张善孖张大千民族文化博物馆,天津市和平区五大道街道洛阳道2号增2号,天津市,天津市,和平区,18522530857,unknown,
baidu,f80f6456fcf5097c86420e63,静园,天津市和平区鞍山道70号,天津市,天津市,和平区,(022)27311618,unknown,
baidu,4a6546ecc43ddebd4e554718,五大道公园,天津市和平区五大道街道新华路178号,天津市,天津市,和平区,,unknown,
baidu,e6ee2fd260046a352b11d12c,李爱锐旧居,重庆道38号,天津市,天津市,和平区,,unknown,
baidu,d82d6697412c35a7d518b7e4,张茂霖故居,郑州道36号,天津市,天津市,和平区,,unknown,
baidu,36a160e3027749e9acee7a55,美最时洋行旧址,天津市和平区大沽北路174号,天津市,天津市,和平区,,unknown,
baidu,0e293a2b7f10e25cadcb66c6,马占山旧居,湖南路11号,天津市,天津市,和平区,,unknown,
baidu,6bcc439e93b8139eb6f42fd2,天主教天津教区西开总堂,天津市和平区西宁道13号,天津市,天津市,和平区,"(022)27811929,(022)27813325",unknown,
baidu,17a6c2a6eea24a57c61b7531,五大道文化旅游区-张福运旧宅,常德道2号,天津市,天津市,和平区,,unknown,
baidu,49440d203e745343b05c6add,安里甘艺术中心,天津市和平区浙江路2号,天津市,天津市,和平区,,unknown,
baidu,50fb64ff5289865ce9f8537b,李叔福旧居,睦南道28号,天津市,天津市,和平区,(022)24458570,unknown,
baidu,8b340afaaacb87e9a4c75697,中国古城堡博物馆,河北路283-285号,天津市,天津市,和平区,(022)23398888,unknown,
baidu,606ab0d0a18069560e3dda6e,原蔡氏家祠,天津市和平区大理道5号,天津市,天津市,和平区,,unknown,
baidu,fcf59894e3ec3fd263180987,花园大楼旧址,天津市和平区大沽北路184号,天津市,天津市,和平区,,unknown,
baidu,2fa17a36a283f69c9e82eae9,和平区全域旅游集散中心,重庆道83号民园广场内,天津市,天津市,和平区,,unknown,
baidu,df251a10a9cadfa25bf6be73,张园,天津市和平区鞍山道59号,天津市,天津市,和平区,(022)27307206,unknown,
baidu,2ad32cc3217747f29d95de3c,刘冠雄旧宅,天津市河西区马场道123号,天津市,天津市,河西区,,unknown,
baidu,04bdf4a3a7645756354aae2f,马可波罗广场,天津市光复道街道民族路84号管委会院内1门3楼,天津市,天津市,河北区,(022)67160526,unknown,
baidu,6ee01020ec3ec7ee53e5c5b2,顾维钧旧居,河北路267号,天津市,天津市,和平区,"(022)23740169,(022)23916111",unknown,
baidu,0523a141af6a1161b23c81c3,张学良故居,天津市和平区劝业场街道赤峰道78号,天津市,天津市,和平区,(022)87896106,unknown,
baidu,508d2361e5c79fbb6f3e1b79,天津邮政博物馆,天津市和平区解放北路109号,天津市,天津市,和平区,(022)23310386,unknown,
baidu,4f8e304ead67b0848a36eef5,龚心湛旧居,重庆道64号,天津市,天津市,和平区,,unknown,
baidu,4ca69f12501ce1e461685838,拜石博物馆,天津市和平区河北路与大理道交口(民园文化广场),天津市,天津市,和平区,,unknown,
baidu,5099467abe5c2d9dfa42b268,金邦平故居,重庆道114号,天津市,天津市,和平区,,unknown,
baidu,235b3ae7386d6e1da8059d84,天津电力科技博物馆,进步道29号,天津市,天津市,河北区,"(022)24407193,022-24407195",unknown,
baidu,ea0e5b8e04008cf8a20464d0,许氏旧居,天津市和平区睦南道11号(香港路口),天津市,天津市,和平区,,unknown,
baidu,29c33bd34b160c7672455b20,末代皇帝旧居,天津市和平区鞍山道70号,天津市,天津市,和平区,(022)27311618,unknown,
baidu,a95998f74e391c077069d3ad,孙氏旧宅-润园,天津市和平区五大道街道大理道68,天津市,天津市,和平区,,unknown,
baidu,d7fd2ad3c65c79290bccdd3c,訾玉甫旧居,大理道37号,天津市,天津市,和平区,,unknown,
baidu,d2365dbedc59ad628d77274d,棉里美术馆,天津市和平区五大道街道河北路314号,天津市,天津市,和平区,,unknown,
baidu,531807043425e05f09a8d495,天津利顺德博物馆,台儿庄路33号利顺德大饭店地下一层,天津市,天津市,和平区,"(022)23311688,022-58526888",unknown,
baidu,e009ffcf4ec9fb9582a12eb2,张兰德旧宅,天津市和平区金林村4号,天津市,天津市,和平区,,unknown,
baidu,348ebcdfbe512759fa42b24d,郑冀之旧宅,郑州道35号,天津市,天津市,和平区,,unknown,
baidu,2154907f80aac4d25d17c3d7,林必锦旧居,天津市和平区五大道街道睦南道60号,天津市,天津市,和平区,,unknown,
baidu,039c1e835732a752882fb535,英国领事官邸旧址,天津市和平区泰安道与浙江路交口浙江路1号,天津市,天津市,和平区,,unknown,
baidu,e3062a0eb7bc3c50dc1e5274,王氏旧居,天津市和平区马场道54号五大道文化旅游区,天津市,天津市,和平区,,unknown,
baidu,7fe036b52113f79e0b1cc789,中共中央在津秘密印刷厂旧址,天津市和平区唐山道47号,天津市,天津市,和平区,,unknown,
baidu,72aa2513837e823a077ce824,关麟征旧居,长沙路97号,天津市,天津市,和平区,,unknown,
baidu,49d959380e49d53ec61e5129,张作相旧居,重庆道4号,天津市,天津市,和平区,,unknown,
baidu,9efb8f44219e86f04354d733,天津数字艺术博物馆,天津市和平区承德道12号,天津市,天津市,和平区,(022)23310518,unknown,
baidu,f1a07542d44ae02a6f4760a5,陈光远旧居,大理道48号,天津市,天津市,和平区,,unknown,
baidu,2fd2beab066b672f7adbd23c,那桐旧居,天津市和平区小白楼街道新华路176号,天津市,天津市,和平区,,unknown,
baidu,c93cc2bf4b60f4a116a1905d,张自忠旧居,天津市和平区成都道60号,天津市,天津市,和平区,,unknown,
baidu,324220b8035cf5f135b06c6b,五大道文化旅游区-怡寿里,天津市和平区常德道天津市和平区第四幼儿园东南1门北侧,天津市,天津市,和平区,,unknown,
baidu,96efdce3fba8a3492e473364,张伯苓故居,大理道39号,天津市,天津市,和平区,,unknown,
baidu,c2dc9cbdb4dfd0992e473357,天津五大道近代建筑群,天津市和平区五大道近代建筑群,天津市,天津市,和平区,,unknown,
baidu,25ec69fc6885077cc26c1445,周氏旧宅,河北路277号,天津市,天津市,和平区,,unknown,
baidu,406f8dbe3f03ac8746572690,纳森旧居,睦南道70号,天津市,天津市,和平区,,unknown,
baidu,f24e29be2bf818d60f3dda83,九三学社旧址,天津市河西区九龙路与马场道交口(外国语大学),天津市,天津市,河西区,,unknown,
baidu,0de3fc0ce4cfd4de6b49f3f4,大理道李霁野旧居,天津市和平区五大道街道大理道4号,天津市,天津市,和平区,,unknown,
baidu,d75b42feb8159849246e984d,张志潭旧居,大理道4号,天津市,天津市,和平区,,unknown,
baidu,7efb1b75ed381b2c0482c2cf,天津市历史风貌建筑,天津市和平区泰安道5号院,天津市,天津市,和平区,,unknown,
baidu,437c790b4358c479d23ce3e7,卞氏旧宅,睦南道79号余门,天津市,天津市,和平区,,unknown,
baidu,61c9111d86a07c3a60180965,徐树强旧宅,天津市和平区五大道街道睦南道108号,天津市,天津市,和平区,,unknown,
baidu,93df0dc39a8fd756882fb53e,孙传芳旧宅,天津市和平区泰安道17号,天津市,天津市,和平区,,unknown,
baidu,55e964ae4848fe1c02897288,美国兵营旧址(广东路校区),天津市河西区广东路1号(近马场道),天津市,天津市,河西区,,unknown,
baidu,6f275cdf11836687a80dd8a0,林宪祖旧居,常德道8号,天津市,天津市,和平区,,unknown,
baidu,3a08a4e04b51978c921fc994,五大道文化旅游区-徐世昌旧居,天津市和平区体育馆街道新华路255号,天津市,天津市,和平区,,unknown,
baidu,ea5e0b83fc7b3bc27adbd22c,李烛尘旧居,马场道102号,天津市,天津市,和平区,,unknown,
baidu,487844b08272f7e7c26c14e9,靳云鹏旧居,天津市和平区小白楼街道四川路2号,天津市,天津市,和平区,,unknown,
baidu,81ab322e09942f7ff6c59c2d,陶氏旧居,成都道36号,天津市,天津市,和平区,,unknown,
baidu,3b578aa0143afde0f4e73b2e,中共天津历史纪念馆,天津市和平区山西路98号,天津市,天津市,和平区,(022)27231565,unknown,
baidu,d469fb50909fe00b1ce999be,宋棐卿旧宅,睦南道86号,天津市,天津市,和平区,,unknown,
baidu,f0079dc82d8e0a811d1d1162,五大道文化旅游区-马鸿逵旧居,天津市和平区洛阳道49号,天津市,天津市,和平区,,unknown,
baidu,8cba4bb0296be8f9ad045729,颜惠庆旧宅,睦南道26号,天津市,天津市,和平区,18032230867,unknown,
baidu,d4c9aa6902b6d642b54f543c,犹太会堂旧址,南京路55号,天津市,天津市,和平区,,unknown,
baidu,b26d87f71493aa094d2fdf8f,五大道文化旅游区-马连良旧居,天津市和平区河北路287号,天津市,天津市,和平区,,unknown,
baidu,0aa9011be8b13397f8f0cbd3,原美国兵营,天津市和平区大沽北路172号,天津市,天津市,和平区,,unknown,
baidu,eb30f137eebd305e97ec845f,张爱玲旧居,天津市和平区赤峰道83号,天津市,天津市,和平区,15332061161,unknown,
baidu,e5bef73d3db4cacd9122e00c,名人花园,天津市重庆道民园大楼64号甲楼,天津市,天津市,和平区,,unknown,
baidu,7f9320e6b790332af22d83ae,张学铭旧居,睦南道50号,天津市,天津市,和平区,,unknown,
baidu,58c92e4d8ce734ccb45f1eb7,常德道孟氏旧居,天津市和平区常德道26号五大道文化旅游区内,天津市,天津市,和平区,,unknown,
baidu,8d38fd78834f216d26e0a0bf,金梁旧居,天津市和平区重庆道52号,天津市,天津市,和平区,,unknown,
baidu,a40c38fe8cb3073f715e8027,华夏草堂博物馆(中华儿女艺术研究院教育基地),天津市和平区大理道11-2号,天津市,天津市,和平区,(022)23399159,unknown,
baidu,28dcea75d80a1417343a7104,五大道文化旅游区-周学熙旧居,天津市和平区澳门路3号,天津市,天津市,和平区,,unknown,
baidu,7388dffd724a0dead3ff234e,孙氏旧居,大理道66号,天津市,天津市,和平区,,unknown,
baidu,00a3751b429c12d42cb9080f,吴泰勋旧居,马场道16~18号,天津市,天津市,和平区,,unknown,
baidu,df74c21ec4d5321833169b12,陶艺美术馆,天津市河西区马场道117号天津外国语大学体育馆内一楼,天津市,天津市,河西区,,unknown,
baidu,593850fbcdb55e5cdf1e5255,李勉之旧居,睦南道74号,天津市,天津市,和平区,,unknown,
baidu,37d60a4642afbb1d1e1d113f,雍剑秋旧居,马场道60-62号,天津市,天津市,和平区,,unknown,
baidu,99fc4b22430319e059bbbcda,蒋恩钿旧居,天津市和平区桂林路五大道文化旅游区,天津市,天津市,和平区,,unknown,
baidu,0a46dc0f977c52233062123f,孙季鲁旧居,郑州道20号,天津市,天津市,和平区,,unknown,
baidu,92b806d2b449f78379b55c2b,王占元旧居,大理道60号,天津市,天津市,和平区,,unknown,
baidu,59abebc8389db6bdc5effbe6,犹太人旧居,马场道116号,天津市,天津市,和平区,,unknown,
baidu,dfc496b68b1894d28936ee29,张绍曾旧居,河北路334号,天津市,天津市,和平区,,unknown,
baidu,287c256d5cde1577077ce8aa,李实忱旧居,成都道43号,天津市,天津市,和平区,,unknown,
baidu,484d20f250122461bd48424e,孙桐萱旧宅,重庆道68号,天津市,天津市,和平区,,unknown,
baidu,76b1ac9dda7a8792f21937c8,周志辅旧居,天津市和平区河北路277号,天津市,天津市,和平区,,unknown,
baidu,c44394431750e338dbecedae,纳森故居,天津市和平区大沽北路天津格格府典藏博物馆(大沽北路),天津市,天津市,和平区,,unknown,
baidu,a86f7ebef3cd021802294f93,杨十三旧居,成都道鹏程里4号,天津市,天津市,和平区,,unknown,
baidu,b9910fbb31d5a06c4d776e11,宋则久旧居,天津市和平区赤峰道125号,天津市,天津市,和平区,,unknown,
baidu,2dbf952ed47de39133621272,杨济时旧居,重庆道116号,天津市,天津市,和平区,,unknown,
baidu,c7b57ae76124fad2e3110344,桑志华旧居,天津市河西区金字塔路天津外国语大学马场道校区,天津市,天津市,河西区,,unknown,
baidu,917bc3d7fb388d5295f08ca4,大阔饭店旧址,天津市和平区小白楼街道浙江路15号,天津市,天津市,和平区,,unknown,
baidu,c98e9aabe22736fee115f9e3,陈亦候旧居,天津市和平区西安道93号,天津市,天津市,和平区,,unknown,
baidu,641882161328b13304fef569,一带一路·新丝绸之路博物馆,河北路283号,天津市,天津市,和平区,,unknown,
baidu,e3b29d7b66dd2d49a1a934cb,吴重熹旧宅,天津市和平区小白楼街道烟台道56-58号,天津市,天津市,和平区,,unknown,
baidu,2c42a7ddac47744c6ca3cc75,意庄美术馆,天津市和平区西安道成山公馆,天津市,天津市,和平区,,unknown,
baidu,40c11e2fae1ee36c715e8048,范权旧居,常德道24号,天津市,天津市,和平区,,unknown,
baidu,c239ef4c7f533eb638e4a6db,林鸿赉旧居,常德道2号,天津市,天津市,和平区,,unknown,
baidu,2a84da923cce527e3a13fd0a,陈祝龄旧居,天津市和平区保定道4号,天津市,天津市,和平区,,unknown,
baidu,a18fe784405c35ce1ef74d0d,中国工商银行历史文化建筑,天津市和平区建设路80号,天津市,天津市,和平区,,unknown,
baidu,590cdaf95a75e87a15c90592,赵天麟旧居,天津市成都道73号,天津市,天津市,和平区,,unknown,
baidu,ff31ab7dd65829c8c26c14ad,天津市体育博物馆,大理道28号,天津市,天津市,和平区,"(022)23390889,(022)23393937",unknown,
baidu,2ca18b5db780ea32095cb3a0,网路出行,天津市和平区重庆道与衡阳路南侧重庆道89号,天津市,天津市,和平区,,unknown,
baidu,97ce12789aa4e574c6effbf0,天津市文物公司(天津富蓝特大酒店东),天津市和平区四川路2号,天津市,天津市,和平区,(022)27301485,unknown,
baidu,c312c97a8ff1b0ed0c0a70cc,北洋总统徐世昌之女旧居,新华路255号,天津市,天津市,和平区,,unknown,
baidu,2527be1e258823aa4afc8d51,潘复旧居,马场道2号,天津市,天津市,和平区,(022)23391920,unknown,
baidu,097db4d60a796a862fb96ddd,金林村,天津市和平区五大道街道睦南道104号,天津市,天津市,和平区,,unknown,
baidu,a530b72f0cf701e7c72ba116,山海club(润兴里店),河北路与重庆道交口润兴里2号楼101,天津市,天津市,和平区,15822008166,unknown,
baidu,05b314d8144fa11f97f08c73,隐舍,重庆道61号（重庆道与南海路交口庆王府旁）,天津市,天津市,和平区,,unknown,
baidu,603ea606a9380881a2d23024,EZ Music Home Live,南京路85号（君隆广场B3座底商）,天津市,天津市,和平区,18522460233,unknown,
baidu,1c711ff51fb140f417948e1d,酒鬼收容所Cocktail&Whisky,新华路222号,天津市,天津市,和平区,13920944211,unknown,
baidu,8c597455e1566314fbf0cb8e,竹Bamboo Lounge(河北路店),河北路276号,天津市,天津市,和平区,"18522359913,18526126717",unknown,
baidu,a8fb114807408ba948cc4aec,楚门酒吧(民园店),湖南路19号,天津市,天津市,和平区,,unknown,
baidu,7c5e480b0c3d6badadb22acf,宝莱纳里仕满西餐酒吧,天津市和平区五大道街道新华路243号,天津市,天津市,和平区,"(022)23306866,17720088688",unknown,
baidu,3e763eb8bbfc0a6c5bf6be38,NINE·WHISKY柰,郑州道18号港澳大厦底商（近粤之园）,天津市,天津市,和平区,,unknown,
baidu,c05aa19381ade98bf8221357,悦洋酒屋,重庆道37号,天津市,天津市,和平区,18920866399,unknown,
baidu,233aebabef26b58a43ab9aaf,厚朴茶舍,大理道8号,天津市,天津市,和平区,15522145357,unknown,
baidu,14c02d0448aeabc4ecdfca89,龍LIVEHOUSE(和平店),建设路78号,天津市,天津市,和平区,13043251383,unknown,
baidu,758bc478ea436a2d5fd4fe09,iSpa(威斯汀·滨江道店),五大道街道南京路101号君隆威斯汀酒店六层(近营口道口),天津市,天津市,和平区,,unknown,
baidu,5a9964662f9ba9cd593ac808,地下室那间酒铺,五大道河北路278-1号,天津市,天津市,和平区,(022)23394090,unknown,
baidu,1e7de86bd401bf3cfb2213f2,半生一茶室·有茶有酒,大理道17号（近罗森民园店）,天津市,天津市,和平区,13820737328,unknown,
baidu,a295e9eac48a8decce04ef7e,酒寺酒吧,诚基中心商业街2楼2170（西安道这侧 室外扶梯2楼正对）,天津市,天津市,和平区,18643076932,unknown,
baidu,ab8d8beab036e5e948cc4acf,青门TAPROOM(庆王府店),重庆道55号庆王府园内（山益里酒店旁）,天津市,天津市,和平区,16622088606,unknown,
baidu,72aa25138371823a077ce827,民园广场,天津市和平区重庆道83号,天津市,天津市,和平区,,unknown,
baidu,ce13a1707445d0f0c3364458,PAGGY城市会客厅,河北路与重庆道交口民园广场北门三楼,天津市,天津市,和平区,,unknown,
baidu,d6a2bf37db15944b8bb98896,先农大院,河北路288号F2(近民园),天津市,天津市,和平区,,unknown,
baidu,7efb5b22247d8bdff7eafced,BLACK BOOM,重庆道83号民园广场正门,天津市,天津市,和平区,15510949667,unknown,
baidu,2fc3465ed1f0d70c2afc484a,mm派对门票式夜店(天津首店),天津市和平区新华路243号,天津市,天津市,和平区,,unknown,
baidu,ac63789f5a88c5892afc4818,禅意采耳·按摩·SPA(和平五大道店),"成都道32号（独栋独院,院内停车）",天津市,天津市,和平区,18649188586,unknown,
baidu,94ab9e397f288baa8bf15dd5,VLCS酒吧(天津店),重庆道83号（民园广场正门）,天津市,天津市,和平区,,unknown,
baidu,d6920eae379eda7d8b2fb505,蓝梦湾古装SPA(君隆广场B区店),天津市和平区五大道街道南京路99号,天津市,天津市,和平区,"13671112973,15321190782",unknown,
baidu,b3b005a8b17e58e9725e8096,PAULANER BAR,天津市和平区新华路天照大厦,天津市,天津市,和平区,,unknown,
baidu,302553a13eb03cbf15c90523,开心麻花民园剧场,五大道街重庆道83号民园广场开心麻花剧场,天津市,天津市,和平区,(022)58015757,unknown,
baidu,9ac036ff3bf02953eee4a552,TIAN甜DIY工作室,常德道3号101,天津市,天津市,和平区,,unknown,
baidu,f3110d6467f73829c356ac08,莱特酒吧,成都道（近文章发艺）,天津市,天津市,和平区,(022)23756689,unknown,
baidu,9f97b1c573266307b64f54d1,天津音乐厅,天津市和平区浙江路32号,天津市,天津市,和平区,18222965939,unknown,
baidu,f8f4af20abf49a1c5b3ac8a5,乐汤汇温泉生活馆(河东·精品店),十三经路与津塘路交叉口西南110米,天津市,天津市,河东区,(022)89988888,unknown,
baidu,41580873c6a35d29fbdc8513,808饮酒市集,大理道29号,天津市,天津市,和平区,18698044006,unknown,
baidu,ed23d76dd416f93a2911d145,八福盲人按摩(诚基中心店),南京路诚基中心商业街华尔街1105,天津市,天津市,和平区,,unknown,
baidu,fa7f5987a4271349931fc9f8,龍LIVEHOUSE(河西店),琼州道103-1,天津市,天津市,河西区,18822419448,unknown,
baidu,4d6d44a99c5690ab725e8063,西岸相声剧场,天津市河西区人民公园内儿童乐园旁,天津市,天津市,河西区,4001188921,unknown,
baidu,d25aa9c551e98bb9a01de9fe,精酿啤酒花园,天津市和平区新华路228号,天津市,天津市,和平区,,unknown,
baidu,6bb386372ccd2d8e0d3dda45,纯K(恒隆广场店),兴安路恒隆广场5L东庭（兴安路北门电梯直达）,天津市,天津市,和平区,,unknown,
baidu,6047d481fbf428c10c0e6b57,一酌bar,南京路云峰楼1/2楼底商新三多里小区旁（近曲阜道）,天津市,天津市,和平区,15022580713,unknown,
baidu,417ababf0868e69a17c8f672,群星剧院,烟台道82号,天津市,天津市,和平区,"(022)23396070,(022)23399084",unknown,
baidu,2ef0e654437c4b3879dbd2dd,model酒吧,第五大道商业街1111号,天津市,天津市,和平区,15510919845,unknown,
baidu,00022e9aae7a463b4e554790,甜STUDIO,常德道3号101,天津市,天津市,和平区,18502685815,unknown,
baidu,ababe9632bc2208a8f55ec29,奈尔宝家庭中心(金茂汇店),金茂汇1层（商场3号门旁）,天津市,天津市,河东区,4008169988,unknown,
baidu,79cceb36740e57901f5800ef,天影朗香国际影城,建设路88号小白楼朗香街B2楼（近音乐厅）,天津市,天津市,和平区,(022)23393998,unknown,
baidu,46305d36d0059bbd250bd073,佳美美容美体spa(诚基中心店),诚基中心商业街五大道A1132号,天津市,天津市,和平区,15222736757,unknown,
baidu,29680f4894ad4fb4dbd8915e,玺缘茶事,五大道街道重庆道93号,天津市,天津市,和平区,(022)23728875,unknown,
baidu,c879fa01980d5e53c809f082,光明国际影城,滨江道143号(劝业场对面),天津市,天津市,和平区,,unknown,
baidu,d9b74a267ee032d7fea778e7,SHOWLive,天津市和平区重庆道83号3楼,天津市,天津市,和平区,(022)23329888,unknown,
baidu,8d2acf75882c15314251c05e,SFC上影影城(天津天河城IMAX店),小白楼街和平路263号天津天河城第八层809商铺,天津市,天津市,和平区,(022)58866210,unknown,
baidu,e3a7fd135edb214b29b97c92,金逸影城(西岸店),下瓦房街道琼州道103号(人民公园),天津市,天津市,河西区,(022)58182222,unknown,
baidu,b2591f383d4b4e34d518b7b0,808 SWAG CLUB,天津市和平区大理道民园广场,天津市,天津市,和平区,,unknown,
baidu,a5d972415f92d350c91b95aa,Cattleya,城基中心二层A2021,天津市,天津市,和平区,,unknown,
baidu,b184249107271f55d42ce2ad,琥珀精酿啤酒红酒吧,新华路218号,天津市,天津市,和平区,15502214818,unknown,
baidu,4302ddbdee6f7a0e71210bb2,Tiam精酿啤酒,成都道75号（近成都道与芷江路交叉口）,天津市,天津市,和平区,18222828802,unknown,
baidu,cfc53eb265f3ff14b04c4959,津门锔艺工坊,天津市和平区五大道街道河北路309号2层,天津市,天津市,和平区,15900394614,unknown,
baidu,5951f2371219d8c1d22dd640,港湾艺术,诚基中心1号楼1层商铺,天津市,天津市,和平区,,unknown,
baidu,a3e872ca4b108b30aeb22a2c,SpeakL,南京路125号第五大道商业街西安道一侧诚基中心二号楼商铺2166室,天津市,天津市,和平区,15822422822,unknown,
baidu,7e4c1cc69b4be5cdf7eafc39,名流茶馆(多伦道店),多伦道与华安大街交口西北侧同方花园6-1-8,天津市,天津市,和平区,(022)27301458,unknown,
baidu,42903258b8386e0b2902e150,如家精选酒店(天津五大道南京路小白楼地铁站店),天津市和平区南京路59号,天津市,天津市,和平区,(022)58319990,unknown,
baidu,826e098eb4e466ed6fc02c73,丽柏酒店(天津五大道南京路店),天津市和平区新华路182号,天津市,天津市,和平区,(022)23391888,unknown,
baidu,6ab875b88a843f148836ee9c,花房姑娘青年旅舍(天津小白楼店),江西路富力中心2号楼2905,天津市,天津市,河西区,13389073992,unknown,
baidu,5a6fd6a1b424818c02294ff4,格林东方酒店(天津五大道小白楼地铁站店),五大道街新华南路228号,天津市,天津市,和平区,(022)23127217,unknown,
baidu,0163141d76f0af3a9de3213c,如家商旅酒店(天津五大道游客中心外国语大学店),睦南道72号,天津市,天津市,和平区,(022)58365999,unknown,
baidu,16ddc7ba97bdc63baaf72938,薇纳德酒店(天津五大道营口道地铁站店),南营门街道南京路131号富玛特大厦C座,天津市,天津市,和平区,(022)23317888,unknown,
baidu,3199475b121de225cd04ef46,丽怡酒店(天津五大道小白楼地铁站店),小白楼街道湖北路16号1楼,天津市,天津市,和平区,(022)23127888,unknown,
baidu,ea18e3fb5e1cfea87369d31c,星程酒店(天津滨江道店),五大道街南京路129号世贸广场A座3-7层,天津市,天津市,和平区,18622610980,unknown,
baidu,0ea8f5191eeaa8092806ce84,帅府酒店(天津五大道营口道地铁站店),岳阳道35号,天津市,天津市,和平区,(022)58661211,unknown,
baidu,3105455a6d764bffb23c813e,海友酒店(天津五大道小白楼店),新华路231号,天津市,天津市,和平区,(022)23155500,unknown,
baidu,a3369c7be8f99023a0acc4c8,天津利顺德大饭店,天津市和平区台儿庄路33号,天津市,天津市,和平区,(022)58526888,unknown,
baidu,4f79cbb4dcd97dd9adcb664c,天津金皇大酒店,天津市河西区南京路18号,天津市,天津市,河西区,"(022)23038866,(022)23138866",unknown,
baidu,2c199e00721682c238e4a681,天津四季酒店,赤峰道138号天津四季酒店9层露台,天津市,天津市,和平区,(022)27166688,unknown,
baidu,41122ac09cece984c2f1cfdf,平头哥电竞酒店(天津滨江道营口道地铁站店),新华路176号（新华路与烟台道交口）,天津市,天津市,和平区,13132204593,unknown,
baidu,af36f2cdb2242c5fa20464e1,津悦优选服务公寓(五大道景区店),南京路与马场道交叉口国贸中心A座,天津市,天津市,河西区,18522880858,unknown,
baidu,f01bbc2d867ff981cafa5f4a,天津滨江凯隆酒店,建设路105号,天津市,天津市,和平区,(022)23026888,unknown,
baidu,e0436203de981b041e5800cf,全季酒店(天津小白楼店),彰德道18号,天津市,天津市,和平区,(022)59980999,unknown,
baidu,6de3941949ee3a2e96f08cf3,九国·怀庭设计师精品民宿,天津市芷江路9号,天津市,天津市,和平区,13820582500,unknown,
baidu,21f25856764b194a97ec8403,美豪丽致酒店(天津五大道营口道地铁站店),南京路131号微沃大厦,天津市,天津市,和平区,(022)58171668,unknown,
baidu,058377123cb82126e8e58235,天津五大道小白楼地铁站轻居酒店(聚福里店),浙江路15号(小白楼地铁站A口步行200米),天津市,天津市,和平区,(022)58829966,unknown,
baidu,e42a2e922d5e58a80c0e6b2b,全季酒店(天津滨江道商业街店),天津市和平区辽宁路175号鼎旺大厦1楼,天津市,天津市,和平区,(022)27115888,unknown,
baidu,61085211247886b8c51b755a,天津友谊宾馆,南京路94号,天津市,天津市,和平区,"(022)23116789,(022)83126868",unknown,
baidu,fffbb592e37de137eedfca73,G-box服务公寓(天津小白楼五大道店),天津市河西区南京路凯德国贸A座15楼,天津市,天津市,河西区,18020071260,unknown,
baidu,aabdd5bc38f095d7deee8bf3,宜必思酒店(天津火车站津湾广场店),小白楼街解放北路与赤峰道交口津湾广场3号楼,天津市,天津市,和平区,(022)58829909,unknown,
baidu,3fbd8caa40ccab773517dcd6,景枫公寓酒店(天津小白楼五大道店),南京路39号天津国际贸易中心公寓楼A座,天津市,天津市,河西区,15790222509,unknown,
baidu,787e6bfba181477c1d38941a,天津糖忆酒店,五大道街马场道24号,天津市,天津市,和平区,"13602014519,15032883435",unknown,
baidu,cde9e2c7a062b8ade81e9776,天津新桃园酒店,天津市河西区广东路235号,天津市,天津市,河西区,(022)58688888,unknown,
baidu,34be3fc478811dec9ee32165,桔子水晶酒店(滨江道步行街店),天津市和平区长春道98号,天津市,天津市,和平区,(022)27316988,unknown,
baidu,5e6df49ebc5d3180d22dd696,桔子水晶酒店(津湾广场店),天津市和平区解放北路48号津湾广场1号楼1楼,天津市,天津市,和平区,"(022)60973060,(022)60973078,(022)60973088",unknown,
baidu,50fb64fffd4b6544e9f8530d,天津政协俱乐部,天津市河西区解放南路273号(近徐州道小白楼商业区),天津市,天津市,河西区,(022)23398666,unknown,
baidu,e3e2cd9d0b8340fac7f50d5e,天津远洋宾馆(远洋大厦店),天津市河北区海河东路5号,天津市,天津市,河北区,(022)24205518,unknown,
baidu,54db99b6ef3cce892fb17e33,天津站津湾广场亚朵酒店(天津站津湾广场店),天津市河北区建国道1号龙门大厦A座1号,天津市,天津市,河北区,(022)24222118,unknown,
baidu,16a6cd07475ae23e13882497,天津G酒店式公寓,天津市河西区南京路39号,天津市,天津市,河西区,15222309705,unknown,
baidu,9295d4e99ee2f000f62310a7,紫墨艺宿民宿(五大道滨江道店),南京路39号天津国际贸易中心C-2803,天津市,天津市,河西区,18202267590,unknown,
baidu,5c2dc21d9a91991d6fc02c44,天津盛捷国际大厦服务公寓,南京路75号,天津市,天津市,和平区,(022)23306666,unknown,
baidu,a98f5970d4e07437bca8223a,佰席国贸服务公寓(南京路五大道店),南京路国际贸易中心A塔1505室,天津市,天津市,河西区,"13642072211,18722269277",unknown,
baidu,7780b8fd8ac5aef2a2a934e2,轻奢晓筑·铂金屋精品公寓(天津小白楼五大道店),天津市河西区曲阜道85号,天津市,天津市,河西区,17622570791,unknown,
baidu,a23181c15aec38cf5d0d020d,M2Hotel幕宿遇设计公寓(天津五大道店),南京路39号国贸公寓C座,天津市,天津市,河西区,17627760646,unknown,
baidu,04581dc1436d34978505bfec,优西豪华服务式公寓(天津小白楼店),凯德国贸大厦C-38楼,天津市,天津市,河西区,(022)58535386,unknown,
baidu,316cc950ede8320aa1d230eb,设计师杜杜民宿(天津大理道店),大理道67号,天津市,天津市,和平区,,unknown,
baidu,c764e0c2d1054c1476e5b6b0,天津中心唐拉雅秀酒店,天津市和平区南京路219号(靠近营口道地铁站B1口),天津市,天津市,和平区,(022)23215888,unknown,
baidu,e4400c6bac3bc5506ca3cc42,金鸿欢迎您的光临民宿(南昌路分店),天津市河西区南昌路天津国际贸易中心-B座,天津市,天津市,河西区,,unknown,
baidu,deb23278057f4f9b843304bc,天津JOURNEY民宿,义生里,天津市,天津市,和平区,17695671322,unknown,
baidu,c507b3049cb111922b201aaf,天津Grace壹家民宿,天津市和平区新华路230号,天津市,天津市,和平区,,unknown,
baidu,eac6098121857494d518b7b8,天津卓尼民宿,天津市和平区大理道义生里文明巷8号,天津市,天津市,和平区,17695671322,unknown,
baidu,f54d99f5ba3a60ba9d9d68f2,五大道深宅小院(重庆道分店),天津市和平区五大道兴富里17号楼院内,天津市,天津市,和平区,,unknown,
baidu,d0e492e6bfd9990b3904b134,民园市集(民园保税商品展示交易中心),天津市和平区大理道28号民园广场负一楼DJ,天津市,天津市,和平区,,unknown,
baidu,af2145b0fa5d9d78b04c4975,蜜悦酒店,天津市新华路234号,天津市,天津市,和平区,18902062882,unknown,
baidu,d010e181b9a8bfe186420e90,天津ReallyHome民宿,天津市和平区大理道87号,天津市,天津市,和平区,,unknown,
baidu,1d4b735ea8eee3c06240a999,天津锐意进取公寓,天津市和平区天津国际贸易中心A座,天津市,天津市,河西区,,unknown,
baidu,bdcb32698490a7fe901fc972,天津洛克高级酒店公寓(原帕克洛高级公寓式酒店),天津市河西区凯德国贸中心C座6层,天津市,天津市,河西区,13672001987,unknown,
baidu,db87a45b05f9d3d1eb12e440,天津五大道小白楼国贸中心豪华套房公寓(3号店),天津市河西区曲阜道85号小白楼国贸中心c座,天津市,天津市,河西区,,unknown,
baidu,1fa4ba54b041f5f25cbe8680,阁锐思Grace公寓(天津大理道店),天津市和平区大理道95号,天津市,天津市,和平区,,unknown,
baidu,9ac081b22e74773e84330494,天津福娃的姥爷公寓,天津市和平区河北路五大道文化旅游区,天津市,天津市,和平区,,unknown,
baidu,46e96904221b9ab9f7b916a9,天津贾斯汀豪华酒店公寓(小白楼店),天津市河西区南京路39号天津凯德国际贸易中心c座,天津市,天津市,河西区,(022)58535386,unknown,
baidu,e6a91c669f190183b817e784,美好室物古董民宿(南昌路2号分店),天津市河西区大营门街道曲阜道85号,天津市,天津市,河西区,,unknown,
baidu,32925e9e80fd4a37ddee8bde,兴富里,天津市和平区成都道89号,天津市,天津市,和平区,,unknown,
baidu,2cb7c3a5be21b99a11882456,天津丽晶商务酒店,天津和平区长沙路9号,天津市,天津市,和平区,,unknown,
baidu,f89a309626ac451bb05c6a6e,天津星益里Etoile民宿,重庆道45号,天津市,天津市,和平区,13821556298,unknown,
baidu,9cf9cafbc4e2db180f0a709e,暖意民宿(南昌路分店),天津市河西区南昌路天津国际贸易中心-B座,天津市,天津市,河西区,,unknown,
baidu,d6ee87245736239da8f0cd3f,宏达公寓,天津市和平区河北路223号,天津市,天津市,和平区,,unknown,
baidu,9afa2fc6968bfbb5bca8229d,YOSHI民宿(滨江道3号店),天津市河西区长城路天津外国语大学马场道校区,天津市,天津市,河西区,,unknown,
baidu,434397ce9965491a8bb9883c,天津温馨雅致公寓,天津河西区南昌路1号(富力中心),天津市,天津市,河西区,18622272238,unknown,
baidu,db1f39d4f256616ef5c59ccc,鑫东国际公寓,天津市和平区岳阳道20号,天津市,天津市,和平区,,unknown,
baidu,4abc2a4694727cfe3c9a5e33,阁锐思Grace公寓(天津伏尔加路店),天津市河西区马场衡阳路照耀里(五大道附近)照耀里-4-8栋4号101室,天津市,天津市,河西区,,unknown,
baidu,64ffe3ae2711e9fe5cd4fe25,Locals路客A01舍公寓(天津五大道地标钟店),天津市河西区浦口道浦江大厦,天津市,天津市,河西区,,unknown,
baidu,a618dea46536481d882fb589,天津铭宿清奢公寓,天津市河西区马场道59号天津国际贸易中心,天津市,天津市,河西区,13512217970,unknown,
baidu,cc68046ef44641c60f0e6b9f,优梵艺术电竞公寓酒店,天津市河西区大营门街道曲阜道85号,天津市,天津市,河西区,13212003453,unknown,
baidu,74ab733a3d57f119b05c6a58,不舍拾山原宿公寓(马场道分店),天津市河西区马场道133号,天津市,天津市,河西区,,unknown,
baidu,573aff325a99f292fa2d6185,如家商旅酒店五大道游客中心外国语大学店停车点,天津市和平区睦南道五大道文化旅游区,天津市,天津市,和平区,,unknown,
baidu,a7c0846f83be227d901fc992,天津简适美学风格为居室民宿,天津市河西区曲阜道85号,天津市,天津市,河西区,,unknown,
baidu,39df27e37f5a423ea1a9346d,天津宁小圆公寓,天津市河西区凯德国贸,天津市,天津市,河西区,,unknown,
baidu,fba6d517b0fe8b309a005025,天津伊间联盟TJHXLZWE公寓,天津市河西区南京路39号(小白楼地铁站C口步行90米),天津市,天津市,河西区,,unknown,
baidu,6495fbb67b9ac8e0740269a1,天津臻棠公寓(2号店),天津市河西区曲阜道85号国际贸易中心C座,天津市,天津市,河西区,,unknown,
baidu,566fbc36dc7dfb76f33cba03,美豪丽致酒店(天津滨江道店)-大堂,天津市和平区南京路131号富玛特大厦a座,天津市,天津市,和平区,,unknown,
baidu,cf3e4e2a47136fcc0b69d912,诚基之家酒店式公寓,天津市和平区南京路165号诚基中心3号楼29楼,天津市,天津市,和平区,13312095080,unknown,
baidu,258e4ca0afd3918a6240a979,天猫养车(西南楼店),西南楼白云路25号,天津市,天津市,河西区,"(022)28260045,13512917958",unknown,
baidu,8059c1a0dafcda06f32d8317,利君汽修搭电补胎换电瓶,洛阳道26号,天津市,天津市,和平区,18154005101,unknown,
baidu,8ecd105378dc6e149fec2b2a,喜博汽车养护中心,绍兴道元兴新里7号楼45门底商,天津市,天津市,河西区,(022)23239069,unknown,
baidu,2406a6dea2ed11813010af2d,风之顺汽车维修服务中心,天津市河西区浦口道22号,天津市,天津市,河西区,,unknown,
baidu,e2f8b9a527f498e4c9e33c14,汽车维修服务有限公司,大同道与台儿庄路交叉口西南40米,天津市,天津市,和平区,(022)23315064,unknown,
baidu,54a1a5ebdc1f58346140a9d6,鸿运壹佰汽车服务,宜昌道万荣公寓底商18号,天津市,天津市,和平区,18522354797,unknown,
baidu,d90072da663122b881288a64,天乐汽修补胎,南昌路与绍兴道交叉口（近闽侯路小学分校）,天津市,天津市,河西区,19822154513,unknown,
baidu,2acb35534554a23ec6effbe4,卓越爱洁洗车行(大王庄店),德元里西南门旁(十一经路地铁站B口步行430米),天津市,天津市,河东区,15154219365,unknown,
baidu,772d0463208052da4afc8d91,天猫养车(十一经路店),大王庄九纬路99号,天津市,天津市,河东区,18902167837,unknown,
baidu,9d5f2dd25ae216d5354aae98,玥轩汽车美容中心(河东店),九纬路99号1号楼,天津市,天津市,河东区,(022)24306688,unknown,
baidu,3a7c30b94b9094ed2cb90843,艾瑞万汽车养护中心(云南路店),云南路8号增2号,天津市,天津市,和平区,(022)27862088,unknown,
baidu,99de831fedf66c289cf7795b,天佳汽车养护维修中心(昆明路店),天津市和平区新兴街道昆明路108号,天津市,天津市,和平区,4009916122,unknown,
baidu,1bced368230d591ff7eafca2,天津一汽丰田汽车有限公司,天津市河西区浦口道创展大厦14楼,天津市,天津市,河西区,,unknown,
baidu,1249f5228202f90835b06c18,极氪空间(天津天河城),天津市和平区和平路263号天津天河城购物中心F1,天津市,天津市,和平区,18667078516,unknown,
baidu,c132e3d8a75aa1f215a190ca,Lidel(元兴新里店),天津市河西区津河北道元兴新里,天津市,天津市,河西区,,unknown,
baidu,dccb2a898dc8707528201a51,红蕊汽车美容补胎保养(天津市昆明路店),昆明路与营口道交口(西康路地铁站B口步行90米),天津市,天津市,和平区,13182602039,unknown,
baidu,3f27fc3f068c347ff90cad38,洁净汽车,增进道天津渤海职业技术学院（友谊路校区）,天津市,天津市,河西区,18702263642,unknown,
baidu,7f3967bd182eeb2ceb1e9764,特斯拉(天津天河城体验店),天津市和平区和平路263号天津天河城购物中心,天津市,天津市,和平区,(022)81117108,unknown,
baidu,f33179472a5f64b895f08c35,安惠养车(八纬路店),七纬路与十二经路交叉口西锦路,天津市,天津市,河东区,(022)24218611,unknown,
baidu,44761889863ebfbc2cb90821,快乐星球·租车俱乐部,南京路125号第五大道商业街2159,天津市,天津市,和平区,,unknown,
baidu,39d0dca96ac58d98455726ff,发盛汽车维修中心,广顺道3号,天津市,天津市,河西区,13332020089,unknown,
baidu,4d55bb79887779ba220220f7,美车堂(天津恒隆广场店),兴安路166号恒隆广场B2,天津市,天津市,和平区,18612389010,unknown,
baidu,82d12ad1f10591d9f4e73be1,蟹蟹24H共享自助洗车(河东大王庄店),七纬路3号院内,天津市,天津市,河东区,,unknown,
baidu,45c468544c1dfb4c3a13fd23,米其林轮胎(台儿庄路店),天津市和平区台儿庄路3号,天津市,天津市,和平区,"(022)23136150,13516182037",unknown,
baidu,dffd631cd64debbd39221c85,良好汽车租赁(十四经路店),天津市河东区十四经路9号,天津市,天津市,河东区,(022)24314585,unknown,
baidu,36704d4cb94070121811d56a,中国石化长城润滑油天津市销售中心,天津市和平区解放北路141号,天津市,天津市,和平区,15122323101,unknown,
baidu,0b8eb7efe4d65f7590114c77,小王汽修养护维修,九纬路与十一经路交口(九纬路96号楼底商),天津市,天津市,河东区,13207622812,unknown,
baidu,22df92f05b21b57bb9df8f3e,泓兴汽车美容养护中心(河西店),前进道21号,天津市,天津市,河西区,,unknown,
baidu,11c266bc3ce03c4aebe5820a,理想汽车天津恒隆广场零售中心,天津市和平区兴安路166号恒隆广场1层,天津市,天津市,和平区,13132165510,unknown,
baidu,d26f3d3855035cec26d2bb38,嘉实多护车保养站(广顺道店),天津市河西区广顺道2-增1-6号附近,天津市,天津市,河西区,13332020089,unknown,
baidu,f80453143be04f321894c641,天津市汽车应用品公司,昆明路68号底商(西康路地铁站B口步行270米),天津市,天津市,和平区,(022)27811109,unknown,
baidu,a1f64ba53a28862987330466,马记汽车维修中心,天津市河西区广东路广顺道3号,天津市,天津市,河西区,,unknown,
baidu,1877afde5f0f78a8cf06a4da,梦缘豪车体验俱乐部(总店),天津市和平区海河东路中信城市广场信和苑北区1号楼1楼8门401号,天津市,天津市,河东区,17019577777,unknown,
baidu,85132642a1c721cfc9fa5f92,吉利经典,天津市和平区贵阳路11号,天津市,天津市,和平区,,unknown,
baidu,ba2d742e79d1660f21026272,天津泰豪租车(解放北路店),天津市和平区解放北路146号增1号,天津市,天津市,和平区,15222228880,unknown,
baidu,ece20c75ceeb17bb2a06ce48,理想天津金茂汇店,天津市河西区解放南路256号泰达大厦7层,天津市,天津市,河西区,,unknown,
baidu,48b43a0fa428ac9d626858bb,劲松中医医院,天津市和平区河北路259号,天津市,天津市,和平区,,unknown,
baidu,4bb049d9884c6f5e99005047,天津市公安医院,天津市和平区南京路78号,天津市,天津市,和平区,(022)23142800,unknown,
baidu,64a9d61de095881e26d2bb01,天津市胸科医院(和平院区),天津市和平区西安道70号,天津市,天津市,和平区,"(022)88182099,(022)88182100",unknown,
baidu,3f9337d61b37e3aaf723104b,天津市职工医院,天津市和平区大理道60号,天津市,天津市,和平区,"(022)23129930,(022)23316850,(022)23393638",unknown,
baidu,364893169fa4d169d4851fd4,久康综合门诊,天津市和平区浙江路25号,天津市,天津市,和平区,,unknown,
baidu,74c9b65eed2914ca1b94c6db,润津蜂产品(长沙路店),天津市和平区长沙路54号,天津市,天津市,和平区,,unknown,
baidu,a4d1634aac2cc0a0430245f0,天津市职工疗休养中心,天津市和平区大理道天津市职工医院,天津市,天津市,和平区,,unknown,
baidu,23df08ede150125e0d3dda03,天津市公安医院,天津市和平区新华路162号,天津市,天津市,和平区,(022)23142800,unknown,
baidu,751a1b85484d03e8a2a93423,天津马光连锁医疗(南浦门诊部),天津市河西区南昌路南浦大厦,天津市,天津市,河西区,,unknown,
baidu,d5464cf82b02774efca778af,天津河西土城医院,天津市河西区桃园村大街20号,天津市,天津市,河西区,(022)23255252,unknown,
baidu,4c7f6ab8362bda7376e5b6ec,河西区口腔医院(广东路),天津市河西区广东路安德里37号(近砂锅李),天津市,天津市,河西区,(022)23247110,unknown,
baidu,17db5d5d7bc1f0f0f01937aa,瑞尔齿科(天津国际大厦诊所),天津市和平区南京路75号天津国际大厦3层302室,天津市,天津市,和平区,4008801900,unknown,
baidu,91b8bc7bbb5a41c0fa42b278,天津和平伊美尔医疗美容医院,天津市和平区小白楼街道承德道与吉林路交口海瀛商务楼1号楼,天津市,天津市,和平区,16600453947,unknown,
baidu,7537a1113f61c1ea40ab9aa0,天津公安医院-骨科门诊,天津市和平区南京路78号1层,天津市,天津市,和平区,,unknown,
baidu,5c710c798f03370bb44f541c,小白楼街社区卫生服务中心-发热门诊,天津市和平区烟台道80号,天津市,天津市,和平区,(022)23393814,unknown,
baidu,764672e5ca0e2cac94ec84cb,崇仁里-社区卫生服务站,天津市和平区崇仁里13号,天津市,天津市,和平区,,unknown,
baidu,ef94740d7c70a5e2ce04ef05,和平区妇女儿童保健中心,天津市和平区武昌路9号,天津市,天津市,和平区,(022)27211243,unknown,
baidu,dddc3476281fb01743e19280,天津和平微医医院,天津市和平区泰安道3号2号院,天津市,天津市,和平区,,unknown,
baidu,7c96681231c8df37ac0457ad,李氏针医堂,天津市和平区河北路219号,天津市,天津市,和平区,,unknown,
baidu,2ba6b852e4008325b8bd6386,牙友·益健口腔诊疗中心,天津市和平区曲阜道38号中国人寿金融中心1301号,天津市,天津市,和平区,,unknown,
baidu,72e57fd75b7c22b6f8dc854f,万泰医院,天津市河西区浦口道47号,天津市,天津市,河西区,"(022)88320968,(022)88321008",unknown,
baidu,d06890330d57cc441e58002d,国信(天津)医疗科技有限公司,天津市和平区西安道君隆广场C座19层,天津市,天津市,和平区,(022)22118996,unknown,
baidu,f1aa8cc5e436dfb4047ce87b,天津医科大学(广东路校区)-行政办公楼,天津市河西区广东路1号天津医科大学广东路校区内,天津市,天津市,河西区,,unknown,
baidu,f11728ff2ceb625ca2046433,平安门诊,天津市河西区苏州道宝德里社区北侧,天津市,天津市,河西区,,unknown,
baidu,fe2a93b90decb482c9e33c9c,天津和平驫悦医美,天津市和平区睦南道72号,天津市,天津市,和平区,,unknown,
baidu,b879649650a26238bb17e79e,天津市和平区妇幼保健计划生育服务中心-B座,天津市和平区武昌路9号,天津市,天津市,和平区,,unknown,
baidu,4ce10ce6780288b8451a3289,天津市职工医院-体检中心,天津市和平区大理道60号(近人民体育场),天津市,天津市,和平区,,unknown,
baidu,966e45bc420740f0774ff1af,天津市公安医院-发热门诊,和平区新华路162号,天津市,天津市,和平区,"(022)23142426,18698080071",unknown,
baidu,ffd6d403b860ba8e17b54bcc,天津老中医医院(武昌路),天津市和平区沙市道20号,天津市,天津市,和平区,(022)23305038,unknown,
baidu,bff306d4a5842cdb3f9a5e15,和平区妇幼保健计划生育服务中心-北区,天津市和平区武昌路9号,天津市,天津市,和平区,,unknown,
baidu,aceb672ba235bbac26e0a047,河西区大营门街敬重里社区卫生服务站,天津市河西区苏州道89号,天津市,天津市,河西区,,unknown,
baidu,32d5a31247e6f98b40afe64c,天津市胸科医院行政办公区,天津市和平区西安道93号,天津市,天津市,和平区,,unknown,
baidu,5248766045577073adcb66d3,天津新世纪妇儿医院,天津市和平区赤峰道33号,天津市,天津市,和平区,(022)60975151,unknown,
baidu,bba873887252d2ddbca8222c,天津市职工医院-综合门诊部,天津市和平区大理道60号,天津市,天津市,和平区,,unknown,
baidu,c5ddcc0850c515dfd8131857,天津市儿童医院(马场院区),天津市河西区马场道225号,天津市,天津市,河西区,,unknown,
baidu,15e1e85eab7381bb591093a4,天津市妇女儿童保健中心,天津市和平区贵州路96号,天津市,天津市,和平区,(022)82816288,unknown,
baidu,fa7da3e8fdac841f42d63e2f,天津医科大学总医院-门诊楼,天津市和平区鞍山道154号,天津市,天津市,和平区,"(022)60362233,(022)96580",unknown,
baidu,51962742789b891e4afc8dc9,大仁堂药店(山西路店),天津市和平区山西路290号,天津市,天津市,和平区,15510863676,unknown,
baidu,9ee7cc783825f50d16c905e0,天津市河东区大王庄街社区卫生服务中心,天津市河东区七纬路81号,天津市,天津市,河东区,(022)24121488,unknown,
baidu,82a1f5fd0b073ff5a2d23041,天津和平津萃医院,天津市和平区昆明路78号,天津市,天津市,和平区,(022)60981377,unknown,
baidu,b7208e35f6b03f422db17e03,天津医药集团津一堂连锁股份有限公司(大仁堂药店),五大道街西安道庆华里大楼101、102、103、104、105,天津市,天津市,和平区,,unknown,
baidu,58069a34bbf28c24c356acc0,天津医科大学总医院-急诊楼,天津市和平区鞍山道154号,天津市,天津市,和平区,,unknown,
baidu,d26d5535d32a60f2fbdc85da,天津医科大学总医院-第二住院楼,天津市和平区鞍山道154号,天津市,天津市,和平区,(022)60362512,unknown,
baidu,d6df91c12cf80873f7b9164d,天津医科大学总医院,天津市和平区鞍山道154号,天津市,天津市,和平区,(022)60362255,unknown,
baidu,2791ba1a7189c8309d95dedd,天津市和平区中医医院(新院区),山东路1号,天津市,天津市,和平区,(022)23317955,unknown,
baidu,ed231afa9b167254b6147fc9,天津市和平区妇产科医院,天津市和平区山东路1号,天津市,天津市,和平区,(022)27124916,unknown,
baidu,83e905ab75cc1ad916c90557,天津医科大学总医院-第三住院楼,天津市和平区鞍山道154号,天津市,天津市,和平区,,unknown,
baidu,50f7d1460a527db972210b2a,天津市职工医院-外科(康复)病区,天津市和平区大理道60号,天津市,天津市,和平区,,unknown,
baidu,28e341f335f8525a157643aa,一心堂药房(建设路店),天津市和平区建设路72号,天津市,天津市,和平区,(022)23309840,unknown,
baidu,a3e8341c0fbb808c4afd3f57,天津市眼科医院,天津市和平区甘肃路4号,天津市,天津市,和平区,(022)27313334,unknown,
baidu,695067384293345bbd484288,天津医科大学-口腔医院,和平区气象台路12号,天津市,天津市,和平区,"(022)23332010,(022)23332100",unknown,
baidu,3d5c44ee00ef1c0a6cc02c7f,天津市河西医院,天津市河西区刘庄街琼州道43号,天津市,天津市,河西区,(022)23267711,unknown,
baidu,c21db9e58c659d8200ff2dc7,中国医学科学院血液病医院,天津市和平区南京路288号,天津市,天津市,和平区,(022)23909083,unknown,
baidu,70d3c9ec74da89423ee231e2,天津太平新华医疗器械有限公司,天津市和平区新华路201号,天津市,天津市,和平区,(022)23392694,unknown,
baidu,43b7e889eef4301758f6be2c,天津市职工医院-门诊楼,天津市和平区五大道街道大理道60号职工医院内,天津市,天津市,和平区,,unknown,
baidu,de7ec0ff658bbf40cc06a49e,天津市职工医院-内科(康复)病区,大理道64号,天津市,天津市,和平区,,unknown,
baidu,ea4a3dc909b8f8374f5547b6,博康胜家大药房(桂林路店),天津市和平区桂林路2号,天津市,天津市,和平区,(022)23393737,unknown,
baidu,ba7c17db401dc09543afe642,天津市职工医院-医学检验科1,天津市和平区大理道60号天津市职工医院内,天津市,天津市,和平区,,unknown,
baidu,5e53af1aa404ca464151c049,太平大药房(新华路店),天津市和平区新华路201号,天津市,天津市,和平区,(022)23110480,unknown,
baidu,40461754819b83a2c61e5197,天津市职工医院-预检分诊处,天津市和平区大理道60号天津市职工医院内,天津市,天津市,和平区,,unknown,
baidu,83caa16b45d5733925d2bb90,天津市职工医院-物质设备科,天津市和平区大理道60号天津市职工医院内,天津市,天津市,和平区,,unknown,
baidu,c8b5cdef99069002130daacb,天津市结核病控制中心,天津市和平区赤峰道124号,天津市,天津市,和平区,(022)27116990,unknown,
baidu,0da483231dbf8cfafa0cad33,名医荟萃,天津市和平区沙市道福泰温泉公寓,天津市,天津市,和平区,,unknown,
baidu,753002de7b653860b13c811b,天津市职工医院-物价科,天津市和平区大理道60号天津市职工医院内,天津市,天津市,和平区,,unknown,
baidu,bbdb722f69126de082288a45,天津市职工医院-总务科,天津市和平区大理道60号天津市职工医院内,天津市,天津市,和平区,,unknown,
baidu,7602b58b297d1c48f503b897,天津市职工医院-医学检验科2,天津市和平区大理道60号天津市职工医院内,天津市,天津市,和平区,,unknown,
baidu,d670ec0e3df79f4b8bb988c8,天津市职工医院-膳食科,天津市和平区大理道60号天津市职工医院内,天津市,天津市,和平区,,unknown,
baidu,54b98386fc5fb0b5eb56fad0,康辉健康管理工作室,天津市河西区汕头路金达园,天津市,天津市,河西区,,unknown,
baidu,7665904585b572ef78f79606,仲景堂药业连锁(襄阳道店),天津市和平区襄阳道10号,天津市,天津市,和平区,(022)23308852,unknown,
baidu,6ca231525253a94b8605bf54,隆兴大药房(柳州路店),天津市和平区柳州路11号,天津市,天津市,和平区,,unknown,
baidu,5211d2193abd89257dc8763f,天津市仁乐堂大药房(九江路店),天津市河西区九江路56号,天津市,天津市,河西区,(022)23288916,unknown,
baidu,74e1f94b17a2f26661685840,北京同仁堂(太平大药房),天津市和平区新华路201号,天津市,天津市,和平区,(022)23110480,unknown,
baidu,b12b1d0743c68812a2d23036,AED(中美联泰大都会人寿保险),天津市和平区大沽北路与徐州道交口万通中心20层多功能厅,天津市,天津市,和平区,,unknown,
baidu,4c8b0b2358e916bdb320a8fc,天津微医数字健康展示中心,天津市和平区泰安道3号,天津市,天津市,和平区,,unknown,
baidu,08cc5770d95fedba8bfc06de,土城医院中医针灸理疗,天津市河西区桃园村大街天津外国语大学马场道校区,天津市,天津市,河西区,,unknown,
baidu,d6e1b2e571708401d12dd64e,新耳听力,天津市河西区南京路66号凯旋门大厦b座13e,天津市,天津市,河西区,,unknown,
baidu,71fc5fbc73fa1c2085420ecf,天外,天津市河西区绍兴道126号,天津市,天津市,河西区,,unknown,
baidu,4d5404fb9c0b592b100daa02,和乐正慧健康中心,天津市河西区浦口道22号,天津市,天津市,河西区,,unknown,
baidu,8285c7d6a4efcceed3ff23bb,丽惠泽整形,天津市和平区大理道11号,天津市,天津市,和平区,,unknown,
baidu,aadeff2523e5bddc0f0a70d8,心禾口腔(和平店),天津市和平区泰安道三号院泰安道16号,天津市,天津市,和平区,18512261188,unknown,
baidu,b5de6b80b269c9243586f4e8,欣爱齿口腔,天津市河西区友谊北路2号(人民日报分社对面),天津市,天津市,河西区,,unknown,
baidu,dbee223c1ee7964438221c75,悠美口腔,天津市和平区五大道街道南京路125号第五大道商业街B区3-140号,天津市,天津市,和平区,15620658318,unknown,
baidu,ea4a3dc94c2ebd2f4e5547cc,天津市化工职工职业病防治院,天津市和平区沙市道2号,天津市,天津市,和平区,,unknown,
baidu,02c9d481b31b03691b11d554,天津市中心妇产科(和平院区),天津市和平区营口道146号,天津市,天津市,和平区,(022)58971111,unknown,
baidu,ddc7e7efed731ae1f942b2de,天津河西渤海医院,天津市河西区马场道201号,天津市,天津市,河西区,18622756130,unknown,
baidu,ecbdd4579574160dd52ce21a,天津市口腔医院,天津市和平区大沽路75号,天津市,天津市,和平区,(022)27111678,unknown,
baidu,ea20817b9ca889556d20b939,瑞植口腔,天津市河西区苏州道104号,天津市,天津市,河西区,(022)23289618,unknown,
baidu,52467f1c3292c94226e0a0ca,一君口腔诊所,天津市河西区绍兴道49号,天津市,天津市,河西区,,unknown,
baidu,eb2564cb143303490d3dda51,AED(天津慈铭奥亚医院管理咨询有限公司),天津市和平区赤峰道136号天津国际金融中心大厦10层,天津市,天津市,和平区,,unknown,
baidu,4b549de197eda6627ec876e9,天津市疾病控制防控中心,天津市和平区赤峰道124号,天津市,天津市,和平区,,unknown,
baidu,5b5568e81e49ab2c3804b15e,平安堂药店(岳阳道店),天津市和平区岳阳道68号,天津市,天津市,和平区,,unknown,
baidu,50f850841a2efe0bd81318ef,乐学培优(和平校区),天津市和平区南京路99号君隆广场B2座3层302号,天津市,天津市,和平区,13389955291,unknown,
baidu,89cd89ab7cad709c740269a0,钰松初高全科·复读暑期班,天津市和平区南京路99号君隆广场b1座3楼301室,天津市,天津市,和平区,13071149804,unknown,
baidu,17e44417c4bcaa4052e5c55e,MULY Kids(回声艺术),天津市和平区河北路314号光明里大楼2栋,天津市,天津市,和平区,18526455107,unknown,
baidu,48bc962d3f9b76f6c7f50da3,中国民航大学思政课实践教育基地,天津市和平区河北路326号,天津市,天津市,和平区,,unknown,
baidu,9174b076c640cab2102935e2,耀华小学,天津市和平区南海路3号,天津市,天津市,和平区,(022)23396198,unknown,
baidu,7f62f8d9f553894bc0364473,学而思培优(营口道校区),天津市和平区长沙路富玛特大厦D座1楼,天津市,天津市,和平区,4008981202,unknown,
baidu,875c3f06f93b8ac71e5800b0,鼎天艺术中心,天津市和平区睦南道五大道别墅,天津市,天津市,和平区,,unknown,
baidu,f13d75541ecea48876e5b677,百洲音教育,天津市和平区南京路天津国际大厦11层1109室,天津市,天津市,和平区,,unknown,
baidu,ef0429ef18fd3b142bd7ab19,乐知教育,天津市和平区五大道街道南京路131号微沃大厦A座13楼,天津市,天津市,和平区,13821953999,unknown,
baidu,15b0a8acc9c8a26c59bbbcc5,天津市家有宝贝康复指导中心(西安道),天津市和平区西安道2号君隆广场B3座2楼,天津市,天津市,和平区,15510966860,unknown,
baidu,ada3cc9eebff16acbea2401f,天津市少年宫培训基地,天津市和平区常德道23号,天津市,天津市,和平区,(022)23127135,unknown,
baidu,378d703eb1a0526207fef597,凯乐凯思国际艺术中心(总部),天津市和平区西南京路君隆广场b3座18楼,天津市,天津市,和平区,,unknown,
baidu,a95a3e79d535d7901c389448,艺诺思教育,天津市和平区西安道63号,天津市,天津市,和平区,(022)23396688,unknown,
baidu,4083845d63c39a7402897214,琴瑟声韵音乐教室,天津市和平区长沙路79号(秀一会烤肉旁),天津市,天津市,和平区,13512877047,unknown,
baidu,51746acee6db228881288a45,一铭教育(和平校区),天津市和平区微沃大厦3楼,天津市,天津市,和平区,13389971735,unknown,
baidu,e594de55fc31108e7dc87635,艺佳舞蹈培训学校,和平区南京路125号第五大道商业街2051室,天津市,天津市,和平区,15022321242,unknown,
baidu,423ba87367ec54f5d12dd67d,将来研习社,天津市和平区南京路129号万科世贸广场A座1802室,天津市,天津市,和平区,17622360604,unknown,
baidu,c1401dc52efa0b5ab34c4901,燃迈体育·锐坤体考培训旗舰店,大理道28号（民园广场3楼）,天津市,天津市,和平区,,unknown,
baidu,0f3d283afde53bf7d72ce2de,天津壹凡教育培训学校,天津市河西区大营门街道马场道59号,天津市,天津市,河西区,(022)58192777,unknown,
baidu,adb638b11c0d9408c51b75d4,心橙音乐&专注成人钢琴教学,天津市河西区大营门街道南京路39号国际贸易中心A座10层1008室,天津市,天津市,河西区,"18902155464,18920177328",unknown,
baidu,b220d51c94ec25b4f603b83c,天津市厨艺职业培训学校,天津市和平区烟台道60号五重熹旧宅101室,天津市,天津市,和平区,(022)27629731,unknown,
baidu,850815e157822a9a43e192c4,公安局幼儿园,天津市和平区新华南路249号,天津市,天津市,和平区,(022)23394305,unknown,
baidu,2d3b30171d4df149d42ce2f2,方舟艺术空间(和平校区),天津市和平区小白楼街道保定道33-～39号,天津市,天津市,和平区,15674813398,unknown,
baidu,2981422b296bb17fa31de95d,西西礼·形体礼仪气质培训美学空间(小白楼国贸店),南京路国贸A座2216,天津市,天津市,河西区,15822687751,unknown,
baidu,594485205fd72f1fd5b74e43,嘉航家庭成长持续辅助中心,天津市和平区南京路99号君隆广场B2座805,天津市,天津市,和平区,"(022)87330818,16622117771",unknown,
baidu,80584e1021d68aa05bf6becc,天津外国语大学歌德语言中心,天津市河西区马场道117号,天津市,天津市,河西区,(022)23265642,unknown,
baidu,db1f39d4f25e616ef5c59cc4,天津市和平保育院,天津市和平区南京路88号,天津市,天津市,和平区,(022)23197365,unknown,
baidu,2f289f6cb6009864f4e73b5a,华美德国际幼儿园,天津市和平区重庆道25号（澳门路与重庆道交口）,天津市,天津市,和平区,15620662898,unknown,
baidu,6bb05562a38d9e2a9cf77913,优念睦南幼儿园,天津市和平区睦南道52号,天津市,天津市,和平区,(022)59005288,unknown,
baidu,4d0273d3df6d95a3ed74f8dd,和平十一幼,天津市和平区长沙路64号（天津文化产权交易所斜对面）,天津市,天津市,和平区,(022)87139065,unknown,
baidu,7535e13d41841eeeaa175a94,天津外国语大学科研处,天津市和平区睦南道28号,天津市,天津市,和平区,,unknown,
baidu,3f62aac22382bdfd29d7aba5,天津外国语大学-在职硕士教育中心,天津市河西区桃园街道天津外国语大学3号楼1层106号,天津市,天津市,河西区,,unknown,
baidu,a12baa40b73c1357e856fa29,新华中学,天津市河西区马场道99号,天津市,天津市,河西区,(022)23280356,unknown,
baidu,0ce65c2d8f3999272c4733bb,天津二十中学(湖北路),天津市和平区湖北路59号,天津市,天津市,和平区,(022)23391920,unknown,
baidu,5fba4a79f5429b776140a936,华彩艺术·双排键音乐中心,天津市河西区徐州道62号国际贸易中心A座11楼1122号（近小白楼地铁站C口）,天津市,天津市,河西区,17694833762,unknown,
baidu,e12f2a78bafbde992afc4868,天津外国语大学-国际预科教育中心,天津市河西区天津外国语大学3号楼1层105号,天津市,天津市,河西区,,unknown,
baidu,f63c8cd40cb24ed2593ac839,天津外国语大学马场道校区日本茶道研究实践中心,天津市河西区马场道117号,天津市,天津市,河西区,,unknown,
baidu,1a2326ccac7512c997ec8454,二十中附小,天津市和平区南京路86号,天津市,天津市,和平区,(022)23127831,unknown,
baidu,e216cc145de26e5133169b0f,育知苑幼儿园,天津市河西区马场道107号,天津市,天津市,河西区,18526879180,unknown,
baidu,f32bb1fe1a14bf53c27da2e3,天津外国语大学-LEVELS中心,天津市河西区马场道117号天津外国语大学内,天津市,天津市,河西区,,unknown,
baidu,07f3c8b5153341626240a9c4,和平区新华南路小学,天津市和平区新华路257号,天津市,天津市,和平区,(022)23399982,unknown,
baidu,378d7b2dd7c98c0e46e274b7,昭和日本语,南京路39号国际贸易中心A座(小白楼地铁站C出口),天津市,天津市,河西区,18322448566,unknown,
baidu,278261bc84e832c30ab93a3c,天津市语言文字培训测试中心,天津市河西区马场道117号天津外国语大学内,天津市,天津市,河西区,,unknown,
baidu,ebc7ceca70a590d29900500f,法耀教育,天津市和平区新华路176号,天津市,天津市,和平区,13682045792,unknown,
baidu,a03297e3c32f95e1c5f50d5d,妙德书屋自习室(小白楼店),凯德国贸A座1609室,天津市,天津市,河西区,,unknown,
baidu,23838d21686f455072455bc2,耀华小学,天津市和平区保定道59号,天津市,天津市,和平区,(022)23394595,unknown,
baidu,2700fd60086053ab5cd4fed4,天津外国语大学(马场道校区)亚非语学院,天津市河西区马场道117号,天津市,天津市,河西区,,unknown,
baidu,6b41c67efca710f8725e80bf,爱玛国际蒙特梭利幼儿园,天津市和平区澳门路9号,天津市,天津市,和平区,,unknown,
baidu,ba537d27bcf8f1ab00ec013e,天津杰夫幼稚园,天津市和平区睦南道77号,天津市,天津市,和平区,(022)23288797,unknown,
baidu,3e067639bc288288a9f729b7,天津市第十一中学,天津市和平区河北路211号,天津市,天津市,和平区,(022)27114957,unknown,
baidu,06d2dffd4a9f8bf788f15dc7,天津市双菱中学,天津市和平区湖北路2号,天津市,天津市,和平区,(022)23192901,unknown,
baidu,9e8c1ff9bc9b59262902e106,天津市耀华中学,天津市和平区南京路106号,天津市,天津市,和平区,(022)23301723,unknown,
baidu,b8668c0833f7706e0f0e6b83,天津外国语大学,天津市河西区马场道117号,天津市,天津市,河西区,(022)23282310,unknown,
baidu,dce342531285539d5d17c301,天津外国语大学-主楼,天津市河西区马场道117号天津外国语大学内,天津市,天津市,河西区,,unknown,
baidu,4ce10ce61be0e5a2441a32d1,天津市第一中学,天津市和平区西安道117号,天津市,天津市,和平区,(022)23391126,unknown,
baidu,b3e3824b4a2778140f0e6b87,天津医科大学(广东路校区),天津市河西区广东路1号,天津市,天津市,河西区,(022)60357117,unknown,
baidu,4eb3b5331e963274430245c7,逸阳梅江湾学校,天津市和平区常德道30号,天津市,天津市,和平区,(022)23391442,unknown,
baidu,e889a7446b0aaab48605bfc4,天津市实验小学,天津市和平区柳州路28号,天津市,天津市,和平区,(022)23397875,unknown,
baidu,3043cae1ff37b19a364aae15,天津外国语大学-继续教育学院,天津市河西区马场道117号6号楼,天津市,天津市,河西区,(022)23242205,unknown,
baidu,e460be8537a27e0b9122e0f2,欧洲语言文化学院,天津市河西区马场道117号天津外国语大学马场道校区,天津市,天津市,河西区,(022)23285749,unknown,
baidu,4099a2f987641d5ff5e73ba4,将来研习社·自习室·共享空间·会议室,南京路129号万科世贸广场A座1802.1606室,天津市,天津市,和平区,17622360604,unknown,
baidu,55fa2c0b1e6cd62c1ce9993b,天津财经大学(马场道校区),天津市河西区马场道123号,天津市,天津市,河西区,(022)23280892,unknown,
baidu,d96eb4f0e6b6a5bacd04ef11,岳阳道小学(大理道校区),天津市和平区大理道109号,天津市,天津市,和平区,"(022)23307575,(022)23399334",unknown,
baidu,edd64ce1ef19d0ec3fe2319c,天津市第四十一中学分校,天津市河西区绍兴道129号,天津市,天津市,河西区,(022)23251130,unknown,
baidu,18630d242aa856c59a0050c2,天津市第四十一中学,天津市河西区马场道195号,天津市,天津市,河西区,(022)23280406,unknown,
baidu,74e5dce7288958ed3417dc87,天津外国语大学-计算机教研室,天津市河西区马场道117号天津外国语大学内,天津市,天津市,河西区,,unknown,
baidu,36788eed53bfa009c7f50d99,天津市和平区中心小学,天津市和平区西宁道8号,天津市,天津市,和平区,(022)27830179,unknown,
baidu,8cba4bb04b045685ad0457c7,天津市汇文中学,天津市和平区甘肃路40-42号,天津市,天津市,和平区,(022)27222377,unknown,
baidu,24d0550888b2edd21288249c,上海道小学(友谊路校区),天津市河西区友谊北路,天津市,天津市,河西区,(022)23259426,unknown,
baidu,de825f667b0b810690114cac,华星学校,天津市河西区琼州道111号,天津市,天津市,河西区,(022)29829999,unknown,
baidu,dffd631c91a8a2c138221c9c,昆明路小学(昆明路总校),天津市和平区昆明路99号,天津市,天津市,和平区,(022)23312430,unknown,
baidu,7f3eb34dc35dcbb715764303,郡童幼儿园(和平分园),天津市和平区常德道10号,天津市,天津市,和平区,13820078889,unknown,
baidu,41572e008e00c3b5b45f1ec7,天津市艺术研究所,天津市和平区湖北路27号,天津市,天津市,和平区,,unknown,
baidu,13910f100faf1a8effa7785a,新职业标准研发中心,天津市和平区建设路97号,天津市,天津市,和平区,,unknown,
baidu,6fddd7fda764237e3517dc29,天津市河西区同望小学,天津市河西区绍兴道298号,天津市,天津市,河西区,(022)23519331,unknown,
baidu,fbf9ed1ecc9284a3601809bf,天津医科大学(广东路校区)-医学影像学院(广东路校区),天津市河西区广东路1号,天津市,天津市,河西区,,unknown,
baidu,d7fd2ad3a074c7550bccdd29,台湾路小学,天津市河西区台湾路1号（绍兴道口）,天津市,天津市,河西区,(022)23262294,unknown,
baidu,b292b3aaac817557be4842c7,西康路小学,天津市和平区西康路31号,天津市,天津市,和平区,(022)83520454,unknown,
baidu,e6ee2fd23e1cd4492b11d129,恩德里小学,天津市河西区越秀路2号,天津市,天津市,河西区,(022)28334504,unknown,
baidu,6a074d9f0fde9e5b077ce8ac,天津外国语大学-德语系,天津市河西区马场道117号天津外国语大学内,天津市,天津市,河西区,,unknown,
baidu,00d6f9c161395ce6616858f1,天津外国语大学(体育教学部),天津市河西区马场道117号,天津市,天津市,河西区,(022)23259199,unknown,
baidu,abb3daeda86a083ac8213dde,天津外国语大学-第一教学办公楼,天津市河西区马场道117号天津外国语大学内,天津市,天津市,河西区,,unknown,
baidu,302226f8674be81808f5eb3e,天津医科大学-职业技术学院,天津市河西区广东路1号天津医科大学广东路校区8号楼,天津市,天津市,河西区,,unknown,
baidu,41d358da385c3216a9175a68,优跃共享自习室,天津市和平区南京路131号微沃大厦A座F11层,天津市,天津市,和平区,,unknown,
baidu,9325b089dbb30eb80bccdda9,天津外国语大学-国际合作交流处,天津市河西区马场道117号(天津外国语大学内),天津市,天津市,河西区,,unknown,
baidu,9d1a7612812e88d4626858d4,天津外国语大学马场道校区培训楼,天津外国语大学3号楼202-208室,天津市,天津市,河西区,,unknown,
baidu,12d3e241256e4976e0110392,天津美食文化研究会,天津市和平区南京路99号君隆商业广场2层,天津市,天津市,和平区,,unknown,
baidu,b5250484892ac2afa8f729fc,中科院古脊椎所-天津自然博物馆联合研究中心,天津市河西区马场道117号北疆博物院内,天津市,天津市,河西区,,unknown,
baidu,98d087f303bac187b5265534,中天人力资源研究院,天津市和平区建设路97号,天津市,天津市,和平区,,unknown,
baidu,b7bc44e956d714163010af7a,天津市公安交通管理局科研所,天津市和平区湖北路8号交管局大厦,天津市,天津市,和平区,,unknown,
baidu,64cc567abfa37b1d4f3a594e,天津市和平区合美实验幼儿园,天津市和平区新华路202号,天津市,天津市,和平区,,unknown,
baidu,a560548c4d0cb83db45f1e96,天津市卫生局幼儿园,天津市和平区大理道48号,天津市,天津市,和平区,(022)23316886,unknown,
baidu,a161f7d400c52ddd1b94c626,和平十一幼-A座,长沙路60-64号附近,天津市,天津市,和平区,,unknown,
baidu,e758305f075ce14b1fe99937,天津外国语大学马场道校区行政楼,天津市河西区桃园街道马场道117号,天津市,天津市,河西区,,unknown,
baidu,c131c6c95d32e3d95d0d02d2,铜马车庆王府,观光7路,天津市,天津市,和平区,,unknown,
baidu,c1cb9427261ad71103ff2d34,河新里小区-停车场,天津市和平区洛阳道河新里小区,天津市,天津市,和平区,,unknown,
baidu,33e557a315f7134fc3f1cf7f,重庆道,619路;906路;954路,天津市,天津市,和平区,,unknown,
baidu,0e2092b41f97595b76e5b65a,天津市公用公房经营管理处-地下停车场,天津市和平区大理道10号,天津市,天津市,和平区,,unknown,
baidu,0f9c3f82e310f2aaca213d4e,湖北路站,3路;20路;93路;97路;600路[河北河东];600路[南开和平];643路;652路北线;673路;678路[专线];830路;842路;846路;847路;871路;902路;904路;962路;机场4路定制B线,天津市,天津市,和平区,,unknown,
baidu,0a698db6002bbb02b8bd63cc,君隆广场-地下停车场,天津市和平区南京路85号,天津市,天津市,和平区,,unknown,
baidu,c4bb20528467f3ee081cc7e5,黄家花园,9路;845路;902路;观光2路,天津市,天津市,和平区,,unknown,
baidu,1925268d886bda291c389412,民园广场-地下停车场,天津市和平区大理道民园广场,天津市,天津市,和平区,,unknown,
baidu,c9c0bcdb3a8fce74e812e4b0,国家电网充电站(民园体育场地下),天津市和平区大理道与衡阳路交口民园体育场地下停车场,天津市,天津市,和平区,18920515359,unknown,
baidu,d3db098adfb06a42d3ff23d0,马场道香港路,13路;604路;632路;657路;685路;803路;826路;862路;904路,天津市,天津市,河西区,,unknown,
baidu,4696bae54e2acca33813fd5e,小白楼,轨道交通1号线,天津市,天津市,和平区,,unknown,
baidu,659ab8ba7a282d8ab65f1e5d,自行车租赁烟酒饮料食品,天津市和平区香港路齐乐里东北门西北侧,天津市,天津市,和平区,,unknown,
baidu,4e13660565d1a0744afc8d57,中国中信金融资产管理股份有限公司(天津市分公司)-地上停车场,天津市和平区南海路1号,天津市,天津市,和平区,,unknown,
baidu,dc8fb651ee7d4b64c8213dec,上海年代(五大道店)-地上停车场,天津市和平区湖北路20号上海年代,天津市,天津市,和平区,,unknown,
baidu,7111ef8301575ca528201ae2,世纪都会商厦-地下停车场,天津市和平区五大道街道尚友里社区南京路181号世纪都会商厦B2,天津市,天津市,和平区,,unknown,
baidu,215afc652084312fd5b74eed,昭余里-停车场,天津市和平区新华路昭余里,天津市,天津市,和平区,,unknown,
baidu,f862556b28e2917af4e73baa,天津市烟草公司第一分公司-停车场,天津市和平区郑州道35号b座天津市烟草公司第一分公司,天津市,天津市,和平区,,unknown,
baidu,85f4e33c56e2c864f5eafc5e,营口道,轨道交通1号线;轨道交通3号线,天津市,天津市,和平区,,unknown,
baidu,5e827ee6d323691d1e1d11bf,徐州道,轨道交通4号线,天津市,天津市,河西区,,unknown,
baidu,66755e0c60301d3b86420e07,大悦城(和平店)-地下停车场,天津市和平区五大道街道尚友里社区南京路189号大悦城B2,天津市,天津市,和平区,,unknown,
baidu,d6cdb2147197455f4c6d4603,天津四季酒店-地下停车场,天津市和平区南京路181号天津世纪都会B3,天津市,天津市,和平区,,unknown,
baidu,471c0cd0d98f714679b55c40,友谊宾馆(南京路店)南侧停车场,天津市和平区南京路94号天津友谊宾馆,天津市,天津市,和平区,,unknown,
baidu,0dca7a07ba85655ecbe33c4e,大营门,3路;20路;93路;97路;604路;631路;631路[区间];641路;652路北线;652路快线;685路;760路;760路[区间];808路;830路;846路;860路;866路;867路;868路;962路;963路,天津市,天津市,河西区,,unknown,
baidu,d555dcfec2f32394ca09f00c,民园广场,观光5路;观光7路,天津市,天津市,和平区,,unknown,
baidu,a4997b9aa905c1b243afe687,浙商银行(天津分行)-地上停车场,天津市和平区南京路华侨大厦,天津市,天津市,和平区,,unknown,
baidu,feebdd92e721086d8d77278f,马场道,619路,天津市,天津市,和平区,,unknown,
baidu,a2524d46a5f5658badcb660b,燕翼里-地下停车场,天津市和平区湖南路民园广场北门北侧约70米,天津市,天津市,和平区,,unknown,
baidu,102ffecd45adfb954f55479e,天津国际大厦-接送点,天津市和平区天津国际大厦附近,天津市,天津市,和平区,,unknown,
baidu,22e4abb90ef172a8a204642b,成山公馆东区-停车场,天津市和平区山西路成山公馆,天津市,天津市,和平区,,unknown,
baidu,5263fa3ecbeeb1e275e5b602,浙商银行(天津分行)-地下停车场,天津市和平区南京路92号(增1号华侨大厦),天津市,天津市,和平区,,unknown,
baidu,36a56b6eb15ea06b6d20b94a,重庆道路南侧-停车场,天津市和平区重庆道五大道文化旅游区,天津市,天津市,和平区,,unknown,
baidu,6d284943f11b54465bf6be04,成山公馆-地下停车场,天津市和平区西安道成山公馆,天津市,天津市,和平区,,unknown,
baidu,aeed53f87bccce11df1e52a0,林东大楼-停车场,天津市和平区河北路326号,天津市,天津市,和平区,,unknown,
baidu,25eb68d33dc446488936ee02,中国外运天津有限公司-接送点,天津市和平区中国外运天津有限公司附近,天津市,天津市,和平区,,unknown,
baidu,c367af67ce703fc6f90cade5,和平路,轨道交通3号线;轨道交通4号线,天津市,天津市,和平区,,unknown,
baidu,e783df8e0aac4517d13ce388,万通投资-停车场,天津市和平区睦南道6号,天津市,天津市,和平区,,unknown,
baidu,b9286face352b45b58f6be35,天照大厦-停车场,天津市和平区新华路243号天照大厦,天津市,天津市,和平区,,unknown,
baidu,bb840240c30923d8fda778a8,停车场,天津市和平区河北路友谊宾馆(南京路店)西侧约40米,天津市,天津市,和平区,,unknown,
baidu,b0d69c04767dd5c104026f9e,香港路,604路;632路;657路;678路[专线];685路;953路;观光7路,天津市,天津市,河西区,,unknown,
baidu,ace75ec57387ba0085420e28,云峰楼-地下停车场,天津市和平区上海年代(湖北路店),天津市,天津市,和平区,,unknown,
baidu,e02f3f0bef8debcd611c6739,群星剧院-停车场,天津市和平区烟台道82号,天津市,天津市,和平区,,unknown,
baidu,c31d8c347946c871d81318b3,张作相旧居-地上停车场,天津市和平区重庆道4号张作相旧宅,天津市,天津市,和平区,,unknown,
baidu,e400ebffca208b7f441a3236,海珠大厦-地上停车场,天津市和平区新华路166号海珠大厦,天津市,天津市,和平区,,unknown,
baidu,748ab790ae7f0d81f82d614a,港澳大厦-停车场,天津市和平区郑州道18号,天津市,天津市,和平区,,unknown,
baidu,d83acfa23a12850117764362,西康路,轨道交通3号线,天津市,天津市,和平区,,unknown,
baidu,3fae5d5c7d51c145364aae9c,十一经路,津滨轻轨9号线,天津市,天津市,河东区,,unknown,
baidu,57cfc0acce0af64831870a94,下瓦房,轨道交通1号线;轨道交通5号线,天津市,天津市,河西区,,unknown,
baidu,f2796e38741c43beea1e9763,大王庄,津滨轻轨9号线,天津市,天津市,河东区,,unknown,
baidu,a087a33180e84a5fb7265500,天津市社会科学进修学院-地上停车场,天津市和平区成都道52号,天津市,天津市,和平区,,unknown,
baidu,d9fb9389f72d27dbf7e73b4c,天津市和平区劲松护养院(湖北路)-停车场,湖北路22号天津市和平区劲松护养院,天津市,天津市,和平区,,unknown,
baidu,991ae86e020f8e9b1e5800b7,天津市规划和自然资源局-地上停车场,天津市和平区曲阜道84号天津市国土资源和房屋管理局,天津市,天津市,和平区,,unknown,
baidu,92dfa92b67e777c845e2742e,六纬路,轨道交通4号线,天津市,天津市,河东区,,unknown,
baidu,9c066b31f20860526f3e1b81,泰安道小区东侧临时停车点,天津市和平区泰安道小区东侧,天津市,天津市,和平区,,unknown,
baidu,2dbdfb8c35e5dccd8c1a89ab,文联大楼西侧临时停车点,天津市和平区新华路文联大楼,天津市,天津市,和平区,,unknown,
baidu,3022bf73f37cfc959fec2b47,疙瘩楼,观光7路,天津市,天津市,和平区,,unknown,
baidu,85e1235e0f3bd0acf12d835e,鞍山道,轨道交通1号线,天津市,天津市,和平区,,unknown,
baidu,8a5e9b469e83216c04fef510,宏达公寓-停车场,天津市和平区保定道宏达公寓,天津市,天津市,和平区,,unknown,
baidu,6d280a61a9a90ccab21e3659,文联大楼-停车场,天津市和平区新华路文联大楼,天津市,天津市,和平区,,unknown,
baidu,294384c51502eabd293a9f63,津湾广场,轨道交通3号线,天津市,天津市,和平区,,unknown,
baidu,a7e791a4a412232338221c61,民航大院-停车场,天津市和平区睦南道34号航院小区,天津市,天津市,和平区,,unknown,
baidu,636f7b98520679291ef74d8d,庆华里小区-停车场,天津市和平区西安道庆华里,天津市,天津市,和平区,,unknown,
baidu,6e384da224162697d3ff2387,平安大厦(合肥道)-B座-接送点,天津市和平区平安大厦(合肥道)-B座附近,天津市,天津市,和平区,,unknown,
baidu,65811154fe646a6341d63eb2,香港路国际村-地下停车场,天津市和平区香港路10号香港路国际村,天津市,天津市,和平区,,unknown,
baidu,319595ca746d6dc43b221c63,新华路烟台道,9路;20路;619路;845路;962路,天津市,天津市,和平区,,unknown,
baidu,b09f2dfefe45e26030169b0c,特来电充电站(香港路小区),天津市和平区香港路与睦南道交口,天津市,天津市,和平区,4001300001,unknown,
baidu,9a2fd4371177ffa6bda240fe,广东路西侧临时停车点,天津市河西区广东路天津医科大学(广东路校区),天津市,天津市,河西区,,unknown,
baidu,381a01427de135b4eb1e9766,诚基中心-地下停车场,天津市和平区南京路125号,天津市,天津市,和平区,,unknown,
baidu,69968202f04eaafcf33cba33,停车场,天津市和平区新华路富蓝特大酒店,天津市,天津市,和平区,,unknown,
baidu,6c7d7df42f9ddd7a14b54b46,二十中附小-停车场,天津市和平区南京路86号,天津市,天津市,和平区,,unknown,
baidu,3375803b7de744f4c2f1cf1d,前明德里-地下停车场,天津市和平区西安道前明德里,天津市,天津市,和平区,,unknown,
baidu,47a7bbd4dbbeb32125d2bb94,直沽,轨道交通5号线;津滨轻轨9号线,天津市,天津市,河东区,,unknown,
baidu,4cd8bda5a2653dbcd8ecedee,天津住宅集团(马场道)-停车场,天津市和平区马场道66号,天津市,天津市,和平区,,unknown,
baidu,fc4986fec72b6d9edb1318a7,平安大厦-接送点,天津市河西区平安大厦附近,天津市,天津市,河西区,,unknown,
baidu,313d34122cdc33509cec2bb7,天津站-南广场,天津市河北区新纬路1号,天津市,天津市,河北区,,unknown,
baidu,4230e0430fe4fad27369d309,西南楼,轨道交通5号线,天津市,天津市,河西区,,unknown,
baidu,87c2602106fdb6483586f49c,文联大楼西侧临时停车点,天津市和平区新华路文联大楼西侧,天津市,天津市,和平区,,unknown,
baidu,7e11a40cc87674a8c7f025fd,四川路,97路;830路;851路,天津市,天津市,和平区,,unknown,
baidu,387c2fad6e10169aafee7a09,小白楼派出所-停车场,天津市和平区烟台道天津市公安局和平分局小白楼派出所,天津市,天津市,和平区,,unknown,
baidu,305b0571b44b0e7b5d17c30f,烟台道小区-停车场,天津市和平区四川路烟台道小区,天津市,天津市,和平区,,unknown,
baidu,76b6a84d5ea64c7541d63e8b,常德道路北侧-停车场,天津市和平区常德道五大道文化旅游区,天津市,天津市,和平区,,unknown,
baidu,2fbfb1d754be8b7d081cc7ad,文联大楼立体停车场,天津市和平区新华路文联大楼,天津市,天津市,和平区,,unknown,
baidu,5ad8fc91f1e061f4ca09f057,烟台道路北侧临时停车点,天津市和平区烟台道小区西北侧,天津市,天津市,和平区,,unknown,
baidu,840d92528b46b435932ca3c2,天津市老干部局-地上停车场,天津市和平区湖北路14号天津市老干部局,天津市,天津市,和平区,,unknown,
baidu,a97f43f0150abe08ad31e54c,和平社区(湖北路)-地上停车场,天津市和平区湖北路和平社区,天津市,天津市,和平区,,unknown,
baidu,f72a67d0b0cc80f61811d53d,天津渤海化工集团公司-地上停车场,天津市和平区湖北路10号,天津市,天津市,和平区,,unknown,
baidu,c9db7257d728cb1557bfff13,五大道地标钟,观光7路,天津市,天津市,和平区,,unknown,
baidu,e253ce45376b846f1fe999f8,天津渤海化工集团有限责任公司-停车场,天津市和平区大理道30号,天津市,天津市,和平区,,unknown,
baidu,1c34ea720d849ce51f3894bb,中国联通(烟台道营业厅)西南侧-停车场,天津市和平区烟台道中国联通(烟台道营业厅),天津市,天津市,和平区,,unknown,
baidu,1f3a92bde1803a896c4760d1,天津市老干部局-地下停车场,天津市和平区湖北路14号,天津市,天津市,和平区,,unknown,
baidu,587a32d6f076f72a336212d4,天津市和平区卫生局-地上停车场,天津市和平区小白楼街道烟台道80号,天津市,天津市,和平区,,unknown,
baidu,a4402c1ddfa5c3b1cf06a46f,中国民主促进会天津市委员会-停车场,天津市和平区南海路永健里,天津市,天津市,和平区,,unknown,
baidu,1e6baa9800ab11cbc91b95c4,新华路环岛,天津市和平区新华路华侨大厦东南侧约30米,天津市,天津市,和平区,,unknown,
baidu,6bcc698e7b950844f21937c8,廉润初心文化传播推广中心-停车场,天津市和平区长沙路95号,天津市,天津市,和平区,,unknown,
baidu,c78dd5579e4472f2f503b8c2,天津市医疗纠纷人民调解委员会-停车场,天津市和平区重庆道68号,天津市,天津市,和平区,,unknown,
