source,bd_uid,name,address,province,city,area,tel,poi_type,tag
baidu,a1535f1ce2023e1db13c811c,徐鼎盛民间菜(磁器口店),沙滨路101号附161-167号沙磁巷B区3楼,重庆市,重庆市,沙坪坝区,(023)65000898,unknown,
baidu,3b3e7763c487b33aa20464b6,茶颜悦色(磁器口店),磁南街6号附8号,重庆市,重庆市,沙坪坝区,19123149167,unknown,
baidu,9de2269b180e79d3a8f729ed,杨记隆府(磁器口店),磁器口街道沙滨路104号沙磁巷商业内街3楼,重庆市,重庆市,沙坪坝区,(023)67396608,unknown,
baidu,73385bb1396c70dd1ef74d95,茶社老火锅(磁器口店),磁器口磁南街名人墙,重庆市,重庆市,沙坪坝区,13452053021,unknown,
baidu,89f97b6983d632f428b97c4a,相当渔味(三千城店),瓷建村88号附7号,重庆市,重庆市,沙坪坝区,13883813185,unknown,
baidu,7ce9efed48c95cec49fc8d96,罗氏家常菜,汲水巷8号,重庆市,重庆市,沙坪坝区,13983996844,unknown,
baidu,3ddc56e5337eae1b4f3a5907,老地方猫儿面(磁器口店),磁器口南街5号附13号,重庆市,重庆市,沙坪坝区,15310940900,unknown,
baidu,9d3f28038733a17a7369d39a,红火锅(劳动路店),沙坪坝街道教院路中段三陵大厦一楼(百年世家门口对面),重庆市,重庆市,沙坪坝区,"13996290016,15023798966",unknown,
baidu,550b169d4b528317c256ac59,转运楼·川菜·川剧·天花板(磁器口店),磁正街110号（以前的磁器口老街牌坊进来120米）,重庆市,重庆市,沙坪坝区,15683088131,unknown,
baidu,e5eb63ceb7a2458ec5f0254f,马房湾66号·江湖菜,杨梨路杨公桥地铁站1B出口西200米,重庆市,重庆市,沙坪坝区,"(023)65303131,15608317777",unknown,
baidu,f3c2373caa39d34bd22dd64e,颜氏双江清水鱼一养身火锅(磁器口店),磁童路磁器口地铁口旁50米（沙磁1938刘一手火锅旁）,重庆市,重庆市,沙坪坝区,13206008886,unknown,
baidu,f94e282b2a29ae0e38221c2a,37号火锅馆(磁器口店),磁器口正街173号,重庆市,重庆市,沙坪坝区,13983427797,unknown,
baidu,d07f5ec8d770595f6c476039,老街味道(磁器口店),磁器口正街173-1号,重庆市,重庆市,沙坪坝区,13072323052,unknown,
baidu,a4d494a3357785e02eb17ee3,九舟淡水鱼(劳动路店),教院路23号,重庆市,重庆市,沙坪坝区,18723383902,unknown,
baidu,efb9bfdb3141778bb13c8108,陈昌银麻花(手信店),磁器口街道磁南街1号附2号,重庆市,重庆市,沙坪坝区,18008386863,unknown,
baidu,f790b00dc7f885d6c7f50def,长寿餐馆,重庆市沙坪坝区教院路三陵大厦23号附11号,重庆市,重庆市,沙坪坝区,15723252552,unknown,
baidu,f2e2b4585811721e36b06c0b,刘氏家常菜,磁器口古镇,重庆市,重庆市,沙坪坝区,17358339170,unknown,
baidu,c55962ee23635b60b35c6ad9,陈昌银麻花(磁器口1号店),南街8号附9号,重庆市,重庆市,沙坪坝区,(023)65350549,unknown,
baidu,a06490d0b85d30c06f4760a9,街头巷尾山城美食汇(国富沙磁巷B区店),沙滨路101号国富沙磁巷B区,重庆市,重庆市,沙坪坝区,,unknown,
baidu,94ebc6b3af07cbe9843304e5,晓卤卤味铺,磁建村88号附85号,重庆市,重庆市,沙坪坝区,,unknown,
baidu,868a873adb1f8c65d618b7fe,肯德基(磁器口店),磁器口餐厅（沙坪坝区沙滨路109号附12号至附17号商铺）,重庆市,重庆市,沙坪坝区,"15084373433,4009200715",unknown,
baidu,68d17d8fb469b3f80aa8d4f1,磁面(磁器口店),磁南街16号附3号,重庆市,重庆市,沙坪坝区,18682824427,unknown,
baidu,1bbae429ec6ced32c8c3db6d,luckincoffee瑞幸咖啡(磁器口老街店),磁器口正街148号底商,重庆市,重庆市,沙坪坝区,,unknown,
baidu,f839e67e37a72898c42ba1ef,巷口小屋(磁器口店),磁正街146号附7号,重庆市,重庆市,沙坪坝区,15523833423,unknown,
baidu,03494f0f143c359454bfff18,巴渝伤心土凉粉,磁南街1号磁器口古镇,重庆市,重庆市,沙坪坝区,,unknown,
baidu,567908948727f1f03813fd7e,渝唐记舌尖美食(磁器口店),磁器口南街6-4,重庆市,重庆市,沙坪坝区,15310356851,unknown,
baidu,511750a157f8601c3fe2310c,丝纺厂蹄花汤(磁器口店),沙滨路101号附,重庆市,重庆市,沙坪坝区,15025404007,unknown,
baidu,58873e7431e96abe882fb5a0,众悦憨豆花(磁器口店),沙滨路101号附72号,重庆市,重庆市,沙坪坝区,(023)65015538,unknown,
baidu,6a70410d9cc2e60ad1ff2378,叁陆零小馆,重庆市沙坪坝区88号附92号,重庆市,重庆市,沙坪坝区,,unknown,
baidu,6983e0435d7665c7c26c1482,林资格老火锅(磁器口店),覃家岗街道金磁路1-20、21、22、23号商铺,重庆市,重庆市,沙坪坝区,(023)65398222,unknown,
baidu,ba68df5ed5ed055a17c8f65d,陈灯影牛肉,重庆市沙坪坝区磁南街10号附3号,重庆市,重庆市,沙坪坝区,(023)65385603,unknown,
baidu,3702959f29fa38066140a957,小猪找茶,磁器口古镇黄桷坪17号,重庆市,重庆市,沙坪坝区,,unknown,
baidu,f730d82692bb0470734b877c,刘师傅重庆小面,重庆市沙坪坝区磁童路滨江民居,重庆市,重庆市,沙坪坝区,,unknown,
baidu,6b46642a831fc2bd471a321b,重庆巴适老火锅底料(1号店),重庆市沙坪坝区磁器口正街131号,重庆市,重庆市,沙坪坝区,18580092333,unknown,
baidu,14dc15552629b6e21f389447,麻花姐姐老火锅(磁器口店),磁器口南街14号附5、6号（麒雅酒店对面）,重庆市,重庆市,沙坪坝区,18223007758,unknown,
baidu,5086258e82d9da7d704b8736,星巴克(沙磁巷店),沙滨路102-112号沙磁巷广场1F,重庆市,重庆市,沙坪坝区,(023)65630617,unknown,
baidu,1de1adc60e3cb4ab11882477,竹色烟雨(磁器口店),磁器口步行街与黄桷坪一巷交叉口西南180米,重庆市,重庆市,沙坪坝区,,unknown,
baidu,aa89370c62ef55f46f4760dd,二两重庆小面(磁器口店),磁南街1号磁器口古镇,重庆市,重庆市,沙坪坝区,15922988464,unknown,
baidu,750d4840c0c22a3b0b69d919,巴村人手工糍粑(磁器口古镇店),磁器口街道磁器口正街120号(宝善宫旁),重庆市,重庆市,沙坪坝区,18983932666,unknown,
baidu,e2fd3bc9279694c515764386,重庆转运楼饮食文化有限公司,重庆市沙坪坝区磁器口正街110号,重庆市,重庆市,沙坪坝区,,unknown,
baidu,7110dcb87b4b97aba0acc463,陈建平麻花(磁器口总店),磁器口正街60号,重庆市,重庆市,沙坪坝区,(023)65476688,unknown,
baidu,61071f7292fcf0d54254d726,好地方家常菜(磁器口正街店),磁器口正街179号,重庆市,重庆市,沙坪坝区,17302307980,unknown,
baidu,2ebade78c8ffd9af2dfaa7f0,星巴克(重庆磁器口后街店),重庆市幸福街89号磁器口后街C5号号楼地上一层附1号、附2号和部分附3号自编C-1F-25单元,重庆市,重庆市,沙坪坝区,(023)86280515,unknown,
baidu,401c65e2caa4b261c91b95e9,周氏天天现捞(国盛·三千城店),国盛·三千城西北门西南110米,重庆市,重庆市,沙坪坝区,13637824828,unknown,
baidu,210f86c1cb84b6f81676435c,毛血旺川菜馆,金磁路与磁童路交叉口东行350米路北,重庆市,重庆市,沙坪坝区,,unknown,
baidu,e9b7108a0b9545360b1cc722,重庆味道(黄桷坪一巷),重庆市沙坪坝区磁南街磁器口轻轨站13号附19号,重庆市,重庆市,沙坪坝区,15023713681,unknown,
baidu,9f2b89fbb449c3e47dc8762f,三陵面妹面庄,重庆市沙坪坝区教院路三陵大厦,重庆市,重庆市,沙坪坝区,,unknown,
baidu,e184b34b187f08539e9d6822,重庆运气好江湖菜·鸡杂·毛血旺(磁器口店),磁器口街道磁正街197号（路咖啡对面）,重庆市,重庆市,沙坪坝区,17784761028,unknown,
baidu,b064ed74cad2192600ff2dd3,巷子深面馆连锁店(教院路店),教院路23号三陵大厦C栋F1层,重庆市,重庆市,沙坪坝区,18875115519,unknown,
baidu,c083e9dec9a7c5dbc056ac77,渝味家常菜,重庆市沙坪坝区磁南街1号磁器口古镇,重庆市,重庆市,沙坪坝区,"13996015909,15723229090",unknown,
baidu,a166c5abc72fb3aa2ce67b38,渝老武私房牛肉酱(磁器口总店),古镇正街214号,重庆市,重庆市,沙坪坝区,18584502037,unknown,
baidu,f6b90e44d3eaf889cafa5f86,温家大院,重庆市沙坪坝区下河路国富·沙磁巷商业街,重庆市,重庆市,沙坪坝区,,unknown,
baidu,e6c2d8ba59aab39dabf729c8,椒麻嘞麻辣鸡,沙滨路101号附55号,重庆市,重庆市,沙坪坝区,13206190061,unknown,
baidu,668dcac5684461797069d33d,周记龙须酥,重庆市沙坪坝区磁童路磁器口古镇小西门东北侧约90米,重庆市,重庆市,沙坪坝区,,unknown,
baidu,5732b7ec4f43ab1fc6effb67,吴连强花椒鸡,重庆市沙坪坝区磁器口正街160号,重庆市,重庆市,沙坪坝区,13368129161,unknown,
baidu,bc94458672d857360d3dda7d,来就吃,磁童路磁器口古镇南门东北侧约60米,重庆市,重庆市,沙坪坝区,,unknown,
baidu,edf732a86e92eaa8c72ba1b2,竹海凉糕(磁二店),黄桷坪一巷2号,重庆市,重庆市,沙坪坝区,13028392625,unknown,
baidu,a149f0402428bc339cf779b2,老丁家橘饼,磁器口正街53号,重庆市,重庆市,沙坪坝区,,unknown,
baidu,ff5d181696caca3f71455b9c,干龙石磨豆花,沙坪坝区磁器口磁南街14-7号,重庆市,重庆市,沙坪坝区,"(023)65205063,18623229928",unknown,
baidu,7b5277e9ded5a071c7f02596,享哆味·中国汉堡(沙坪坝三千城店),磁器口街道磁建村88号附25号（三千城）,重庆市,重庆市,沙坪坝区,18983473232,unknown,
baidu,9a43bbe5bbcc60bc047ce870,手磨豆花,重庆市沙坪坝区磁童路磁器口古镇,重庆市,重庆市,沙坪坝区,,unknown,
baidu,9e927066b7288910b2077d6e,古镇小吃,重庆市沙坪坝区磁童路磁器口古镇小西门西南侧,重庆市,重庆市,沙坪坝区,,unknown,
baidu,6307875ef358939b08ccddca,山城汤圆水果茶,重庆市沙坪坝区磁童路磁器口古镇南门西侧约50米,重庆市,重庆市,沙坪坝区,,unknown,
baidu,d39e3dca31a1e8296b49f3fe,汇林森,磁器口正街107,重庆市,重庆市,沙坪坝区,,unknown,
baidu,7fb70c732671c83143e192c5,两江捞老火锅(沙坪坝总店),童家桥正街阳光水城怪味一条街（地铁1号线烈士墓站1B出口前行50米）,重庆市,重庆市,沙坪坝区,13370750650,unknown,
baidu,0bf4d5582549f92a3be4a605,好吃时光,重庆市沙坪坝区磁器口西门红路灯旁,重庆市,重庆市,沙坪坝区,18877775133,unknown,
baidu,24539bb9bfb3a49c740269c9,小李子(沙磁巷店),沙滨路沙磁巷2号楼1层,重庆市,重庆市,沙坪坝区,,unknown,
baidu,0681e8d07d271daf9de32155,春记山城烤梨,重庆市沙坪坝区磁正街106号,重庆市,重庆市,沙坪坝区,,unknown,
baidu,6637d36a8f9a3999a2d23045,茶田吾社(磁器口店),磁正街182号,重庆市,重庆市,沙坪坝区,,unknown,
baidu,aa6298ccfa2188949868b410,时光咖啡酒馆,磁器口正街22号,重庆市,重庆市,沙坪坝区,,unknown,
baidu,66767908c160ae3f09b93a43,椰汁源,重庆市沙坪坝区磁童路磁器口古镇小西门东北侧约70米,重庆市,重庆市,沙坪坝区,,unknown,
baidu,285b6b4dd3b4cf3ad4851f1f,莎莎果汁,重庆市沙坪坝区磁器口市街14号-3号,重庆市,重庆市,沙坪坝区,,unknown,
baidu,f0f4d52e877ee861be4842c7,李记葛根酥,重庆市沙坪坝区磁南街1号磁器口古镇,重庆市,重庆市,沙坪坝区,,unknown,
baidu,810b833c1715ad3ceedfca8f,蚝酥铺子麻将酥,重庆市沙坪坝区沙滨路磁器口古镇,重庆市,重庆市,沙坪坝区,,unknown,
baidu,b00f93c992afa2f3ab059d30,网红三角粑,重庆市沙坪坝区磁南街1号磁器口古镇磁悦里F1,重庆市,重庆市,沙坪坝区,,unknown,
baidu,648ee0aa128f33b76240a938,夏五小吃,重庆市沙坪坝区磁南街16号,重庆市,重庆市,沙坪坝区,13370733155,unknown,
baidu,fd007c5e7a711175a8f72942,王少龙火锅(沙南街店),沙南街8号,重庆市,重庆市,沙坪坝区,(023)65478368,unknown,
baidu,cc070509f714c181ab175a6b,叶妈妈食堂,重庆市沙坪坝区磁南街1号磁器口古镇,重庆市,重庆市,沙坪坝区,,unknown,
baidu,d57cebfe089275ad90114c9c,九街淑芬掌中宝串串(沙坪坝店),沙杨路1号,重庆市,重庆市,沙坪坝区,(023)65006969,unknown,
baidu,c36ec85ebe44f01c1e580021,大肉串,磁器口正街108号,重庆市,重庆市,沙坪坝区,,unknown,
baidu,b3a77ea82a0729a1ca291591,诗熠烤米线,沙坪坝街道沙北街6号3-1-1 重大A区前行50米育英小学正门旁,重庆市,重庆市,沙坪坝区,18323306922,unknown,
baidu,4ce10ce675ae87b8441a3275,南韩铁板烧(欣阳广场店),沙坪坝正街1号附2号,重庆市,重庆市,沙坪坝区,13274002672,unknown,
baidu,e4a087db7c22f2a8f5c59cb7,牛毛肚821老火锅,童歌路与凌云路交叉口南150米路西,重庆市,重庆市,沙坪坝区,13012362794,unknown,
baidu,d25794da3259efebc9fa5fd6,遇见重庆,重庆市沙坪坝区磁器口南街14号附9号,重庆市,重庆市,沙坪坝区,,unknown,
baidu,b2ac9762d822e7896d20b96e,老兵面馆·炒菜(光华·阳光水城店),阳光水城1期1栋号269号,重庆市,重庆市,沙坪坝区,13452306297,unknown,
baidu,224d3be88771831cf32d83a1,于记老铺子(磁器口2店),磁器口步行街与黄桷坪一巷交叉口西100米,重庆市,重庆市,沙坪坝区,(023)65676166,unknown,
baidu,3810c87910802e8b9c09f763,重庆鑫林平价超市(磁童路店),磁器口南街8号附6号,重庆市,重庆市,沙坪坝区,"(023)65010288,18975423168",unknown,
baidu,2d0c364e22e69e56fea77835,磁悦里,重庆市沙坪坝区磁南街1号磁器口古镇,重庆市,重庆市,沙坪坝区,,unknown,
baidu,656944a08462a98a931fc926,磁器口后街,磁兴街1号（磁器口古镇内）,重庆市,重庆市,沙坪坝区,(023)86150808,unknown,
baidu,417eaa6f1a05a07f725e8094,美宜佳(国盛大道店),重庆市沙坪坝区国盛大道国盛三千城东北侧约130米,重庆市,重庆市,沙坪坝区,4008871133,unknown,
baidu,74b36ff74b300e92223bf233,通达超市(郎家巷),重庆市沙坪坝区沙滨路中国邮政储蓄银行南50米,重庆市,重庆市,沙坪坝区,,unknown,
baidu,656ff9135ecad3ef7dc87631,立强超市(教院路店),教院路23号附8号,重庆市,重庆市,沙坪坝区,,unknown,
baidu,7d8d52ab36e7d899fe0eb04c,百果园(国盛三千城店),磁建村88号附2号,重庆市,重庆市,沙坪坝区,(023)65183787,unknown,
baidu,1b9995129d1ce81af4b9162b,永瑞农超(学林雅园店),欧鹏大厦东南门西北240米,重庆市,重庆市,沙坪坝区,"13637941433,18375883338",unknown,
baidu,2231220efa00efc2e115f9d0,麦德龙(沙坪坝商场店),重庆市沙坪坝区石井坡266号附1号,重庆市,重庆市,沙坪坝区,(023)61756888,unknown,
baidu,d2938102d4d8df68bda2403a,回力(国富·沙磁巷商业街店),重庆市沙坪坝区渝碚路街道沙磁巷1-1-6,重庆市,重庆市,沙坪坝区,,unknown,
baidu,289a213585b80503774ff1bf,小娇娘,重庆市沙坪坝区磁器口街道磁器口高石坎187号,重庆市,重庆市,沙坪坝区,,unknown,
baidu,6f9843a239224a912efaa792,碗碗香生鲜超市(沙坪坝店),磁建村88号附8号、附9号,重庆市,重庆市,沙坪坝区,"18223194212,18223451676",unknown,
baidu,3a7268df560991e66fa3cc0b,巧渝蜀绣(磁器口店),重庆市沙坪坝区磁南街12号附8、9号,重庆市,重庆市,沙坪坝区,13372621868,unknown,
baidu,9581d7277db3369bf03cbaa4,可购便利店(国富沙磁巷店),沙滨路101号附97号,重庆市,重庆市,沙坪坝区,19923470571,unknown,
baidu,bcf04455ed6892de14c8f6d2,美美超市(东和科苑南),沙杨路250号半月楼F1层,重庆市,重庆市,沙坪坝区,18323128505,unknown,
baidu,2962d51dd0777d9ca0acc4cd,优特品,重庆市沙坪坝区磁建村89号附1号,重庆市,重庆市,沙坪坝区,,unknown,
baidu,67be1ad31b1b4337882fb515,远古的呼唤,黄桷坪一巷5号,重庆市,重庆市,沙坪坝区,"(023)65818537,13983065948",unknown,
baidu,924ce2d4b90fb0b03686f410,西岸便利店,重庆市沙坪坝区万科金域华庭后门旁,重庆市,重庆市,沙坪坝区,15123180263,unknown,
baidu,293e344c518f38134207c12b,乡坛子,重庆市沙坪坝区黄桷坪1巷16号,重庆市,重庆市,沙坪坝区,13657689216,unknown,
baidu,94d592051bd1fd314c6d4647,银世之家(磁器口一店),磁正街115号,重庆市,重庆市,沙坪坝区,,unknown,
baidu,7d1245c144c26fb8f7b916d3,寻味山城茶礼铺正街店,重庆市沙坪坝区磁器口正街110号,重庆市,重庆市,沙坪坝区,,unknown,
baidu,0d4d6fec633a39d9b11e3621,久弘盛剁椒,重庆市沙坪坝区磁南街1号磁器口古镇,重庆市,重庆市,沙坪坝区,,unknown,
baidu,95ee64ee804c0dfef7e73b78,匠铸(磁器口古镇店),重庆市沙坪坝区磁器口正街110号,重庆市,重庆市,沙坪坝区,,unknown,
baidu,232ab3a547307c2521022013,果农果园,重庆市沙坪坝区国盛大道国盛三千城东北侧约90米,重庆市,重庆市,沙坪坝区,,unknown,
baidu,553a06d948e1624e54bfff7a,美购便利店(沙滨路店),重庆市沙坪坝区沙磁巷101号附65号,重庆市,重庆市,沙坪坝区,18015700387,unknown,
baidu,0f338fb26971d2d8a11de9dc,誉多便利超市(三千城店),磁建村88号国盛·三千城,重庆市,重庆市,沙坪坝区,,unknown,
baidu,d3596f000e96b29794ec8491,蔡娃车行,重庆市沙坪坝区教院路10号,重庆市,重庆市,沙坪坝区,"(023)65010626,15310354230",unknown,
baidu,f291a1d62330424e9b68b490,藏古轩古玩,重庆市沙坪坝区沙滨路磁器口古镇,重庆市,重庆市,沙坪坝区,,unknown,
baidu,b8bed0498e78c776c51b7581,吉祥玛瑙,磁正街172号,重庆市,重庆市,沙坪坝区,17623027016,unknown,
baidu,dbf4d6ee42a74a2a6fa3cc1d,沙北街菜市场,沙坪坝北街千秋花园内,重庆市,重庆市,沙坪坝区,,unknown,
baidu,dece7c5d3596be93d22dd6f1,云嘉惠便利店(沙磁巷店),重庆市沙坪坝区沙滨路102号附8号,重庆市,重庆市,沙坪坝区,,unknown,
baidu,b4172163b94943b8018972b1,八斗士特产,重庆市沙坪坝区磁童路磁器口古镇小西门东北侧,重庆市,重庆市,沙坪坝区,,unknown,
baidu,3c755e85b3f39db53f9a5e98,永红副食店,重庆市沙坪坝区教院路10号,重庆市,重庆市,沙坪坝区,,unknown,
baidu,4f91f7ba3ad73a322cb17e48,磁器口董小姐特产,重庆市沙坪坝区磁器口街道黄桷坪1巷2号重庆特产腊肉腊肠,重庆市,重庆市,沙坪坝区,13628492486,unknown,
baidu,23ba59e3f660711b87154197,石缘坊,重庆市沙坪坝区磁器口南街4号附15号,重庆市,重庆市,沙坪坝区,,unknown,
baidu,b9c9d5a2ec1b01093310af46,于记土特产,重庆市沙坪坝区磁南街6号附1号,重庆市,重庆市,沙坪坝区,(023)65676166,unknown,
baidu,2e5996bc1ddc7afa94031976,掏耳朵,重庆市沙坪坝区黄桷坪一巷127号,重庆市,重庆市,沙坪坝区,,unknown,
baidu,dec10cd194adfa51631809f7,古艺奇阁,重庆市沙坪坝区磁器口正街160号,重庆市,重庆市,沙坪坝区,,unknown,
baidu,09d5ee7620921e631e58001c,重庆特产,重庆市沙坪坝区磁器口隧道国富·沙磁巷商业街,重庆市,重庆市,沙坪坝区,,unknown,
baidu,e6ee2fd276281c482b11d11d,台湾花园菜市场,沙坪坝正街一心村22号附8号,重庆市,重庆市,沙坪坝区,13368172716,unknown,
baidu,763dc80d423ec4cd8bb988de,长城酒窖,重庆市沙坪坝区沙磁巷B区西南门西南50米,重庆市,重庆市,沙坪坝区,,unknown,
baidu,673e246a2420146da8175a76,谊品生鲜(百年世家店),"教院路8号百年世家4-1-1,4-1-2",重庆市,重庆市,沙坪坝区,"15213023639,18723323380,4008085898",unknown,
baidu,623f7340f8717c2e2ad7ab47,冰糕超市,教院路26号,重庆市,重庆市,沙坪坝区,,unknown,
baidu,dfbc51017a8904cdede4a591,信誉烟酒超市(磁童路店),重庆市沙坪坝区磁南街131号,重庆市,重庆市,沙坪坝区,18875137535,unknown,
baidu,4f3435b41986a861c036447d,速比特自行车(重庆形象店),重庆市沙坪坝区溪景路磁建村88号附58号,重庆市,重庆市,沙坪坝区,18102323242,unknown,
baidu,20a57344bdb28d7f5e0d02c4,屈臣氏(沙磁巷店),沙滨路107号首层（铺位号:A-8-1-2）,重庆市,重庆市,沙坪坝区,(023)65337852,unknown,
baidu,9c449a0a510aa0770c0e6bb2,甄酒汇,重庆市沙坪坝区沙滨路112号,重庆市,重庆市,沙坪坝区,15702329959,unknown,
baidu,03d5944e7ab10bc68bf15d67,NIKE(沙磁巷店),重庆市沙坪坝区磁器口沙磁巷8栋1-1号(11号电梯),重庆市,重庆市,沙坪坝区,(023)65376378,unknown,
baidu,82d6623105102cde6f3e1b25,古镇老酒坊(磁童路店),磁南街14号附8号(磁器口地铁站1号口步行450米),重庆市,重庆市,沙坪坝区,13368100026,unknown,
baidu,5f5fef07fd425904e011030f,川剧变脸娃娃,重庆市沙坪坝区磁器口街道磁器口南街6号附9号,重庆市,重庆市,沙坪坝区,18203023450,unknown,
baidu,1cae4391bb57d3aa0b1cc72c,磁器口调料坊,重庆市沙坪坝区磁器口市街6号-7号,重庆市,重庆市,沙坪坝区,13708364099,unknown,
baidu,ca410465baef8ef7cac3db8a,重烟印象,重庆市沙坪坝区磁南街8号附13号,重庆市,重庆市,沙坪坝区,13677656100,unknown,
baidu,e39c5c7783d9ad868bfc0609,茗饴坊,重庆市沙坪坝区磁正街162号,重庆市,重庆市,沙坪坝区,15236945252,unknown,
baidu,f3022748300b20c14207c1c9,陈建平重庆礼信,重庆市沙坪坝区磁南街1号磁器口古镇,重庆市,重庆市,沙坪坝区,"(023)65004289,19923918638",unknown,
baidu,8cf6041bfc005f4fb72655bd,肖佬五重庆特色调味品专卖店,重庆市沙坪坝区沙滨路磁器口古镇,重庆市,重庆市,沙坪坝区,,unknown,
baidu,065af1a2a799dab7ee74f81b,DEAR X collection饰品博物馆,磁器口正街149号,重庆市,重庆市,沙坪坝区,15696588889,unknown,
baidu,013ad8146133b1d9a20464a7,文创纪念品,重庆市沙坪坝区磁正街197号,重庆市,重庆市,沙坪坝区,,unknown,
baidu,78ecf33a10a56a9082288aa7,海川古玩店,黄桷坪一巷与磁器口正街交叉口西南80米,重庆市,重庆市,沙坪坝区,,unknown,
baidu,f5966382bea8ed187ec87688,花相酿皂(沙磁巷店),重庆市沙坪坝区沙滨路沙磁巷7号楼1层,重庆市,重庆市,沙坪坝区,,unknown,
baidu,f424df8a78912fdc5ebe864d,陈建平麻花(磁器口古镇店),磁器口,重庆市,重庆市,沙坪坝区,15310680591,unknown,
baidu,9f5bb8e24674bd954f554793,唐齐禾·古树茶行,磁器口黄桷坪1巷17-18号,重庆市,重庆市,沙坪坝区,,unknown,
baidu,43b9ec4466568e6a5810930a,涪陵榨菜,重庆市沙坪坝区黄桷坪1巷2号附2号,重庆市,重庆市,沙坪坝区,,unknown,
baidu,7a9169359cbd6f6a21f017d2,老重庆画坊,磁南街1号磁器口古镇(东南角),重庆市,重庆市,沙坪坝区,,unknown,
baidu,01b1fbb5d6a9021288db730c,手工糖坊,磁南街1号,重庆市,重庆市,沙坪坝区,,unknown,
baidu,5eeb2ec8ca34553779b55cf1,龙水五金,重庆市沙坪坝区劳动路三陵大厦,重庆市,重庆市,沙坪坝区,15923131876,unknown,
baidu,0d32c8336d35eb3b940319a8,重庆滚石琴行(重大旗舰店),沙正街125-5号（重庆大学A区正大门对面）,重庆市,重庆市,沙坪坝区,"(023)65402281,(023)65423099",unknown,
baidu,b602e500fd1a12976f4760e9,磨生椒泡菜坊,重庆市沙坪坝区黄桷坪1巷2号附1号,重庆市,重庆市,沙坪坝区,,unknown,
baidu,3fbc97706e8d24ce873304c5,重庆土特产,磁器口正街101号,重庆市,重庆市,沙坪坝区,(023)65676166,unknown,
baidu,a24e039ea146c69236b06ca3,黎程装饰,重庆市沙坪坝区国盛大道国盛三千城东侧约80米,重庆市,重庆市,沙坪坝区,13038339368,unknown,
baidu,f02563762b229d1295ca0781,精品黄桃专卖店,重庆市沙坪坝区磁童路磁器口古镇,重庆市,重庆市,沙坪坝区,,unknown,
baidu,10317b09e629de820289727f,桥头调料直营店,重庆市沙坪坝区磁器口正街124号,重庆市,重庆市,沙坪坝区,19332230845,unknown,
baidu,d0758fcdeac1283ff5c59cee,年友老腊肉(直营2店),重庆市沙坪坝区磁童路磁器口古镇小西门东北侧约60米,重庆市,重庆市,沙坪坝区,,unknown,
baidu,5847bd90a688f07ba2a934fa,古镇陶瓷,重庆市沙坪坝区幸福街18号附1号,重庆市,重庆市,沙坪坝区,,unknown,
baidu,b5e2aa0ff5c53a3609b93a74,烈士墓农贸市场,壮志路58号附12号,重庆市,重庆市,沙坪坝区,15923491298,unknown,
baidu,686c70683522780d631c67c3,浩杨门窗,重庆市沙坪坝区溪凤路国盛三千城东侧约50米,重庆市,重庆市,沙坪坝区,,unknown,
baidu,6efb73f6d21ea33b5cbe8664,李烧腊便利店,重庆市沙坪坝区88号附5号,重庆市,重庆市,沙坪坝区,15823338872,unknown,
baidu,10654bf008a6029da11de976,高石坎画廊,重庆市沙坪坝区磁正街176号,重庆市,重庆市,沙坪坝区,18725769056,unknown,
baidu,fd6f0a21440af4326f3e1b9b,南诏布衣,重庆市沙坪坝区磁南街1号磁器口古镇,重庆市,重庆市,沙坪坝区,,unknown,
baidu,24c1840517f277500bccdda0,花小辫(磁器口古镇店),磁器口正街179号,重庆市,重庆市,沙坪坝区,,unknown,
baidu,4fd2e207fa05c52e364aaec0,渝唐记腊肉铺,重庆市沙坪坝区磁童路磁器口古镇,重庆市,重庆市,沙坪坝区,,unknown,
baidu,dd38823d1765e7f34e776e15,古韵悠藏,重庆市沙坪坝区磁童路磁器口古镇,重庆市,重庆市,沙坪坝区,,unknown,
baidu,24050a574c7f6f1aab059d2f,菜鸟驿站(重庆市沙坪坝区三陵大厦店),重庆市沙坪坝区教院路8号百年世家b栋店7栋,重庆市,重庆市,沙坪坝区,951966,unknown,
baidu,400675568fddb3816ec02cb5,沙磁巷客户服务中心,重庆市沙坪坝区劳动路国富沙磁巷-B区,重庆市,重庆市,沙坪坝区,,unknown,
baidu,79496c929d5bff5971455bff,磁器口街道公共服务中心,重庆市沙坪坝区教院路25号,重庆市,重庆市,沙坪坝区,,unknown,
baidu,6560b7070d2eaf53bd484290,公共厕所,重庆市沙坪坝区劳动路国富沙磁巷南侧约60米,重庆市,重庆市,沙坪坝区,,unknown,
baidu,163a41130fc8cedf40ab9a77,磁器口街道养老服务中心,重庆市沙坪坝区教院路25号,重庆市,重庆市,沙坪坝区,(023)65160061,unknown,
baidu,6a3806ee85cdd85caf080f1d,诚祥地产(国盛大桥店),重庆市沙坪坝区国盛大桥沙坪坝瓷器口三千城大门旁,重庆市,重庆市,沙坪坝区,,unknown,
baidu,7398bdc19d3e6732abf7290d,中国邮政(磁器口邮政所),重庆市沙坪坝区沙滨路磁器口古镇,重庆市,重庆市,沙坪坝区,(023)65477151,unknown,
baidu,27addc04d1881cf0d618b70a,手机维修中心,重庆市沙坪坝区国盛大道国盛三千城,重庆市,重庆市,沙坪坝区,,unknown,
baidu,d3ccf610676a3da92cb96df9,宠洁宠物店(三陵大厦C栋店),教院路25号三陵大厦C栋,重庆市,重庆市,沙坪坝区,,unknown,
baidu,dea1514e31843b8d4d776e84,芒果宠物店,国盛·三千城磁建村88号附12号,重庆市,重庆市,沙坪坝区,17784295143,unknown,
baidu,a4ed477d8daeb7e4d22dd629,沙坪坝区磁器口邮政所工会驿站,重庆市沙坪坝区磁南街4号附15号,重庆市,重庆市,沙坪坝区,(023)65477151,unknown,
baidu,edf5441eeeda83974e55479e,阳光驿站,重庆市沙坪坝区劳动路79号附12号,重庆市,重庆市,沙坪坝区,,unknown,
baidu,010d0e26c279ecee43024572,磁器口古镇-游客服务中心,重庆市沙坪坝区磁南街1号磁器口古镇,重庆市,重庆市,沙坪坝区,(023)65293025,unknown,
baidu,0e69dd14ec9e7e008c55ec09,翰墨书园,重庆市沙坪坝区磁南街4号附19号,重庆市,重庆市,沙坪坝区,,unknown,
baidu,b411a859702d5f3bf5b9164f,磁器口后街游客服务站,重庆市沙坪坝区磁南街1号磁器口古镇磁悦里F1,重庆市,重庆市,沙坪坝区,,unknown,
baidu,5867f46082f5db29f90cad0c,三千城销售中心,溪凤路国盛三千城,重庆市,重庆市,沙坪坝区,,unknown,
baidu,09b346bcb39deacfdf1e5239,宝轮寺-售票处,磁横街13号,重庆市,重庆市,沙坪坝区,,unknown,
baidu,d02115fcd8e2e43e774ff194,友家制衣坊,重庆市沙坪坝区溪凤路国盛三千城西侧约90米,重庆市,重庆市,沙坪坝区,15213164689,unknown,
baidu,0ccb02b2e06f7258bda2401f,菜鸟驿站(重庆碧桂园摩卡店),重庆市沙坪坝区金磁路12号,重庆市,重庆市,沙坪坝区,951966,unknown,
baidu,5349c44e5f8112d60a5cb30e,中国邮政沙磁邮礼(磁器口古镇店),重庆市沙坪坝区磁器口隧道磁器口古镇,重庆市,重庆市,沙坪坝区,11185,unknown,
baidu,3924e2c8ab18173d48cc4a69,直行左右转,重庆市沙坪坝区磁南街1号国富沙磁巷-停车场B3,重庆市,重庆市,沙坪坝区,,unknown,
baidu,e10d3aa55623dd48a80dd800,旧时光照相馆,磁器口街道磁器口正街64号,重庆市,重庆市,沙坪坝区,15566906696,unknown,
baidu,6839a0c5d51af9c695f08c2a,周易堂,重庆市沙坪坝区磁横街27号附1号,重庆市,重庆市,沙坪坝区,,unknown,
baidu,dfd6b92295658340373a71cf,恩居地产(流云阁店),重庆市沙坪坝区劳动路78号,重庆市,重庆市,沙坪坝区,,unknown,
baidu,c5dd720c3ff2fe01eddfca62,名生宠物医院,劳动路19-23号,重庆市,重庆市,沙坪坝区,(023)65015743,unknown,
baidu,e6ae19fad3655ab9c4f025fe,三千邻里坊,重庆市沙坪坝区溪凤路国盛三千城,重庆市,重庆市,沙坪坝区,,unknown,
baidu,3fd5c001d32b8fb64151c06a,磁器口古镇-休息区,重庆市沙坪坝区磁南街1号磁器口古镇,重庆市,重庆市,沙坪坝区,,unknown,
baidu,1919596fdbdb434d0a5cb3f1,重庆1949大剧院-售票处,重庆市沙坪坝区童家桥正街2-50号,重庆市,重庆市,沙坪坝区,(023)65003888,unknown,
baidu,b36e2271f45d5d02100daae7,萌瞳专业儿童摄影馆,重庆市沙坪坝区沙滨路国盛三千城南侧约100米,重庆市,重庆市,沙坪坝区,,unknown,
baidu,ab1bee094fbaa8f9354aae33,碳元素洗鞋馆,重庆市沙坪坝区金磁路8号附39号,重庆市,重庆市,沙坪坝区,15213577087,unknown,
baidu,2d9e25eb7aee6799fda778a2,中国福利彩票(滨江民居店),重庆市沙坪坝区磁南街5-17号,重庆市,重庆市,沙坪坝区,954168,unknown,
baidu,da95807353d145205cbe8637,俊峰山万里营销中心,石井坡217号,重庆市,重庆市,沙坪坝区,(023)65358888,unknown,
baidu,0a3e6f81593ec37e46e274d8,菜鸟驿站(重庆大学B区后门),重庆市沙坪坝区沙杨路72-15号,重庆市,重庆市,沙坪坝区,951966,unknown,
baidu,ae138e83cd27e396b6f42f0a,渣滓洞看守所旧址-游客服务中心,重庆市沙坪坝区内环以内市磁器口后街,重庆市,重庆市,沙坪坝区,,unknown,
baidu,86beeec94921a6b36cc02c65,云龙管乐工作室,沙滨路101号沙磁巷B区4栋,重庆市,重庆市,沙坪坝区,15826049700,unknown,
baidu,1110697980e8ebfe6ec02ca8,凤凰山公共厕所,重庆市沙坪坝区金沙正街80号,重庆市,重庆市,沙坪坝区,,unknown,
baidu,d57fede16185900315c90500,公共厕所,重庆市沙坪坝区教院路42号,重庆市,重庆市,沙坪坝区,,unknown,
baidu,262deb29b5a04fb27dc876dd,公共卫生间,磁器口步行街与黄桷坪一巷交叉口西60米,重庆市,重庆市,沙坪坝区,,unknown,
baidu,dd623eae8cb3b8707ec87633,公共厕所,重庆市沙坪坝区沙滨路104号3层(杨记隆府),重庆市,重庆市,沙坪坝区,,unknown,
baidu,ce90dfd1b640cdffc6effb71,沙磁公馆-大堂,重庆市沙坪坝区沙滨路112号,重庆市,重庆市,沙坪坝区,,unknown,
baidu,c83620e89d5fb825c0364431,沙磁公馆·宴会厅,沙滨路112号,重庆市,重庆市,沙坪坝区,(023)65428888,unknown,
baidu,9d9b95fc0a592bac0869d97a,中国邮政储蓄银行(重庆沙坪坝区磁器口营业所)-邮爱驿站,重庆市沙坪坝区磁器口南街4号,重庆市,重庆市,沙坪坝区,,unknown,
baidu,977350c21b30734015c90594,公厕,重庆市沙坪坝区磁童路磁器口古镇南门北侧约30米,重庆市,重庆市,沙坪坝区,,unknown,
baidu,3971407781d890c31e1d1192,公共厕所,重庆市沙坪坝区凤凰山隧道金星·凤凰小区北侧约40米,重庆市,重庆市,沙坪坝区,,unknown,
baidu,352ba1e108e581e1c4f50d60,公共厕所,重庆市沙坪坝区沙滨路101号2层T2号,重庆市,重庆市,沙坪坝区,,unknown,
baidu,7f3732afe654630677e5b64d,公共厕所,重庆市沙坪坝区沙滨路101号1层T5号,重庆市,重庆市,沙坪坝区,,unknown,
baidu,6cb06d6f3d1bb7a4081cc791,公厕,重庆市沙坪坝区磁器口市街14号附11号,重庆市,重庆市,沙坪坝区,,unknown,
baidu,4595ee928f86804a88db7316,国富沙磁巷-停车场-男洗手间,重庆市沙坪坝区磁南街1号国富沙磁巷-停车场B2,重庆市,重庆市,沙坪坝区,,unknown,
baidu,de3334518c281da73686f4f1,文曲星耀,磁器口步行街与金磁路交叉口东180米,重庆市,重庆市,沙坪坝区,18581234240,unknown,
baidu,adb1ae9d62e77bd99b68b4f5,栀子花开摄影馆,"重庆市沙坪坝区磁器口街道磁器口南街2号楼附1号,2号",重庆市,重庆市,沙坪坝区,13101296002,unknown,
baidu,1477182457169b623ce231fa,康九久娃哈哈纯净矿泉水直销店,重庆市沙坪坝区劳动路三陵大厦,重庆市,重庆市,沙坪坝区,,unknown,
baidu,a3a1afa062e9a28c6c476003,公共厕所,重庆市沙坪坝区沙滨路102号附1号,重庆市,重庆市,沙坪坝区,,unknown,
baidu,fdb4a9cb5145a58949fd3f32,公共厕所,重庆市沙坪坝区国盛大道,重庆市,重庆市,沙坪坝区,,unknown,
baidu,91c13f931deb2d8420f017a2,公厕,重庆市沙坪坝区磁器口市街14号附11号,重庆市,重庆市,沙坪坝区,,unknown,
baidu,90f79ff835ad6267eddfcaa9,公厕,重庆市沙坪坝区磁器口正街128号宝善宫内宝善宫,重庆市,重庆市,沙坪坝区,,unknown,
baidu,5d30b3fcd0b98a11931fc98d,公厕,重庆市沙坪坝区磁器口南街16号附5号,重庆市,重庆市,沙坪坝区,,unknown,
baidu,6beb7bd7b3bdff7872210b55,国富沙磁巷-停车场-男卫生间,重庆市沙坪坝区磁南街1号国富沙磁巷-停车场B2,重庆市,重庆市,沙坪坝区,,unknown,
baidu,d841e9d278a4c4a60f0e6b91,公厕,重庆市沙坪坝区磁南街1号磁器口古镇,重庆市,重庆市,沙坪坝区,,unknown,
baidu,1c1b0722c477cdeb4f6d463a,磁器口-公共厕所,重庆市沙坪坝区磁器口正街110号,重庆市,重庆市,沙坪坝区,,unknown,
baidu,3753abcbccdcc14d5b1093cb,公厕,重庆市沙坪坝区幸福村10号,重庆市,重庆市,沙坪坝区,,unknown,
baidu,ffddd3ecf89bedb4fb0cad90,公厕,重庆市沙坪坝区磁器口南街13号,重庆市,重庆市,沙坪坝区,,unknown,
baidu,5c0bb3e17dc65e2acb09f07d,公共厕所,重庆市沙坪坝区溪凤路国盛三千城西侧约70米,重庆市,重庆市,沙坪坝区,,unknown,
baidu,f7a1ece41e1261a807fef530,国富沙磁巷-停车场-直梯(客梯),重庆市沙坪坝区磁南街1号国富沙磁巷-停车场B1,重庆市,重庆市,沙坪坝区,,unknown,
baidu,e176ad13a82d100909a8d473,鑫华维修,重庆市沙坪坝区劳动路三陵大厦,重庆市,重庆市,沙坪坝区,,unknown,
baidu,06a3f2da9506099714948ecc,公厕,重庆市沙坪坝区磁南街1号磁器口古镇,重庆市,重庆市,沙坪坝区,,unknown,
baidu,52aad797a79dd348ae080f90,国富沙磁巷-停车场-女卫生间,重庆市沙坪坝区磁南街1号国富沙磁巷-停车场B2,重庆市,重庆市,沙坪坝区,,unknown,
baidu,a7accbc341ed7cf6d4851f5b,金贝摄影,重庆市沙坪坝区磁童路磁器口古镇,重庆市,重庆市,沙坪坝区,,unknown,
baidu,96b6355ceb6bbebbf603b87d,篆刻,重庆市沙坪坝区磁童路磁器口古镇,重庆市,重庆市,沙坪坝区,,unknown,
baidu,a60ebbb41d7e7ec9f503b80b,国富沙磁巷-停车场-直梯(客梯),重庆市沙坪坝区磁南街1号国富沙磁巷-停车场B1,重庆市,重庆市,沙坪坝区,,unknown,
baidu,f362b1d86b970cb7b320a82f,公厕,重庆市沙坪坝区沙滨路磁器口古镇,重庆市,重庆市,沙坪坝区,,unknown,
baidu,9c97fb493357d1be774ff1a3,公共厕所,重庆市沙坪坝区磁器口正街48号,重庆市,重庆市,沙坪坝区,,unknown,
baidu,3e9ac57ee70f6e8c4d5547c7,磁器口-公共卫生间,重庆市沙坪坝区磁器口隧道磁器口古镇,重庆市,重庆市,沙坪坝区,,unknown,
baidu,461f94ab1f8269fd3a04b1ac,公厕,重庆市沙坪坝区磁南街1号磁器口古镇内,重庆市,重庆市,沙坪坝区,,unknown,
baidu,79826661cdd0c352a5da397f,渝旅·旅拍,重庆市沙坪坝区磁童路磁器口古镇,重庆市,重庆市,沙坪坝区,,unknown,
baidu,cd3cc151123957c17bf79619,寄存行李,重庆市沙坪坝区沙磁5号路富源故里新居北侧约30米,重庆市,重庆市,沙坪坝区,,unknown,
baidu,db658c5fd8fc25db31f71ddb,国富沙磁巷-停车场-扶梯,重庆市沙坪坝区磁南街1号国富沙磁巷-停车场B1,重庆市,重庆市,沙坪坝区,,unknown,
baidu,bffd022109c6ed28fea778bc,公厕,磁南街1号磁器口古镇,重庆市,重庆市,沙坪坝区,,unknown,
baidu,54b3b5b52209312714948e6f,公厕,重庆市沙坪坝区G212(童家桥正街),重庆市,重庆市,沙坪坝区,,unknown,
baidu,5561639eb0204cb58936eea2,青溪林营销中心,重庆市沙坪坝区金磁路富源故里新居南侧约210米,重庆市,重庆市,沙坪坝区,,unknown,
baidu,303509e31b697535cb213d4a,公共厕所,重庆市沙坪坝区劳动路67西南方向60米,重庆市,重庆市,沙坪坝区,,unknown,
baidu,5af1504b703edd1dd4851f21,国富沙磁巷-停车场-直梯(客梯),重庆市沙坪坝区磁南街1号国富沙磁巷-停车场B2,重庆市,重庆市,沙坪坝区,,unknown,
baidu,997c2e6f2e88b4f8c27da2cb,公共卫生间,重庆市沙坪坝区金碧桥磁器口古镇,重庆市,重庆市,沙坪坝区,,unknown,
baidu,0505e6c7dcda87d075e5b6a3,宝轮寺-寺院售香处,重庆市沙坪坝区横街30号宝轮寺,重庆市,重庆市,沙坪坝区,,unknown,
baidu,6d4117f26043f41bca09f0d3,中国体育彩票(金悦府店),重庆市沙坪坝区沙滨路金融街·金悦锦城东北侧约90米,重庆市,重庆市,沙坪坝区,18883183069,unknown,
baidu,a241bcd6d52a880ca11de98e,公共厕所,重庆市沙坪坝区G75(高家花园大桥),重庆市,重庆市,沙坪坝区,,unknown,
baidu,a3be4ba6ed95b32b8bf15d5c,订取奶点,重庆市沙坪坝区劳动路宏浩大厦67-5号,重庆市,重庆市,沙坪坝区,,unknown,
baidu,33cf7ba10f72967e7bf79669,耳雨轩,重庆市沙坪坝区磁南街1号磁器口古镇,重庆市,重庆市,沙坪坝区,,unknown,
baidu,42613b0a33cbfa618bf15d3d,歌乐山索道,重庆市沙坪坝区歌乐山白公馆附近,重庆市,重庆市,沙坪坝区,(023)65388556,unknown,
baidu,44386016c5c75940eddfca21,公共厕所,重庆市沙坪坝区沙坪坝正街2号东南方向50米,重庆市,重庆市,沙坪坝区,,unknown,
baidu,74b2450ba0c3618f4f3a5957,公共厕所,重庆市沙坪坝区杨梨路大川花园,重庆市,重庆市,沙坪坝区,,unknown,
baidu,df06b2b26d060503c52ba1ba,公共厕所,重庆市江北区天鸿路翠苑小区,重庆市,重庆市,江北区,,unknown,
baidu,631c415711ddd91f31f71dc2,公共厕所,重庆市沙坪坝区沙坪坝南街清华源大厦-二期,重庆市,重庆市,沙坪坝区,,unknown,
baidu,f85864a5906c29a66fc02c8b,国家电网(沙中路供电营业厅),重庆市沙坪坝区沙中路85号,重庆市,重庆市,沙坪坝区,(023)65543942,unknown,
baidu,77786c6937705ae8fb2d61ed,重庆中法供水,重庆市江北区天鸿路国奥村-二期东北侧约40米,重庆市,重庆市,江北区,,unknown,
baidu,4494127070d82a4ff50e77ed,公共厕所,重庆市沙坪坝区詹5纵一路融创滨江壹号观麓台西北侧约130米,重庆市,重庆市,沙坪坝区,,unknown,
baidu,40915d26d9d01ef4354aae6f,蒙蒙美容生活馆(国盛·三千城店),磁建村88号附11号三千城正大门二楼,重庆市,重庆市,沙坪坝区,"13983896809,15696413505",unknown,
baidu,046ca4ae09085f3cd518b727,朵朵烫染(沙磁店),"沙滨路101号附62号朵朵美业,地上1层门口",重庆市,重庆市,沙坪坝区,17848664916,unknown,
baidu,cfbc2501e664ea9bb8bd636b,媛曦美容养生会馆(跨越·新天地店),劳动路6-23号,重庆市,重庆市,沙坪坝区,,unknown,
baidu,888747752fc65d8d3b221c5f,克丽缇娜(劳动路店),劳动路38-15号,重庆市,重庆市,沙坪坝区,18523129808,unknown,
baidu,316f3c991d8980c39fe3218c,梦娜丽莎美容连锁(磁器口店),童家桥街道童家桥正街烈士幕九鼎名都永辉超市旁(红岩广场),重庆市,重庆市,沙坪坝区,(023)65086685,unknown,
baidu,416b57e26faba3a40f3ddae2,林夕美甲美睫(碧桂园摩卡店),金磁路12号碧桂园摩卡2单元10楼6号,重庆市,重庆市,沙坪坝区,15826173703,unknown,
baidu,27b3d8b2a0a10baca80dd878,SILKTONE诗丽堂美容(阳光水城店),溪景路小杨公桥118号附59号阳光水城1期4号楼-B2-7号,重庆市,重庆市,沙坪坝区,(023)65359084,unknown,
baidu,e6bb4b3bef83e30ad92f28c2,苗医生专业祛痘(沙坪坝店),渝碚路135号（重大C区公交站台旁）,重庆市,重庆市,沙坪坝区,(023)65818717,unknown,
baidu,808a254be6d6656fdeee8bfe,妮雨康肤堂祛痘美肤连锁(烈士墓店),烈士墓壮志路43号第1层商铺85号,重庆市,重庆市,沙坪坝区,15178766540,unknown,
baidu,468948fa34f66c73b64f541a,B·B竹子造型(烈士墓店),烈士墓壮志路8号1-8,重庆市,重庆市,沙坪坝区,15825990624,unknown,
baidu,4d13ea4e169a493426e0a0ae,梦娜丽莎美容连锁(烈士墓店),壮志路58号附26号,重庆市,重庆市,沙坪坝区,(023)89861929,unknown,
baidu,7449a28648bd8fcf86420e85,伊思造型形像设计·护肤·美发,沙坪坝街道沙北街23号附1号,重庆市,重庆市,沙坪坝区,"(023)65151538,18580164711",unknown,
baidu,deb92c57caa5819c220262f3,你好漂亮造型(潮发店),壯志路9号（四川外国语大学附近）,重庆市,重庆市,沙坪坝区,"15680388866,19122305535",unknown,
baidu,198b2f24cc3c8e7b2b3a9ff0,爱欣屋美容化妆品店,烈士墓壮志路58-12-3号,重庆市,重庆市,沙坪坝区,13983408725,unknown,
baidu,a4057c71c3df47624d554746,丽缘美发工作室(海航新街口店),烈士墓壮志路43号海航新街口,重庆市,重庆市,沙坪坝区,13678442616,unknown,
baidu,5c850f8b9be192a01d1d11d6,丽都美业(金悦城店),渝碚路小杨公桥金悦城西区欧汇超市楼上,重庆市,重庆市,沙坪坝区,15823028573,unknown,
baidu,8cf1a27a0e42a220901fc9ee,伊莱美瘦身护肤管理中心(华宇星云汇店),杨梨路口123门面,重庆市,重庆市,沙坪坝区,18084031085,unknown,
baidu,8435e69eabafb6821b94c661,艺萌造型,壮志路20-1-1号,重庆市,重庆市,沙坪坝区,18580746520,unknown,
baidu,33207f799418ec874d3a5924,康妍姿减肥美容养生馆,重庆市沙坪坝区国盛大道国盛三千城东北侧约50米,重庆市,重庆市,沙坪坝区,,unknown,
baidu,c4f60d47648fcbe7deee8b2f,画眉千面(劳动路店),重庆市沙坪坝区劳动路38-18号,重庆市,重庆市,沙坪坝区,(023)65402396,unknown,
baidu,ad6fc56f8a407f66841541e8,雨燕国际美容养生,重庆市沙坪坝区溪凤路国盛三千城西南侧,重庆市,重庆市,沙坪坝区,,unknown,
baidu,43b0572299ef431f09b93a51,如是刺青,重庆市沙坪坝区磁器口街道磁器口南街4号,重庆市,重庆市,沙坪坝区,,unknown,
baidu,cf91437ad2aeefec6b49f367,情艺造型专业烫染,重庆市沙坪坝区教院路8号百年世家2-1-6号,重庆市,重庆市,沙坪坝区,,unknown,
baidu,84e212b5870fd3e97702693d,永春美容理疗,重庆市沙坪坝区劳动路78号,重庆市,重庆市,沙坪坝区,18203010977,unknown,
baidu,972df2d4b6f5e4e58b2fb509,单大琼技能大师工作室,重庆市沙坪坝区磁正街145号,重庆市,重庆市,沙坪坝区,,unknown,
baidu,2dcad0999d315f529e82ea95,汪阳美业,劳动路79附6号,重庆市,重庆市,沙坪坝区,(023)65358386,unknown,
baidu,eb2d28ab23582da302294ff1,韩流美业,重庆市沙坪坝区沙坪坝街道劳动路73号附18号,重庆市,重庆市,沙坪坝区,,unknown,
baidu,4ec3e1d4f5e6fded2cb908ac,NY霓缘造型,重庆市沙坪坝区劳动路78号流云阁门面侧1,重庆市,重庆市,沙坪坝区,18581044301,unknown,
baidu,2dbffd89b246a8c48a36ee22,一起一起美发连锁沙龙,重庆市沙坪坝区溪凤路国盛三千城西侧约30米,重庆市,重庆市,沙坪坝区,,unknown,
baidu,3b728a162b0fcffca0acc48c,大妹理发店,重庆市沙坪坝区劳动路31号附22-8号,重庆市,重庆市,沙坪坝区,,unknown,
baidu,3df5692b3cc43a8eabf729c5,小蒋美发(金星花园松里组团店),大水井71号附11号正东方向30米,重庆市,重庆市,沙坪坝区,13983936522,unknown,
baidu,9df53ccf70729e4ea21de91e,妆绣(劳动路店),劳动路60号(重庆大学地铁站1A口步行440米),重庆市,重庆市,沙坪坝区,18716261294,unknown,
baidu,eaaabe995a28784306fef5b9,剪美造型,劳动路38号附26号,重庆市,重庆市,沙坪坝区,,unknown,
baidu,945a336c99ffec195b3ac8da,帝尚妮美发,重庆大学B区北门旁（重庆大学地铁站1A口步行450米),重庆市,重庆市,沙坪坝区,,unknown,
baidu,6fee6fd91597228d58109387,升鹏达美发沙龙,重庆市沙坪坝区学林雅园2号附11号,重庆市,重庆市,沙坪坝区,13996251521,unknown,
baidu,38a47dbf05510e4fd518b7d5,桥头屋理发,重庆市沙坪坝区劳动路31号附10号,重庆市,重庆市,沙坪坝区,,unknown,
baidu,30f1f0cce040034d79b55c68,艾尚美造型,沙坪坝街道劳动路2号（永瑞农超对面）,重庆市,重庆市,沙坪坝区,18983486083,unknown,
baidu,0fbf50ec9e36859cdf1e52bb,飘逸发型,重庆市沙坪坝区童家桥正街金星花园-松里组团,重庆市,重庆市,沙坪坝区,18203058200,unknown,
baidu,eed125abcdefa30e581093a2,维妮美发室,沙坪坝北街98号附11号,重庆市,重庆市,沙坪坝区,18223568563,unknown,
baidu,24af3b5772d83263b05c6a76,威莎艾蓝美容养生会所,重庆市沙坪坝区沙北街88号,重庆市,重庆市,沙坪坝区,13527442696,unknown,
baidu,93df0dc3668a5332882fb511,名冠美容美发(学林雅园店),沙坪坝街道学林雅园3号附10号,重庆市,重庆市,沙坪坝区,15683137736,unknown,
baidu,b75588c055d601457c29bdc5,靓剪美容美发(童家桥正街店),重庆市沙坪坝区壮志路43号附2号3-4号,重庆市,重庆市,沙坪坝区,,unknown,
baidu,c2b8d61439fded1aee74f88b,氧发堂植物染发(金磁路店),覃家岗街道金磁路8号附2号2-7(富滇银行楼上)氧发堂天然植物染发,重庆市,重庆市,沙坪坝区,13637777655,unknown,
baidu,54a88c84a83955a9c056ac3a,延康美容养生馆(海航新街口店),烈士墓壮志路43号海航新街口,重庆市,重庆市,沙坪坝区,13628442323,unknown,
baidu,f0a90b735116df5a6140a9fd,吉祥快剪,重庆市沙坪坝区沙坪坝北街131号,重庆市,重庆市,沙坪坝区,,unknown,
baidu,32f2f73bcc9372e5af31e5a5,章飞一绝(新城大厦店),重庆市沙坪坝区汉渝路17-460号附1号,重庆市,重庆市,沙坪坝区,13399819100,unknown,
baidu,9bd4592892cab306c26c14b4,领潮发型工作室(学林雅园店),学林雅园3号附6号(重庆大学地铁站1B口步行420米),重庆市,重庆市,沙坪坝区,13983658858,unknown,
baidu,e0f9727c28993babac080fac,罗森造型(九鼎名都店),重庆市沙坪坝区九鼎红街九鼎名都,重庆市,重庆市,沙坪坝区,,unknown,
baidu,dad385a02f2f1ea5441a3269,琉璃拾光,俊峰香格里拉83号,重庆市,重庆市,沙坪坝区,13389609336,unknown,
baidu,f65478f8f4a1f76943e1929e,小周理发店,重庆市沙坪坝区内环快速学林雅园,重庆市,重庆市,沙坪坝区,,unknown,
baidu,cd25acd279ef6ea50bccdd0e,Up Top 鼎上造型(九鼎名都店),大水井1号九鼎红街永辉超市旁边,重庆市,重庆市,沙坪坝区,17723175547,unknown,
baidu,4fda8ccc4791cc856e20b9eb,蕾特恩专业祛痘国际连锁(三峡广场店),小龙坎新街86号重庆1中与重庆大酒店中间（金夫人婚纱摄影旁）,重庆市,重庆市,沙坪坝区,4007771020,unknown,
baidu,0faeb5aecf22c668a8175a87,贝丽造型发艺精品店,学林雅园3号附14号(重庆大学地铁站1B口步行410米),重庆市,重庆市,沙坪坝区,18623014179,unknown,
baidu,3b7b06c2c457f45f1fe999f7,老街刺青(海航新街口店),壮志路43号附70号(烈士墓地铁站2B口步行50米),重庆市,重庆市,沙坪坝区,15223443141,unknown,
baidu,99dd3298b7ef031ccafa5f93,琴琴发艺天地(学林雅园店),学林雅园2号附14号(重庆大学地铁站1B口步行400米),重庆市,重庆市,沙坪坝区,13594665324,unknown,
baidu,baa688e2e319293c32f71d31,晓名发屋,北街6号附7号,重庆市,重庆市,沙坪坝区,13678405331,unknown,
baidu,d61feb54ef61a89a283a9f35,郑师傅发艺(天越雅园1期店),G75白鹤岭3号附42号,重庆市,重庆市,沙坪坝区,13452880358,unknown,
baidu,f4b5900c434374a06849f3cb,忆念美美容(沙会店),重庆市沙坪坝区小龙坎新街86号嘉多利广场6楼,重庆市,重庆市,沙坪坝区,(023)65308498,unknown,
baidu,7633774aeb956ef2f50e77e7,郑苑发艺,重庆市沙坪坝区沙坪坝正街台湾花园菜市场对面友谊村100号,重庆市,重庆市,沙坪坝区,15923350539,unknown,
baidu,65e6df2c91d8248d725e808a,米森发屋(海航新街口店),烈士墓壮志路43号附17号,重庆市,重庆市,沙坪坝区,18223127912,unknown,
baidu,d1df260d8d453627c909f0ab,你好漂亮(重大店),重大B区沙北街14号育英小学旁,重庆市,重庆市,沙坪坝区,18523984629,unknown,
baidu,f7114326e19512754251c049,简美印象(沙杨路店),沙杨路142号附1号,重庆市,重庆市,沙坪坝区,13220217610,unknown,
baidu,d7aa7cd0c2273badb817e799,特别特发艺工作室,重庆市沙坪坝区沙杨路100号,重庆市,重庆市,沙坪坝区,13696412173,unknown,
baidu,d4119204c80de46f71210b77,原创造型(沙坪坝正街店),原创造型沙坪坝正街派出所旁,重庆市,重庆市,沙坪坝区,13452405099,unknown,
baidu,314d3d78476eac9e83a00c3e,卡迪斯创作室,重庆市沙坪坝区杨公桥立交鑫泰花园,重庆市,重庆市,沙坪坝区,13368226404,unknown,
baidu,c87952bef436275d9d82ea37,D&H时尚造型,重庆市江北区宏滨路中粮·天悦壹号,重庆市,重庆市,江北区,,unknown,
baidu,53ccd5606a979704220220a5,鑫发精剪造型(新城大厦店),重庆市沙坪坝区烈士墓60号附5号,重庆市,重庆市,沙坪坝区,13678442616,unknown,
baidu,fefdccfe20270feb3010afb5,梦纤姿颜专业减肥连锁(沙坪坝店),沙杨路5号（以前老店下行10米即到） （三中旁）,重庆市,重庆市,沙坪坝区,"15320583455,15823956885",unknown,
baidu,498432e3f9a3acb2c1f1cf97,银座护肤造型(沙滨路店),沙滨路宝嘉江枫美岸58号附44二楼,重庆市,重庆市,沙坪坝区,15123149586,unknown,
baidu,76aacd1834939237adb22ad7,千君一发,重庆市沙坪坝区童家桥正街翰林景园西侧约50米,重庆市,重庆市,沙坪坝区,,unknown,
baidu,06f5df8c2f6925743010af85,熙曼妮美甲,小杨公桥108号2栋一单元20-8室,重庆市,重庆市,沙坪坝区,18680838319,unknown,
baidu,80e97e4d7817161314948e9f,燕子专业烫染造型,重庆市沙坪坝区渝碚路83号南友村2-2号,重庆市,重庆市,沙坪坝区,15730266188,unknown,
baidu,2c1a5284d884cee6eddfcaeb,虹雨专业美容美发(鑫泰花园店),鑫泰花园37-46室,重庆市,重庆市,沙坪坝区,,unknown,
baidu,993f5143323cd031f72310a7,领航国潮男士理发馆(重大店),重庆市沙坪坝区沙坪坝北街沙坪坝区育英小学校西南侧,重庆市,重庆市,沙坪坝区,,unknown,
baidu,b3edfdadd0aedafebca822fd,自然风美业,重庆市沙坪坝区沙坪坝北街千秋花园,重庆市,重庆市,沙坪坝区,,unknown,
baidu,a6b753c16c0f2645fb2213c1,荷滟·专业脱毛,三峡广场华夏银座20-6,重庆市,重庆市,沙坪坝区,13368238697,unknown,
baidu,efbab686897a7b3b30169b2f,酷卡美业专业烫染工作室(鑫泰花园店),重庆市沙坪坝区89,重庆市,重庆市,沙坪坝区,19522052071,unknown,
baidu,d0c595e636fb6c6dc71b7544,燕子美容美发(山水丽都店),松石大道山水丽都3号附9号,重庆市,重庆市,江北区,,unknown,
baidu,d35f15562a98e560715e8032,艺剪美发,重庆市沙坪坝区沙杨路半月楼,重庆市,重庆市,沙坪坝区,,unknown,
baidu,694ead1d9edea3b80f0a70dd,自由风美业,重庆市沙坪坝区半月楼东南门东北90米,重庆市,重庆市,沙坪坝区,,unknown,
baidu,604b15ef51c9dd56744ff15e,里享美发空间,重庆市沙坪坝区小龙坎新街86号嘉多利广场1-16号,重庆市,重庆市,沙坪坝区,"15885543527,19123457811",unknown,
baidu,ad2615e569f8dd2c901fc97b,IN-FASHION美发沙龙,重庆市沙坪坝区小龙坎新街恒鑫大厦85号1楼(三峡广场煌华新纪元旁边),重庆市,重庆市,沙坪坝区,(023)86662008,unknown,
baidu,5f8cad0233892a092bd7ab2e,鸿运当头理发馆(磁器口店),磁器口正街145-5号,重庆市,重庆市,沙坪坝区,18583038345,unknown,
baidu,738c47395ad9cd73d3ff23ef,磁器口古镇,重庆市沙坪坝区磁南街1号,重庆市,重庆市,沙坪坝区,(023)65322661,unknown,
baidu,e467455fccb0ba0b5af6be25,凤凰山文化公园,重庆市沙坪坝区金沙正街80号,重庆市,重庆市,沙坪坝区,,unknown,
baidu,687906275976841fa21de9df,沙坪学灯,重庆市沙坪坝区磁南街1号磁器口古镇,重庆市,重庆市,沙坪坝区,,unknown,
baidu,5b3fba21361af1cb11882414,沙坪坝区大水井,重庆市沙坪坝区大水井,重庆市,重庆市,沙坪坝区,(023)65830950,unknown,
baidu,4d04c402ba71620c081cc772,重庆石井坡滨江公园,重庆市沙坪坝区滨江路信达滨江蓝庭东侧约70米,重庆市,重庆市,沙坪坝区,,unknown,
baidu,377b31c591ae2a3d1d3894d0,梅园,凌云路,重庆市,重庆市,沙坪坝区,,unknown,
baidu,4ea3f2f10485dfaaaecb6666,白公馆,重庆市沙坪坝区壮志路治法三村63号烈士墓歌乐山烈士陵园内,重庆市,重庆市,沙坪坝区,,unknown,
baidu,7fb1ef6f41fcc99435b06c77,翰林院,重庆市沙坪坝区黄桷坪1巷12号,重庆市,重庆市,沙坪坝区,,unknown,
baidu,24d05508cdc8a6af1288241f,宝轮寺,重庆市沙坪坝区磁南街1号磁器口古镇内,重庆市,重庆市,沙坪坝区,,unknown,
baidu,cdf581db90eaa56fd8d8917c,石井坡艺术公园,重庆市沙坪坝区石井坡264号东南方向60米,重庆市,重庆市,沙坪坝区,,unknown,
baidu,6749111b56f01027d518b713,迎龙门,重庆市沙坪坝区磁南街1号磁器口古镇,重庆市,重庆市,沙坪坝区,,unknown,
baidu,a352ebfc08613d9182288aec,钟家院,重庆市沙坪坝区磁南街1号磁器口,重庆市,重庆市,沙坪坝区,"(023)65322661,023-65010003",unknown,
baidu,46f4924c4598d94617948e37,红岩文化景区,重庆市沙坪坝区凌云路北100米,重庆市,重庆市,沙坪坝区,,unknown,
baidu,53992b843de1049485420ee7,燃舍文博园,重庆市沙坪坝区沙坪坝政法三村1号,重庆市,重庆市,沙坪坝区,,unknown,
baidu,90bcd0a650b8835ba8f0cd57,磁器口后街公园,重庆市沙坪坝区磁南街1号(磁器口古镇),重庆市,重庆市,沙坪坝区,(023)86150808,unknown,
baidu,0c3fbbe79925dc624d554730,七彩巷,重庆市沙坪坝区杨梨路大川花园西北侧约30米,重庆市,重庆市,沙坪坝区,,unknown,
baidu,dedef459027ca17cfb22138a,清代民居,重庆市沙坪坝区磁正街151号,重庆市,重庆市,沙坪坝区,,unknown,
baidu,c34176d8efbb9ec59cec2bd2,庙街城旅游美食文化广场,重庆市沙坪坝区磁正街80号,重庆市,重庆市,沙坪坝区,,unknown,
baidu,671628ca13618d11f5c59c90,少妇尿童,重庆市沙坪坝区磁器口横街68号,重庆市,重庆市,沙坪坝区,,unknown,
baidu,9bca04efae3b96c97369d362,和美大院,重庆市沙坪坝区磁南街1号磁器口古镇内,重庆市,重庆市,沙坪坝区,(023)65559379,unknown,
baidu,f19107192ff6d8f87bf79659,小萝卜头被害处,歌乐山凌云路松林坡内,重庆市,重庆市,沙坪坝区,(023)65442884,unknown,
baidu,9269fb7e11947950ae080f3c,歌乐山烈士陵园,重庆市沙坪坝区烈士墓政法三村,重庆市,重庆市,沙坪坝区,(023)65314589,unknown,
baidu,9e78067864f0d265c7f025c6,重庆歌乐山革命纪念馆,壮志路烈士墓政法三村63号,重庆市,重庆市,沙坪坝区,(023)65312300,unknown,
baidu,49bfa4b066f319e735b06c54,财神居,重庆市沙坪坝区古镇横街16号宝轮寺内,重庆市,重庆市,沙坪坝区,(023)65322661,unknown,
baidu,4d02f55b7312f12787330438,汪逆跪像,重庆市沙坪坝区磁器口街道磁器口南街4号,重庆市,重庆市,沙坪坝区,,unknown,
baidu,f26d5c7e252a802d14c8f6ee,磁器口后街吊脚楼广场,重庆市沙坪坝区童家桥正街磁器口古镇,重庆市,重庆市,沙坪坝区,,unknown,
baidu,dad7053b85a2b2b0b21e3652,歌乐山景区直通车渣滓洞站,壮志路歌乐山烈士陵园景区内,重庆市,重庆市,沙坪坝区,"(023)63300192,(023)63303065",unknown,
baidu,7706b6f933a8d51ec91b9585,重庆记忆博物馆,重庆市沙坪坝区磁器口街道磁南街1号正东方向60米,重庆市,重庆市,沙坪坝区,,unknown,
baidu,2bce168a8fdf7d35b4265505,慈航普渡,重庆市沙坪坝区古镇横街16号宝轮寺内,重庆市,重庆市,沙坪坝区,(023)65322661,unknown,
baidu,f388d6c3c3156423cc06a49b,文昌宫,重庆市沙坪坝区磁南街1号磁器口古镇内,重庆市,重庆市,沙坪坝区,(023)65322661,unknown,
baidu,8bf4ac84f87e12963010af6b,睡佛岩,重庆市沙坪坝区磁童路磁器口古镇,重庆市,重庆市,沙坪坝区,,unknown,
baidu,2b9f25814f37a72a43ab9ae6,清水门,重庆市沙坪坝区磁器口正街29-8号,重庆市,重庆市,沙坪坝区,(023)65322661,unknown,
baidu,166ceabf987664bef4231016,磁器口古镇民俗馆,重庆市沙坪坝区磁器口正街80号,重庆市,重庆市,沙坪坝区,,unknown,
baidu,9b03ad31df46681430169baa,许愿池,重庆市沙坪坝区磁南街1号磁器口古镇燕居,重庆市,重庆市,沙坪坝区,,unknown,
baidu,69aed0f9088aea242efaa70a,磁器口更夫雕塑,重庆市沙坪坝区磁南街1号磁器口景区内,重庆市,重庆市,沙坪坝区,(023)65322661,unknown,
baidu,500083467847ac4b1fe999f9,龙隐禅院,重庆市沙坪坝区古镇横街16号宝轮寺内,重庆市,重庆市,沙坪坝区,,unknown,
baidu,85907f66d86bb19aacee7a6f,磁器口民俗文化墙,重庆市沙坪坝区磁南街1号磁器口古镇,重庆市,重庆市,沙坪坝区,,unknown,
baidu,095a2d89f8bf540beedfcacd,文昌阁,重庆市沙坪坝区磁童路滨江民居西侧约140米,重庆市,重庆市,沙坪坝区,,unknown,
baidu,1416017968ede42240afe691,金蓉门,重庆市沙坪坝区幸福街4号磁器口西门,重庆市,重庆市,沙坪坝区,,unknown,
baidu,34dd7e86b751f7d881a12ee0,建文帝塑像,重庆市沙坪坝区金碧巷1号,重庆市,重庆市,沙坪坝区,,unknown,
baidu,760440545170456ea6c7560f,华子良雕像,重庆市沙坪坝区磁器口正街180号,重庆市,重庆市,沙坪坝区,,unknown,
baidu,f447bfd5a215ca35a8059d9c,燕居福堂,重庆市沙坪坝区磁南街1号磁器口古镇燕居,重庆市,重庆市,沙坪坝区,,unknown,
baidu,99026dd35e37232c5bf6be23,古镇瓷器博物馆,重庆市沙坪坝区磁器口隧道国富·沙磁巷商业街,重庆市,重庆市,沙坪坝区,,unknown,
baidu,e87405cf540346455d17c370,磁器口名人墙,重庆市沙坪坝区磁器口南街4号,重庆市,重庆市,沙坪坝区,(023)65322661,unknown,
baidu,7089f4fae49e71fc1f3894b9,文殊殿,重庆市沙坪坝区古镇横街16号宝轮寺内,重庆市,重庆市,沙坪坝区,(023)65322661,unknown,
baidu,ce1a63b8289ccc8e3b221cb8,松林坡大尸坑,凌云路与壮志路交叉口西150米,重庆市,重庆市,沙坪坝区,(023)65442884,unknown,
baidu,26af856c367a810cbca822d8,文昌宫寨门,重庆市沙坪坝区磁南街1号磁器口,重庆市,重庆市,沙坪坝区,(023)65322661,unknown,
baidu,b3a06e40e14b4a4a8733040b,井中天广场,重庆市沙坪坝区磁器口幸福街55号,重庆市,重庆市,沙坪坝区,,unknown,
baidu,601a15d97ce8677e8605bfba,烈士墓,壮志路33号,重庆市,重庆市,沙坪坝区,,unknown,
baidu,1cd21e3d2add871572455bc5,红岩魂上广场,重庆市沙坪坝区童家桥正街,重庆市,重庆市,沙坪坝区,,unknown,
baidu,b4615da4ac49c8be2bd7ab16,金碧桥,重庆市沙坪坝区磁南街1号磁器口,重庆市,重庆市,沙坪坝区,(023)65322661,unknown,
baidu,2dc3eb814f8d7170095cb385,建文亭,重庆市沙坪坝区磁器口隧道磁器口古镇,重庆市,重庆市,沙坪坝区,(023)65322661,unknown,
baidu,1b94dff8c0ba219e6a49f38b,古榕树,重庆市沙坪坝区磁南街1号磁器口,重庆市,重庆市,沙坪坝区,,unknown,
baidu,06157090fdb1cce1f842b2bc,中美合作所集中营旧址,壮志路西150米,重庆市,重庆市,沙坪坝区,(023)65442884,unknown,
baidu,6d164a967f17d3265bf6be59,翰林桥,重庆市沙坪坝区磁南街1号磁器口古镇磁悦里F1,重庆市,重庆市,沙坪坝区,,unknown,
baidu,05eab77a801a93d601294f6e,烈士雕塑区,壮志路四川外国语大学北门东南侧约60米,重庆市,重庆市,沙坪坝区,,unknown,
baidu,6c18083ae8431f5443024506,重庆首个百万富翁旧居,重庆市沙坪坝区磁童路磁器口古镇,重庆市,重庆市,沙坪坝区,,unknown,
baidu,0e6ac0e23b3c649a2ab97c5f,龙山义学旧址,重庆市沙坪坝区磁器口宝轮寺26号,重庆市,重庆市,沙坪坝区,(023)65322661,unknown,
baidu,52b69b3c7f3faec5cac3dbbb,杨家山秘密囚室,壮志路烈士墓政法三村63号重庆歌乐山革命纪念馆,重庆市,重庆市,沙坪坝区,(023)65312300,unknown,
baidu,64a427bd53bef8982cb17e5e,文曲星塔,重庆市沙坪坝区磁器口南街23号,重庆市,重庆市,沙坪坝区,13996015073,unknown,
baidu,9a7694814b139ce7744ff179,中粮天悦壹号流水美术馆,重庆市江北区宏滨路中粮·天悦壹号,重庆市,重庆市,江北区,,unknown,
baidu,34b8d7d7239dca42b75f1e0f,清明上河图,重庆市沙坪坝区磁南街1号磁器口古镇,重庆市,重庆市,沙坪坝区,,unknown,
baidu,0dc3d82dca76337575e5b6db,特种警察训练班警犬室旧址,重庆市沙坪坝区壮志路童家桥派出所南侧约60米,重庆市,重庆市,沙坪坝区,,unknown,
baidu,008ab0d7210239eacf04efb3,果园,重庆市沙坪坝区歌乐山街道森林路歌乐山国家森林公园,重庆市,重庆市,沙坪坝区,,unknown,
baidu,87be927ff2467227276e9867,凤凰廊,重庆市沙坪坝区磁器口古镇内,重庆市,重庆市,沙坪坝区,,unknown,
baidu,98c3ecee52e1a1d728b97cf2,七七电影院旧址,重庆市沙坪坝区磁器口古镇内,重庆市,重庆市,沙坪坝区,,unknown,
baidu,c82551ff4b02359aae31e594,清代翰林旧居,重庆市沙坪坝区黄桷坪1巷12号,重庆市,重庆市,沙坪坝区,(023)65322661,unknown,
baidu,4d3424eec3dbf259b0077dc4,老百货公司旧址,重庆市沙坪坝区磁器口古镇内,重庆市,重庆市,沙坪坝区,,unknown,
baidu,7e7f51e94f53a18780a00c85,深水井中华百家姓,重庆市沙坪坝区磁器口街道磁器口正街110号,重庆市,重庆市,沙坪坝区,,unknown,
baidu,ff72d65bb815ec0ddbd8916c,俊峰养生公园,重庆市沙坪坝区石井坡路216号香格里拉3号门,重庆市,重庆市,沙坪坝区,,unknown,
baidu,73ad3c17a001f63f6fc02cab,红岩文化景区-松林坡参观区,重庆市沙坪坝区壮志路治法三村63号白公馆旧址,重庆市,重庆市,沙坪坝区,(023)65442884,unknown,
baidu,094e861de3958e742db17e4d,白公馆-亭,重庆市沙坪坝区壮志路治法三村63号白公馆内,重庆市,重庆市,沙坪坝区,(023)65312013,unknown,
baidu,4c83df312aa72472f6c59c15,爱国主义教育基地,重庆市沙坪坝区中美合作所集中营旧址渣滓洞监狱梅园内,重庆市,重庆市,沙坪坝区,,unknown,
baidu,9ffc904218a03b3679dbd218,烈士雕塑区,壮志路烈士墓政法三村63号重庆歌乐山革命纪念馆,重庆市,重庆市,沙坪坝区,"(023)65312300,(023)65314589",unknown,
baidu,e90ff0149429e88c4afc8d21,烈士群雕铭,重庆市沙坪坝区壮志路歌乐山烈士陵园景区内,重庆市,重庆市,沙坪坝区,,unknown,
baidu,149e15d2cb7ce9a549fc8d9e,嘉滨楼历史文化陈列馆,重庆市沙坪坝区磁器口汲水巷3号,重庆市,重庆市,沙坪坝区,,unknown,
baidu,5ccbeb57fc1ea11e75e5b687,寅初亭,重庆市沙坪坝区沙坪坝正街174号重庆大学,重庆市,重庆市,沙坪坝区,,unknown,
baidu,c364d1e02ea8786d36b06c83,重庆警察学院旧址,凌云路渣滓洞看守所旧址,重庆市,重庆市,沙坪坝区,,unknown,
baidu,922a7ead55cc56a930621236,果园观景台,重庆市沙坪坝区歌乐山街道森林路歌乐山国家森林公园果园,重庆市,重庆市,沙坪坝区,,unknown,
baidu,5134f6722c801815c91b95d8,重庆大学黄汲清雕像,重庆市沙坪坝区沙坪坝正街174号重庆大学,重庆市,重庆市,沙坪坝区,,unknown,
baidu,ff479548fe2b89ad081cc701,继业岛,重庆市沙坪坝区壮志路2号西南政法大学沙坪坝校区,重庆市,重庆市,沙坪坝区,,unknown,
baidu,ff428f11890e8c5b6ca3ccf1,百和公园,重庆市沙坪坝区杨公桥立交和旭QQ时代,重庆市,重庆市,沙坪坝区,,unknown,
baidu,8f5568d93927bbb7ebe58220,北京大西山墨香书画院写生基地,中美合作所集中营旧址渣滓洞监狱梅园内,重庆市,重庆市,沙坪坝区,,unknown,
baidu,cb4fd146d2f63e419d9d6866,烈士诗碑林,重庆市沙坪坝区壮志路歌乐山烈士陵园,重庆市,重庆市,沙坪坝区,,unknown,
baidu,182abf057a56381e2bb97c64,抗战阵亡将士纪念碑,重庆市沙坪坝区磁器口古镇磁南街,重庆市,重庆市,沙坪坝区,(023)65082523,unknown,
baidu,620897fa7826177cc6effb06,松林坡烈士殉难处,重庆市沙坪坝区凌云路歌乐山烈士陵园,重庆市,重庆市,沙坪坝区,,unknown,
baidu,d219bb1dbf182af6f50e77e3,高扬旗帜济苍生罗世文车耀先烈士革命事迹展,歌乐山街道歌乐山国家森林公园,重庆市,重庆市,沙坪坝区,(023)65442884,unknown,
baidu,c9d3fcbebc8bac5ffd0eb0a1,杨家山秘密囚室-一展室,重庆市沙坪坝区童歌路歌乐山烈士陵园,重庆市,重庆市,沙坪坝区,,unknown,
baidu,14c96182617a9426ab0dd884,大雄宝殿,重庆市沙坪坝区古镇横街16号宝轮寺内,重庆市,重庆市,沙坪坝区,,unknown,
baidu,22d9c8ec02688f0f5e17c3dd,红岩联线渣滓洞景区管理办公室,凌云路渣滓洞,重庆市,重庆市,沙坪坝区,,unknown,
baidu,7c0d650985cc204a100daaf5,一一·二七盟员烈士纪念碑,壮志路歌乐山烈士陵园景区内,重庆市,重庆市,沙坪坝区,,unknown,
baidu,56a66c8cbb6aa1df21f01780,大轰炸纪念碑,重庆市沙坪坝区重庆大学A区,重庆市,重庆市,沙坪坝区,,unknown,
baidu,4f21ea07bc4e5f39475726ad,聚森茂酱园旧址,重庆市沙坪坝区磁南街1号磁器口景区内,重庆市,重庆市,沙坪坝区,,unknown,
baidu,84387172d7668357a5da390b,文星楼巴蜀画派美术馆,重庆市沙坪坝区渝碚路202号-2,重庆市,重庆市,沙坪坝区,,unknown,
baidu,8bfde21b4f5f04fff503b8bf,许建业烈士雕像,壮志路治法三村63号白公馆内,重庆市,重庆市,沙坪坝区,,unknown,
baidu,8fa54911607f87ce02897255,归国华侨烈士纪念碑,壮志路歌乐山烈士陵园景区内,重庆市,重庆市,沙坪坝区,,unknown,
baidu,12a5ab9837b8cce240ab9a74,重庆缝纫机博物馆,重庆市沙坪坝区松林路重庆国际创客港,重庆市,重庆市,沙坪坝区,,unknown,
baidu,0b31bd8183ee7c639d82ea3c,無恙推拿按摩(金磁路店),磁器口街道金磁路12号附14号,重庆市,重庆市,沙坪坝区,,unknown,
baidu,ed6601d573fb9f332902e16d,漫思茶撸猫馆·猫咖·狗咖,磁器口附165号附2号,重庆市,重庆市,沙坪坝区,13266681662,unknown,
baidu,8a6ccef15f21f3288bb988f4,巴适足耳馆,磁器口南街25号附3号3-4号,重庆市,重庆市,沙坪坝区,18223559196,unknown,
baidu,467ed802f37e5dd349fd3f0c,群芳美容头疗养生馆(国富沙磁巷B区店),沙磁巷B区52号商铺,重庆市,重庆市,沙坪坝区,13340372765,unknown,
baidu,57c90ac2a9cd6208e1110366,酒点伴小酒馆(老街店),磁器口正街57号,重庆市,重庆市,沙坪坝区,15823815805,unknown,
baidu,1dd1523e33e9d2980aa8d4c1,一师一品·清茶馆(磁器口店),磁器口街道磁器口正街13号附2号（近清水门）,重庆市,重庆市,沙坪坝区,18602341965,unknown,
baidu,6ebc2af2be3d92a096f08c74,野草酒馆WEED BISTRO(磁器口店),磁器口宝轮路9号附3号（跃2）,重庆市,重庆市,沙坪坝区,13320302654,unknown,
baidu,92b806d24789c28379b55c6b,百年天香茶坊(百年世家店),百年世家西北1门旁,重庆市,重庆市,沙坪坝区,(023)65011778,unknown,
baidu,863ba09f446fef789ff77967,清花盖碗茶,磁正街223号,重庆市,重庆市,沙坪坝区,18983481955,unknown,
baidu,bf4b5f393a85c44f250bd072,周家院老茶馆,磁器口黄桷坪一巷1-11号,重庆市,重庆市,沙坪坝区,17783017389,unknown,
baidu,cf6ac8d2819fc4343a13fdbc,易江湖酒馆(磁器口店),磁器口古镇1号,重庆市,重庆市,沙坪坝区,17310165957,unknown,
baidu,c7f2cd35ffafa6ca29fc4803,山顶道茶肆,磁器口正街183号（好地方家常菜对面）,重庆市,重庆市,沙坪坝区,13883489881,unknown,
baidu,c6dea4f784c6785f24d2bbb8,巴渝锦绣梨园剧场·变脸·盖碗茶(磁器口店),磁器口古镇正街80号-民俗馆二楼,重庆市,重庆市,沙坪坝区,13849062110,unknown,
baidu,ccba1d572b80a3102b06ce01,北纬30度网咖(鹏程店),沙杨路5号,重庆市,重庆市,沙坪坝区,(023)65387009,unknown,
baidu,5733979fc9b354e8c26c1484,小瓦舍茶馆(磁器口店),磁器口横街31号磁器口古镇,重庆市,重庆市,沙坪坝区,13594292545,unknown,
baidu,d7282dc66e8fc5042bfc4872,乐天茶社·茶·咖啡·小吃(磁器口店),磁器口正街29-7号,重庆市,重庆市,沙坪坝区,18581114529,unknown,
baidu,0cba38ec87613b2e14948e19,玉麟龙足体养生会馆(沙坪坝店),大杨公桥110号三层,重庆市,重庆市,沙坪坝区,,unknown,
baidu,8c408d099ab487ddbfa82228,易江湖茶楼(磁器口店),磁器口正街2号,重庆市,重庆市,沙坪坝区,17310165957,unknown,
baidu,b17c76b1b7ce6a57095cb3a6,昆仑山茶楼,宏帆路22号附13-14号,重庆市,重庆市,江北区,(023)67605696,unknown,
baidu,063764b98ea3bf3ceb56fa48,三间集茶馆(磁器口店),磁器口后街5号附3号,重庆市,重庆市,沙坪坝区,"13368166675,13883489881",unknown,
baidu,06d2dffd9507ccef89f15db6,新浪网咖茶楼(渝碚路店),渝碚路81号,重庆市,重庆市,沙坪坝区,13274947227,unknown,
baidu,b64442107a0b26a08bb9881d,掏耳朵,磁器口正街57号-1-1-2,重庆市,重庆市,沙坪坝区,18980870409,unknown,
baidu,e5298fd2a9360919b8bd63a3,磁器口广场,重庆市沙坪坝区磁南街1号磁器口古镇,重庆市,重庆市,沙坪坝区,,unknown,
baidu,e056b12f5e654c97276e985e,老兵茶楼(磁器口店),重庆市沙坪坝区磁建村90号附4号(二楼),重庆市,重庆市,沙坪坝区,13062399645,unknown,
baidu,465f3f1225563278b5f42fcf,金K时代KTV(国富·沙磁巷商业街店),金沙东路国富沙磁巷商业街3号楼3楼,重庆市,重庆市,沙坪坝区,15334556047,unknown,
baidu,4fb6c1a0eac45d04c056ac9e,磁器长歌沉浸式体验馆,重庆市沙坪坝区磁器口南街23号,重庆市,重庆市,沙坪坝区,,unknown,
baidu,7f34144b66c5220d79b55cf3,沙磁文化广场,重庆市沙坪坝区沙滨路107号,重庆市,重庆市,沙坪坝区,,unknown,
baidu,76a1e2f15f2196b41e580085,無恙推拿按摩(磁器口店),磁南街8号3楼（磁器口东南门西20米）,重庆市,重庆市,沙坪坝区,,unknown,
baidu,b956bef213a2ad22f2193771,推拿足道精油按摩,重庆市沙坪坝区下河路国富·沙磁巷商业街,重庆市,重庆市,沙坪坝区,,unknown,
baidu,2ba99ec38c97144fd8d891fd,九汀养生(磁器口店),重庆市沙坪坝区金沙正街沙磁巷文化广场1层A区1-1-7(沙磁时光酒店楼下),重庆市,重庆市,沙坪坝区,,unknown,
baidu,c2f5d44240be7c9e4afd3fc9,温阳国际矿疗馆(沙坪坝店),磁建村89号附4号,重庆市,重庆市,沙坪坝区,,unknown,
baidu,9b7adc7648082da8f8f0cbc5,宝善宫(磁器口店),磁器口正街128号（丁肇中展览馆）,重庆市,重庆市,沙坪坝区,"(023)61199055,(023)65322661",unknown,
baidu,98dbf5ed88d3d1942a02e105,晴森音乐工作室,重庆市沙坪坝区沙滨路附101号附23号,重庆市,重庆市,沙坪坝区,18306021997,unknown,
baidu,5162a2f5c0b3d8a13586f488,悦欣古法采耳,重庆市沙坪坝区磁童路富源故里新居东北侧约130米,重庆市,重庆市,沙坪坝区,,unknown,
baidu,2a7c1deefdd8c2e79d95debd,金豪养生SPA(沙坪坝店),重庆市沙坪坝区劳动路73号附9号,重庆市,重庆市,沙坪坝区,,unknown,
baidu,78323d0ec93c8552774ff181,红岩魂广场,重庆市沙坪坝区童家桥街道环以内壮志路4号七二四,重庆市,重庆市,沙坪坝区,,unknown,
baidu,e77dd4bd8a5c170a057ce850,舒耳轩,黄桷坪一巷6-1-1号,重庆市,重庆市,沙坪坝区,13637835533,unknown,
baidu,46924ed7ec22f200e0110366,盛源茶楼,国盛大道万科金域华庭国盛大桥旁,重庆市,重庆市,沙坪坝区,13657605005,unknown,
baidu,25a9f5677df06c75276e9881,重庆磁场,磁童路磁器口后街公园,重庆市,重庆市,沙坪坝区,17725166993,unknown,
baidu,2ba0e851b1db48ca2ce67b59,磁器口古镇后浪广场,重庆市沙坪坝区磁正街29-9-1号,重庆市,重庆市,沙坪坝区,,unknown,
baidu,ae315ced1fdc71af354aaef1,古宅惊魂,童家桥正街磁器口后街2附22号,重庆市,重庆市,沙坪坝区,15539176019,unknown,
baidu,e0cf6c505505234a0a5cb3e2,舒耳道,重庆市沙坪坝区磁南街1号磁器口古镇,重庆市,重庆市,沙坪坝区,,unknown,
baidu,3014ae9607439ec62bd7ab2b,山顶洞人油画工作室,磁器口横街38号2层,重庆市,重庆市,沙坪坝区,15922622465,unknown,
baidu,1020060f65b2e8bf1894c6db,老地方翰林茶园,重庆市沙坪坝区黄桷坪1巷12号,重庆市,重庆市,沙坪坝区,,unknown,
baidu,3ba7813730f380e8f42310ef,川渝采耳体验馆,重庆市沙坪坝区磁童路富源故里新居北侧约70米,重庆市,重庆市,沙坪坝区,,unknown,
baidu,78a1421cb1f436f14afc8dff,未来之窗网咖,壮志路15-3-3号,重庆市,重庆市,沙坪坝区,(023)65411226,unknown,
baidu,bb42f07ada036c407bf7964c,逸泉足道,重庆市沙坪坝区沙坪坝正街37号知联大厦2楼,重庆市,重庆市,沙坪坝区,,unknown,
baidu,74c77ac2336ababbc4f50d7c,7号水汇洗浴养生SPA(沙坪坝店),沙滨路58号附17号,重庆市,重庆市,沙坪坝区,,unknown,
baidu,1ec3814f7f481e03374aae66,净逸采耳,重庆市沙坪坝区磁童路富源故里新居东北侧约130米,重庆市,重庆市,沙坪坝区,,unknown,
baidu,23b4bd36129d8422b54f5479,凡境(磁器口店),磁器口横街38号-1号（近宝轮寺）,重庆市,重庆市,沙坪坝区,13508388010,unknown,
baidu,a225485dec1235442afc4852,欢喜手工牛扎糖,磁童路磁器口古镇小西门北侧约40米,重庆市,重庆市,沙坪坝区,,unknown,
baidu,4642844a277006d9c9fa5f66,思群广场,重庆市沙坪坝区沙坪坝正街174号,重庆市,重庆市,沙坪坝区,,unknown,
baidu,622a7e747b69d8467069d3b1,Mood·慕上,沙坪坝正街8号,重庆市,重庆市,沙坪坝区,13500356631,unknown,
baidu,9639408ba7c9a2b1ab175ae0,歇歇脚,重庆市沙坪坝区磁童路磁器口古镇,重庆市,重庆市,沙坪坝区,,unknown,
baidu,f046748971200cab78f796f4,杠上花麻将主题文创(磁器口店),重庆市沙坪坝区磁横街3号,重庆市,重庆市,沙坪坝区,,unknown,
baidu,0aac874c28c5dc5b715e80ff,N37桥角角游乐园,宏滨路630号（渔人湾海鲜市场旁）,重庆市,重庆市,江北区,18523466616,unknown,
baidu,a2c707aeef8589caadcb667d,茶咖小憩,磁正街145-1-2号,重庆市,重庆市,沙坪坝区,17502366783,unknown,
baidu,7378595122210caa40ab9a28,花小辫手作馆,重庆市沙坪坝区沙滨路磁器口古镇,重庆市,重庆市,沙坪坝区,,unknown,
baidu,3e848069bd790347bda240e7,棋牌,重庆市沙坪坝区劳动路时代菁英,重庆市,重庆市,沙坪坝区,,unknown,
baidu,1744776f4f9b9992b33c81a5,如花露营酒吧,重庆市沙坪坝区沙滨路磁器口古镇,重庆市,重庆市,沙坪坝区,,unknown,
baidu,812b59a6876558d0a20464d3,松山广场,歌乐山街道烈士墓壮志路白公馆,重庆市,重庆市,沙坪坝区,,unknown,
baidu,eced42edf44c2ddc43afe671,中视嘉亮影城(欣阳广场店),沙坪坝正街8号欣阳广场4楼影院,重庆市,重庆市,沙坪坝区,"(023)65429862,13368242970",unknown,
baidu,27f3ab8c819b55d6ee74f8d0,八妹茶馆,重庆市沙坪坝区劳动路79号,重庆市,重庆市,沙坪坝区,,unknown,
baidu,dff9f9bec3e28416f21937ab,剑龙网吧,212国道金悦城东区底商,重庆市,重庆市,沙坪坝区,17726606926,unknown,
baidu,72399a7175ca7e6516c905fb,记忆老茶坊,磁器口正街173号,重庆市,重庆市,沙坪坝区,15922734212,unknown,
baidu,5f4a4c509e6168d254bfff39,吊脚楼茶舍,磁南街1号磁器口景区内,重庆市,重庆市,沙坪坝区,13708395105,unknown,
baidu,65215da088e06dbaf5c59c23,偶然茶舍,磁南街4号附20号,重庆市,重庆市,沙坪坝区,,unknown,
baidu,5f25084b16b7ab968e772734,老院坝坝茶,沙坪坝区磁器口正街68-3号印度飞饼旁,重庆市,重庆市,沙坪坝区,,unknown,
baidu,2bc01b4b4fad8990b2077dfa,众谈空间·24H共享茶室(南开苑店),渝碚路街道南园3号附2号,重庆市,重庆市,沙坪坝区,13637792849,unknown,
baidu,ba7ceb16e121d8193ce231c3,良品茶庄,重庆市沙坪坝区劳动路百年世家西南侧,重庆市,重庆市,沙坪坝区,13308358655,unknown,
baidu,f52f25d92e46a1ed83a00c61,吊脚楼茶坊,重庆市沙坪坝区磁器口隧道磁器口古镇,重庆市,重庆市,沙坪坝区,,unknown,
baidu,a6fccc4f2be4ba4845e2746e,半隐茶酒居,重庆市沙坪坝区沙滨路磁器口古镇,重庆市,重庆市,沙坪坝区,,unknown,
baidu,abd2043c99fb4ab3cac3dbf2,悦来酒店-茶楼,重庆市沙坪坝区溪凤路国盛三千城,重庆市,重庆市,沙坪坝区,,unknown,
baidu,75cc43dba4f3ffbdd8d891ac,嘉滨茶园,重庆市沙坪坝区磁器口汲水巷3号,重庆市,重庆市,沙坪坝区,,unknown,
baidu,7c777f10a8c61c29ad31e5cf,顺意馆,重庆市沙坪坝区磁器口正街110号和顺茶馆,重庆市,重庆市,沙坪坝区,,unknown,
baidu,449be587f16948b17adbd22f,月见MOCHA·猫咖·狗咖·撸猫馆(磁器口店),磁正街168附3,重庆市,重庆市,沙坪坝区,18184002435,unknown,
baidu,64a3e5c8cb026d3f7ec87623,飞越中国(磁器口后街店),磁兴街磁器口后街内,重庆市,重庆市,沙坪坝区,13143533959,unknown,
baidu,ade502a1e01c581b4d2fdf4d,无聊元3D真人手办,磁器口后街上海三联书店内,重庆市,重庆市,沙坪坝区,19111231902,unknown,
baidu,e38f01e15504d84d03294ff6,TOMO美发连锁沙龙(磁器口店),重庆市沙坪坝区溪凤路国盛三千城西南侧,重庆市,重庆市,沙坪坝区,,unknown,
baidu,dc02f74f4a581f89cd04ef78,雨巷咖啡,磁器口正街22号附1号2层,重庆市,重庆市,沙坪坝区,15823815805,unknown,
baidu,8d82c2517b1c45c4a10464df,野市·茶咖,"渝碚路209号向乐村4号楼,阶梯下（顺悦足道旁小巷上坡左转）",重庆市,重庆市,沙坪坝区,17784769338,unknown,
baidu,0573470a8839d109631c67bc,茶仙树(磁器口店),温家巷17号附1号,重庆市,重庆市,沙坪坝区,15084332822,unknown,
baidu,e22a50d29eb9a5e2306212ed,COMMA COFFEE(磁器口店),重庆市沙坪坝区磁器口正街11号,重庆市,重庆市,沙坪坝区,19930961763,unknown,
baidu,4fc716d4905a00c016c90503,柏菲酒店(重庆磁器口店),金磁路12号碧桂园摩卡附19号,重庆市,重庆市,沙坪坝区,19132166749,unknown,
baidu,9fc3184abf3e46e70bccddb9,指南针青年旅舍(重庆磁器口店),重庆市溪凤路磁建村88号附100号,重庆市,重庆市,沙坪坝区,"(023)65328811,18908331211",unknown,
baidu,3bcd389abad2e045e507380a,桔子酒店(重庆沙坪坝磁器口店),沙滨路101号附90-93号,重庆市,重庆市,沙坪坝区,(023)86278666,unknown,
baidu,9ac2cbe4125d7e07f33cba3e,寓言民宿(重庆磁器口古镇店),磁器口南街16号附4-3号,重庆市,重庆市,沙坪坝区,17749944237,unknown,
baidu,ba80ba03544455149703193e,玖悦名宿酒店(磁器口古镇店),金磁路12号附36号,重庆市,重庆市,沙坪坝区,13627625082,unknown,
baidu,b0f5688bc6344333cb1b95c9,兰熙酒店(重庆磁器口店),金磁路12号碧桂园摩卡附12号,重庆市,重庆市,沙坪坝区,15178892978,unknown,
baidu,50f7d146648787dd72210b5b,7天连锁酒店(重庆沙坪坝重庆大学店),渝碚路222附1号,重庆市,重庆市,沙坪坝区,(023)65306988,unknown,
baidu,93c6c5830944980e6849f338,重庆浔江酒店(磁器口地铁站沙坪坝高铁站店),金磁路12号附33号,重庆市,重庆市,沙坪坝区,17623664166,unknown,
baidu,8667e5263b80d7aa5d17c301,恋磁逸客酒店(重庆磁器口地铁站店),金磁路童新一村22号2楼,重庆市,重庆市,沙坪坝区,15223013988,unknown,
baidu,120397d7b72999b67dc8763a,重庆润沐民宿,国富沙磁巷(沙磁巷101号)5栋10-7,重庆市,重庆市,沙坪坝区,17623560682,unknown,
baidu,c4f8764d2a5ed0bef6e73b7e,磁器口阳阳民宿(溪景路店),金磁路12号碧桂园摩卡1单元2楼9号房,重庆市,重庆市,沙坪坝区,17823523730,unknown,
baidu,9fad69d506e20f69f82213fc,重庆维拉酒店,重庆市沙坪坝区金磁路12号碧桂园摩卡12号商铺,重庆市,重庆市,沙坪坝区,13983886521,unknown,
baidu,ad9f2395c4ce0b9fd12dd64c,大隐艺术酒店(磁器口店),重庆市童家桥正街175号1-6号,重庆市,重庆市,沙坪坝区,"(023)65268666,15823085148",unknown,
baidu,32cdfa42481272c3b54f540b,迎住酒店(重庆磁器口店),金磁路12号附18号,重庆市,重庆市,沙坪坝区,18908372620,unknown,
baidu,fc9f804900d93f5bd5851f5c,重庆古磁客栈,重庆市沙坪坝区磁器口南街2号2楼（磁器口邮政储蓄银行下行20米）,重庆市,重庆市,沙坪坝区,(023)65268985,unknown,
baidu,83a0495e23df2e76581093ff,景游酒店(重庆磁器口店),磁器口金磁路12号碧桂园摩卡25号商铺,重庆市,重庆市,沙坪坝区,18223511295,unknown,
baidu,a301b9cff6d6c4b31811d52e,重庆悦来酒店,磁建村88号附34、35、36、37号磁器口国盛三千城88号附34号,重庆市,重庆市,沙坪坝区,(023)65015596,unknown,
baidu,7ee51a29f07a61947369d32c,重庆驿站酒店(宏帆路店),宏帆路18号附1-2号,重庆市,重庆市,江北区,(023)86078088,unknown,
baidu,63a0a8c7b9a8081997f08cd6,艺枫酒店(沙坪坝重庆大学店),沙坪坝正街123号附11号-15号,重庆市,重庆市,沙坪坝区,18908399754,unknown,
baidu,6b478091d926a35f2bb97cb4,安娜酒店,重庆市沙坪坝区溪凤路国盛三千城西侧约80米,重庆市,重庆市,沙坪坝区,19132856749,unknown,
baidu,a37594a46937ccff14948eb7,重庆世茂客栈,磁器口正街88号,重庆市,重庆市,沙坪坝区,(023)65267443,unknown,
baidu,72d2e0bd5de75e606ca3cc69,重庆沙磁公馆,沙滨路112号,重庆市,重庆市,沙坪坝区,(023)65428888,unknown,
baidu,6b81756d55745cc27dc876c8,重庆洛云电竞公寓,重庆市沙坪坝区金磁路12号碧桂园摩卡二单元5层514室,重庆市,重庆市,沙坪坝区,19923293060,unknown,
baidu,9b7b5ee4bef17c53af080f16,山顶洞人酒店(磁器口店),磁器口磁南街25-3-1号,重庆市,重庆市,沙坪坝区,(023)65818722,unknown,
baidu,e5ade8bec7ea7c5081a12e29,米途城市酒店(重庆磁器口店),重庆市沙坪坝区金磁路12号,重庆市,重庆市,沙坪坝区,18983393265,unknown,
baidu,2babb1f4a6619eb48a36ee78,重庆华舫酒店(磁器口古镇店),磁器口后街12号,重庆市,重庆市,沙坪坝区,(023)65065666,unknown,
baidu,5a491dcca0ef1cbc14b54b01,7天优品酒店(重庆沙坪坝三峡广场高铁站店),渝碚路176号,重庆市,重庆市,沙坪坝区,(023)65351818,unknown,
baidu,9ab41f4b281d2d2e09b93a8a,慕思·禅睡眠酒店(重庆磁器口地铁站店),磁器口街道磁兴街1号附22号负1-1,重庆市,重庆市,沙坪坝区,"(023)65157888,15310907968",unknown,
baidu,f602a796c222374908ccdd95,重庆芳益客栈,磁器口南街1-2-1,重庆市,重庆市,沙坪坝区,(023)65362216,unknown,
baidu,90370f827837d682a11de960,The Beta轻奢酒店(重庆沙坪坝三峡广场店),重庆市沙坪坝区杨梨路19号,重庆市,重庆市,沙坪坝区,"(023)61516577,13883691158",unknown,
baidu,262752e7bd7068fa704b8764,柒寓酒店(重庆磁器口店),石井坡265号,重庆市,重庆市,沙坪坝区,(023)63365777,unknown,
baidu,f25ba0dff074a7072bd7ab28,重庆科苑戴斯酒店(重庆大学B区店),沙北街83号重大广场,重庆市,重庆市,沙坪坝区,(023)65128888,unknown,
baidu,c322e2415f38339a1fe99971,觅见民宿(磁器口店),重庆市童家桥正街175号碧桂园摩卡,重庆市,重庆市,沙坪坝区,15223652752,unknown,
baidu,b7934d5e971be5b815a19026,子居酒店(重庆磁器口古镇店),重庆市沙坪坝区沙滨路101号沙磁巷小区5栋17-6,重庆市,重庆市,沙坪坝区,"(023)63104791,19112722257",unknown,
baidu,de19def4470bdf85b64f54bf,重庆华晨酒店,重庆市沙坪坝区童家桥街道碧桂园摩卡B单元20-1号,重庆市,重庆市,沙坪坝区,"15397014060,17265142293",unknown,
baidu,52a6cc6168eb2dfef7b916e7,重庆暮色酒店,金磁路12号碧桂园摩卡二单元308,重庆市,重庆市,沙坪坝区,18502351516,unknown,
baidu,4d5365a580b27c0ff50e77ce,重庆山河民宿,金磁路12号碧桂园摩卡一层商铺,重庆市,重庆市,沙坪坝区,18223511295,unknown,
baidu,7b4ba33afa7ba8493ce23121,逸缘民宿(磁器口地铁站店),磁童路沙磁1938小区3栋7楼2号,重庆市,重庆市,沙坪坝区,15808063579,unknown,
baidu,24b19be7b50d95c21fe9990e,重庆十六民宿,重庆市沙坪坝区磁器口磁南街16号403室,重庆市,重庆市,沙坪坝区,18580781007,unknown,
baidu,1187549b02b3054ab75f1e40,房东小米熊公寓(磁器口隧道分店),重庆市沙坪坝区磁器口隧道国富沙磁巷B区,重庆市,重庆市,沙坪坝区,,unknown,
baidu,2715120846eafef28c55ec53,金磁民宿,重庆市沙坪坝区国盛大道国盛三千城西侧约120米,重庆市,重庆市,沙坪坝区,,unknown,
baidu,77ffb12498c13177d42ce279,重庆楠嘉公寓,重庆沙坪坝区碧桂园摩卡,重庆市,重庆市,沙坪坝区,,unknown,
baidu,c7fb04bd42fe080cfa0cad5f,古镇酒店(磁童路店),重庆市沙坪坝区磁器口南街13号,重庆市,重庆市,沙坪坝区,(023)65010666,unknown,
baidu,3df236bdf3810e773a04b1eb,重庆梧栖公寓,重庆市沙坪坝区金沙正街90号国富沙磁巷-B区,重庆市,重庆市,沙坪坝区,,unknown,
baidu,d80ab7d05bd0413a6fc02cf0,重庆长八间精品民宿,重庆市沙坪坝区磁器口隧道B区,重庆市,重庆市,沙坪坝区,,unknown,
baidu,a57df3e114aa9eec095cb313,远山民宿(金沙东路分店),重庆市沙坪坝区国盛大道碧桂园摩卡2单元,重庆市,重庆市,沙坪坝区,13983958377,unknown,
baidu,78cc38c859b320a9aeb22a07,重庆罐头小姐环球旅居系列公寓(金沙东路分店),重庆市沙坪坝区磁南街1号磁器口古镇国富沙磁巷7栋,重庆市,重庆市,沙坪坝区,,unknown,
baidu,ec7e6e676ca5b0bdc4f0257c,重庆露露小姐姐公寓(3号店),沙磁巷B区(沙磁巷小区),重庆市,重庆市,沙坪坝区,18680856160,unknown,
baidu,14a966af644c1ccca8f729a3,重庆小正正和大婷婷客栈,重庆沙坪坝区磁器口横街109号(附6号),重庆市,重庆市,沙坪坝区,,unknown,
baidu,8c7f0312f079b3daf423109b,重庆灿麻麻公寓(2号店),国富沙磁巷,重庆市,重庆市,沙坪坝区,,unknown,
baidu,78305cc8ed0bee8c1c389419,重庆归年公寓,重庆市沙坪坝区溪景路碧桂园摩卡,重庆市,重庆市,沙坪坝区,,unknown,
baidu,8bf5966f74a5ff37e1110358,重庆金豆子客栈(恐龙探索乐园分店),重庆沙坪坝区胖子竹楼第一家毛血旺(胖子竹楼第一家毛血旺隔壁),重庆市,重庆市,沙坪坝区,,unknown,
baidu,c10b797946ebac3c8bdb735d,重庆楠家雅舍楠姐温馨公寓,重庆沙坪坝区沙滨路101号国富沙磁巷(沙磁巷4幢),重庆市,重庆市,沙坪坝区,,unknown,
baidu,576671fbd946941e14b54b91,重庆小鹿之家公寓,重庆沙坪坝区磁建村(国盛三千城),重庆市,重庆市,沙坪坝区,,unknown,
baidu,909de3015c62b30cf50e773f,重庆mini兔公寓,重庆市沙坪坝区金沙东路国富沙磁巷-B区,重庆市,重庆市,沙坪坝区,,unknown,
baidu,18f3b0d0782779caa3acc469,薄荷欧尼公寓(溪景路分店),溪景路碧桂园摩卡金磁路12号,重庆市,重庆市,沙坪坝区,,unknown,
baidu,69a9a4c84aded46c220262b3,重庆后会有期公寓,重庆沙坪坝区碧桂园摩卡,重庆市,重庆市,沙坪坝区,,unknown,
baidu,9b14e46cbdd673266849f39b,重庆颜康公寓,重庆沙坪坝区碧桂园摩卡,重庆市,重庆市,沙坪坝区,,unknown,
baidu,c33cecb86a4ff86ffd0eb0af,重庆雁秋公寓,重庆沙坪坝区碧桂园摩卡(就在三千城旁边),重庆市,重庆市,沙坪坝区,,unknown,
baidu,0a93aa7d3c0c7c37b13c8166,许小妹公寓(溪景路分店),溪景路碧桂园摩卡,重庆市,重庆市,沙坪坝区,,unknown,
baidu,dc3ab9fbca4052b69403197e,糖小妮公寓(溪景路分店),溪景路碧桂园摩卡,重庆市,重庆市,沙坪坝区,,unknown,
baidu,8ed8bb6beabff406c9213df5,简约公寓(溪景路1号分店),溪景路碧桂园摩卡,重庆市,重庆市,沙坪坝区,,unknown,
baidu,263793a34bd3581d260bd03b,重庆熊本小窝公寓,重庆沙坪坝区碧桂园摩卡(瓷器口古镇旁),重庆市,重庆市,沙坪坝区,,unknown,
baidu,ea8fb9c9d6574386ad0457a1,重庆磁器口静心苑酒店式公寓,重庆市沙坪坝区三千城15栋17-5号,重庆市,重庆市,沙坪坝区,,unknown,
baidu,cfef4919d5db5a48fea7789f,德国马牌轮胎(站西路店),坝站西路西城丽景88号附107号,重庆市,重庆市,沙坪坝区,13527456008,unknown,
baidu,ab886ef026a61b49c9e33cf1,宏图汽车服务中心,重庆市沙坪坝区地铁1号线国盛三千城88号附65号,重庆市,重庆市,沙坪坝区,15823561364,unknown,
baidu,bd47f919ffb4683f0482c255,比亚迪汽车海洋网(沙坪坝磁器口路祺城市展厅),重庆市沙坪坝区沙滨路112号附1-5号,重庆市,重庆市,沙坪坝区,13370734675,unknown,
baidu,b16b81a351c4b3fb82a12efd,车点点·华先汽车美容服务中心(宽途汽车店),教院路23号C栋负一楼,重庆市,重庆市,沙坪坝区,"(023)65232452,15086858950",unknown,
baidu,4c9007381da48bb7f6c59c5b,宝通汽车保养,溪景路万科金域华庭（东南门西30米路北）,重庆市,重庆市,沙坪坝区,,unknown,
baidu,e56bf5e3f54d8a5d0782c2d5,瑞佛利汽车一站式标准化服务,童家桥正街175号(金星花园),重庆市,重庆市,沙坪坝区,023-65475209,unknown,
baidu,ffc0552d6aa55546c7f50d39,百斗汽车维修,重庆市沙坪坝区童家桥正街139号,重庆市,重庆市,沙坪坝区,,unknown,
baidu,8ef2814cc46e9e6373455b57,杰仕卡汽车美容服务中心(翰林店),重庆市沙坪坝区大水井76号附8号,重庆市,重庆市,沙坪坝区,,unknown,
baidu,92872e2fe7ad405517b54b59,谢二娃洗车场,光华·阳光水城三期西1门旁,重庆市,重庆市,沙坪坝区,18725677798,unknown,
baidu,45f386ed0cf48fbadf1e5214,永联车服,沙滨路融创滨江壹号二期264号附12号,重庆市,重庆市,沙坪坝区,17782270036,unknown,
baidu,3166a11cb6d08ce88d77275d,售补轮胎,重庆市沙坪坝区童家桥正街175号,重庆市,重庆市,沙坪坝区,18323116605,unknown,
baidu,15fd26fec6f8234bb1077d7d,博义汽车服务中心,沙中路国家电网对面,重庆市,重庆市,沙坪坝区,,unknown,
baidu,b586267cf47c2630631c6733,宽大汽车服务,重庆市江北区宏盛路21号,重庆市,重庆市,江北区,13908393730,unknown,
baidu,02def87b21de4a75704b8734,百年置信汽车维修中心,重庆市沙坪坝区渝碚路街道沙杨路1-3号,重庆市,重庆市,沙坪坝区,,unknown,
baidu,f47a71040137c8a9cae33c00,重庆金扳手汽修,重庆市沙坪坝区沙杨路238号,重庆市,重庆市,沙坪坝区,,unknown,
baidu,8afa0247f337abcb213bf2e6,高睿汽车美容馆(宽途汽车店),学林雅园一号车库(永瑞农超旁边)（重庆大学地铁站1B口步行390米）,重庆市,重庆市,沙坪坝区,,unknown,
baidu,6164cb911a105871f8f0cb5d,咔咔电脑快速洗车,重庆市沙坪坝区童家桥正街中国石油(宏岩加油站),重庆市,重庆市,沙坪坝区,,unknown,
baidu,e161b259038ee9b9a2046440,山万里车管家,俊峰·山万里217号,重庆市,重庆市,沙坪坝区,,unknown,
baidu,96582aab81ee10b232870a1d,华汽名车维修,松石大道与石马河立交交叉口西南200米,重庆市,重庆市,江北区,13648358428,unknown,
baidu,2b13baf3e39145e4b04c495b,宏发汽车美容装饰中心,沙滨路66号附84号,重庆市,重庆市,沙坪坝区,15123262897,unknown,
baidu,9ea96242caf86fc101294f89,卡徕安汽车快速服务中心,宏盛路19号1&ndash2红帆八中旁,重庆市,重庆市,江北区,,unknown,
baidu,249ea274612a236db13c8100,重庆工运汽车租赁有限公司,重庆市沙坪坝区九鼎红街九鼎名都,重庆市,重庆市,沙坪坝区,,unknown,
baidu,e00df45939f1de6e04026f83,嘉实多护车保养站(百年置信汽车维修中心),重庆市沙坪坝区沙杨路128号东和科苑C栋后门旁,重庆市,重庆市,沙坪坝区,,unknown,
baidu,7a1eca7e94f0410df942b2cb,168快修,宏帆路22号附8-9号127车站对面,重庆市,重庆市,江北区,15023627266,unknown,
baidu,8e8238c8501b553930169b41,德国马牌轮胎(宏盛路店),宏盛路25号附17号,重庆市,重庆市,江北区,13093656239,unknown,
baidu,1cb0aea18a4fa395744ff138,好省自助洗车(拾美天地店),石井坡266号融创精彩汇拾美天地停车场负一楼,重庆市,重庆市,沙坪坝区,4009028991,unknown,
baidu,61e764dd6e2fb645e6073811,车无忧汽车养护行,重庆市江北区宏帆路17号,重庆市,重庆市,江北区,"(023)67784092,13708363377",unknown,
baidu,e026df8028d500a3c72ba13b,联益汽车维修,重庆市江北区山水丽都6楼2号附9号,重庆市,重庆市,江北区,(023)65477439,unknown,
baidu,b28cd74142f3758a82a12ee4,林森汽修,重庆市沙坪坝区林泉雅舍西北侧约240米,重庆市,重庆市,沙坪坝区,15922513655,unknown,
baidu,c5a391f82de54c411ef74db3,狮兄汽修,重庆市江北区山水丽都2号附7号,重庆市,重庆市,江北区,15823967056,unknown,
baidu,69ea325495703e96c4f0251c,重庆狂飙汽车救援服务有限公司,重庆市沙坪坝区凌云路重庆第六十九中学,重庆市,重庆市,沙坪坝区,18166341718,unknown,
baidu,93ca7a1dbad0ae08266e98dd,迈客汽车服务,重庆市江北区宏滨路中国石油北滨路加油站,重庆市,重庆市,江北区,,unknown,
baidu,3adfd00826db0f69c33644f8,升诚汽车维修保养中心,宏帆路7号,重庆市,重庆市,江北区,,unknown,
baidu,75d91a00ee374094d92f28ad,重庆鑫世杰自动变速箱服务站,宏盛路21号附20号,重庆市,重庆市,江北区,15320741818,unknown,
baidu,2ef0687fdd9dd4051ce99937,翔泽汽车养护中心,重庆市沙坪坝区滨江路信达滨江蓝庭南侧约50米,重庆市,重庆市,沙坪坝区,15215171456,unknown,
baidu,ad495d26477ce3e9471a32f3,墨涵机电(渝碚路店),重庆市沙坪坝区渝碚路139-1-2号,重庆市,重庆市,沙坪坝区,,unknown,
baidu,be17b8d69eba58749b68b49a,华亚汽车配件及维修,重庆市江北区南石路金洁南桥晓月7号附36号,重庆市,重庆市,江北区,"13072307765,15023762931",unknown,
baidu,45b3b2711ef57cc8d0ff230d,电瓶机油轮胎,重庆市沙坪坝区沙杨路郁金香国际公寓南侧约40米,重庆市,重庆市,沙坪坝区,,unknown,
baidu,cbecdbd75646138a6ea3cc8d,神行者租车(沙中路店),重庆市沙坪坝区沙中路2号自编3号,重庆市,重庆市,沙坪坝区,"(023)66600006,18523112888",unknown,
baidu,9e5ff732e45c94579cf779b6,康明斯,重庆市沙坪坝区烈士墓壮志路2号,重庆市,重庆市,沙坪坝区,(023)65234876,unknown,
baidu,dd692b49c49b5a420e3dda86,自动变速箱专修,重庆市江北区宏帆路18-6号,重庆市,重庆市,江北区,18983175418,unknown,
baidu,32889c866f113385843304a8,便民自助洗车,重庆市江北区国奥村-一期北侧,重庆市,重庆市,江北区,,unknown,
baidu,d1092298adfeae680e3ddaea,车养护(沙中路店),重庆市沙坪坝区沙中路重庆一中,重庆市,重庆市,沙坪坝区,13637829035,unknown,
baidu,a0b15c69e1e65c69a0acc477,河南修水箱,重庆市江北区宏盛路重庆八中宏帆初级中学校,重庆市,重庆市,江北区,,unknown,
baidu,0a348f9d017b8b29fda7788c,邓禄普轮胎(沙中路店),重庆市沙坪坝区沙中路重庆一中,重庆市,重庆市,沙坪坝区,13637829035,unknown,
baidu,98f46f0a6effb195bd484274,车精彩二手车,重庆市沙坪坝区童家桥正街融创滨江壹号观麓台南侧约70米,重庆市,重庆市,沙坪坝区,,unknown,
baidu,fbd7a6864129461e6018090d,南渝租车·二手车·押车,重庆市沙坪坝区磁器口隧道融创滨江壹号,重庆市,重庆市,沙坪坝区,15123331434,unknown,
baidu,cf79fcc4d88f906b86420e6d,沙坪坝区童家桥社区卫生服务中心,重庆市沙坪坝区大水井1号附716号,重庆市,重庆市,沙坪坝区,(023)65015193,unknown,
baidu,1b309b175f9113ac3ce2318b,赵勇诊所,重庆市沙坪坝区磁器口街道磁建村89号附42号(万科金域华府内),重庆市,重庆市,沙坪坝区,15310164343,unknown,
baidu,b36bcae086375c41abf0cd55,沙坪坝区刘鲲诊所,重庆市沙坪坝区磁器口街道沙滨路101号附63号,重庆市,重庆市,沙坪坝区,,unknown,
baidu,f6a4b8825767203bd4851f52,沙坪坝曹均芳中医综合诊所,重庆市沙坪坝区磁建村88号附86号,重庆市,重庆市,沙坪坝区,,unknown,
baidu,f0bc92c6f5c3d9fedeee8b30,全顺诊所,重庆市沙坪坝区国盛大道88号附10号,重庆市,重庆市,沙坪坝区,,unknown,
baidu,217572b8949b7492a8059d91,沙坪坝区磁器口社区卫生服务中心,磁器口街道正街48号,重庆市,重庆市,沙坪坝区,,unknown,
baidu,0d3be8ada8a0294c1b11d588,周伟中医综合诊所,重庆市沙坪坝区劳动路阳光驿站79-9号,重庆市,重庆市,沙坪坝区,,unknown,
baidu,ae82892d1cfb7914d8131813,曹均芳中医诊所,重庆市沙坪坝区劳动路79号附9号,重庆市,重庆市,沙坪坝区,,unknown,
baidu,bfdc8adb6e43b6233310af65,三千城诊所,重庆市沙坪坝区光明路88号附49号,重庆市,重庆市,沙坪坝区,,unknown,
baidu,7ed04d57574ca21e88db73eb,沙坪坝磁器口中西医结合诊所,重庆市沙坪坝区溪凤路国盛三千城西南侧,重庆市,重庆市,沙坪坝区,17783021387,unknown,
baidu,c1653405d0127679ab175a1f,重庆市沙坪坝区中小学卫生保健所,重庆市沙坪坝区思源路学林雅园沙区4-4号,重庆市,重庆市,沙坪坝区,(023)65432800,unknown,
baidu,816cbd2430afe1ae32870a84,沙坪坝夏安萍口腔诊所,重庆市沙坪坝区光明路88号附48号,重庆市,重庆市,沙坪坝区,,unknown,
baidu,a312916ced9bf5de1811d53e,张兰芬口腔诊所,重庆市沙坪坝区沙北街98-28号,重庆市,重庆市,沙坪坝区,(023)65412809,unknown,
baidu,69c32d0e2e8d01ffad080f64,曹洪诊所,重庆市沙坪坝区沙北街98-20号,重庆市,重庆市,沙坪坝区,,unknown,
baidu,bbd4b0c8dbce6dbfc62ba153,吕杰中医诊所,重庆市沙坪坝区劳动路73-11号,重庆市,重庆市,沙坪坝区,18983136542,unknown,
baidu,fb326dacd2cf168eb23c81f7,赵群诊所,重庆市沙坪坝区劳动路38号附11号,重庆市,重庆市,沙坪坝区,,unknown,
baidu,221e5c584b4c5d6131f71d47,磁器口社区卫生服务中心-发热门诊,沙坪坝区金悦锦城金磁路4号附1-23号,重庆市,重庆市,沙坪坝区,,unknown,
baidu,57a233b26d6d681a6f3e1bd0,刘贵萍中医诊所,重庆市沙坪坝区金磁路8号附35号,重庆市,重庆市,沙坪坝区,,unknown,
baidu,062192b0f3316eba9900501b,重庆市沙坪坝区中医院,重庆市沙坪坝区小杨公桥167号,重庆市,重庆市,沙坪坝区,,unknown,
baidu,08960ac4101743c4fc0eb01b,全家营养健康管理中心,重庆市沙坪坝区国盛大道国盛三千城西侧约90米,重庆市,重庆市,沙坪坝区,,unknown,
baidu,123f70be57a38d65d81318e1,重庆大学-校医院,重庆市沙坪坝区沙正街174号,重庆市,重庆市,沙坪坝区,(023)65120120,unknown,
baidu,ae74724c161ba3b9b04c4954,沙坪坝社区卫生服务中心,沙坪坝街道沙正街77-14,重庆市,重庆市,沙坪坝区,(023)65395090,unknown,
baidu,64c1684cd2837ba07369d348,天骄诊所,重庆市沙坪坝区金磁路10号,重庆市,重庆市,沙坪坝区,,unknown,
baidu,88ff89a28bf5b8112a3a9fb2,沈宁西医诊所,重庆市沙坪坝区大水井76号附16号门面,重庆市,重庆市,沙坪坝区,(023)68847086,unknown,
baidu,bdc2b9d8d20ea3057069d3cb,吴培亮诊所,重庆市沙坪坝区G212与杨双路交叉口东南方向50米,重庆市,重庆市,沙坪坝区,,unknown,
baidu,6d5e9d4346cf586a76e5b640,铭鉴综合门诊部(沙坪坝店),重庆市沙坪坝区壮志路58号,重庆市,重庆市,沙坪坝区,,unknown,
baidu,49a02a7a043b5c592b201a21,重庆东华医院,石井坡168号,重庆市,重庆市,沙坪坝区,(023)65138120,unknown,
baidu,e3fea4b1e8de5c5797031935,金芝林大药房(沙磁店),重庆市沙坪坝区大水井88号附24号,重庆市,重庆市,沙坪坝区,13452110496,unknown,
baidu,19a5632b8a4d681b1e1d11b7,重庆唐晓红医疗管理有限公司沙坪坝金悦城诊所,重庆市沙坪坝区渝碚路安居逸园,重庆市,重庆市,沙坪坝区,,unknown,
baidu,14523400351298b1d92f2828,沙坪坝孙梦碧中医诊所,重庆市沙坪坝区小杨公桥金悦城二期108号附29号,重庆市,重庆市,沙坪坝区,,unknown,
baidu,5e7a32b6164ea6c9a4c756f3,沙坪坝社区卫生服务中心,重庆市沙坪坝区沙坪坝北街学府小区北侧约40米,重庆市,重庆市,沙坪坝区,,unknown,
baidu,6deee308fb97ca7329fc48d8,重庆医科大学附属口腔医院(沙南街门诊部),重庆市沙坪坝区沙南街4-8号,重庆市,重庆市,沙坪坝区,"(023)86396771,(023)86396818",unknown,
baidu,d708db33bff59d4803ec0142,泉源堂智慧药房(三千城店),重庆市沙坪坝区溪凤路三千城88号附28号,重庆市,重庆市,沙坪坝区,(023)65202719,unknown,
baidu,b65a08e87443bdc8c4f50d39,苗药康传统药房,重庆市沙坪坝区磁器口隧道国富沙磁巷-B区,重庆市,重庆市,沙坪坝区,,unknown,
baidu,101bc61b79ddeebac42ba120,爱康国宾(重庆沙坪坝区分院),重庆市沙坪坝区沙南街60号,重庆市,重庆市,沙坪坝区,4000890999,unknown,
baidu,e888357131b4c26db5f42f3a,太极大药房(十七店),重庆市沙坪坝区劳动路8号附21号,重庆市,重庆市,沙坪坝区,15923973939,unknown,
baidu,82035c49e677274fb6265569,江北区石马河山水丽都社区卫生服务站,重庆市江北区石马河立交山水丽都,重庆市,重庆市,江北区,,unknown,
baidu,9deb9ad9c36bbe5396f08cb8,聂新宏中医诊所,重庆市沙坪坝区渝碚路金悦城,重庆市,重庆市,沙坪坝区,,unknown,
baidu,d11bd9bfe17397a75fbe863d,郭廷英西医诊所,重庆市沙坪坝区壮志路24-1-1号,重庆市,重庆市,沙坪坝区,,unknown,
baidu,f06d3a4c3177c6be704b8772,杨昌明中医诊所,重庆市沙坪坝区渝碚路119号文星大厦4楼,重庆市,重庆市,沙坪坝区,,unknown,
baidu,2e0a0178a71819a98c55ec9d,六善·药君堂中医诊所,重庆市江北区天鸿路国奥村3期大门右侧花园,重庆市,重庆市,江北区,,unknown,
baidu,e050de27ae4cd49a8bb98838,中医理疗,重庆市沙坪坝区国盛大道国盛三千城东北侧约80米,重庆市,重庆市,沙坪坝区,,unknown,
baidu,bc2dbd147063546fd42ce297,陶海峰儿童诊所,重庆市沙坪坝区杨公桥杨梨路华宇星云汇140-141号,重庆市,重庆市,沙坪坝区,(023)88288388,unknown,
baidu,46f77ca47d0098ef6b49f372,沙坪坝何益友中医诊所,重庆市沙坪坝区沙杨路102号,重庆市,重庆市,沙坪坝区,13251406396,unknown,
baidu,b7021bf87457b2e3f4e73b4a,重庆师范大学医院(沙坪坝校区),重庆市沙坪坝区天陈路12号,重庆市,重庆市,沙坪坝区,,unknown,
baidu,93ce5926be438e1475e5b6ef,沙坪坝社区卫生服务中心办公区,重庆市沙坪坝区沙坪坝北街4号附3号楼上,重庆市,重庆市,沙坪坝区,,unknown,
baidu,a300ab381bbbb14c82a12e6b,数字化微创美学诊疗中心,重庆市沙坪坝区金悦支路金融街·金悦锦城,重庆市,重庆市,沙坪坝区,,unknown,
baidu,be8a4d0189faecc9d618b766,鑫斛药庄(三千城店),重庆市沙坪坝区国盛三千城(国盛大桥西南),重庆市,重庆市,沙坪坝区,(023)65033233,unknown,
baidu,6dbc42d16af4fbf9cac3db70,馨缘健康家园(沙坪坝北街),重庆市沙坪坝区沙坪坝北街千秋花园,重庆市,重庆市,沙坪坝区,,unknown,
baidu,2fb86fc7d8aa27f41c38944a,江北杨诩春诊所,重庆市江北区宏滨路27号附6号,重庆市,重庆市,江北区,15823566621,unknown,
baidu,ddc5752ae11bf9e52fe67bf4,重庆东华医院-体检中心,重庆市沙坪坝区石井坡168号,重庆市,重庆市,沙坪坝区,,unknown,
baidu,79c1883db53b1d57fa221309,重庆舒医堂诊所,重庆市沙坪坝区渝碚路66-9号,重庆市,重庆市,沙坪坝区,,unknown,
baidu,136427134ebe3853077ce8b0,卢建华口腔诊所,重庆市沙坪坝区沙杨路55号附5号,重庆市,重庆市,沙坪坝区,,unknown,
baidu,606ab0d039b8d1540e3dda51,万和医药连锁(九鼎店),重庆市沙坪坝区童家桥1号1号九鼎红街2号商业街1层40~43号,重庆市,重庆市,沙坪坝区,4000151666,unknown,
baidu,eb93ef6a4f0fafe825d2bba1,杨汉东西医诊所,重庆市沙坪坝区白鹤岭3号,重庆市,重庆市,沙坪坝区,,unknown,
baidu,4f2d741e78eee13f5b3ac891,昌盛和诊所,重庆市沙坪坝区沙杨路67号附16号,重庆市,重庆市,沙坪坝区,,unknown,
baidu,3136bb7ed2bf63292811d12a,医保药房(劳动路店),重庆市沙坪坝区劳动路38号附6号,重庆市,重庆市,沙坪坝区,,unknown,
baidu,aa40108b8fcd376bc4effbb4,万和医药连锁(沙正街店),重庆市沙坪坝区沙坪坝正街129号附13号,重庆市,重庆市,沙坪坝区,(023)65313521,unknown,
baidu,b11c19cba573b8d84d2fdfab,周氏刮痧健康咨询,重庆市沙坪坝区劳动路时代菁英西南侧约30米,重庆市,重庆市,沙坪坝区,18323246497,unknown,
baidu,32e3692f39745d7c90114ca6,一心堂药房(壮志路店),重庆市沙坪坝区壮志路58号,重庆市,重庆市,沙坪坝区,(023)65261023,unknown,
baidu,ef773a0f222bb4342202201d,同生药房(壮志路店),重庆市沙坪坝区壮志路9号,重庆市,重庆市,沙坪坝区,,unknown,
baidu,2008f20fb675f733a8175a0c,一心堂大健康药店(沙杨路店),重庆市沙坪坝区沙杨路67-21号,重庆市,重庆市,沙坪坝区,(023)65361791,unknown,
baidu,a5611e94afcecdad2806ce21,鑫斛药庄(沙北街店),重庆市沙坪坝区沙坪坝北街23号,重庆市,重庆市,沙坪坝区,(023)65534403,unknown,
baidu,5abdcff4082617ed03ff2d7e,健之佳健康药房(重庆小杨公桥分店),重庆市沙坪坝区小杨公桥108号附28号,重庆市,重庆市,沙坪坝区,(023)65376782,unknown,
baidu,d9b6b9f6b50363179d95def6,和平药房(阳光水城店),重庆市沙坪坝区小杨公桥118号-附89号,重庆市,重庆市,沙坪坝区,(023)65408442,unknown,
baidu,a5377d71a566e127ed74f829,福运大药房,重庆市沙坪坝区杨公桥立交天越雅园-二期,重庆市,重庆市,沙坪坝区,,unknown,
baidu,17ad937b58563352d2ff23a6,福利大药房(沙坪坝区国仁店),重庆市沙坪坝区G75(兰海高速),重庆市,重庆市,沙坪坝区,,unknown,
baidu,d1b7899ebe63ae2c41d63eef,大参林(金悦支路店),重庆市沙坪坝区金悦支路金融街·金悦锦城,重庆市,重庆市,沙坪坝区,18140395998,unknown,
baidu,39f7e2b9d1837fa812293536,丽达心健康管理中心(时代精英店),重庆市沙坪坝区劳动路时代菁英,重庆市,重庆市,沙坪坝区,,unknown,
baidu,ae460e0781a67e7c93114c3e,鑫斛药荘(半月楼店),重庆市沙坪坝区沙杨路67号附7号,重庆市,重庆市,沙坪坝区,(023)65184249,unknown,
baidu,aa717d3cf5176e736d20b904,真善美药房(欧汇超市店),重庆市沙坪坝区小杨公桥108号附24号金悦城欧汇超市里面真善美药房,重庆市,重庆市,沙坪坝区,(023)65183326,unknown,
baidu,78690d0876e1017779dbd253,全兴药品(沙北分店),重庆市沙坪坝区沙坪坝北街88号附8号,重庆市,重庆市,沙坪坝区,15111915286,unknown,
baidu,be1ea5effdd982a614948e26,昌野药房(沙北街店),重庆市沙坪坝区沙北街92-26号重庆七中,重庆市,重庆市,沙坪坝区,13708341039,unknown,
baidu,429b577790502826902ca372,元膳堂食疗馆,重庆市沙坪坝区劳动路学林雅园(重庆大学地铁站1B口步行410米),重庆市,重庆市,沙坪坝区,13368083212,unknown,
baidu,2650a2a27a624412dc1e520e,万家信药房,重庆市沙坪坝区沙杨路150号,重庆市,重庆市,沙坪坝区,,unknown,
baidu,5fc4d162ff0d96eec72ba10c,瑞玺堂家庭健康管理中心,重庆市沙坪坝区沙坪坝街道学林雅园2号附16号自主承诺,重庆市,重庆市,沙坪坝区,,unknown,
baidu,0e90cae525b4cd9b0e3ddade,易视康青少年视力矫正中心(沙坪坝店),重庆市沙坪坝区沙杨路114号,重庆市,重庆市,沙坪坝区,13708363842,unknown,
baidu,e303dba008e81577fe0eb0da,邻里大药房(七中店),重庆市沙坪坝区沙北街92号附52号,重庆市,重庆市,沙坪坝区,,unknown,
baidu,127dcbe993f4c49225d2bb44,医尔牙口腔,重庆市沙坪坝区金磁路4号附37号,重庆市,重庆市,沙坪坝区,"(023)65221077,18983207066",unknown,
baidu,de8ffeee4ac824a92ce67bc9,云嘉口腔(沙北街店),重庆市沙坪坝区沙北街88-27-3号,重庆市,重庆市,沙坪坝区,,unknown,
baidu,a6f1b8c524f76bbb882fb566,原干休所理疗室,重庆市沙坪坝区九鼎红街九鼎名都,重庆市,重庆市,沙坪坝区,,unknown,
baidu,2c75b1536d5208a42d4733fe,周英口腔(赵愈牙科),重庆市沙坪坝区杨公桥108号附10号1-1,重庆市,重庆市,沙坪坝区,,unknown,
baidu,80c8676d93de096ce812e4b8,重庆好牙壹口腔,重庆市沙坪坝区劳动路时代菁英西侧约30米,重庆市,重庆市,沙坪坝区,,unknown,
baidu,c11152c59b39bce63f9a5e92,重庆建设医院驾驶员体检烈士墓站,重庆市沙坪坝区烈士墓金悦城2号楼2-23号,重庆市,重庆市,沙坪坝区,,unknown,
baidu,1c944e5054e529b5e8e58228,重庆信达口腔医院,重庆市沙坪坝区石井坡263号附9号2-1号,重庆市,重庆市,沙坪坝区,,unknown,
baidu,bbd7e48fccd83d9b471a3240,牙宜康口腔(杨公桥店),重庆市沙坪坝区大杨公桥105号附10~11号,重庆市,重庆市,沙坪坝区,19922232226,unknown,
baidu,73bd52047f512b63e115f926,光玉口腔诊所,重庆市沙坪坝区小杨公桥108号附62号,重庆市,重庆市,沙坪坝区,,unknown,
baidu,78bd50f713301a2631870a65,代坤口腔诊所,重庆市沙坪坝区站西路8828号,重庆市,重庆市,沙坪坝区,(023)65320181,unknown,
baidu,3495313258d42a9afa0cadf5,重庆市沙坪坝区法商教育培训学校,重庆市沙坪坝区劳动路38-27号,重庆市,重庆市,沙坪坝区,18580070692,unknown,
baidu,aabd0f31e960947d41d63ee7,忆莱儿艺术,磁建村88号附80号,重庆市,重庆市,沙坪坝区,15523555530,unknown,
baidu,116cdcd4bd47b7560189729a,美术·书法培训,重庆市沙坪坝区国盛大道国盛三千城,重庆市,重庆市,沙坪坝区,,unknown,
baidu,a4cfba6b51183e94af31e58d,考课力教育(七中校区),沙坪坝区地区重庆沙坪坝街道详细沙坪坝北街96号3楼,重庆市,重庆市,沙坪坝区,"19923322728,4000231985",unknown,
baidu,f814f15180316103b817e773,重庆建达职业培训学校(总校),重庆市沙坪坝区壮志路49号,重庆市,重庆市,沙坪坝区,"(023)65309755,18323376191",unknown,
baidu,c11b5ab1874beaa0badf8f98,乐思悦读空间,重庆市沙坪坝区内环快速学林雅园,重庆市,重庆市,沙坪坝区,,unknown,
baidu,8603f76347a175c0a0acc4c7,悠墨乐陪,重庆市沙坪坝区劳动路百年世家,重庆市,重庆市,沙坪坝区,,unknown,
baidu,cf43c98b95f3e0708b2fb5f7,匠书教育,重庆市沙坪坝区沙北街98号,重庆市,重庆市,沙坪坝区,,unknown,
baidu,356cac9c66a6b416a2a93460,重庆蕴华教育,重庆市沙坪坝区沙南街60号兴源大厦2楼,重庆市,重庆市,沙坪坝区,(023)66030088,unknown,
baidu,272dd550c498154771455ba1,心光艺术绘馆,金磁路8号附9号,重庆市,重庆市,沙坪坝区,15123309803,unknown,
baidu,b166e79dfe7d026c71210b41,重庆大学B区-法学院,重庆市沙坪坝区沙中路83号,重庆市,重庆市,沙坪坝区,,unknown,
baidu,88394731f02d42f6220220cd,劲道艺体,童家桥正街烈士墓红岩广场永辉超市二楼,重庆市,重庆市,沙坪坝区,13452926474,unknown,
baidu,06348fbe0e37611a49fd3fc1,树人沙磁小学,重庆市沙坪坝区凤嘴29号,重庆市,重庆市,沙坪坝区,,unknown,
baidu,7c6d27a0146ade259403191d,重庆大学(B区)-第二综合教学楼,重庆市沙坪坝区沙中路83号,重庆市,重庆市,沙坪坝区,,unknown,
baidu,042b0f11d50a61e010293572,奇特乐幼儿园,重庆市沙坪坝区磁器口镇磁建村1号,重庆市,重庆市,沙坪坝区,(023)65551477,unknown,
baidu,504d611374f0fdb346572619,沙坪坝区实验幼儿园(学林雅园分园),重庆市沙坪坝区饮水村135号,重庆市,重庆市,沙坪坝区,(023)65432507,unknown,
baidu,b3557b1d20e7a7af764ff1b4,咘噜杨艺术培训(沙坪坝校区),重庆市沙坪坝区大水井1号附582-583号(永辉超市二楼),重庆市,重庆市,沙坪坝区,18223030255,unknown,
baidu,8d96925c97881245c1f1cf19,重庆市第七中学校,重庆市沙坪坝区沙坪坝北街94号,重庆市,重庆市,沙坪坝区,"(023)65312666,(023)65354888",unknown,
baidu,b72cf2bdf092640ad02dd644,海文考研(重大教学中心),重庆市沙坪坝区沙坪坝正街127号（中国银行旁边）,重庆市,重庆市,沙坪坝区,13310226739,unknown,
baidu,5373c019f6ebc53d21f017aa,重庆市树人中学校,重庆市沙坪坝区小杨公桥118号,重庆市,重庆市,沙坪坝区,(023)65310579,unknown,
baidu,e4fd7ced19f61b854354d7b1,重庆大学-行政楼西,重庆市沙坪坝区沙中路83号重庆大学b区,重庆市,重庆市,沙坪坝区,,unknown,
baidu,1642a28549c8ae1485420eb3,西南政法大学(沙坪坝校区),重庆市沙坪坝区壮志路2号,重庆市,重庆市,沙坪坝区,(023)65382207,unknown,
baidu,a676cacaea2c6752ae080f0a,重庆大学管理科学与房地产学院,重庆市沙坪坝区沙正街174号重庆大学B区,重庆市,重庆市,沙坪坝区,(023)65120840,unknown,
baidu,24d05508cdcaa6af12882419,余惠敏宏漆幼儿园,重庆市沙坪坝区磁器口南街27号,重庆市,重庆市,沙坪坝区,18502382488,unknown,
baidu,cc49e845de21b56311293582,凤凰山幼儿园,重庆市沙坪坝区劳动路凤凰村85号,重庆市,重庆市,沙坪坝区,(023)65072253,unknown,
baidu,5ffb1816cf4c1a226f476067,童家桥村幼儿园,重庆市沙坪坝区磁器口南街道办事处27号,重庆市,重庆市,沙坪坝区,,unknown,
baidu,6e98a77e3f105a636f47602c,国盛三千城幼儿园,重庆市沙坪坝区磁器口磁建村88号附82号,重庆市,重庆市,沙坪坝区,13193075520,unknown,
baidu,bf4a795c89810f7bb11e368b,东方教育,重庆市沙坪坝区内环快速学林雅园,重庆市,重庆市,沙坪坝区,,unknown,
baidu,af1ae56b4d647b124207c119,沙坪坝区育英小学校,重庆市沙坪坝区沙坪坝北街22号(重庆大学地铁站1B口步行60米),重庆市,重庆市,沙坪坝区,(023)86056668,unknown,
baidu,8edbc63d41691e5f58109370,磁器口小学,重庆市沙坪坝区磁器口宝轮寺26号,重庆市,重庆市,沙坪坝区,,unknown,
baidu,68a9fdc8957d68e0b2077d72,重庆大学B区-岩土实验楼,重庆市沙坪坝区沙中路83号,重庆市,重庆市,沙坪坝区,,unknown,
baidu,0688c53402bdb29329fc4880,德派艺体培训,重庆市沙坪坝区沙北街98-20号,重庆市,重庆市,沙坪坝区,,unknown,
baidu,84adef9b342568a34d2fdf9c,四川外国语大学附属小学校,重庆市沙坪坝区壮志路39号,重庆市,重庆市,沙坪坝区,(023)86261423,unknown,
baidu,2d98937257493993d1f49ec5,重庆大学B区幼儿园,重庆市沙坪坝区重庆大学B区建工东村,重庆市,重庆市,沙坪坝区,(023)65120630,unknown,
baidu,c21db9e5743f558300ff2d19,南开小学,重庆市沙坪坝区渝碚路向乐村155号,重庆市,重庆市,沙坪坝区,,unknown,
baidu,458585b76b562e9f48cc4aec,重庆大学主教学楼,重庆市沙坪坝区沙坪坝正街174号,重庆市,重庆市,沙坪坝区,,unknown,
baidu,aa40108bf26dd215c5effb19,重庆市沙坪坝区儿童艺校,重庆市沙坪坝区童家桥41号烈士墓地铁站2B口步行350米,重庆市,重庆市,沙坪坝区,,unknown,
baidu,a5097bfa27825463f03cba67,沙坪坝区图书馆(沙坪坝区分馆),重庆市沙坪坝区渝碚路222-1号宏洲大厦1楼,重庆市,重庆市,沙坪坝区,(023)65469148,unknown,
baidu,38e480376ef23849363a719d,重庆八中宏帆中学,重庆市江北区石马河街道宏盛路23号,重庆市,重庆市,江北区,(023)67948502,unknown,
baidu,8d5e5f8abdf417be3fe231c4,重庆市沙坪坝小学,重庆市沙坪坝区沙坪坝正街72号,重庆市,重庆市,沙坪坝区,(023)65350233,unknown,
baidu,dcd1fd34412110f815a19074,重庆大学(B区)-生物工程学院,重庆市沙坪坝区沙北街83号（位于重庆大学B区）,重庆市,重庆市,沙坪坝区,,unknown,
baidu,0a15c7eca5ff1efded74f8cc,四川外国语大学,重庆市沙坪坝区壮志路33号,重庆市,重庆市,沙坪坝区,(023)65385238,unknown,
baidu,4b9128c21ea7850d0ab93a5c,重庆大学-C区,重庆市沙坪坝区渝碚路131号,重庆市,重庆市,沙坪坝区,,unknown,
baidu,e10e42b5c65db7539868b427,重庆大学(B区)-振动台实验楼,重庆市沙坪坝区G75兰海高速与杨公桥立交交叉口东南120米,重庆市,重庆市,沙坪坝区,,unknown,
baidu,7cc0aefdca43eb35871541a2,新村国奥小学,国惠路35号国奥村小区,重庆市,重庆市,江北区,(023)67638249,unknown,
baidu,3ea199744655e73496f08c27,重庆大学经济与工商管理学院,重庆市沙坪坝区沙坪坝正街174号,重庆市,重庆市,沙坪坝区,(023)65103527,unknown,
baidu,344bd0d6e72e60941b94c60c,重庆大学B区第一综合教学楼,重庆市沙坪坝区沙中路83号,重庆市,重庆市,沙坪坝区,,unknown,
baidu,e220469883217c582bd7ab03,重庆大学,重庆市沙坪坝区正街174号,重庆市,重庆市,沙坪坝区,"(023)65102348,023-65102222,023-65104117",unknown,
baidu,e3ac9ab2718c8eccdb131853,重庆大学-土木工程学院,重庆市沙坪坝区沙北街83号重庆大学b区,重庆市,重庆市,沙坪坝区,(023)65120720,unknown,
baidu,9be1d1da94f476a3bfa2409d,重庆大学-材料科学与工程学院,重庆市沙坪坝区沙北街83号重庆大学B区,重庆市,重庆市,沙坪坝区,,unknown,
baidu,f343c5a20a67b0257adbd2a7,西南政法大学(沙坪坝校区)-教学楼,重庆市沙坪坝区政法二村55号,重庆市,重庆市,沙坪坝区,,unknown,
baidu,d6df91c1b414f06af7b91619,康明斯幼儿园,重庆市沙坪坝区童家桥街道五灵观100号,重庆市,重庆市,沙坪坝区,(023)89868117,unknown,
baidu,9d0a5e8318f513651676432d,重庆大学建筑城规学院,重庆市沙坪坝区沙中路83号（重庆大学科苑大酒店行政楼西）,重庆市,重庆市,沙坪坝区,(023)65120700,unknown,
baidu,6835e3a70f17e84fe211039f,重庆市沙坪坝区教育服务中心,重庆市沙坪坝区沙杨路64号,重庆市,重庆市,沙坪坝区,,unknown,
baidu,77b99695d8ab37b54457264c,重庆大学-材料楼,重庆市沙坪坝区沙中路83号,重庆市,重庆市,沙坪坝区,,unknown,
baidu,87c26a6c89c3ee181576432e,VICH舞绮街舞工作室(川外店),重庆市沙坪坝区壮志路8号负一楼1-1号,重庆市,重庆市,沙坪坝区,13364063253,unknown,
baidu,15a7b3d6814e7fbd88db738d,松龙驾校(总校烈士墓直营店),重庆市沙坪坝区壮志路15号-2-3号,重庆市,重庆市,沙坪坝区,18623432343,unknown,
baidu,0a5c35cabe66680a5cd4fee5,新思沃艺术,重庆市沙坪坝区童家桥正街辅路阳光水城熙地旁,重庆市,重庆市,沙坪坝区,,unknown,
baidu,b18f98fccfc5ffbc990050f6,重庆新唯识教育,重庆市沙坪坝区沙北街83号重庆大学B区鸥鹏大楼二楼213号,重庆市,重庆市,沙坪坝区,,unknown,
baidu,9125eacea16e4e7316a19058,重庆市名校联合中学校,重庆市沙坪坝区小新街122号名校联合中学校,重庆市,重庆市,沙坪坝区,(023)86056858,unknown,
baidu,06d2dffd15b94cf688f15de5,重庆玉带山小学,重庆市江北区石马河街道山水丽都200号,重庆市,重庆市,江北区,,unknown,
baidu,78ea3f2b8d5eb2ecce04ef0c,重庆大学国防科学技术研究院,重庆市沙坪坝区沙坪坝正街b区419号,重庆市,重庆市,沙坪坝区,,unknown,
baidu,957048eaa2560bb5a80dd849,重庆大学-实验大楼,重庆市沙坪坝区沙中路83号大学b区208号,重庆市,重庆市,沙坪坝区,,unknown,
baidu,2ece18638d4aace19322e0a9,重庆盛德博学文化研究院,重庆市沙坪坝区金融街·金悦府附18号2-2号,重庆市,重庆市,沙坪坝区,(023)65215243,unknown,
baidu,af7d916d3f55f146b11e3619,大川壹江城幼儿园,重庆市江北区石马河壹江城商业街内(北滨路尽头),重庆市,重庆市,江北区,,unknown,
baidu,aef8c5867b2583110482c230,重庆小龙坎高级职业中学,重庆市沙坪坝区G75兰海高速附近,重庆市,重庆市,沙坪坝区,,unknown,
baidu,6538b196c84a5c694c6d465c,重庆大学-前沿交叉学科研究院,重庆市沙坪坝区沙中路83号,重庆市,重庆市,沙坪坝区,,unknown,
baidu,a7ae821a7ad8500146e274b6,重庆大学-网络教育学院,重庆市沙坪坝区正街174号,重庆市,重庆市,沙坪坝区,(023)65105586,unknown,
baidu,3ee8f5bb8afd3a68ad31e510,重庆大学-风景园林综合实验室,重庆市沙坪坝区沙坪坝北街重庆大学(B区),重庆市,重庆市,沙坪坝区,,unknown,
baidu,29bd394d88554522970319fc,重庆大学(建筑学部),重庆市沙坪坝区沙坪坝北街81号（沙坪坝北街81号附近）,重庆市,重庆市,沙坪坝区,(023)65120700,unknown,
baidu,9ab005a26b16bd9ffb221369,重庆大学-建筑环境与设备工程系,沙中路83号重庆大学B区第三教学楼,重庆市,重庆市,沙坪坝区,,unknown,
baidu,a99f6a56ee6c9c8ee6073880,重庆市行知学校-大川小学,重庆市江北区盘桂路重庆市行知学校,重庆市,重庆市,江北区,,unknown,
baidu,8578659932752f9684154161,重庆大学技术转移研究院,重庆市沙坪坝区沙北街83号,重庆市,重庆市,沙坪坝区,,unknown,
baidu,480b24d0cb8f97f19cec2b19,重庆大学附属小学校,重庆市沙坪坝区沙坪坝正街174号,重庆市,重庆市,沙坪坝区,(023)65112708,unknown,
baidu,217915b55ee82c96df1e5243,重庆大学-图书馆法学分馆,重庆市沙坪坝区沙中路83号重庆大学B区沙坪坝北街59号附近,重庆市,重庆市,沙坪坝区,(023)86661069,unknown,
baidu,22d85108ab3e769b1b11d5b5,重庆中天学院,重庆市沙坪坝区欧鹏大厦3楼,重庆市,重庆市,沙坪坝区,,unknown,
baidu,dfa6f85571b39863cc06a4ad,重庆大学山区岩土工程研究中心,沙中路83号重庆大学B区重庆岩石力学与工程学会附近,重庆市,重庆市,沙坪坝区,,unknown,
baidu,84c048cdea55beaa8e7727b6,工程设计院,重庆市沙坪坝区沙滨路学林雅园东北侧约270米,重庆市,重庆市,沙坪坝区,13983926837,unknown,
baidu,bde0adc11b66d34ab21e3611,重庆大学-中天一教学区,重庆大学B区内欧鹏大楼,重庆市,重庆市,沙坪坝区,,unknown,
baidu,1fa21c6d084ea2aa704b87d4,三峡库区生态环境教育部重点实验室,重庆市沙坪坝区重庆大学B区实验大楼,重庆市,重庆市,沙坪坝区,,unknown,
baidu,41bd8446862501274107c178,重庆大学-结构工程实验室,重庆市沙坪坝区正街174号重庆大学,重庆市,重庆市,沙坪坝区,,unknown,
baidu,eb3ef30eb9ceaa13a2d2303b,市政与环境工程试验研究中心,重庆市沙坪坝区G75(兰海高速),重庆市,重庆市,沙坪坝区,,unknown,
baidu,572c37bb42a12edd3e9a5ed7,重庆大学-城市规划与设计研究院(科苑大酒店西),重庆市沙坪坝区沙北街83号b区400-045号,重庆市,重庆市,沙坪坝区,(023)65123180,unknown,
baidu,250bba2fdd1de8f92902e103,重庆大学B区建管学院,重庆市沙坪坝区沙坪坝正街重庆大学(B区),重庆市,重庆市,沙坪坝区,,unknown,
baidu,d6d2b5deb222cb20f7eafce1,国家发展和改革委员会重庆国家生物产业基地公共实验中心(东和科苑东),沙中路83号重庆大学B区机电安装教学楼附近,重庆市,重庆市,沙坪坝区,,unknown,
baidu,602f5c42a9154d14374aae4a,川外附小幼儿园,重庆市沙坪坝区壮志路海航新街口西北侧约50米,重庆市,重庆市,沙坪坝区,,unknown,
baidu,3d5901367469f35b52e5c563,重庆市法学会-环境与资源保护法学研究会,重庆市沙坪坝区重庆大学B区法学院,重庆市,重庆市,沙坪坝区,,unknown,
baidu,9545f387dd5d7865a21de96f,重庆大学B区-图书馆,重庆市沙坪坝区沙北街83号,重庆市,重庆市,沙坪坝区,,unknown,
baidu,e8f2f3ce991518c8260bd0ad,重庆市血管植入物工程实验室,重庆市沙坪坝区沙杨路重庆大学(B区),重庆市,重庆市,沙坪坝区,,unknown,
baidu,c294787983246981d1f49e07,重庆大学-建筑法研究所,重庆市沙坪坝区沙中路83号重庆大学B区法学院,重庆市,重庆市,沙坪坝区,,unknown,
baidu,626dbceac1dac44914b54bd4,重庆新型建筑材料与工程重点实验室,重庆市沙坪坝区沙中路83号重庆大学B区实验大楼,重庆市,重庆市,沙坪坝区,,unknown,
baidu,c365f250bbc3f230740269d1,重庆大学山地城镇建设与新技术教育部重点实验室,沙中路83号重庆大学B区沙坪坝北街81附近,重庆市,重庆市,沙坪坝区,,unknown,
baidu,5aca6bd77b9a9ec3373a71ec,重庆大学-建筑学实验教学中心,重庆市沙坪坝区沙中路83号重庆大学B区建筑馆,重庆市,重庆市,沙坪坝区,,unknown,
baidu,8d7f1565765668ce38e4a602,重庆大学-新型建筑材料研究所,重庆市沙坪坝区沙中路83号重庆大学B区实验大楼,重庆市,重庆市,沙坪坝区,,unknown,
baidu,4702872a66bc7a9c100daa5e,脊易堂脊椎矫正养生研究中心,重庆市沙坪坝区沙杨路110号,重庆市,重庆市,沙坪坝区,13452830847,unknown,
baidu,ebdb9d57131b631d364aaea6,重庆大学-建筑环境与设备工程实验研究中心,重庆市沙坪坝区沙中路83号重庆大学B区城环实验楼,重庆市,重庆市,沙坪坝区,,unknown,
baidu,ee9413de53b220e249fd3f2b,重庆大学-中国建筑图书馆,重庆市沙坪坝区沙中路83号重庆大学B区沙坪坝北街59号附近,重庆市,重庆市,沙坪坝区,,unknown,
baidu,29692d51ed65bcbb72455b7a,重庆市沙坪坝区西政幼儿园,重庆市沙坪坝区锦绣东路与壮志路交叉路口往东北约140米,重庆市,重庆市,沙坪坝区,(023)65264647,unknown,
baidu,4a464e6583fe0886c81b9586,重庆大学-建设工程质量检测中心,重庆市沙坪坝区沙中路83号,重庆市,重庆市,沙坪坝区,(023)65120594,unknown,
baidu,d1d320203a0fa7b1eddfca29,重庆大学建设工程质量检测中心-建筑材料检测室,重庆市沙坪坝区沙坪坝北街83号重庆大学B区,重庆市,重庆市,沙坪坝区,(023)65120594,unknown,
baidu,1104777b5369044182288ac3,劳动路北侧-停车场,重庆市沙坪坝区劳动路滨江民居东南侧约150米,重庆市,重庆市,沙坪坝区,,unknown,
baidu,9efc9b5ad8bd63927adbd2b8,教院路西段,202路;220路;237路;261路;843路,重庆市,重庆市,沙坪坝区,,unknown,
baidu,b8e7d87fd70d802f0f0e6be8,三陵大厦,202路;220路;237路;261路;843路,重庆市,重庆市,沙坪坝区,,unknown,
baidu,1324f7720ec9c769081cc77f,滨江民居-地下停车场,重庆市沙坪坝区磁器口南街1号,重庆市,重庆市,沙坪坝区,,unknown,
baidu,454186cec90f1870100daae8,思源路南段,462路;806路,重庆市,重庆市,沙坪坝区,,unknown,
baidu,f42c5726c650aea614c8f6d1,磁器口古镇影视作品停车点,重庆市沙坪坝区下河路国富·沙磁巷商业街,重庆市,重庆市,沙坪坝区,,unknown,
baidu,ce6da79177d0551fd0ff233b,三千城,202路;220路;224路;237路;261路;503路;553路;843路;1223路,重庆市,重庆市,沙坪坝区,,unknown,
baidu,d5bef689349ccc8a85420ee1,磁器口东门,224路;503路;553路;观光巴士T002路;观光巴士T198路,重庆市,重庆市,沙坪坝区,,unknown,
baidu,321196ec8855d523b34c493f,磁器口送车点,重庆市沙坪坝区磁器口街道磁器口南街17-3-1号,重庆市,重庆市,沙坪坝区,18883333290,unknown,
baidu,e43e71b2bb8ab7a5c4f50d03,沙磁新街地下停车场,重庆市沙坪坝区沙磁5号路富源故里新居,重庆市,重庆市,沙坪坝区,,unknown,
baidu,078d81a6181da62e4f3a5945,劳动路,202路;220路;237路;261路;843路,重庆市,重庆市,沙坪坝区,,unknown,
baidu,a0424d856514af4a29201acc,磁器口,轨道交通1号线,重庆市,重庆市,沙坪坝区,,unknown,
baidu,69221c3e7f6bf160f5b916f1,童家桥,202路;209路;237路;248路;261路;501路;503路;504路;553路;805路;821路;843路;观光巴士T003路,重庆市,重庆市,沙坪坝区,,unknown,
baidu,95f085a5e673b932c8213df7,磁器口古镇-地下停车场,重庆市沙坪坝区磁器口横街156号(磁器口地铁站1号口东北侧340米),重庆市,重庆市,沙坪坝区,,unknown,
baidu,34031fced2e682e29222e0f2,磁器口东,224路;503路;553路,重庆市,重庆市,沙坪坝区,,unknown,
baidu,50a7e39bec7910e81fe9997e,金沙正街,224路,重庆市,重庆市,沙坪坝区,,unknown,
baidu,0297fc76967e95a7c72ba171,浩瀚能源充电站(ZEEKRPower重庆沙磁巷地下站(极充)),重庆市沙坪坝区金沙正街11号沙磁巷地下停车场负一层A4区,重庆市,重庆市,沙坪坝区,4000819993,unknown,
baidu,850815e1efdae29b43e1921d,白鹤岭CNG加气站,重庆市沙坪坝区兰海高速天越雅园1期斜对面,重庆市,重庆市,沙坪坝区,,unknown,
baidu,c23446be20d50f584afc8d1b,万科金域华庭-地下停车场,磁建村89号,重庆市,重庆市,沙坪坝区,,unknown,
baidu,f356ebd82a353832b45f1ea3,金融街金悦府-地下停车场,重庆市沙坪坝区覃家岗街道童家桥社区金磁路8号,重庆市,重庆市,沙坪坝区,,unknown,
baidu,e8312799e0ad9cd25d17c353,劳动路西侧临时停车点,重庆市沙坪坝区磁童路国富沙磁巷,重庆市,重庆市,沙坪坝区,,unknown,
baidu,fe49fe007fe40f1979dbd212,国盛三千城-地下停车场,重庆市沙坪坝区212国道国盛·图腾绿岛(三千城西),重庆市,重庆市,沙坪坝区,,unknown,
baidu,4d25dbe658877fdde5e965e6,大客车专用停车场,重庆市沙坪坝区磁器口南街1号,重庆市,重庆市,沙坪坝区,,unknown,
baidu,a22dc11c2a6eec2ba2d230fe,万科金域华庭西北侧临时停车点,重庆市沙坪坝区国盛大道国盛三千城东北侧约70米,重庆市,重庆市,沙坪坝区,,unknown,
baidu,bcbf6f5302bb7c5957bfff23,国富沙磁巷-接送点,重庆市沙坪坝区国富沙磁巷附近,重庆市,重庆市,沙坪坝区,,unknown,
baidu,c2984213290410696e3e1bcc,烈士墓,轨道交通1号线,重庆市,重庆市,沙坪坝区,,unknown,
baidu,0c99c4b89b8e84d5c27da28f,重庆大学,轨道交通环线内环;轨道交通环线外环,重庆市,重庆市,沙坪坝区,,unknown,
baidu,0d8dff3f49d9f9f11811d5f9,磁建村,202路;261路;1223路,重庆市,重庆市,沙坪坝区,,unknown,
baidu,38dacc83ae3f234b21026232,磁器口特钢码头,重庆市沙坪坝区磁器口隧道融创滨江壹号东侧约200米,重庆市,重庆市,沙坪坝区,,unknown,
baidu,e3e2cd9d8159bae3c7f50d1c,学林雅园-地下停车场,重庆市沙坪坝区学林雅园3号附3号学林雅园,重庆市,重庆市,沙坪坝区,,unknown,
baidu,8d86aba612de59b42afc484d,三陵大厦-地上停车场,重庆市沙坪坝区教院路25号三陵大厦,重庆市,重庆市,沙坪坝区,,unknown,
baidu,ee0141b19e2ccced21022043,滨江民居-地上停车场,重庆市沙坪坝区磁童路滨江民居,重庆市,重庆市,沙坪坝区,,unknown,
baidu,4de03ea34c794ea338221cf3,烈士墓,181路;209路;210路;215路;234路;248路;467路;501路;504路;805路;808路;821路;1223路;观光巴士T198路;假日快线3号线,重庆市,重庆市,沙坪坝区,,unknown,
baidu,fb0237ff470be8efa1d2302f,金碧街,202路;209路;237路;261路;501路;503路;504路;553路;805路;843路;观光巴士T003路,重庆市,重庆市,沙坪坝区,,unknown,
baidu,bb7271f6b75b7c3aabf0cdfe,半月楼,181路;211路;217路;501路;504路;821路,重庆市,重庆市,沙坪坝区,,unknown,
baidu,d3c80011be1d538d9f09f745,重庆玉尚礼商贸有限公司-接送点,重庆市沙坪坝区重庆玉尚礼商贸有限公司附近,重庆市,重庆市,沙坪坝区,,unknown,
baidu,96104ec12860d6d2bb17e72a,流云阁-停车场,重庆市沙坪坝区劳动路流云阁旁(百年世家南),重庆市,重庆市,沙坪坝区,,unknown,
baidu,c083e3163fe33abb12882494,轨道磁器口站,观光巴士T198路,重庆市,重庆市,沙坪坝区,,unknown,
baidu,0752af2c3f307aa03062123b,国盛大桥,1223路,重庆市,重庆市,沙坪坝区,,unknown,
baidu,454048e79e63f4761ef74df8,红岩魂广场-地下停车场,壮志路烈士墓政法三村,重庆市,重庆市,沙坪坝区,,unknown,
baidu,c20e0e0396275777c06c14cc,杨公桥,轨道交通1号线,重庆市,重庆市,沙坪坝区,,unknown,
baidu,5ce93629e9b53c0bfa0cad03,石井坡,轨道交通1号线,重庆市,重庆市,沙坪坝区,,unknown,
baidu,f9fd6062d779891f0f0e6b1c,时代菁英-立体停车场,重庆市沙坪坝区劳动路38号,重庆市,重庆市,沙坪坝区,,unknown,
baidu,5f5689a24adf29ce2fb96db8,童家桥正街,808路,重庆市,重庆市,沙坪坝区,,unknown,
baidu,861996ea8bc33121ad04576f,金星凤凰小区-地面停车场,重庆市沙坪坝区凤凰村83号,重庆市,重庆市,沙坪坝区,,unknown,
baidu,f1f32deeaeee4a05b6f42f3b,重庆1949大剧院西侧-停车场,重庆市沙坪坝区童家桥正街重庆第六十九中学东北侧约150米,重庆市,重庆市,沙坪坝区,,unknown,
baidu,f3bdc15616d9d6be31f71d82,杨家山,821路,重庆市,重庆市,沙坪坝区,,unknown,
baidu,2ba74a1b9ff7e4656318092a,华港磁器口金融街充电站,重庆市沙坪坝区磁器口古镇磁兴路1号附1号,重庆市,重庆市,沙坪坝区,4000826699,unknown,
baidu,2c52f64f19c5b5b6f42310ca,溪凤路东侧临时停车点,重庆市沙坪坝区溪凤路国盛三千城,重庆市,重庆市,沙坪坝区,,unknown,
baidu,0b97fa474885449584154165,高家花园,224路;255路;503路;553路,重庆市,重庆市,沙坪坝区,,unknown,
baidu,d7fdc531f287c09e770269b6,云快充充电站(磁器口停车场充电站),磁器口停车楼负二楼,重庆市,重庆市,沙坪坝区,4008288517,unknown,
baidu,ccd11f619434981117b54b49,沙杨路,181路;211路;217路;501路;504路;821路,重庆市,重庆市,沙坪坝区,,unknown,
baidu,64ff3be16765d3bb90114c1c,跨越新天地-停车场,重庆市沙坪坝区劳动路10号(重庆七中旁),重庆市,重庆市,沙坪坝区,,unknown,
baidu,6fc49bd40eb679df2a11d127,三陵大厦-地下停车场,重庆市沙坪坝区教院路25号,重庆市,重庆市,沙坪坝区,,unknown,
baidu,e726efd0d46cb1e7e6e96554,金蓉桥,重庆市沙坪坝区磁器口正街11号,重庆市,重庆市,沙坪坝区,,unknown,
baidu,b86df8bf9871fa4103ff2d4f,特斯拉超级充电站(重庆磁器口后街地下站(新国标)),沙坪坝区磁童路磁器口后街地下停车场A区B2层/入口：磁童路幸福街89号,重庆市,重庆市,沙坪坝区,4009100707,unknown,
baidu,c47ac52604b43e2196ca0769,红岩魂广场,209路;248路;501路;504路;805路;808路;821路;观光巴士T003路,重庆市,重庆市,沙坪坝区,,unknown,
baidu,d09bfb91055717ea4d2fdfea,杨公桥,181路;209路;210路;215路;228路;234路;248路;467路;501路;504路;805路;808路;821路;假日快线3号线,重庆市,重庆市,沙坪坝区,,unknown,
baidu,50580b45d2b2cab787420e54,金磁路,467路;1223路,重庆市,重庆市,沙坪坝区,,unknown,
baidu,c60da235c71490573210af49,白公馆-地上停车场,沙坪坝区歌乐山凌云路白公馆,重庆市,重庆市,沙坪坝区,,unknown,
baidu,55c296071bdd32f0f6e73b32,学林雅园,220路区间;462路;806路,重庆市,重庆市,沙坪坝区,,unknown,
baidu,2a49cdfd94507363260bd020,渣滓洞-地上停车场,重庆市沙坪坝区凌云路渣滓洞停车场,重庆市,重庆市,沙坪坝区,,unknown,
baidu,88eff2c2f04d86319e9d68eb,磁器口,轨道交通27号线,重庆市,重庆市,沙坪坝区,,unknown,
baidu,f917f0c0d710c80bf7eafcc3,翰林景园-地下停车场,大水井76号,重庆市,重庆市,沙坪坝区,,unknown,
baidu,f73fda99d2434f00931fc9f9,欣阳广场,202路;220路;220路区间;237路;261路;462路;805路;806路;843路,重庆市,重庆市,沙坪坝区,,unknown,
baidu,59c7b059715c3d2f8f1a8981,金星凤凰小区-地下停车场,重庆市沙坪坝区教院路10号,重庆市,重庆市,沙坪坝区,,unknown,
baidu,2833f2ffddbd20ce40e1927b,重庆府宴·停车场,重庆市沙坪坝区沙滨路112号附57号,重庆市,重庆市,沙坪坝区,(023)63533692,unknown,
baidu,3ad8edbe403d0526d81318e8,融创寻光江徕-停车场,重庆市沙坪坝区金悦支路翰林景园东北侧约80米,重庆市,重庆市,沙坪坝区,,unknown,
baidu,ae5003b0ec9c1477a0acc447,阳光驿站西北侧-停车场,重庆市沙坪坝区劳动路百年世家西南侧约30米,重庆市,重庆市,沙坪坝区,,unknown,
baidu,140fce1e057b762051e5c548,江北农场,127路;236路;545路;546路;548路;615路;846路;3613路,重庆市,重庆市,江北区,,unknown,
baidu,8e32e30e07131ef516a19052,沙中路,181路;211路;217路;501路;504路;821路,重庆市,重庆市,沙坪坝区,,unknown,
baidu,576b7d70ce6e4aa611882451,烈士墓东北侧-停车场,重庆市沙坪坝区九鼎红街九鼎名都西侧约100米,重庆市,重庆市,沙坪坝区,,unknown,
baidu,24a1edbda0d0ad913a13fdcc,磁器口古镇西北侧-停车场,重庆市沙坪坝区童家桥正街磁器口,重庆市,重庆市,沙坪坝区,,unknown,
baidu,23ab7a63abd56436cae33c75,金悦支路东段,220路;224路,重庆市,重庆市,沙坪坝区,,unknown,
baidu,63349fe6f3811158f50e77a3,溪凤路北侧临时停车点,重庆市沙坪坝区溪凤路国盛三千城,重庆市,重庆市,沙坪坝区,,unknown,
baidu,4727a03281a85276bfa82257,陈家湾,183路;208路;209路;210路;211路;228路;248路;291路;418路;467路;468路;501路;504路;535路;536路;805路;808路;假日快线3号线;特需公交D278路,重庆市,重庆市,沙坪坝区,,unknown,
baidu,4246a7d1919e1887d6b74e22,宏浩大厦-停车场,重庆市沙坪坝区劳动路重大B区旁,重庆市,重庆市,沙坪坝区,,unknown,
baidu,a4f0dfed686ef79fbbbd63da,南开苑A区-地下停车场,重庆市沙坪坝区南园2号,重庆市,重庆市,沙坪坝区,15723060964,unknown,
baidu,642227b8851ba88eae045746,溪凤路,1223路,重庆市,重庆市,沙坪坝区,,unknown,
baidu,8a447f3454783c1608f5eb21,石马河,127路;208路;236路;545路;548路;615路;621路;640路;3613路,重庆市,重庆市,江北区,,unknown,
baidu,3ff779d2213b3a6e48cc4a87,重大中门,181路;211路;821路,重庆市,重庆市,沙坪坝区,,unknown,
baidu,b26f9547bb3632dec7f0251f,思源路中段,806路,重庆市,重庆市,沙坪坝区,,unknown,
baidu,e2864e6f1abb7d447ec87608,金融街金悦府-接送点,重庆市沙坪坝区金融街金悦府附近,重庆市,重庆市,沙坪坝区,,unknown,
baidu,5703fa3d87acff36b020a836,九鼎名都-地下停车场,重庆市沙坪坝区大水井1号,重庆市,重庆市,沙坪坝区,,unknown,
baidu,fc1e7c02095f015deedfca16,重庆市沙坪坝区儿童艺校-停车场,重庆市沙坪坝区童家桥41号,重庆市,重庆市,沙坪坝区,,unknown,
baidu,5bf5a5a7a6ca366b616858da,九鼎名都-地下停车场,重庆市沙坪坝区大水井1号,重庆市,重庆市,沙坪坝区,,unknown,
baidu,7ef56a684e406ce0b5f42ff9,坪桥小区-停车场,劳动路67号,重庆市,重庆市,沙坪坝区,,unknown,
baidu,672e58d9b843210abadf8f64,金磁路中段,1223路,重庆市,重庆市,沙坪坝区,,unknown,
baidu,40faf5cdc80114b145e2747c,石马立交,轨道交通4号线西延伸段,重庆市,重庆市,江北区,,unknown,
baidu,d57a715108ed976ec61e51e8,盘桂路,轨道交通4号线西延伸段,重庆市,重庆市,江北区,,unknown,
baidu,fbb639562f95521643afe625,跨越新天地-接送点,重庆市沙坪坝区跨越新天地附近,重庆市,重庆市,沙坪坝区,,unknown,
baidu,cc8026938db523c1d9ecedab,B区游泳池,重大校巴1929路,重庆市,重庆市,沙坪坝区,,unknown,
baidu,9d2c7e17ecb9a34bf4231098,翰林景园东北侧停车场,重庆市沙坪坝区金悦支路翰林景园,重庆市,重庆市,沙坪坝区,,unknown,
baidu,f055973a99ba1be1b04c4942,和旭QQ时代-地下停车场,重庆市沙坪坝区大杨公桥37号,重庆市,重庆市,沙坪坝区,,unknown,
baidu,ed3ca6619e61fa3e7ab55c0c,天越雅园东北侧临时停车点,重庆市沙坪坝区杨公桥立交天越雅园,重庆市,重庆市,沙坪坝区,,unknown,
baidu,68ae92356e0c93b6d23ce3db,童家桥立交,重庆市沙坪坝区童家桥立交,重庆市,重庆市,沙坪坝区,,unknown,
baidu,aa022f876049b6fa6ca3cc67,重大B区,202路;220路;220路区间;237路;261路;462路;805路;806路;843路,重庆市,重庆市,沙坪坝区,,unknown,
baidu,2420d4f4475ebfed3f9a5ed0,停车场(白鹤岭小区西),重庆市沙坪坝区内环快速白鹤岭小区西北侧,重庆市,重庆市,沙坪坝区,,unknown,
baidu,cbbcd4e99b9b133c0b1cc71a,主席像,重大校巴1929路,重庆市,重庆市,沙坪坝区,,unknown,
baidu,e7977822b77e42e096ec846e,天越雅园二期-停车库,重庆市沙坪坝区天越雅园二期北(兰海高速公路西),重庆市,重庆市,沙坪坝区,,unknown,
baidu,f7f8c3bedb5693baf503b899,沙滨路南侧临时停车点,重庆市沙坪坝区沙滨路,重庆市,重庆市,沙坪坝区,,unknown,
baidu,db530614e74f16001e1d11a9,和旭QQ时代西北侧临时停车点,重庆市沙坪坝区内环快速和旭QQ时代西北侧,重庆市,重庆市,沙坪坝区,,unknown,
baidu,f4e00e5ae9b94f803c9a5eea,新城大厦-地下停车场,大水井60号,重庆市,重庆市,沙坪坝区,,unknown,
baidu,9e64793b6028d25930169bca,九鼎名都-地下停车场,沙坪坝区大水井1号(红岩魂广场旁),重庆市,重庆市,沙坪坝区,,unknown,
baidu,930079b53b49c13c6c20b95b,大堡桥,211路,重庆市,重庆市,沙坪坝区,,unknown,
baidu,34434314ee3bde5fb05c6aec,B区车库进出口,重大校巴1929路,重庆市,重庆市,沙坪坝区,,unknown,
baidu,a28286d475ccd9a417948e1c,歌乐山索道-下站,重庆市沙坪坝区歌乐山白公馆附近歌乐山索道内,重庆市,重庆市,沙坪坝区,(023)65510647,unknown,
