source,bd_uid,name,address,province,city,area,tel,poi_type,tag
baidu,92d4484f147cb50330169bec,江西饭店(圣庙店),福涧街3-16号(南门兜地铁站A1西北口步行260米),福建省,福州市,鼓楼区,15959141831,unknown,
baidu,8c0ae3b3a82bfe100c0a7030,陈厚元牛肉面(协和花园店),花园路11号,福建省,福州市,鼓楼区,18505075255,unknown,
baidu,40a2182ef26f851be9e58278,口口香渔庄(冠亚广场店),八一七北路268号冠亚广场4号楼1层04店面,福建省,福州市,鼓楼区,(0591)88180915,unknown,
baidu,be54cde9713a0b4178f796ff,醉仙楼(乌山路店),乌山路37号乌山苑2座1号,福建省,福州市,鼓楼区,(0591)83351612,unknown,
baidu,66eb5d84cd9df96e88fc06c5,琪辉餐厅(八一七北路151号店),八一七北路151号福建佳盛大厦1层（大洋百货旁）,福建省,福州市,鼓楼区,(0591)87501323,unknown,
baidu,e2f8059d4db188aa260bd0da,圣福餐饮店,福州市鼓楼区圣庙路福涧街新村,福建省,福州市,鼓楼区,,unknown,
baidu,cbd7328e026598b31ef74d3b,歡喜(法海路店),花园弄17号,福建省,福州市,鼓楼区,18084756000,unknown,
baidu,a10042e6fbd13e6c4f6d46d7,三生石·佛跳墙·福建菜·古韵餐厅(三坊七巷店),三坊七巷吉庇路80号（老福洲隔壁）,福建省,福州市,鼓楼区,18159187009,unknown,
baidu,bb0a01cf775de2a2d3ff23b1,老余饭庄,花园路7号(协和医院公交车站旁),福建省,福州市,鼓楼区,(0591)87565445,unknown,
baidu,a88419fbc4acea6fc72ba1c4,老哥家常菜(织缎巷店),织缎巷29号,福建省,福州市,鼓楼区,13635263236,unknown,
baidu,78d65126f5be982ab9df8f3c,粥品堂(花园路店),花园路11-6号(近协和医院),福建省,福州市,鼓楼区,(0591)87112713,unknown,
baidu,1e4b3995e3c464dacd04ef7a,沙县小吃(东兴大楼店),安泰街道圣庙路圣庙公寓1层12号店面,福建省,福州市,鼓楼区,18659131373,unknown,
baidu,ec0049460ace6170343a7146,哇哈冰饭(军门社区店),安泰中心b区4通道d005店铺,福建省,福州市,鼓楼区,13599050550,unknown,
baidu,8a099119f64247cbeddfcae7,和·怀石料理(朱紫坊店),津泰路朱紫坊29号,福建省,福州市,鼓楼区,"(0591)87528682,15980238282",unknown,
baidu,3e2dadafb3e0cde1af080f75,益禾堂(延安中学店),八一七北路211号闽台行,福建省,福州市,鼓楼区,13405959588,unknown,
baidu,932b41e5921dd891b64f54a3,麦当劳(南后街店),吉庇巷南后街1号,福建省,福州市,鼓楼区,(0591)87523373,unknown,
baidu,27ecb17990f67e1e0e3ddae1,久号食堂(法海路店),法海路21号(南门兜地铁站S1口步行370米),福建省,福州市,鼓楼区,17748570980,unknown,
baidu,dbf4d6eec2f6ca336fa3cc2a,罗马之恋(冠亚广场店),八一七北路268号冠亚美食街5号楼2号店,福建省,福州市,鼓楼区,(0591)87988801,unknown,
baidu,7809c5e6f17d2df3256e98a0,民福餐厅(圣庙路店),圣庙路22号(南门兜地铁站E东南口步行230米),福建省,福州市,鼓楼区,,unknown,
baidu,d5c6cef88949573b49fc8dff,粉面世家(福涧街新村店),福涧街与圣庙路交叉口北40米,福建省,福州市,鼓楼区,18750146116,unknown,
baidu,0acf8ddd7c41445894ca07ab,清真西北牛肉面,福涧街福建医科大学附属协和医院西北侧约30米,福建省,福州市,鼓楼区,17697163729,unknown,
baidu,fb738f023ee7bc6cb8bd634c,拿坡里小镇(冠亚店),八一七北路268号冠亚广场冠亚美食街4幢06号,福建省,福州市,鼓楼区,13799954995,unknown,
baidu,ac12778eb3995eb300ff2d74,金誉烘焙(南门兜店),八一七北路249-1号,福建省,福州市,鼓楼区,(0591)87882030,unknown,
baidu,90948661c171883b1fe9996a,誉道排骨(协和店),花园路1号(南门兜地铁站G1口步行310米),福建省,福州市,鼓楼区,(0591)83261626,unknown,
baidu,73cdd3963f6e716b20f017a5,袁记云饺(省妇幼店),道山路1-6号,福建省,福州市,鼓楼区,18058921632,unknown,
baidu,455088531f3797bd82288a24,luckincoffee瑞幸咖啡(冠亚广场店),福州市鼓楼区安泰街道八一七北路268-1号临街商铺,福建省,福州市,鼓楼区,,unknown,
baidu,40b32fb2b1769a7841d63e67,逸香里脊肉串(三坊七巷店),吉庇路7号,福建省,福州市,鼓楼区,18960918209,unknown,
baidu,f402468766c89264223bf2e5,必胜客(安泰店),吉庇路12号(安泰楼斜对面20米)（临近安泰楼酒家）,福建省,福州市,鼓楼区,4009701890,unknown,
baidu,2d183df689428158bda240c2,斯诺客手抓饼(三坊七巷店),八一七北路268号,福建省,福州市,鼓楼区,17759105211,unknown,
baidu,dfc339baa057d22b94ec84fd,万寿桥·煎包(安泰店),吉庇路39号安泰商住楼1层02店面,福建省,福州市,鼓楼区,(0591)86393603,unknown,
baidu,fdb8113e5a0f43bc82288ace,福粥道小吃,福建省福州市鼓楼区圣庙路福涧街3-5号,福建省,福州市,鼓楼区,15959085478,unknown,
baidu,658100f951d916183a13fd60,林记沙茶面(东泰路店),东街街道东泰路碧玉花园一层店面170号,福建省,福州市,鼓楼区,15959815889,unknown,
baidu,ac7bd6edd91f4c0be8e58244,柏年捞化,福建省福州市鼓楼区道山路19号,福建省,福州市,鼓楼区,,unknown,
baidu,3dd47b4510ec541af8dc8594,草本汤(三坊七巷店),吉庇路13号安泰黄金广场一层04A店面,福建省,福州市,鼓楼区,19959119785,unknown,
baidu,fa0dae261b905b83fbdc85b6,蹄膀(冠亚店),八一七北路268号冠亚广场美食街2号楼、03.04.05店面（近乌山路）,福建省,福州市,鼓楼区,13950257813,unknown,
baidu,4b2ffbc13433d90e1ee99968,大神炸鸡(冠亚店),八一七北路冠亚广场外围通道内（南门兜地铁A口附近）,福建省,福州市,鼓楼区,18750197977,unknown,
baidu,26c877b6789ad95b15a190f2,华丰贺氏(道山店),道山路7号（省妇幼斜对面）,福建省,福州市,鼓楼区,(0591)87506327,unknown,
baidu,0aa36e3f449c66d274e5b622,馋谷君·满汉全席·蒸羊羔(冠亚广场店),冠亚广场3号楼10店面,福建省,福州市,鼓楼区,13328206887,unknown,
baidu,e122c1d5323bf61efbf0cb0a,CoCo都可茶饮(大洋晶典店),福建省福州市鼓楼区八一七北路268号冠亚广场B1,福建省,福州市,鼓楼区,,unknown,
baidu,163040819220e98cb04c49d5,鱼叔叔的店(安泰中心店),"八一七北路189号安泰中心B区底层商场部分1层B1-07B,B1-08B商场",福建省,福州市,鼓楼区,18606079610,unknown,
baidu,8676b75b8c95da3ff11937c3,烧肉酒场·龙(三坊七巷店),吉庇路14号（必胜客旁）,福建省,福州市,鼓楼区,13509326725,unknown,
baidu,3d72994ace33be87bea8225a,喜茶(福州东百中心店),南街街道八一七北路174号三坊七巷东百中心C馆C4-1商铺,福建省,福州市,鼓楼区,(0591)87502251,unknown,
baidu,0ce65c2de06af2402d473341,叶家花生汤(大洋百货店),东街街道石井巷51号,福建省,福州市,鼓楼区,13860638810,unknown,
baidu,83883b6433015314cae33c61,鲜烤烘焙(福州金晖大厦店),福建省福州市鼓楼区八一七北路249号金晖大厦F1层,福建省,福州市,鼓楼区,,unknown,
baidu,c7509a988494b8ca80a00c75,199th·Coffee·house,津泰路199号,福建省,福州市,鼓楼区,15759411889,unknown,
baidu,a7b3ddbd2fd3ed812b3a9fc1,合德记顺德双皮奶(冠亚店),八一七北路268号冠亚广场7号楼1层100店面,福建省,福州市,鼓楼区,13960869019,unknown,
baidu,070bfc6b7c5ec310ae045760,达美乐比萨(东百中心店),八一七北路110号东百中心C馆第B2F层B2-A55/A56店铺,福建省,福州市,鼓楼区,4001597597,unknown,
baidu,134110bdef104518f319375e,蔡记·白切鸭粉干(冠亚广场店),福建省福州市鼓楼区八一七北路268号冠亚广场F1,福建省,福州市,鼓楼区,17075996334,unknown,
baidu,b341fd50666cac07f50e7703,蒸尚米(道山路店),道山路77号,福建省,福州市,鼓楼区,18050798008,unknown,
baidu,84c4e64529812ea528b97c25,闽柘正宗牛肉面(三坊七巷店),吉庇巷13号,福建省,福州市,鼓楼区,13099558388,unknown,
baidu,526cb4394ee59ef94f3a5950,食汇活鱼(冠亚店),八一七路冠亚广场4号楼02店面,福建省,福州市,鼓楼区,(0591)88084637,unknown,
baidu,34e485089196a3fbd8d89141,好自在素菜馆,东街街道于山路9号定光寺内(于山宾馆旁),福建省,福州市,鼓楼区,,unknown,
baidu,aa40108b6a142a0cc5effbfe,老北京铜锅涮肉伊记过年饺子馆(二店),八一七北路冠亚美食街中段二号楼14-15号店,福建省,福州市,鼓楼区,(0591)87608561,unknown,
baidu,ddbcdcb7f3ada75ea20464ba,豆匠咖啡Beanner Coffee(福州店),安泰公寓桂枝里5-3号,福建省,福州市,鼓楼区,"13850198234,13850199106",unknown,
baidu,6f9b30499b7f6a5b3a04b1bc,客家牛肉馆(东街口店),东泰路250号,福建省,福州市,鼓楼区,15860839225,unknown,
baidu,9ffd242742800a5c9603197a,定光寺素菜馆,福建省福州市鼓楼区安泰街道于山路9号(南门兜地铁站G1口步行300米),福建省,福州市,鼓楼区,,unknown,
baidu,4ef4872c7c4fef68cc06a4e6,M-EA(翰林苑店),安泰街道法海路30号,福建省,福州市,鼓楼区,18105031306,unknown,
baidu,27ee61a7711fb534f4e73ba5,和乐咖啡,法海路32号,福建省,福州市,鼓楼区,,unknown,
baidu,fef2837f7c6f094a3a13fdee,壹号煎包(妇幼店),道山路101-10号思景大楼一层02店面,福建省,福州市,鼓楼区,18606025922,unknown,
baidu,9040200dc947262f02294fbc,五谷渔粉(冠亚店),冠亚广场11层02店面,福建省,福州市,鼓楼区,13459495625,unknown,
baidu,4cbc017623775bddc61e513f,客味鲜牛肉兜汤(协和店),法海路21号,福建省,福州市,鼓楼区,13605995923,unknown,
baidu,ca8f285b2ef9855ff82213b8,妙旺角蛋糕店(三七坊鼓楼店),福州市文儒坊6号,福建省,福州市,鼓楼区,,unknown,
baidu,dacdb22caa4528de364aae44,老北京炸酱面(五一店),福建省福州市鼓楼区安泰街道新权南路12号金福商厦1号月07店面,福建省,福州市,鼓楼区,17720797519,unknown,
baidu,646e882974c0b41db23c81bb,于山长者食堂·学堂(于山社区居家养老服务站),福建省福州市鼓楼区宦贵巷7号,福建省,福州市,鼓楼区,15305902694,unknown,
baidu,df7ec7214fbcda18276e98e9,良冶山国粹饮品,福建省福州市鼓楼区八一七北路189号,福建省,福州市,鼓楼区,,unknown,
baidu,8fa14fc36afa4e77f7eafcd8,大洋晶典(乌山店),福州市鼓楼区八一七北路268号,福建省,福州市,鼓楼区,(0591)88319999,unknown,
baidu,67acf9b43b24d68a0482c246,冠亚广场,福建省福州市鼓楼区八一七北路268号,福建省,福州市,鼓楼区,(0591)87660999,unknown,
baidu,49d959389f24245ac61e51d8,永辉超市(津泰店),津泰路92-3号,福建省,福州市,鼓楼区,(0591)87679888,unknown,
baidu,8eb48fa1322356bff32d83d8,大洋百货(东街口店),八一七北路133号,福建省,福州市,鼓楼区,"(0591)88318888,(0591)88319111",unknown,
baidu,f9879448cf4ec8f4b817e70a,豪德沃超市(花园路店),花园路花园新村一楼,福建省,福州市,鼓楼区,(0591)85658666,unknown,
baidu,8fa4fe16ddb29cabad045799,福州香格里拉中心,福建省福州市鼓楼区新权南路9号,福建省,福州市,鼓楼区,(0591)87800297,unknown,
baidu,840634000c8fefd043024594,633PAPER&PEN学制文具商店(津泰路店),津泰路56号,福建省,福州市,鼓楼区,17689606068,unknown,
baidu,a70b8adeb6c056491d5800ad,黑玫瑰(津泰路店),津泰路165号,福建省,福州市,鼓楼区,(0591)87609857,unknown,
baidu,083e6d77dd2ee62ed618b77b,林依媄橄榄店,东街街道八一七北路安泰中心A区底层商场第四通道29A,福建省,福州市,鼓楼区,18905006580,unknown,
baidu,86157d741923cbd4882fb58e,集贤宾,福建省福州市鼓楼区芙蓉弄4号,福建省,福州市,鼓楼区,,unknown,
baidu,f7d143b5f0e06f25704b87d2,紫行,八一七北路英孚大厦213-3,福建省,福州市,鼓楼区,,unknown,
baidu,a46ebc84813d456b213bf22e,FILA(福州东百品牌中心店),八一七北路152号,福建省,福州市,鼓楼区,4008867699,unknown,
baidu,461c79a7df82ba51b5f42f92,南门兜地铁商城(冠亚广场店),八一七北路268号冠亚广场,福建省,福州市,鼓楼区,15980209061,unknown,
baidu,d9901985187bd2ca00ec01b5,圣卡萝(津泰店),津泰路36号(南门兜地铁站出入口步行370米),福建省,福州市,鼓楼区,18950425429,unknown,
baidu,783eae9c7b684293a20464b6,福州东街口地下商业街,福建省福州市鼓楼区八一七北路88号百华大厦12楼03室,福建省,福州市,鼓楼区,(0591)88318939,unknown,
baidu,3acc47e29dd23e63095cb318,欧典名品(津泰路店),福建省福州市鼓楼区津泰路93号,福建省,福州市,鼓楼区,13067269990,unknown,
baidu,7cacc54f3ade6306bb17e7ed,霈尘(福州店),福建省福州市鼓楼区三坊七巷安民巷2号,福建省,福州市,鼓楼区,13074890102,unknown,
baidu,d82c7c527b7553b0ab0dd8f8,福建省灵动珠宝有限公司,福州市鼓楼区八一七北路福建省福州延安中学西侧,福建省,福州市,鼓楼区,,unknown,
baidu,3696ec910b2a72962102207c,好莱坞(津泰路店),津泰路223-1号,福建省,福州市,鼓楼区,,unknown,
baidu,45ef1341206c61b0882fb546,Sunflower女装(津泰路店),福州市鼓楼区津泰路221号,福建省,福州市,鼓楼区,13960779907,unknown,
baidu,d98782bdebe2f6c52b3a9f9e,小商品折扣店(福州金晖大厦店),八一七北路249号金晖大厦F1层,福建省,福州市,鼓楼区,17706901223,unknown,
baidu,8ac0f627c4a40070b13c8176,晶磊珠宝,津泰路27号,福建省,福州市,鼓楼区,,unknown,
baidu,ff3b747d7c956433c51e513f,福州市尚云奢物汇,津泰路22号(南门兜地铁站A1西北口步行370米),福建省,福州市,鼓楼区,15005998888,unknown,
baidu,9ede7c3e9f1806056140a9d7,靓点童装屋(大洋晶典乌山店),福州市鼓楼区八一七北路268号大洋晶典B1,福建省,福州市,鼓楼区,,unknown,
baidu,217199c1a3c73caf80a00cc0,见福便利店(津泰路店3008店),津泰路92号一层店面,福建省,福州市,鼓楼区,4001801899,unknown,
baidu,52f26477df669a3c4151c0a6,首尔坊精品,福建省福州市鼓楼区津泰路163号,福建省,福州市,鼓楼区,13599436008,unknown,
baidu,4b42c48d118b4b19c51e51fa,络绎(津泰路店),津泰路171号,福建省,福州市,鼓楼区,(0591)87508888,unknown,
baidu,a2673058aaae582cc929150f,品位女人,福建福州市鼓楼区津泰路65号,福建省,福州市,鼓楼区,13509324438,unknown,
baidu,ab74048c47f6c1ecd4851f4c,精舍,福建省福州市鼓楼区八一七北路268号冠亚广场B1,福建省,福州市,鼓楼区,,unknown,
baidu,9667ab9c27d7f9eb31870ab8,天利便利(闽星楼店),八一七路190闽星楼一楼,福建省,福州市,鼓楼区,13859093935,unknown,
baidu,6deee308e096bf7329fc48d9,新华书店(安泰店),八一七北路189号,福建省,福州市,鼓楼区,(0591)87527400,unknown,
baidu,68a9b11f840680f42cb96de9,小海狸手工铺(朱紫坊店),朱紫坊花园弄56号,福建省,福州市,鼓楼区,15259108183,unknown,
baidu,ecd1830afab46429a3acc4e7,协和眼镜(东兴大楼店),八一七北路东兴大楼2号门店(南门兜地铁站E东南口旁),福建省,福州市,鼓楼区,18050268077,unknown,
baidu,14131660cd791ecdf02d83a7,麦克美高文具店(三坊15店),圣庙路与福涧街交叉口北50米,福建省,福州市,鼓楼区,"13405904141,15880019533",unknown,
baidu,3e94d726a7ba9d797ec87654,李二狗花店,津泰路83号安泰中心东,福建省,福州市,鼓楼区,18605086569,unknown,
baidu,7138360267d7fc30c909f0b1,晨光文具鑫又旺文具(八一七北路店),八一七北路213-6号,福建省,福州市,鼓楼区,,unknown,
baidu,93a12e1700c5803fd9d891b7,觅光花艺,福建省福州市鼓楼区津泰路37号,福建省,福州市,鼓楼区,13960951220,unknown,
baidu,33fbfa83a6d0c8bc0af5eba9,真尚美(津泰路店),津泰路7号(南门兜地铁站S4口步行300米),福建省,福州市,鼓楼区,(0591)87626396,unknown,
baidu,7e1c0d0a73172f0ce8e582ff,海忠清真鲜牛羊肉店,八一七北路204-1号清真寺旁（八一七北路与道山路交叉口西北100米）,福建省,福州市,鼓楼区,18650456299,unknown,
baidu,d3dac1381c0fad32b020a88a,康舒美假发(冠亚广场店),福建省福州市鼓楼区八一七北路268号冠亚广场F1,福建省,福州市,鼓楼区,"(0591)87856667,13860662085",unknown,
baidu,ea6a553b75930eaca80dd85d,CARRY ME女装店(津泰路店),津泰路133号,福建省,福州市,鼓楼区,(0591)87918303,unknown,
baidu,803708f11f2a8a60018972d8,越洋图书城(福州总店),安泰街道古田路22号,福建省,福州市,鼓楼区,(0591)83323147,unknown,
baidu,3f61c44880088a666849f3ed,大世界橄榄(吉庇店),吉庇路68号,福建省,福州市,鼓楼区,(0591)87629112,unknown,
baidu,8d10c1c17df884f4eb12e467,优衣库(福州东百中心店),八一七北路114号,福建省,福州市,鼓楼区,(0591)87559856,unknown,
baidu,f058a4dc369a0da1cb213d2c,仙芝楼有机灵芝(南门兜专卖店),福建省福州市鼓楼区八一七北路267号,福建省,福州市,鼓楼区,(0591)87558716,unknown,
baidu,3edf24ec24a5f1d4b35c6a07,MOSES,东街口商圈津泰路43号,福建省,福州市,鼓楼区,13655013779,unknown,
baidu,cbfec9dd3da9d8210f0e6bc7,锦宏名品,福建省福州市鼓楼区津泰路92-1号,福建省,福州市,鼓楼区,17783704722,unknown,
baidu,4b716d9acc74db657dc87692,韩外贸服饰(冠亚广场店),八一七北路268号冠亚广场F1层,福建省,福州市,鼓楼区,,unknown,
baidu,1fcdce6ce17d7b6ae81e9791,超越琴行(冠亚广场店),八一七北路268号冠亚广场B1层,福建省,福州市,鼓楼区,18050175632,unknown,
baidu,cd3383ca84376bc4fd0eb052,lululemon(福州东百中心店),福建省福州市鼓楼区八一七北路132号东百中心1-2层C2-102-2、C2-202-2号,福建省,福州市,鼓楼区,(0591)28082518,unknown,
baidu,3af8cc22fcc898e3bfa8226d,美丽人生服装鞋业连锁店,津泰路149号(永辉超市对面),福建省,福州市,鼓楼区,"(0591)87500686,(0591)87557007,13763809688",unknown,
baidu,7e6d47a1c96de972f4b916ea,美丽人生婚纱写真会所(津泰路店),福建省福州市鼓楼区安泰街道津泰路149号,福建省,福州市,鼓楼区,13763809688,unknown,
baidu,5b66af3f750f00280869d938,杨扬母婴店,福州市鼓楼区道山路思景大楼东侧约40米,福建省,福州市,鼓楼区,13788889473,unknown,
baidu,03da1360cf8ae162f8f0cb7a,一袭青衣,福建省福州市鼓楼区东街街道津泰路209号津泰新村12楼10店面,福建省,福州市,鼓楼区,,unknown,
baidu,b6add8a73ef7c19cca1b9575,满足精品馆,津泰路24号,福建省,福州市,鼓楼区,15505911333,unknown,
baidu,815f8ca4ac5388c1430245fb,衣品人生(津泰路店),福建省福州市鼓楼区津泰路69号,福建省,福州市,鼓楼区,,unknown,
baidu,bfcaa0c79fc6bb1b2cb96da5,米伽服饰,津泰路201号,福建省,福州市,鼓楼区,13405902955,unknown,
baidu,d12a2be4c484fd0b631c6790,旺源驼奶(道山路店),道山路73号,福建省,福州市,鼓楼区,13682693739,unknown,
baidu,cbf3075801fd8a8af82213ea,ZUS足尚,福建省福州市鼓楼区津泰路175号,福建省,福州市,鼓楼区,,unknown,
baidu,b8339e91b016268dc929154e,Hippo精品母婴生活馆(冠亚广场店),八一七北路冠亚广场3号楼68号店,福建省,福州市,鼓楼区,15080010077,unknown,
baidu,a979ae30ba5207e7f4eafc14,艾美(津泰路),津泰路157号,福建省,福州市,鼓楼区,,unknown,
baidu,8cb83d21581c9c426140a92c,OS欧尚,津泰路21号(南门兜地铁站A1西北口步行370米),福建省,福州市,鼓楼区,13559955023,unknown,
baidu,c2d3af9fa2d18f8245572602,衣时代网(冠亚广场店),福建省福州市鼓楼区八一七北路268号冠亚广场F1,福建省,福州市,鼓楼区,4000333209,unknown,
baidu,c73c3d8f17599265990050be,宫小燕·姨妈热饮·现炖燕窝(鼓楼店),东街街道津泰路津泰新村18号楼1层12店面（津泰路27号）,福建省,福州市,鼓楼区,18574804584,unknown,
baidu,7db0a8a5f46a75989d95deaa,佳季食品店,福建省福州市鼓楼区安泰街道圣庙路28号,福建省,福州市,鼓楼区,,unknown,
baidu,b431a94029052706d7851fde,素雅精品馆,福建省福州市鼓楼区津泰路101号,福建省,福州市,鼓楼区,18559136576,unknown,
baidu,9036e575ae28185b6849f321,焕新食杂店,福建福州市鼓楼区圣庙路29号,福建省,福州市,鼓楼区,15280079565,unknown,
baidu,c04fe60dae570030f4231057,oef私人定制,福建省福州市鼓楼区安泰中心A区底层第六通道,福建省,福州市,鼓楼区,13675021992,unknown,
baidu,b4e1799cc33fcefdb11e369d,晶晶美饰,福州市鼓楼区津泰路军门社区,福建省,福州市,鼓楼区,,unknown,
baidu,4a0085637a43c3649cec2b6e,慕丝,福州市鼓楼区津泰路津泰新村,福建省,福州市,鼓楼区,,unknown,
baidu,8503f1cd46db32864207c17d,唐季食品店,福建省福州市鼓楼区安泰街道圣庙路20号,福建省,福州市,鼓楼区,,unknown,
baidu,e0b8ec6f5fc98d2dd518b780,手机维修服务中心(冠亚广场店),福建省福州市鼓楼区八一七北路268号冠亚广场F1,福建省,福州市,鼓楼区,,unknown,
baidu,f66e5318413935b133169b14,ni范,福州市鼓楼区津泰路津泰新村,福建省,福州市,鼓楼区,,unknown,
baidu,1888c5b52558ddf6f03cbac3,恒景食品店,福建省福州市鼓楼区八一七北路267号,福建省,福州市,鼓楼区,,unknown,
baidu,161a0ed2947bdb2e5cd4fe6d,福州文庙-公共厕所,福建省福州市鼓楼区学院前巷2-1号附近,福建省,福州市,鼓楼区,,unknown,
baidu,01552c62ef6b2240b45f1e3e,百乐复印打印,福州市鼓楼区八一七北路金晖大厦北侧,福建省,福州市,鼓楼区,,unknown,
baidu,2225bee0a7e22a922bb97c5f,公共厕所,福建省福州市鼓楼区花园路42-1号,福建省,福州市,鼓楼区,,unknown,
baidu,f4dd22654c749bcbf33cba52,公共厕所,福建省福州市鼓楼区朱紫坊29号旁,福建省,福州市,鼓楼区,,unknown,
baidu,e087fe8895fe09723517dcf3,福州智慧能源体验馆,八一七北路194号(南门兜地铁站S4口步行160米),福建省,福州市,鼓楼区,,unknown,
baidu,fc269b78c75cb519fb22134d,朱紫坊游客中心,福建省福州市鼓楼区朱紫坊8号,福建省,福州市,鼓楼区,,unknown,
baidu,5e5b5b20d69a86815fd4fe6d,鑫兴文印店综合超市,圣庙路与福涧街交叉口东北50米,福建省,福州市,鼓楼区,,unknown,
baidu,d1f7ddd7746bedf0e5e96578,中国福利彩票(冠亚广场店),福建省福州市鼓楼区冠亚美食街3-1-12号,福建省,福州市,鼓楼区,954168,unknown,
baidu,65c2aa40a87572d77bf79678,一派视觉数字空间,福建省福州市鼓楼区文昌弄3号,福建省,福州市,鼓楼区,13911787750,unknown,
baidu,6fddd7fd760c6c663517dcd9,庆帅服饰,津泰路139号,福建省,福州市,鼓楼区,(0591)87505864,unknown,
baidu,e9b33fe9648e28b59fec2b2d,爱·慕彩妆·簪花(三坊七巷店),八一七北路268号冠亚广场负一楼d207,福建省,福州市,鼓楼区,18705917821,unknown,
baidu,41c694ea3ace6fa60ab93acc,党员政治生活馆,福建省福州市鼓楼区津泰路军门社区东南侧约60米,福建省,福州市,鼓楼区,,unknown,
baidu,01cd154da3d0dd8032f71d44,公共厕所,福建省福州市鼓楼区津泰路96号,福建省,福州市,鼓楼区,,unknown,
baidu,ddcf3e727ff7f9f06fc02cf0,嗨森活(三坊七巷店),津泰路15号,福建省,福州市,鼓楼区,(0591)87505862,unknown,
baidu,30f120ae943525d88f55ecd8,晓晶改衣·定制,津泰路121号,福建省,福州市,鼓楼区,,unknown,
baidu,be2e907b2094c2bdae04576e,懿升数码科技(津泰路店),津泰路4号(南门兜地铁站A1西北口步行350米),福建省,福州市,鼓楼区,,unknown,
baidu,bebe2f8d5c6ae7c8c8e33ce0,军门社区,织缎巷与东泰路交叉口西北角,福建省,福州市,鼓楼区,,unknown,
baidu,c24a60a4137b1629f4b916bf,公共厕所,福州市鼓楼区道山路福建省妇幼保健院,福建省,福州市,鼓楼区,,unknown,
baidu,b0401caef06b123ebb17e7fc,摩登修鞋配匙(津泰路店),军门社区西区东南门旁(南门兜地铁站S4口步行410米),福建省,福州市,鼓楼区,13328861331,unknown,
baidu,e64c2bbf4f6d761309b93ab3,广和月子·月子餐·月嫂,东街街道八一七北路268号冠亚美食街3号楼一层二层西北角店面G3-03,福建省,福州市,鼓楼区,18150058531,unknown,
baidu,f4569b24eed797c79f09f737,于山风景名胜公园-游客服务中心,法海路23-1号,福建省,福州市,鼓楼区,(0591)83306464,unknown,
baidu,9d7810fd16ad4527b6147f4c,晶达图文,津泰路86号,福建省,福州市,鼓楼区,18688350935,unknown,
baidu,380c94b213add122471a325c,爱得机械修鞋,津泰路安泰中心(南门兜地铁站S4口步行380米),福建省,福州市,鼓楼区,,unknown,
baidu,ecb88067a5686fd8b9df8f83,广和到家·月嫂,福建省福州市鼓楼区冠亚美食街3-1-2,福建省,福州市,鼓楼区,,unknown,
baidu,60e9f1a3a74436e084330432,公共厕所,福建省福州市鼓楼区于山路九号,福建省,福州市,鼓楼区,,unknown,
baidu,fc6ec5e3dad9c50eb1077d53,Tell Love求婚策划公司(福州店),八一七北路冠亚广场5层,福建省,福州市,鼓楼区,,unknown,
baidu,5dcd996a96b574d7e9f8530a,元视觉摄影摄像·喜乐·簪花(三坊七巷店),八一七北路268号冠亚广场7号楼负一层D284-285店面,福建省,福州市,鼓楼区,15377938999,unknown,
baidu,3de2d0fce358610f16c9058e,春丽照相馆,福建省福州市鼓楼区八一七北路东百中心A馆南面东百中心-C馆B2,福建省,福州市,鼓楼区,,unknown,
baidu,2eda5c7eac1653d228d7abfd,公厕,福州市鼓楼区于山路2号旁定光寺内,福建省,福州市,鼓楼区,,unknown,
baidu,0ce65c2d663570592c4733b8,万福娃儿童摄影(南门店),八一七中路11号华商楼负1楼（南门兜）,福建省,福州市,鼓楼区,13655026314,unknown,
baidu,41e8a4365064f5f707fef5f9,公厕,福州市鼓楼区于山顶1号于山风景名胜公园,福建省,福州市,鼓楼区,,unknown,
baidu,0c3fa164e9c63ae6b6f42f3c,安泰街道居家社区养老服务照料中心(乌塔长者食堂·学堂),福建省福州市鼓楼区道山路59号,福建省,福州市,鼓楼区,,unknown,
baidu,f0a30b68462d0c3b2cb96d5e,福州市鼓楼区安泰街道于山社区党群服务中心,福建省福州市鼓楼区法海路27号,福建省,福州市,鼓楼区,(0591)88591248,unknown,
baidu,8524d36634dce98db7265549,cherry奢品站(冠亚广场店),冠亚广场,福建省,福州市,鼓楼区,18850780561,unknown,
baidu,6280c5758e31dd1d5cbe8640,名包舍(冠亚广场店),冠亚广场7栋1层09店面,福建省,福州市,鼓楼区,15980680189,unknown,
baidu,76ac2eb5cb9ec76d0bccddc7,万福娃高定亲子馆(华商楼店),八一七中路11号华商楼2楼（地铁D3口）,福建省,福州市,鼓楼区,"15980638370,18960854590",unknown,
baidu,95d5cafd614bc8efb9df8fa4,中国福利彩票(军门社区店),东泰路230号香香川菜(东泰路总店)附近,福建省,福州市,鼓楼区,954168,unknown,
baidu,bfad63babf174c50d22dd6a9,林则徐纪念馆-领票处,澳门路16号,福建省,福州市,鼓楼区,,unknown,
baidu,07fc57357b78cf7b6f476052,美美·悦美照相馆,福建省福州市鼓楼区津泰路223号,福建省,福州市,鼓楼区,18450085368,unknown,
baidu,de9266ccb19a875c1e1d11b8,公厕,福州市鼓楼区三坊七巷景区(吉庇巷北),福建省,福州市,鼓楼区,,unknown,
baidu,2724834983057e24d82f28ad,红色服务中心,福州市鼓楼区法海路23-1号于山风景名胜公园游客服务中心,福建省,福州市,鼓楼区,,unknown,
baidu,5b0ecaaf5f204b2293114c7a,三坊七巷-公共厕所,东街口商圈南后街59号,福建省,福州市,鼓楼区,,unknown,
baidu,eaa98e4d4260e988e8e582b3,小贝乐爱婴机构,冠亚广场2号楼210室（大洋经典）,福建省,福州市,鼓楼区,(0591)87510057,unknown,
baidu,efee1b364d84e8e5f11937f3,金镟管家(冠亚广场店),福建省福州市鼓楼区八一七北路268号大洋晶典(乌山店)B1,福建省,福州市,鼓楼区,13313753419,unknown,
baidu,d93bffba7c06192e734b8734,盛实名品(冠亚广场店),八一七北路268号冠亚广场7号楼58号,福建省,福州市,鼓楼区,18559185677,unknown,
baidu,808f630a59c67d72c3364429,南营巷8-10号分类垃圾屋,福建省福州市鼓楼区南营巷8号,福建省,福州市,鼓楼区,,unknown,
baidu,417b825def40c9ac0b69d932,唯妮婚纱,福建省福州市鼓楼区冠亚广场7号楼,福建省,福州市,鼓楼区,,unknown,
baidu,14ae2439dc58a03dca09f016,垃圾分类宣教室,福州市鼓楼区织缎巷军门社区,福建省,福州市,鼓楼区,,unknown,
baidu,18efecb3fedd4a7241d63e01,三坊七巷-公共厕所,三坊七巷安民巷46号,福建省,福州市,鼓楼区,,unknown,
baidu,6c5ba8f104e115de882fb590,福州市旅游集散服务中心,福建省福州市鼓楼区通湖路389号,福建省,福州市,鼓楼区,,unknown,
baidu,1d2c0b81e8b3e76b0c0a70eb,福州市政务服务中心24小时便民自助区,福建省福州市台江区南门商圈高桥路69号,福建省,福州市,台江区,,unknown,
baidu,9cfc3bc88b90d5adb04c4934,三坊七巷游客中心,福建省福州市鼓楼区三坊七巷139号,福建省,福州市,鼓楼区,(0591)87675791,unknown,
baidu,dd9f1a0d59ea98d525e0a063,公共厕所,南后街92号屈臣氏(南后街)附近,福建省,福州市,鼓楼区,,unknown,
baidu,a0d2015cac38a70eeedfca34,公共厕所,福州市鼓楼区五显巷福建省电力局宿舍,福建省,福州市,鼓楼区,,unknown,
baidu,17c8ba3a2b2b887e2a02e18a,福建省国资教育托育园(东街园),八一七北路196号福原大厦二层,福建省,福州市,鼓楼区,15305918680,unknown,
baidu,de25bde037a41b7bebe5822b,星程酒店(福州三坊七巷店)-大堂,福建省福州市鼓楼区八一七北路249号金晖大厦1层,福建省,福州市,鼓楼区,,unknown,
baidu,f4efc06f9550fae628d7abee,自助寄存,福建省福州市鼓楼区八一七北路东百中心地下商场负二楼,福建省,福州市,鼓楼区,,unknown,
baidu,8804ce7ceda2e4bc54bfff78,街电(金宝贝福州中心),福建省福州市鼓楼区八一七北路268号冠亚广场F2,福建省,福州市,鼓楼区,4006868588,unknown,
baidu,2c95b8e5bd3df900ce04ef36,银针打耳洞,福建省福州市鼓楼区东街口商圈八一七北路189号,福建省,福州市,鼓楼区,13559109091,unknown,
baidu,efc1bce3d743d1b72fb9089a,新居卫士除甲醛治理检测(福州店),福建省福州市鼓楼区八一七北路267号东兴大楼3层,福建省,福州市,鼓楼区,,unknown,
baidu,1f45f3374357b2b3f02d8398,街电(小螺丝影咖),福州市鼓楼区津泰路安泰中心A区2楼56号,福建省,福州市,鼓楼区,4006868588,unknown,
baidu,edada5334060846d58bbbcd8,维修电动车(织缎巷),福建福州市鼓楼区太阳巷8-3号,福建省,福州市,鼓楼区,,unknown,
baidu,b096a3bce27ec1b388f15de1,腕客汇名表(冠亚广场店),福建省福州市鼓楼区八一七北路268号冠亚广场B1,福建省,福州市,鼓楼区,,unknown,
baidu,ff42de55807b7bc900ec01d5,怪兽充电(温馨花屋),福州市鼓楼区津泰路92号14号楼,福建省,福州市,鼓楼区,4006703303,unknown,
baidu,a5533e53af086efc2fe67bef,好房子(津泰店),福建省福州市鼓楼区东泰路256号,福建省,福州市,鼓楼区,,unknown,
baidu,d0016ca8315085f5dbeced39,街电(万福娃儿童摄影福州旗舰店),福州市鼓楼区八一七中路11号华商楼2层,福建省,福州市,鼓楼区,4006868588,unknown,
baidu,d1ae68beb7aadef73e9a5e74,街电(华榕广场店),福州市鼓楼区古田路38号华榕广场7楼,福建省,福州市,鼓楼区,4006868588,unknown,
baidu,0e50d41b83ce25b4a8f7299d,中国移动(东街营业厅),福建省福州市鼓楼区东街3号海峡影城1楼,福建省,福州市,鼓楼区,17850880059,unknown,
baidu,d9f0712a2d349d60dbeced21,于山风景名胜公园-自动售卖机,福州市鼓楼区于山顶1号于山风景名胜公园,福建省,福州市,鼓楼区,,unknown,
baidu,4181498ac2070aa016764355,中国电信(电信大厦东泰路营业厅),福建省福州市鼓楼区东街7号,福建省,福州市,鼓楼区,(0591)87550313,unknown,
baidu,ea016eadb2243d800869d902,中国电信(枢纽店),福建省福州市鼓楼区五一中路26号电信枢纽大楼一楼,福建省,福州市,鼓楼区,(0591)83728544,unknown,
baidu,2f51f4ad0e0399f960180942,女友纯美空间(津泰店),津泰路53号,福建省,福州市,鼓楼区,(0591)87434308,unknown,
baidu,00f1c7fb279a3d1fc156acbe,恩雅名媛美容会所(南门店),乌山支路29号力信新村c区2楼,福建省,福州市,鼓楼区,(0591)83336591,unknown,
baidu,b63bb342898fb41926e0a091,艺施七彩美容美甲(津泰店),仙塔街138-2号,福建省,福州市,鼓楼区,13328290098,unknown,
baidu,f0100db9cb04164cf82d612d,艺趣美甲(冠亚店),冠亚广场3号楼56号,福建省,福州市,鼓楼区,13705069236,unknown,
baidu,7a3791865fa12329f942b2ef,玳玲造型美容养生(乌山店),乌山九巷C1-06店面,福建省,福州市,鼓楼区,13635246503,unknown,
baidu,e602c30a7292e8b7fe0eb014,93M国潮男士(东街店),福建省福州市鼓楼区津泰路51号,福建省,福州市,鼓楼区,13599515502,unknown,
baidu,d5f93c0ee2822f45ecdfcab1,SHUJIAN舒简C plus(新权南路店),新权南路30号,福建省,福州市,鼓楼区,"(0591)83327333,(0591)88089188",unknown,
baidu,ecbf03272c6fd8204302456c,SILKTONE诗丽堂美容(洪腾形象店),八一七中路55号洪腾阁二楼（福州大饭店对面）,福建省,福州市,鼓楼区,,unknown,
baidu,3f2a2a81d5028270c9291581,艾御妃美丽蜕变中心(乌山文心园店),道山路乌山文心园4栋,福建省,福州市,鼓楼区,(0591)87662681,unknown,
baidu,6709a1024f0bf932a6c7561d,蓝调造型(津泰店),津泰路52号（防疫站旁）,福建省,福州市,鼓楼区,(0591)87521107,unknown,
baidu,aed6c5ce34700d0e00ff2dac,痘敏斑皮肤管理,福建省福州市鼓楼区东街街道东街口八一七路171-3号,福建省,福州市,鼓楼区,"(0591)87539862,17359151256",unknown,
baidu,2ecef9b26097aabc51e5c514,匠心·沙龙(冠亚广场),安泰街道八一七路冠亚广场3号楼商场内一楼,福建省,福州市,鼓楼区,13509313444,unknown,
baidu,9f5f7b522ae8ae45c9c3db68,SEAS小颜矫正美容(长乐北路店),长乐北路26号如家素柏云酒店一层,福建省,福州市,鼓楼区,15859158296,unknown,
baidu,6e5b01aeb19a343401ff2d9d,晶晶假发(大洋晶典店),八一七北路268号大洋晶典B1层271-272号,福建省,福州市,鼓楼区,"(0591)86258696,13959187353",unknown,
baidu,f89f2dc80f669c98223bf2c3,时柒杜芮Dérider·高定护肤(东街店),鼓西路66号（距东街口地铁站B出口300米）,福建省,福州市,鼓楼区,13276992626,unknown,
baidu,cb9fdfdab465fd79081cc7f6,藤野造型(东街口大洋百货店),八一七北路133号大洋百货电梯四楼,福建省,福州市,鼓楼区,18023401589,unknown,
baidu,44de7fd1c7f83a1c07fef5a6,童颜微美(乌山大洋晶典店),福建省福州市鼓楼区八一七北路268号大洋晶典F4,福建省,福州市,鼓楼区,"13600814022,15205095599",unknown,
baidu,581fa3d741fafc918bdb736a,缦莎菲儿化妆美甲美容培训学校(鼓楼校区),福建省福州市鼓楼区乌山路35号茂泰大楼7c,福建省,福州市,鼓楼区,(0591)87332300,unknown,
baidu,949afcc8c6c64f54902ca302,初颜美肤管理,福建省福州市鼓楼区东街街道津泰路109号,福建省,福州市,鼓楼区,18860180395,unknown,
baidu,dc34b6c13ec97e7772210bd4,丰韵佳人国际美容连锁(茂泰大楼店),乌山路35号茂泰大楼3E单元,福建省,福州市,鼓楼区,(0591)88883123,unknown,
baidu,1e8b5699928217f8a0acc43c,瑞丽世家美容美体(庆城店),井大路17号东方商厦附属楼二层,福建省,福州市,鼓楼区,4009966207,unknown,
baidu,77d9168d52dfd6228f55ec41,念颜,福州市鼓楼区法海路圣庙社区,福建省,福州市,鼓楼区,,unknown,
baidu,6f6a2a8b73f1426ab13c8178,米兰医学美容,福建省福州市台江区八一七中路258号,福建省,福州市,台江区,(0591)88320000,unknown,
baidu,c0962a911c2979d2871541df,依梦美人计生活馆,福州市鼓楼区津泰路津泰新村,福建省,福州市,鼓楼区,,unknown,
baidu,90581c364452455dfda778e2,爱而丽新医美,福建省福州市鼓楼区贤南路利达大厦B号楼三层11店面,福建省,福州市,鼓楼区,13107696951,unknown,
baidu,d5cf5f9aeb374c2d2b11d182,剪匠(织缎巷),织缎巷87号,福建省,福州市,鼓楼区,13959183015,unknown,
baidu,44665f43ccbebc40c356ac6b,曼禾·MANHE,安福新村南2门旁(东街口地铁站D口步行490米),福建省,福州市,鼓楼区,13459498986,unknown,
baidu,c01bb4f5894e9ea1d72ce204,三姐妹(东街店),安泰中心织缎巷56号,福建省,福州市,鼓楼区,13459498986,unknown,
baidu,1d2dc385bda7ced886420e88,女神欧韩彩妆,吉庇巷61-5号谢家祠南门旁,福建省,福州市,鼓楼区,15960209090,unknown,
baidu,f723b3ea6065761eb1077d71,领秀·美甲美睫,津泰路177号,福建省,福州市,鼓楼区,,unknown,
baidu,cd280d68df4efbb3593ac80d,丝域养发馆(乌山店),斗西路与乌山支路交叉口东01-06号,福建省,福州市,鼓楼区,13305914767,unknown,
baidu,c6c8f2c380533762e6073890,舒泓科技美肤馆,道山路153号,福建省,福州市,鼓楼区,13705932752,unknown,
baidu,00cd20ab2c1092f66e20b9ef,今日today美甲美睫,吉庇巷19号,福建省,福州市,鼓楼区,,unknown,
baidu,9ee7cc7877a7326916c90542,壹发YIFA(东街口总店),东街街道东街55号(三山大厦旁),福建省,福州市,鼓楼区,15980616725,unknown,
baidu,1f275209ea7545cbce04efc0,明珠造型(碧玉花园店),东泰路172号,福建省,福州市,鼓楼区,13950413632,unknown,
baidu,6b934f1f6593326aa21de9f5,CN pure(美发工作室),安泰街道八一七中路斗西路1号澳林大厦B座4楼412室,福建省,福州市,鼓楼区,15060069376,unknown,
baidu,993ae577449b235d9022e04f,花田美甲美睫皮肤管理,军门社区织缎巷40号,福建省,福州市,鼓楼区,13599063726,unknown,
baidu,62863b47174c2bb008f5ebe0,金棕榈(大洋百货东街店),八一七北路133号大洋百货1层（靠近停车场）,福建省,福州市,鼓楼区,(0591)87616686,unknown,
baidu,6b329987294b980e51e5c546,U美纹绣美甲(安泰中心店),织缎巷军门社区安泰中心A区第五通道,福建省,福州市,鼓楼区,15959001371,unknown,
baidu,02e2798b1e3c57e98936eea8,兰莎莉专业美发(道山路店),澳门路6号乌山嘉苑B座6号店,福建省,福州市,鼓楼区,13805004612,unknown,
baidu,974c77f0da4d054840024511,AK造型(台江店),福州市八一七中路冠亚广场1号楼10号,福建省,福州市,鼓楼区,13850142643,unknown,
baidu,9a44262dbbaedf5ccbe33c1a,名俊快剪店,福建省福州市鼓楼区乌山支路29-24号,福建省,福州市,鼓楼区,13075918728,unknown,
baidu,efc2bf5a47aa6a29210262e3,索引专业剪烫染,南营新村10号,福建省,福州市,鼓楼区,,unknown,
baidu,126220624c4e00549c09f71c,丰色织发(闽商楼店),八一七中路32号(南门兜地铁站D3口步行200米),福建省,福州市,鼓楼区,18505073007,unknown,
baidu,99ed473dd667ff24c61e51ef,媛芮美颜(东街口大洋百货店),八一七北路133号大洋百货F7,福建省,福州市,鼓楼区,,unknown,
baidu,2e10ca0d9e0b11f3f12d835f,原漾美私人定制,八一七中路103号顺丰楼4层402-1,福建省,福州市,鼓楼区,,unknown,
baidu,fc148b210f78c2ea0a5cb3c2,窈窕淑女(置地广场店),五四路89号置地广场5层01号,福建省,福州市,鼓楼区,"(0591)87519809,(0591)87850393",unknown,
baidu,0d8cd6dd9dbaef0494ca07a5,艾美美甲美睫,福州市鼓楼区织缎巷安福新村,福建省,福州市,鼓楼区,,unknown,
baidu,5b625cb4ee4d276cc92915c8,时尚巴厘专业烫染沙龙(井大路店),井大路64号冠城大通1号店面,福建省,福州市,鼓楼区,(0591)87505405,unknown,
baidu,7ea12006fe93b50eb34c4917,Diamond黛茉造型(贤南商厦店),八一七路贤南商厦8号店面,福建省,福州市,鼓楼区,15060002196,unknown,
baidu,678f34deeb3651b1e215f954,初苋百姓(道山路店),道山路158号,福建省,福州市,鼓楼区,,unknown,
baidu,c1ddacd8849936510869d9d0,贵妃美甲美睫半永久(军门社区西区店),安泰中心a区三号通道,福建省,福州市,鼓楼区,13609532119,unknown,
baidu,98f9cb058e904f4740ab9a58,快剪(津泰新大都店),城守前路13号（永辉生活对面）,福建省,福州市,鼓楼区,18850799988,unknown,
baidu,54bf29fd1d9c3b28a3acc426,蓝调造型(省府店),省府路108号,福建省,福州市,鼓楼区,"(0591)87517617,(0591)88902718",unknown,
baidu,5e4b419e3a6227e1343a715c,DuLing独领,横锦巷1-3号楼底（云南米线对面巷子）,福建省,福州市,鼓楼区,15080006191,unknown,
baidu,c63c231c236019d8f1193702,媚登峰发型(乌山文心园北区店),道山路153号,福建省,福州市,鼓楼区,,unknown,
baidu,8e2bacb649f67f66a80dd8c6,快剪,福建省福州市鼓楼区石井巷25号,福建省,福州市,鼓楼区,18930627232,unknown,
baidu,6294e3465f087561b35c6a82,仙塔街QC快剪,福建省福州市鼓楼区仙塔街62号(花园小学正对面),福建省,福州市,鼓楼区,18386791739,unknown,
baidu,d86fa29324450bd97f29bd49,发境造型(白马路万科里店),白马中路万科里s13-101-A,福建省,福州市,台江区,(0591)86257255,unknown,
baidu,226a967ad470a0bb35b06c58,水幕年华,城守前16号城守前新村2号楼03店面,福建省,福州市,鼓楼区,13960829557,unknown,
baidu,13112bc8b794629371455b1d,Pincco·品蔻造型沙龙(恒力MALL店),五四路恒力MALL3楼,福建省,福州市,鼓楼区,(0591)88528499,unknown,
baidu,c75cb20a8472cab696ca071e,蓝调造型(树汤店),树汤路126号温泉东汤小区1-5楼连接体29-1店面,福建省,福州市,鼓楼区,(0591)87880595,unknown,
baidu,6e35c60850bdea8b97ec8438,洗脸熊·洗脸吧(津泰路店),东街津泰路49号店面,福建省,福州市,鼓楼区,18850780858,unknown,
baidu,ceebdce462d33c42b9df8fb7,灰指甲专家,乌山支路26号乌山苑1号楼1层06店面,福建省,福州市,鼓楼区,"(0591)83360985,18659150992",unknown,
baidu,34e4850813c621e2d9d891be,法海寺,福州市鼓楼区法海路1号(近格致中学),福建省,福州市,鼓楼区,,unknown,
baidu,2e08d1c4794257c9a11de971,三坊七巷历史文化街区,福建省福州市鼓楼区南后街,福建省,福州市,鼓楼区,(0591)87675791,unknown,
baidu,8fb41d9937ad8455ad31e5c6,第一山景区,福建省福州市鼓楼区乌山路乌山历史风貌区,福建省,福州市,鼓楼区,,unknown,
baidu,609b333149a64b9572455b7b,大觉寺,东泰路95号,福建省,福州市,鼓楼区,,unknown,
baidu,3f5d50ee863899fd1e1d11d1,三坊七巷-乌塔公园,福州市八一七北路大洋晶典(乌山店)东门北侧约60米,福建省,福州市,鼓楼区,,unknown,
baidu,fa22571f02553c17fa42b29c,定光寺,福建省福州市鼓楼区于山路9号,福建省,福州市,鼓楼区,,unknown,
baidu,ace79f8718590e6e0c0e6b2f,基督教花巷堂,福建省福州市鼓楼区八一七北路花巷7号(近大洋百货),福建省,福州市,鼓楼区,(0591)87605701,unknown,
baidu,c1d2879991187981f8f0cb8e,福州画院,福州市鼓楼区于山路2号,福建省,福州市,鼓楼区,(0591)83359786,unknown,
baidu,d240a397d43809934054d709,福建省沈绍安漆艺博物馆,福建省福州市鼓楼区朱紫坊34号,福建省,福州市,鼓楼区,(0591)87710052,unknown,
baidu,08f1f1f5aeda35ca89db7381,乌山历史风貌区,福州市鼓楼区乌山路与白马北路交叉口东北侧,福建省,福州市,鼓楼区,(0591)87502236,unknown,
baidu,cde9e2c73cc34cb4e91e97be,福州文庙,福州市鼓楼区圣庙路10号,福建省,福州市,鼓楼区,(0591)83378436,unknown,
baidu,86f78a0244eee1ac51e5c546,于山风景名胜公园,福建省福州市鼓楼区于山顶1号,福建省,福州市,鼓楼区,"(0591)83306464,(0591)83355720",unknown,
baidu,eb857f5e9a8bbe8feee4a55d,天后宫,福州市鼓楼区三坊七巷郎官巷17号,福建省,福州市,鼓楼区,18950245527,unknown,
baidu,5ac17f70650811a81f5800a1,报恩定光多宝塔,福州市鼓楼区于山路2号旁,福建省,福州市,鼓楼区,,unknown,
baidu,8535426162b65f88b64f5485,太平古街,福州市鼓楼区太平街1号,福建省,福州市,鼓楼区,,unknown,
baidu,25ef0c5882970ab3c26c143f,衣锦坊,福州市鼓楼区衣锦坊6号,福建省,福州市,鼓楼区,"(0591)87661017,0591-87501111",unknown,
baidu,16ef0e33720eec700aa8d481,文儒坊,福建省福州市鼓楼区三坊七巷洗银营巷10-1号文儒会西服定制中心,福建省,福州市,鼓楼区,(0591)83890057,unknown,
baidu,274b7301bf482fae35b06c11,三坊七巷-冰心故居,福州市鼓楼区杨桥东路17号,福建省,福州市,鼓楼区,,unknown,
baidu,fe9271184079c889adcb6660,西湖公园,福建省福州市鼓楼区湖滨路71号,福建省,福州市,鼓楼区,(0591)83783655,unknown,
baidu,1434936589386f57d12dd624,福州古城演变纪略,福建省福州市鼓楼区乌山路冠亚广场,福建省,福州市,鼓楼区,,unknown,
baidu,95e6eb66058adb0a36b06cbf,醉石,福州市鼓楼区于山路9号,福建省,福州市,鼓楼区,(0591)83353645,unknown,
baidu,9b5735d7230c693fa8f7298a,状元峰,福州市鼓楼区于山路9号于山风景区内,福建省,福州市,鼓楼区,"(0591)83355720,0591-83353645,0598-7831866",unknown,
baidu,6835e3a73cc8df4fe31103c4,邓拓故居,福建省福州市鼓楼区安泰街道第一山弄7号三坊七巷,福建省,福州市,鼓楼区,(0591)87503954,unknown,
baidu,ea25f4631ac91bbd3b221cee,黎明湖公园,福州市鼓楼区乌山路57号,福建省,福州市,鼓楼区,,unknown,
baidu,eb420f277b3c229eb7265551,叶向高故居,福州市鼓楼区花园弄19号,福建省,福州市,鼓楼区,,unknown,
baidu,d090209d721c9a671e1d11ac,李世甲故居,福建省福州市鼓楼区鳌峰坊39号,福建省,福州市,鼓楼区,13015777658,unknown,
baidu,16ef0e33720eec700aa8d481,文儒坊,福建省福州市鼓楼区三坊七巷洗银营巷10-1号文儒会西服定制中心,福建省,福州市,鼓楼区,(0591)83890057,unknown,
baidu,d6a50f34cd6e9e1ad2f49e19,刘齐衔故居,福建省福州市鼓楼区道宫巷18号,福建省,福州市,鼓楼区,,unknown,
baidu,cde9e2c73cc34cb4e91e97be,福州文庙,福州市鼓楼区圣庙路10号,福建省,福州市,鼓楼区,(0591)83378436,unknown,
baidu,d90821fdb9474dc1ed74f840,福州辛亥革命纪念馆,福州市鼓楼区于山路9号于山风景区内,福建省,福州市,鼓楼区,(0591)83337651,unknown,
baidu,3ef0ae799598fe01a2d230ea,天皇岭景区,福州市鼓楼区澳门路乌山正门东南侧约50米,福建省,福州市,鼓楼区,"(0591)87502236,(0591)87886751",unknown,
baidu,77e15551dc269dba631c6727,小黄楼,福建省福州市鼓楼区黄巷36号,福建省,福州市,鼓楼区,(0591)87675791,unknown,
baidu,d3a78e820e7f27dfab0dd878,福州市于山风景名胜公园管理处,福州市鼓楼区法海路23-1号,福建省,福州市,鼓楼区,(0591)83355720,unknown,
baidu,4b8f257c408640fec7f0258a,勉斋精舍,福州市鼓楼区太平街1号太平古街,福建省,福州市,鼓楼区,,unknown,
baidu,fa22571f02553c17fa42b29c,定光寺,福建省福州市鼓楼区于山路9号,福建省,福州市,鼓楼区,,unknown,
baidu,274b7301bf482fae35b06c11,三坊七巷-冰心故居,福州市鼓楼区杨桥东路17号,福建省,福州市,鼓楼区,,unknown,
baidu,42768f8755ad4d1cc51e51f5,九仙洞与丹井,福州市鼓楼区于山路9号于山风景区内,福建省,福州市,鼓楼区,,unknown,
baidu,1b76a95504be4ec7223bf2f8,司曹六境贤宫,福建省福州市鼓楼区府学弄11号,福建省,福州市,鼓楼区,,unknown,
baidu,aa75c82617044c0e7dc876f5,严复故居,福建省福州市鼓楼区南街街道郎官巷20号三坊七巷,福建省,福州市,鼓楼区,,unknown,
baidu,26ce68226137c168047ce87a,林聪彝故居,福建省福州市鼓楼区宫巷24号,福建省,福州市,鼓楼区,,unknown,
baidu,d3a78e820e7f27dfab0dd878,福州市于山风景名胜公园管理处,福州市鼓楼区法海路23-1号,福建省,福州市,鼓楼区,(0591)83355720,unknown,
baidu,4b8f257c408640fec7f0258a,勉斋精舍,福州市鼓楼区太平街1号太平古街,福建省,福州市,鼓楼区,,unknown,
baidu,1222702d47a594dca8f0cdd7,冶山春秋园,福建省福州市鼓楼区冶山路33号,福建省,福州市,鼓楼区,,unknown,
baidu,db1f39d42ca3a76ff4c59c80,林觉民故居,福州市鼓楼区东街街道杨桥路17号,福建省,福州市,鼓楼区,(0591)83890067,unknown,
baidu,18f63435beecee0fca2915e2,三坊七巷-八十一阶巷,福州市鼓楼区澳门路乌山正门东北侧约30米,福建省,福州市,鼓楼区,(0591)83890057,unknown,
baidu,a42d9c1972193654bca2400e,天王殿,福州市鼓楼区于山路9号,福建省,福州市,鼓楼区,,unknown,
baidu,d90821fdb9474dc1ed74f840,福州辛亥革命纪念馆,福州市鼓楼区于山路9号于山风景区内,福建省,福州市,鼓楼区,(0591)83337651,unknown,
baidu,31b8b5fcbf976d2eb1077dc1,万象亭,福州市鼓楼区于山路9号于山风景区内,福建省,福州市,鼓楼区,(0591)83353645,unknown,
baidu,c531badb565de5de9ee321f7,林则徐纪念馆(后门),福州市鼓楼区营房里直街林则徐祠堂,福建省,福州市,鼓楼区,,unknown,
baidu,41572e00136948c9b45f1e2b,观巷基督教堂,福州市鼓楼区安泰街道法海路观巷9号,福建省,福州市,鼓楼区,,unknown,
baidu,92bf67220f06021088f15db1,福涧麻王庙,福州市鼓楼区学院前巷福建省福州延安中学东侧,福建省,福州市,鼓楼区,,unknown,
baidu,d6c5d991ed3177e831169bbe,清真寺,福建省福州市鼓楼区八一七北路204号,福建省,福州市,鼓楼区,,unknown,
baidu,6835e3a73cc8df4fe31103c4,邓拓故居,福建省福州市鼓楼区安泰街道第一山弄7号三坊七巷,福建省,福州市,鼓楼区,(0591)87503954,unknown,
baidu,6a1cbba11b767f906240a9b1,于山大士殿,福州市鼓楼区于山路9号于山风景区内,福建省,福州市,鼓楼区,"(0591)83306464,(0591)83355720",unknown,
baidu,3a950364357339757f29bd23,戚公祠,福州市鼓楼区虞山顶1号于山风景区内,福建省,福州市,鼓楼区,(0591)83306464,unknown,
baidu,8ce896dbd4d05d6d705e8002,郁达夫展厅,福州市鼓楼区于山路10号于山风景区内,福建省,福州市,鼓楼区,(0591)83353645,unknown,
baidu,8aab40179c14c4aea8f729ce,炼丹井,福州市鼓楼区于山路9号于山风景区内,福建省,福州市,鼓楼区,(0591)83355720,unknown,
baidu,1113fa7673f316d7bb17e727,林则徐纪念馆-林文忠公祠,福建省福州市鼓楼区澳门路16号,福建省,福州市,鼓楼区,(0591)87622782,unknown,
baidu,34a7f3bc12668789b21e364b,通津境财神庙,福建省福州市鼓楼区大根社区津泰路226号,福建省,福州市,鼓楼区,,unknown,
baidu,efb0aec0c95f6e5342d63e9b,补山精舍,福州市鼓楼区于山路9号,福建省,福州市,鼓楼区,(0591)83353645,unknown,
baidu,5d3e912ab15a7e9a7369d3ba,平远台,福州市鼓楼区于山路9号于山风景区内,福建省,福州市,鼓楼区,(0591)83355720,unknown,
baidu,e911e648a5007548adcb669b,高爷庙民俗文化馆,天皇岭弄25号,福建省,福州市,鼓楼区,,unknown,
baidu,e72fafe1c30c77d9be4842d0,弥勒住处,福州市鼓楼区于山路9号于山古莲寺,福建省,福州市,鼓楼区,,unknown,
baidu,a6d01f42e445b4261f5800b1,定光寺-客堂,福州市鼓楼区于山路9号,福建省,福州市,鼓楼区,,unknown,
baidu,eeca233d12784007a6da39fe,誓雪国耻,福州市鼓楼区于山路10号于山风景区内,福建省,福州市,鼓楼区,(0591)83355720,unknown,
baidu,d6a50f34cd6e9e1ad2f49e19,刘齐衔故居,福建省福州市鼓楼区道宫巷18号,福建省,福州市,鼓楼区,,unknown,
baidu,d0a486caf6fc5ce541d63e4a,法雨堂,福州市鼓楼区于山路2号旁,福建省,福州市,鼓楼区,(0591)83355720,unknown,
baidu,ede63e0efe289d87d5b74e3a,九曲回廊,福州市鼓楼区于山顶1号于山风景名胜公园,福建省,福州市,鼓楼区,,unknown,
baidu,95e6eb66058adb0a36b06cbf,醉石,福州市鼓楼区于山路9号,福建省,福州市,鼓楼区,(0591)83353645,unknown,
baidu,b519f53622f65aabb11e36f1,白云寺,福州市鼓楼区于山路1号,福建省,福州市,鼓楼区,(0591)83355720,unknown,
baidu,206783d86747c7fb88fc0623,揽月亭,福州市鼓楼区于山顶1号于山风景名胜公园,福建省,福州市,鼓楼区,,unknown,
baidu,bcc96c1b5b5d1564f8f0cbfa,蓬莱峰,福州市鼓楼区于山路9号于山风景区内,福建省,福州市,鼓楼区,,unknown,
baidu,8f03cac4e7d8d338f5c59c2e,清隐亭,福建省福州市鼓楼区乌山路乌山历史风貌区,福建省,福州市,鼓楼区,,unknown,
baidu,221cb374f70192f19cec2bdf,石塔会馆,乌山历史风貌区内,福建省,福州市,鼓楼区,,unknown,
baidu,a56b7f919963c3054afd3fa7,武威塔,福州市鼓楼区于山路9号于山风景区内,福建省,福州市,鼓楼区,(0591)83355720,unknown,
baidu,131e9fd3e50fde203b221c70,陈氏家庙,福州市鼓楼区津泰路圣庙社区,福建省,福州市,鼓楼区,,unknown,
baidu,f1269783efe26967901fc96e,廓然台,福州市鼓楼区于山路9号,福建省,福州市,鼓楼区,(0591)83355720,unknown,
baidu,1d24a6b3c6bfe42f9ff779fb,状元亭,福州市鼓楼区于山路9号于山风景区内,福建省,福州市,鼓楼区,(0591)83355720,unknown,
baidu,fc865871b90d0d96ce04efd4,御题大士出山碑,福州市鼓楼区于山路于山风景名胜公园,福建省,福州市,鼓楼区,(0591)83355720,unknown,
baidu,7d451a314e4029e8b01e36dc,钟楼,东泰路95号大觉寺,福建省,福州市,鼓楼区,,unknown,
baidu,9112784962a6bccb6140a961,吸翠亭,福州市鼓楼区于山路9号于山风景区内,福建省,福州市,鼓楼区,,unknown,
baidu,b8f2d25a5836308d2b3a9f89,狮子岩,福州市鼓楼区于山路9号于山风景区内,福建省,福州市,鼓楼区,(0591)83355720,unknown,
baidu,4d81a6c3ee9e522672455b5f,张钰哲故居,福州市鼓楼区芙蓉弄7号,福建省,福州市,鼓楼区,,unknown,
baidu,26a9fe3a42b981f9f02d834b,毗卢殿,福州市鼓楼区于山路2号旁定光寺内,福建省,福州市,鼓楼区,(0591)83355720,unknown,
baidu,984fb3d89154b75cd13ce3bb,辛亥革命福州光复战役中使用过的大炮模型,福州市鼓楼区于山路9号于山风景区内福州辛亥革命纪念馆,福建省,福州市,鼓楼区,,unknown,
baidu,5836aee14a791d8251e5c582,于山摩崖刻石,福州市鼓楼区于山路9号于山风景区内,福建省,福州市,鼓楼区,(0591)83355720,unknown,
baidu,e48935c89aaa722d990050e9,福州道教护道白真人庙,天皇岭弄20号,福建省,福州市,鼓楼区,,unknown,
baidu,5e82d532d2a03af34151c088,国魂,福州市鼓楼区虞山顶1号于山风景区内,福建省,福州市,鼓楼区,(0591)83355720,unknown,
baidu,8e43623b35976878774ff163,董见龙先生祠,福州市鼓楼区府学里5号,福建省,福州市,鼓楼区,,unknown,
baidu,18a68ae4a4b3a557f5c59cfd,云霄亭,福建省福州市鼓楼区乌山路乌山历史风貌区,福建省,福州市,鼓楼区,,unknown,
baidu,ab1e95ba300b406b441a32a4,慈善堂,乌山路乌山历史风貌区,福建省,福州市,鼓楼区,,unknown,
baidu,bd71ad11097ca497f119378e,于山古城墙,福州市鼓楼区于山路于山风景名胜公园,福建省,福州市,鼓楼区,,unknown,
baidu,ca261d004112ee89b11e3646,陈兆锵故居,福建省福州市鼓楼区安泰街道法海路22号,福建省,福州市,鼓楼区,,unknown,
baidu,982bbcf5f7430743cf06a406,影雕长廊,福州市鼓楼区于山路9号于山风景区内,福建省,福州市,鼓楼区,(0591)83355720,unknown,
baidu,754edff2f4867a8c095cb306,榕寿岩,福州市鼓楼区于山路9号于山风景区内,福建省,福州市,鼓楼区,(0591)83355720,unknown,
baidu,84d62e2f57c1b03238221c7a,九仙山赋,福州市鼓楼区于山顶1号于山风景名胜公园,福建省,福州市,鼓楼区,,unknown,
baidu,1b76a95504be4ec7223bf2f8,司曹六境贤宫,福建省福州市鼓楼区府学弄11号,福建省,福州市,鼓楼区,,unknown,
baidu,7869a1adb89c363feb56fa41,涵碧亭,福州市鼓楼区于山顶1号于山风景名胜公园,福建省,福州市,鼓楼区,,unknown,
baidu,9b823f853fccd86c704b871b,咀嚼堂,福州市鼓楼区于山路9号定光寺,福建省,福州市,鼓楼区,,unknown,
baidu,3298c85562db2d216ca3cc82,福州辛亥革命纪念馆-一进展厅,福州市鼓楼区于山路9号于山风景区内福州辛亥革命纪念馆,福建省,福州市,鼓楼区,,unknown,
baidu,b7dc5b5a8310865de812e481,戚继光生平展厅,福州市鼓楼区于山路9号于山风景区内,福建省,福州市,鼓楼区,(0591)83355720,unknown,
baidu,e203821900b2b73a28201a71,柏严堂,福州市鼓楼区于山路9号定光寺,福建省,福州市,鼓楼区,,unknown,
baidu,53434ed53330abff28201a2f,福州辛亥革命纪念馆-三进展厅,福州市鼓楼区于山路9号于山风景区内福州辛亥革命纪念馆,福建省,福州市,鼓楼区,,unknown,
baidu,af5205fbcec2b39cc17da230,月朗风清,福州市鼓楼区于山路9号于山景区内,福建省,福州市,鼓楼区,(0591)83353645,unknown,
baidu,2f6299a5d212e711631c6740,魁石,福州市鼓楼区于山路10号于山风景区内,福建省,福州市,鼓楼区,(0591)83355720,unknown,
baidu,5628dc4f74b0e80a08b93a9a,沁洌泉,福建省福州市鼓楼区乌山路乌山历史风貌区,福建省,福州市,鼓楼区,,unknown,
baidu,a648cf679f610f3f7bf79676,中艺美术馆,福建省福州市鼓楼区鳌峰坊39号,福建省,福州市,鼓楼区,,unknown,
baidu,46d837a63a57a5bc8505bf37,福州辛亥革命纪念馆-二进展厅,福州市鼓楼区于山路9号于山风景区内福州辛亥革命纪念馆,福建省,福州市,鼓楼区,,unknown,
baidu,0d3cd71ba748c60515c8f68b,知荷堂,福州市鼓楼区观巷33号,福建省,福州市,鼓楼区,,unknown,
baidu,ab374c82e5e4acb3354aae67,云梯,福州市鼓楼区于山路于山风景名胜公园,福建省,福州市,鼓楼区,,unknown,
baidu,96d5294583d752c0471a32ed,石塔祖殿,福建省福州市鼓楼区安泰街道道山路天皇岭弄27号,福建省,福州市,鼓楼区,,unknown,
baidu,6d72d3a27f444825fa42b21f,祖师殿,东泰路95号大觉寺,福建省,福州市,鼓楼区,,unknown,
baidu,3170f2f0f544268d9cec2bf4,桃聚,乌山路与白马北路交叉口东北侧乌山风景区,福建省,福州市,鼓楼区,,unknown,
baidu,f20c565c4a381986aeb22a7d,念佛堂,福州市鼓楼区于山路9号定光寺,福建省,福州市,鼓楼区,,unknown,
baidu,5cd722ae32b1c2c90aa8d49a,八十一阶茎,乌山路与白马北路交叉口东北侧乌山历史风貌区,福建省,福州市,鼓楼区,,unknown,
baidu,328e9ea0327cad44d4851f38,报恩堂,东泰路95号大觉寺,福建省,福州市,鼓楼区,,unknown,
baidu,6f4dac5fee01b9acab0dd8a4,伽蓝殿,东泰路95号大觉寺,福建省,福州市,鼓楼区,,unknown,
baidu,f9ed2a96804b82bee5e9651b,天王殿,东泰路95号大觉寺,福建省,福州市,鼓楼区,,unknown,
baidu,424a31e3cb8c7fd8cb213d27,方伯谦故居,福州市鼓楼区朱紫坊46号,福建省,福州市,鼓楼区,,unknown,
baidu,09c9e3787c39b988902ca376,海峡文博,福建省福州市鼓楼区天皇岭弄25号,福建省,福州市,鼓楼区,,unknown,
baidu,65afb75b317b4342465726d8,浩然亭,福州市鼓楼区于山路于山宾馆对面,福建省,福州市,鼓楼区,,unknown,
baidu,c40f3c54cd79b54dbca2401e,留福渠,福建省福州市鼓楼区乌山路乌山历史风貌区,福建省,福州市,鼓楼区,,unknown,
baidu,5fac2ccca0815b2500ff2d72,伽蓝殿,福州市鼓楼区于山路9号于山古莲寺,福建省,福州市,鼓楼区,,unknown,
baidu,bc1139fb8b1481805c17c36c,大雄宝殿,福州市鼓楼区于山路9号于山古莲寺,福建省,福州市,鼓楼区,,unknown,
baidu,a3c34a1f91a1c0c49f09f790,大雄宝殿,东泰路95号大觉寺,福建省,福州市,鼓楼区,,unknown,
baidu,52587f8a71195110d92f2809,真龙庵,福州市鼓楼区于山路9号于山风景区内,福建省,福州市,鼓楼区,(0591)83355720,unknown,
baidu,870bb44153593dd692114c42,辛亥革命福州前敌总指挥部旧址,福州市鼓楼区古田路22号于山风景区内,福建省,福州市,鼓楼区,(0591)83355720,unknown,
baidu,435fc63dfe3accf47269d33f,圆通宝殿,东泰路95号大觉寺,福建省,福州市,鼓楼区,,unknown,
baidu,df0c83ab0097cc8c343a7139,护国寺,福州市鼓楼区于山路9号于山风景区内,福建省,福州市,鼓楼区,(0591)83355720,unknown,
baidu,3e92d81f1910462f39221cb7,黄花岗中学碑,福州市鼓楼区于山路9号于山风景区内福州辛亥革命纪念馆,福建省,福州市,鼓楼区,,unknown,
baidu,09dcb14fd563c03795ca074d,福建人民革命大学旧址纪念碑,福州市鼓楼区于山路9号,福建省,福州市,鼓楼区,(0591)83355720,unknown,
baidu,25599d2036c0c3f53b221c32,坊巷讲习所,福州市鼓楼区吉庇路60号谢家祠,福建省,福州市,鼓楼区,(0591)83890057,unknown,
baidu,a775685fe47340967e29bd09,谢家祠,福建省福州市鼓楼区吉庇路60号,福建省,福州市,鼓楼区,(0591)87675791,unknown,
baidu,10b7a1ab2e61d1cfe9f8530d,福州道教南离祁仙宫管理委员会,福州市鼓楼区新权路福建医科大学附属协和医院,福建省,福州市,鼓楼区,,unknown,
baidu,555cbb3cd994be126ca3ccf2,泰·享时光泰式按摩SPA(三坊七巷店),"吉庇路61号综合办公楼四楼（农商银行正对面,佘阿婆榴莲四楼）",福建省,福州市,鼓楼区,,unknown,
baidu,2925e226768abe97a8f0cdeb,乐颂KTV(三坊七巷东百店),南街街道八一七北路150号东百中心C3馆4楼(9号电梯直达),福建省,福州市,鼓楼区,,unknown,
baidu,7c77d9b559bb0d5badb22afb,發胡·共享茶雀馆(东街店),横锦巷新村3号楼2层,福建省,福州市,鼓楼区,15659785948,unknown,
baidu,54786f0cd9038a9f6f47600c,小隐山房,织缎巷东泰路128号,福建省,福州市,鼓楼区,,unknown,
baidu,6927a299f4875a011d38945c,PULSE CLUB(福州东百中心店),南街街道东街口八一七北路东百中心C3馆负一层LG1-1-3-1,福建省,福州市,鼓楼区,19959196059,unknown,
baidu,21e7af228b022d94d1f49ea0,芳朵护肤(大洋晶典店),八一七北路大洋晶典B1层 (海底捞火锅旁边),福建省,福州市,鼓楼区,(0591)87623881,unknown,
baidu,27c2a8e42c0632a078f796f4,秘窖THE CELLAR,吉庇路39号安泰楼酒家地下一层,福建省,福州市,鼓楼区,17759079647,unknown,
baidu,19177fc644529109734b87c9,三谷里·生态水疗空间(五一店),五一北路西侧186号利嘉大世界综合楼3层,福建省,福州市,鼓楼区,(0591)88866333,unknown,
baidu,e47b4dee4219642a336212f0,乐天泉·温泉美食水汇(旗舰店),福新路28号（近福新路与东水路交叉口）,福建省,福州市,鼓楼区,(0591)86291666,unknown,
baidu,7865812adfa63e046d20b976,鸣玉茶艺居(联滨楼店),八一七中路马道街斗南境弄10号联建新村1南楼8层朝东向1-1号室,福建省,福州市,鼓楼区,(0591)86212134,unknown,
baidu,9469a1d5d9dd931090114c7d,拾光小筑·共享茶雀馆(东街店),八一七北路171号瑞丰楼后侧电梯七层709-714,福建省,福州市,鼓楼区,13799352013,unknown,
baidu,b5ecdebaf6a2efdaf82d6170,石丐茶铺,澳门路20号（澳门路与营房里交叉口西北50米）,福建省,福州市,鼓楼区,18150836501,unknown,
baidu,2a750d4bc0b5f8f32b11d107,三谷里·生态水疗空间(景城绿钻店),六一北路468号景城大酒店3-4楼,福建省,福州市,鼓楼区,(0591)83801666,unknown,
baidu,2b0c7aad12bf05e2fbf0cbd1,梦田MT·StarLIVE(福州榕城店),省府路1号,福建省,福州市,鼓楼区,17306907819,unknown,
baidu,bb6827f85427ffebd13ce3e4,灵魂超市SOUL SUPERMARKET(万科店),西洋路与白马路交叉口白马中路万科里购物中心负一楼,福建省,福州市,台江区,(0591)83516606,unknown,
baidu,1241bb1e7888fb29c5effb27,长物元,三坊七巷吉庇巷八十二号,福建省,福州市,鼓楼区,(0591)88777771,unknown,
baidu,d429a8b033127c48afee7a10,威美斯KTV(五四店),鼓东街道五四路162号(新华都购物广场3层),福建省,福州市,鼓楼区,,unknown,
baidu,18c99aaaf1d6829bc72ba187,榕隐山居,花园弄48号,福建省,福州市,鼓楼区,,unknown,
baidu,64fac7a28bbcece3740269f7,安涂森绘馆,仙塔街145-1楼梯店面,福建省,福州市,鼓楼区,15606029750,unknown,
baidu,ff06f167478f7df03a04b1e0,福龙雅境温泉,福建省福州市鼓楼区于山路10号,福建省,福州市,鼓楼区,059183779997,unknown,
baidu,7a29283e1f42dd5397ec847f,卡里翁·磊,津泰路津泰新村18号楼1层03店面,福建省,福州市,鼓楼区,,unknown,
baidu,f87c9fba9b99d5bf725e80b1,首赞臣古方头疗(军门店),东街街道织缎巷50号,福建省,福州市,鼓楼区,15959015298,unknown,
baidu,44ef36b57e2bcfae631c6718,陕西修脚(织缎巷),军门社区织缎巷60号,福建省,福州市,鼓楼区,,unknown,
baidu,28e366ef37ce7c04ad31e51c,文庙南广场,福州市鼓楼区圣庙路东兴大楼北侧约30米,福建省,福州市,鼓楼区,,unknown,
baidu,17f9ae521e6bf7d326e0a0cd,NUNUCOLOR浓艺术馆(泰禾店),八一七北路189号安泰中心A区9号楼2楼,福建省,福州市,鼓楼区,(0591)83811162,unknown,
baidu,7c36559ebd26f3b593114c9e,左野右·黄巷里·日茶夜酒,三坊七巷黄巷43号（立本弄内）,福建省,福州市,鼓楼区,(0591)83270070,unknown,
baidu,a8fbdcdd769bdaa7c9e33ced,福州五一广场,福建省福州市鼓楼区古田路32号,福建省,福州市,鼓楼区,,unknown,
baidu,81d6a509cd9a49596e20b958,大众电影院,八一七北路192号,福建省,福州市,鼓楼区,"(0591)87533566,(0591)87533640",unknown,
baidu,27d093cd5fa7aedbb5265598,唯美客文创聚落(三坊七巷店),杨桥东路三坊七巷黄巷25号,福建省,福州市,鼓楼区,,unknown,
baidu,402c01d52793113e3010afaa,道山盲人按摩,道山路与澳门路交叉路口乌山嘉苑A座2G（林则徐纪念馆斜对面）,福建省,福州市,鼓楼区,,unknown,
baidu,df908e8573420025b817e759,金烽盲人推拿(冠亚广场店),八一七北路268号冠亚广场1号104单元,福建省,福州市,鼓楼区,,unknown,
baidu,4eacb12ee1e47880d618b757,醉花间,朱紫坊38号,福建省,福州市,鼓楼区,18905009952,unknown,
baidu,d7ace8ae9fc41317704b87e4,多唱K吧(大洋晶典乌山店),福州市鼓楼区八一七北路268号大洋晶典B1,福建省,福州市,鼓楼区,,unknown,
baidu,3fd220c2086a2f162b3a9ffb,磁场集,福州市鼓楼区津泰路华夏公馆,福建省,福州市,鼓楼区,,unknown,
baidu,502e26aae243b0a815a19091,紫茗茶叙,福州市鼓楼区津泰路津泰新村,福建省,福州市,鼓楼区,,unknown,
baidu,22a47eebfc5a53810482c21b,青年茶肆(东街店),南营巷71号(东街口地铁站D口步行350米),福建省,福州市,鼓楼区,18850404964,unknown,
baidu,03886b94d3414d7a0ab93a0c,三汤抚首古方头疗(仙塔街店),仙塔街86-2,福建省,福州市,鼓楼区,13600822030,unknown,
baidu,3aebd3dc51f3bb0a902ca33c,中瑞国际影城(福州三坊七巷店),杨桥东路三坊七巷南后街中段（三坊七巷）,福建省,福州市,鼓楼区,,unknown,
baidu,640c2d641acc8d94364aae18,黄金甲公馆,六一北路615长城广场,福建省,福州市,鼓楼区,,unknown,
baidu,bcc99de4ab9c53812b06cef0,九日台音乐厅,于山路9号,福建省,福州市,鼓楼区,(0591)83355720,unknown,
baidu,c9e0bc06cc766455c8213d26,人民剧场(海峡影城),东街3号（近电信大厦）,福建省,福州市,鼓楼区,(0591)87528954,unknown,
baidu,4c6217bcb96f17ac774ff1be,福建大剧院,东街街道古田路83号(五一广场南侧原省体育馆),福建省,福州市,鼓楼区,(0591)88593001,unknown,
baidu,4ab44ce2386af329fd0eb0c9,安泰会所,福州市鼓楼区桂枝里新村,福建省,福州市,鼓楼区,,unknown,
baidu,1c777546c4d41a145bf6bebf,中瑞剧坊,安民巷58号(东街口地铁站C口步行390米),福建省,福州市,鼓楼区,(0591)87135588,unknown,
baidu,c4aa05cb97f5e32d4d2fdfc6,横店电影城(恒力MALL店),五四路128号恒力MALL商场6楼,福建省,福州市,鼓楼区,(0591)38051618,unknown,
baidu,fc767524aa5118fa4f776e86,芳华剧院,白马路146号,福建省,福州市,鼓楼区,(0591)83755787,unknown,
baidu,fbfbf437c76685661f5800af,极岩茶苑,南街街道安民巷60号(三坊七巷),福建省,福州市,鼓楼区,13313989833,unknown,
baidu,ed9adf330d99445dc91b95a3,欧拉音乐餐吧,福州市鼓楼区八一七中路西营里新村东北侧,福建省,福州市,鼓楼区,,unknown,
baidu,a64f631542e1e1f8dfee8bab,耀金台茶酒空间,福建省福州市鼓楼区斗西路4号,福建省,福州市,鼓楼区,13600895689,unknown,
baidu,eb386ac913388165adcb6656,岩中悦茶府,福建省福州市鼓楼区乌山支路27-2号(南门兜地铁站D2口步行240米),福建省,福州市,鼓楼区,(0591)63335009,unknown,
baidu,3d6a8f939161c3a949fd3f0f,帝道功夫传承地道中国茶,福州市鼓楼区乌山支路乌山苑东南侧,福建省,福州市,鼓楼区,,unknown,
baidu,021d33d62646b7bf0e3dda06,Secret Base秘密基地,安泰中心a区第七通道a11号,福建省,福州市,鼓楼区,13469898932,unknown,
baidu,5aa48d0c3798e887eee4a514,飞越福建,福建省福州市鼓楼区八一七北路东百中心A馆南面东百中心-C馆B2,福建省,福州市,鼓楼区,18065035752,unknown,
baidu,dacf4a6b2c9db123a21de9d8,福建省工艺美术博览园,法海路6号（南门兜地铁站S1口步行480米）,福建省,福州市,鼓楼区,13305901636,unknown,
baidu,2866d2ed9133cb5626d2bb72,桂枝里捌号·羊空间·竹茶馆,桂枝里8号,福建省,福州市,鼓楼区,"13615030608,17850814356",unknown,
baidu,dffd46425d0f34ab3d9a5eb6,君子兰(仙塔街总店),东街街道津泰商厦7楼（城守前路口）,福建省,福州市,鼓楼区,(0591)87670250,unknown,
baidu,67547457eb9a288c46572690,一笑亭,福建省福州市鼓楼区乌山路乌山历史风貌区,福建省,福州市,鼓楼区,(0591)83371493,unknown,
baidu,430922502f7ae3cb46e274ba,ccatcoffee·理想友人(群众路店),群众路172号福德新村2号楼1层店面,福建省,福州市,台江区,18650741409,unknown,
baidu,bff8fa7d99f875b9c9213de8,小希尔顿酒店(福州五一广场店),古田路38号华榕广场5楼,福建省,福州市,鼓楼区,(0591)83393838,unknown,
baidu,e39193c639b804bbf03cba20,九筑创意酒店(福州三坊七巷南门兜地铁站店),古田路19号华榕广场,福建省,福州市,鼓楼区,"(0591)63196699,15395909663",unknown,
baidu,3b54505b8c924393931fc9ac,太空舱青年旅舍(福州三坊七巷店),古田路19号华榕广场5楼,福建省,福州市,鼓楼区,18050327260,unknown,
baidu,e3324b5ad8353330ad080f9f,雅精品酒店(福州三坊七巷南门兜地铁站店),古田路19号,福建省,福州市,鼓楼区,"(0591)83051177,17750279557",unknown,
baidu,311d02113443e78d2cb17e37,福州铭濠温泉假日酒店(三坊七巷店),福建省福州市鼓楼区温泉路58号,福建省,福州市,鼓楼区,(0591)88233333,unknown,
baidu,bb3dda658a1fbe1948cc4aad,普宿酒店(福州三坊七巷店),八一七中路18号闽商楼（院内）5层,福建省,福州市,鼓楼区,(0591)83305001,unknown,
baidu,e5a8de274eddd825d0ff2373,皇庭酒店(福州三坊七巷南门兜地铁站店),斗东路12号联滨楼2层,福建省,福州市,鼓楼区,(0591)87898300,unknown,
baidu,34f68ab0b4d4d7138e55ece8,福州香格里拉,福建省福州市鼓楼区新权南路9号,福建省,福州市,鼓楼区,(0591)87988888,unknown,
baidu,b3c0090a47afd5346e20b96a,欧拉艺术酒店(福州三坊七巷五一广场店),八一七中路4号西营里(5号楼一楼前台),福建省,福州市,鼓楼区,(0591)62733555,unknown,
baidu,7eafd5634df4d4c704fef5ef,美喜酒店(福州三坊七巷南门兜地铁站店),马道街与八一七中路交叉口东北120米,福建省,福州市,鼓楼区,(0591)63516699,unknown,
baidu,fd13a3f26cc81cfab0077dbe,福州华榕宾馆,新权南路2号华榕广场3楼,福建省,福州市,鼓楼区,"(0591)83362389,(0591)83367289",unknown,
baidu,568aa2794ab12d1172455bb1,云七民宿(乌山支路分店),福州市乌山九巷D2,福建省,福州市,鼓楼区,18059708719,unknown,
baidu,e603f2e91e786d440482c258,哥仑步酒店(福州三坊七巷东街口地铁站店),八一七北路173号,福建省,福州市,鼓楼区,(0591)63336699,unknown,
baidu,63e4031280f049295bf6beff,全季酒店(福州三坊七巷五一北路店),福建省福州市鼓楼区五一北路88号,福建省,福州市,鼓楼区,(0591)88683333,unknown,
baidu,b8155ad00c4b51f271455b5c,福州三坊七巷小日子民宿,乌山西路乌山九巷时光里d区369室,福建省,福州市,鼓楼区,13107656039,unknown,
baidu,a5ab568503323022d5b74e89,福建省闽江饭店,福建省福州市鼓楼区五四路130号,福建省,福州市,鼓楼区,(0591)62722222,unknown,
baidu,0f978250cfa61da2018972a0,星源国际青年旅社(三坊七巷店),乌山路35号茂泰大楼2层01商场,福建省,福州市,鼓楼区,18359119548,unknown,
baidu,da260544a4f4e6dec26c1493,齐家酒店(南门兜地铁站店),福建省福州市鼓楼区古田路19号华榕广场二楼,福建省,福州市,鼓楼区,(0591)63183999,unknown,
baidu,23b816d3cfb97946e60738db,你好酒店(福州市儿童医院三坊七巷店),五一北路186号利嘉大世界8楼,福建省,福州市,鼓楼区,(0591)38505999,unknown,
baidu,4bff14b45a97d08a6fa3cc6b,汉庭酒店(福州三坊七巷东街口地铁站店),八一七北路151号佳盛大厦,福建省,福州市,鼓楼区,(0591)38255888,unknown,
baidu,f1f5cac51c11398136b06c50,如家酒店·neo(福州五一广场南门兜地铁站店),古田路19号,福建省,福州市,鼓楼区,(0591)83310999,unknown,
baidu,9e3d7c51d0ae5c08c6effb60,星澜影院酒店(福州东街口三坊七巷店),安泰街道八一七北路360号金晖大厦6楼,福建省,福州市,鼓楼区,13159401369,unknown,
baidu,11b4d77a2861810808f5eb1c,福州国珍商务酒店,古田路华榕大厦4层,福建省,福州市,鼓楼区,(0591)87357800,unknown,
baidu,ffddeb102a9bb32388fc06bd,齐家酒店(福州三坊七巷店),津泰路与八一七路交界处,福建省,福州市,鼓楼区,(0591)62751999,unknown,
baidu,1020060fa0e02bdb1894c628,福州嘉瑞商务宾馆,古田路7号东升大厦10层,福建省,福州市,鼓楼区,(0591)88806370,unknown,
baidu,b7e9db980466de4dd5b74e2b,福州澜庭智选青旅民宿(五一广场店),斗东路12号附8号联滨楼1幢401室,福建省,福州市,鼓楼区,13328208727,unknown,
baidu,8ab0dfc4fca6330fd9ecede8,福州聚春园·于山宾馆(三坊七巷店),于山路10号,福建省,福州市,鼓楼区,(0591)83351668,unknown,
baidu,7d15da03a645957182a12eca,海通酒店(福州三坊七巷店),乌山路53号市政府斜对面黎明戴斯停车场内,福建省,福州市,鼓楼区,(0591)87550777,unknown,
baidu,a122fd51c222565cc9c3dbb5,福州三坊七巷亚朵酒店(福建佳盛大厦店),福建省福州市鼓楼区八一七北路151号,福建省,福州市,鼓楼区,(0591)38076666,unknown,
baidu,0b886f3cf7e38d67250bd0ed,锦江都城酒店(福州三坊七巷东街口店),省府路7号,福建省,福州市,鼓楼区,(0591)88018299,unknown,
baidu,41572e00dccd8dadb55f1ee8,福建阳光假日大酒店,五一广场高桥路26号,福建省,福州市,台江区,(0591)83365333,unknown,
baidu,d6ee8724c786d3f9a9f0cde8,福建山水大酒店(三坊七巷店),福建省福州市鼓楼区省府路13号,福建省,福州市,鼓楼区,(0591)87556888,unknown,
baidu,f2f15ffbf8191291621c67e8,福州金仕顿大酒店(三坊七巷店),东水路18号金仕顿大酒店二楼,福建省,福州市,鼓楼区,(0591)87560888,unknown,
baidu,08a1e3678f8494f99e95de10,全季酒店(福州三坊七巷东街店),尚宾路28号,福建省,福州市,鼓楼区,(0591)88287666,unknown,
baidu,272a5f5e83c2925f16c905f9,福州世茂洲际酒店(群众路店),福建省福州市台江区茶亭街道广达路108号,福建省,福州市,台江区,(0591)86128888,unknown,
baidu,bdc236c7103e5bd3a4c7561c,美喜酒店(福州三坊七巷五一北路店),东街街道五一北路106号新侨联广场A座,福建省,福州市,鼓楼区,(0591)63336799,unknown,
baidu,e07f5048df24f041220220f8,艺龙酒店(福州三坊七巷店),五一中路151号,福建省,福州市,台江区,(0591)88363333,unknown,
baidu,fb4a4e36cce8502117b54b1d,常若精致酒店(福州三坊七巷店),安泰街道乌山支路123号乌山九巷D2栋3楼,福建省,福州市,鼓楼区,17758960992,unknown,
baidu,860e01fd3b1ad7c32afc4863,福州海联亚朵酒店,福建省福州市晋安区塔头路1号海外联谊中心七层至十七层,福建省,福州市,晋安区,(0591)87315888,unknown,
baidu,a1418eb4f2b10e66eae582e8,聚春园·福州大饭店,福建省鼓楼区斗东路1号近福建医科大学附属协和医院、福州儿童医院,福建省,福州市,鼓楼区,(0591)83333333,unknown,
baidu,bb1d38e46f3849540d0a70e8,悦竹酒店(福州三坊七巷店),福新路171号悦竹酒店大堂一楼,福建省,福州市,鼓楼区,(0591)62621666,unknown,
baidu,a2bd46c0653ec3a73517dcad,福州西方海悦酒店,塔头路122号3号综合楼6-1,福建省,福州市,晋安区,"(0591)83803333,(0591)86210199",unknown,
baidu,fefe7992cb133df3a21de9ff,福州三坊七巷美居酒店,五四路9号宁德大厦,福建省,福州市,鼓楼区,(0591)38077888,unknown,
baidu,a27ef6f6bbd52c88afee7a01,福州三坊七巷安民·半舍酒店,南街街道三坊七巷历史文化街区安民巷30号,福建省,福州市,鼓楼区,18065118773,unknown,
baidu,9177f31535fded43b54f54e2,佰份酒店(三坊七巷东街口店),仙塔街158号,福建省,福州市,鼓楼区,(0591)63161291,unknown,
baidu,b082fac5471a63d7dc1e5248,好地方公寓(八一七北路分店),福建省福州市鼓楼区八一七北路冠亚广场1号楼一楼店面,福建省,福州市,鼓楼区,,unknown,
baidu,2ae6e08b8f8881d14e5547f5,福州爱家酒店公寓(冠亚店),福建省福州市鼓楼区八一七北路268号冠亚广场1号楼1层,福建省,福州市,鼓楼区,(0591)83887772,unknown,
baidu,bff5703fd6d8ecdc80a00c13,聚时光小屋(乌山支路分店),福州市鼓楼区八一七中路澳林大厦,福建省,福州市,鼓楼区,,unknown,
baidu,a97137af57f07958373a7180,福州倪雪花公寓,福建省福州鼓楼区东兴大楼（地铁1号线南门兜站E出口旁）,福建省,福州市,鼓楼区,,unknown,
baidu,3d955d5e332af57b1e1d1174,悠然之家青年旅舍(三坊七巷店),福建省福州市鼓楼区八一七中路53号新兴大厦19层,福建省,福州市,鼓楼区,15860286862,unknown,
baidu,3fbe53b09360351f76e5b6bc,橘生淮南fuzhou622轻奢公寓(八一七北路分店),福建省福州市鼓楼区安泰街道冠亚美食街3-1-14,福建省,福州市,鼓楼区,,unknown,
baidu,6cc574f541a7725045e274c7,津泰商务公寓,福建省福州市鼓楼区仙塔街138号,福建省,福州市,鼓楼区,,unknown,
baidu,380c9d1eb5bf3ddd97ca0750,我觉得就这儿吧公寓(乌山支路分店),福建省福州市鼓楼区安泰街道乌山支路53号,福建省,福州市,鼓楼区,,unknown,
baidu,d201cefcd72675409e9d6829,雅悦涵香居公寓(乌山支路分店),福建省福州市鼓楼区乌山支路51号乌山九巷,福建省,福州市,鼓楼区,,unknown,
baidu,ae02536ef18971e26fc02c37,福州锦颐大酒店,福建省福州市台江区五一中路132号,福建省,福州市,台江区,(0591)63181999,unknown,
baidu,2778552b32c8f86d8bb988cc,时光里(斗西路店),福建省福州市鼓楼区乌山九巷d区d2栋,福建省,福州市,鼓楼区,,unknown,
baidu,722adc90212e5979283a9fb7,福州健乐怡酒店,福建省福州市鼓楼区斗东路12号5楼530室,福建省,福州市,鼓楼区,15359136207,unknown,
baidu,ad84ceaa5fa91b0dafcb66ad,静息小舍(斗西路分店),福州市斗西路乌山九巷时光里D区,福建省,福州市,鼓楼区,,unknown,
baidu,bda7acfdd617927ac9fa5f8b,茶可清心公寓(乌山支路2号分店),福建省福州市鼓楼区乌山支路55号,福建省,福州市,鼓楼区,,unknown,
baidu,6a882844ad2f82c5da2f2860,福州榕城大酒店,福州市鼓楼区法海路榕城大酒店,福建省,福州市,鼓楼区,,unknown,
baidu,be1ea5ef69107ebf15948e86,澳门公寓,福建省福州市鼓楼区澳门路63号,福建省,福州市,鼓楼区,,unknown,
baidu,d124a9c8c58ca2b8aeb22a11,招财猫公寓(乌山支路分店),福州市乌山支路乌山九巷时光里D区1栋,福建省,福州市,鼓楼区,,unknown,
baidu,d0b91e24690f482c8415414f,福州花开福州flowerinn公寓,福建省福州市鼓楼区冠亚美食街2-10号,福建省,福州市,鼓楼区,,unknown,
baidu,83a2a4207060e7cd0ab93a73,永泰山外山温泉主题度假别墅(安民巷分店),福建省福州市鼓楼区南街街道安民巷52号,福建省,福州市,鼓楼区,,unknown,
baidu,a2cbd2069bab7ee56ca3cc77,福州温馨贝贝小屋,福建省福州市鼓楼区乌山支路55号,福建省,福州市,鼓楼区,,unknown,
baidu,37ddd93ba98cb4a317c8f66a,悠活电竞酒店,福建省福州市鼓楼区斗西路23号,福建省,福州市,鼓楼区,,unknown,
baidu,74832d81097e30d4b817e777,OrangeApt橙子公寓(乌山支路分店),福建省福州市鼓楼区乌山支路51号,福建省,福州市,鼓楼区,,unknown,
baidu,05134211280cfa20841541ca,福州白紫苏公寓(斗西路分店),福建省福州市鼓楼区斗西路15号-4（時光里）,福建省,福州市,鼓楼区,,unknown,
baidu,3827a47ab6421a193617dcb0,星光天地24府,福州市鼓楼区城守前路福建财会管理干部学院,福建省,福州市,鼓楼区,,unknown,
baidu,ba73140300a1c67716a19086,如家酒店·neo福州五一广场南门兜地铁站店大堂,福建省福州市鼓楼区古田路19号,福建省,福州市,鼓楼区,,unknown,
baidu,82065d0b77aebe06b55f1e82,德国马牌轮胎(鑫迦护轮胎店),福建省福州市鼓楼区西二环中路499号,福建省,福州市,鼓楼区,13306931368,unknown,
baidu,2081e09c3e337be040e19261,福淇汽车美容会所(澳门路店),澳门路1-6号乌山嘉苑a座1楼,福建省,福州市,鼓楼区,15059128881,unknown,
baidu,e56c17ed7295998228d7ab0d,途虎养车工场店(福州五一广场店),水部街道五一中路32号(途虎养车),福建省,福州市,鼓楼区,18120936657,unknown,
baidu,f4ae3cb0d51de0ddf32d838f,极氪中心(福州东百中心),福建省福州市鼓楼区八一七北路158号160号162号164号166号东百中心C馆,福建省,福州市,鼓楼区,13361615956,unknown,
baidu,c3b5551b46b3b2c28a36ee54,松艺堂汽车服务(正祥店),五一路正祥中心地下停车场负4楼,福建省,福州市,鼓楼区,18649859985,unknown,
baidu,7243c8025d1aff88bda24068,旗匠·名车奢护·汽车洗美(大洋晶典店),冠亚广场8号大洋晶典负一楼,福建省,福州市,鼓楼区,15880042677,unknown,
baidu,6750e8572ff132dc5abbbc3b,开配换油,福建省福州市鼓楼区仙塔街108号,福建省,福州市,鼓楼区,13559953636,unknown,
baidu,de922144fbe1fb4e52e5c5be,嘉实多护车保养站(茶亭世贸店),广达路257号,福建省,福州市,台江区,15859508711,unknown,
baidu,d0b27a6bbb96d0bffd0eb098,车美汽车服务广场(台江店),上墩里5号,福建省,福州市,台江区,13799952771,unknown,
baidu,ef068f3ba7e328a6b34c4900,鑫车汽车服务,福建省福州市鼓楼区北大路北后街37号1层,福建省,福州市,鼓楼区,13706941357,unknown,
baidu,7bbf9823bbd212963ce23141,方圆汽车俱乐部,群众路43号,福建省,福州市,台江区,"(0591)83322592,13950323267",unknown,
baidu,17aba3868710b98c97ec84eb,汽车服务中心,福建福州市台江区首山路385号,福建省,福州市,台江区,,unknown,
baidu,0c75308c0fbe668fc51e514b,车居印象(六一北店),温泉街道六一北路468号琼都公寓4楼1层07店面、08店面、09店面、10店面,福建省,福州市,鼓楼区,18650459092,unknown,
baidu,64881bd9a01222c8afb22a76,车友汇美容俱乐部(梦之园小区店),斗池路66号梦之园4～6号店面,福建省,福州市,鼓楼区,15005999350,unknown,
baidu,918ef76155e790c0d8d89125,正新轮胎(五一北路),福州市鼓楼区苍霞街道白马南路11号店面,福建省,福州市,鼓楼区,(0591)87563909,unknown,
baidu,899a912f8ac68d02e812e4f6,骏马车友汇所(万象城店),交通西路33-27号,福建省,福州市,台江区,13705069901,unknown,
baidu,26c5e8b3dccb4dc8b35c6a26,润鼎盛汽车服务中心,福建省福州市晋安区福新中路73号,福建省,福州市,晋安区,(0591)86323666,unknown,
baidu,367a555abd719b88a6da39a6,凯越汽车美容服务,福马路57-59号(紫阳地铁站C口步行380米),福建省,福州市,晋安区,"13860692421,15080008138",unknown,
baidu,3166dfb257811695725e80b4,尚诚美汽(福州台江区工业路店),福建省福州市台江区工业路168-63号,福建省,福州市,台江区,13055779384,unknown,
baidu,7aba44100419fc31dbeced77,福州美福汽车综合服务有限公司,福建省福州市鼓楼区六一北路528号华盛大厦F1,福建省,福州市,鼓楼区,,unknown,
baidu,e1ad60097b0d49342bd7abcc,东水修车店,福州市鼓楼区东水路福建省新闻出版局得贵巷小区东侧约30米,福建省,福州市,鼓楼区,,unknown,
baidu,24d67db895d3287bb03c816d,极氪空间(福州万象九宜城),福建省福州市台江区西环中路691号万象九宜城1F104号,福建省,福州市,台江区,18250703250,unknown,
baidu,ca6fe806b126e0272806ce23,比亚迪汽车王朝网(盛世新景台江万象九宜城商超店),福建省福州市台江区西环中路691号万象九宜城一楼102号、1.5层J26号,福建省,福州市,台江区,18050873308,unknown,
baidu,0d9eab924baf11a70bccdd3c,车美嘉汽车养护中心,太平一路68号,福建省,福州市,台江区,13763871911,unknown,
baidu,d2a1359ca2d8dd9f2a02e1f2,凯越汽车服务广场,广达路370号,福建省,福州市,台江区,,unknown,
baidu,68cf99bdc4fefee49f82ea8d,福州丽贝卡汽车配件有限公司,福建省福州市鼓楼区东街街道东街83号福建国际青年交流中心25层04写字间,福建省,福州市,鼓楼区,,unknown,
baidu,b518abcc7f4f3bfef7eafc17,慕溪共享空间,东水路88号闽发大厦一楼,福建省,福州市,鼓楼区,15280412108,unknown,
baidu,b6fb3a8a6eae50cfe31103a5,福州中宝汽车销售服务有限公司,福建省福州市晋安区塔头路122号真望大厦1层,福建省,福州市,晋安区,(0591)83408833,unknown,
baidu,dfad7c6cb3e6197a0b69d93f,华威新能源汽车驿站(中城名仕汇新能源服务驿站),福州市鼓楼区古田路中城名仕汇,福建省,福州市,鼓楼区,,unknown,
baidu,68cdb02d1e01d4a2250bd067,换锁修箱,福州市鼓楼区新民路福建省冶金宿舍,福建省,福州市,鼓楼区,,unknown,
baidu,65ade7ba2bfead2cc5effbe4,神州租车(三坊七巷自助点),福建省福州市鼓楼区雅道巷三坊里幼儿园右侧雅道巷停车场内,福建省,福州市,鼓楼区,,unknown,
baidu,83f6acfa65f80367fda778ab,福州康驰新巴士有限责任公司-宇通客车特约服务站,福建省福州市晋安区王庄街道福马路50号,福建省,福州市,晋安区,,unknown,
baidu,1ed6ca3db012df2d4e776ede,万卡租车(王庄店),福建省福州市晋安区福马路79号紫光公寓一座一楼03号（海都大酒楼旁）,福建省,福州市,晋安区,"(0591)22605555,13655030108",unknown,
baidu,ace350bc41bd6fa074026980,老周修车店,福州市台江区五一前街汇福花园北侧约70米,福建省,福州市,台江区,,unknown,
baidu,9243cee0055adfc911882433,固特异轮胎专卖店(福建省教育厅宿舍店),福建省福州市鼓楼区北大路北后街37号,福建省,福州市,鼓楼区,13706941357,unknown,
baidu,d94114468a3225f14207c1e7,屏东修车店,福州市鼓楼区屏东路温泉花园西侧约30米,福建省,福州市,鼓楼区,,unknown,
baidu,66ddecea63020158b1077daf,航锋租车,福建省福州市台江区白马中路126号中庚书香大第南区9栋,福建省,福州市,台江区,13110515049,unknown,
baidu,d2b12be121d6efe1dbd89168,福路汽车租赁(红庆路店),福建省福州市台江区红庆路21-16号,福建省,福州市,台江区,15280001111,unknown,
baidu,9b6a4fac6209f323028972c0,德国力魔汽车养护维修中心,福建省福州市晋安区康山路桂香苑阳光超市1楼,福建省,福州市,晋安区,,unknown,
baidu,3607474c234058cb157643b8,辉世汽车美容店,古田路柏联时代广场洗车店,福建省,福州市,鼓楼区,15205029938,unknown,
baidu,64eb9cdf99dcbe3d1c3894fd,台江区依国汽车用品商行,工业路71号庭芳苑10号楼1层05店面,福建省,福州市,台江区,15960142382,unknown,
baidu,a9a4313d486171c814b54b22,川华洗车店,福建省福州市鼓楼区古田路177号,福建省,福州市,鼓楼区,,unknown,
baidu,9d00e16208c470b28bf15dac,福州米娜美容有限公司,福建省福州市台江区茶亭街道广达路108号世茂国际中心1楼39层17室,福建省,福州市,台江区,,unknown,
baidu,69d2c05f32e9002a3586f4d4,嘉实多护车保养站(紫新二巷店),福建省福州市晋安区紫新二巷速8酒店(福州省彩印厂店)东侧约220米,福建省,福州市,晋安区,,unknown,
baidu,30703418742544139868b425,房产汽车,福州市晋安区浦下路陶然水岸东南侧,福建省,福州市,晋安区,,unknown,
baidu,6ac336b060c740943417dc8a,优科豪马轮胎(小兰轮胎店),福建省福州市台江区义洲街道工业路167号(时代名城1号楼1层16号铺),福建省,福州市,台江区,13600891996,unknown,
baidu,55d5c0ffc31c440c5abbbc93,福州宝石卡汽车租赁有限公司,五一中路233号耀和·51公馆13层832室,福建省,福州市,台江区,,unknown,
baidu,d100cc9adbfbf4d45abbbc2a,路丰租车,福建省福州市鼓楼区古田路150号佳和花园1号楼1层17店面,福建省,福州市,鼓楼区,18120889226,unknown,
baidu,80490032158d25f3c7f025b9,爱马名仕(温泉店),五四路中央商务区树汤路98号,福建省,福州市,鼓楼区,,unknown,
baidu,bb6e9c2716fb2f483a13fd2c,通顺汽车年检站,福建省福州市台江区茶亭街道八一七中路茶亭派出所旁,福建省,福州市,台江区,(0591)87310886,unknown,
baidu,6fba8b427ca5ea5f8936ee93,源顺汽车中介公司,福建省福州市台江区交通路37--2号,福建省,福州市,台江区,"(0591)88370712,15080000839",unknown,
baidu,67ce51888dbc775aa5c756b4,泛诚国际汽修补胎搭电拖车道路救援,福建省福州市鼓楼区五四路158号环球广场26层13单元,福建省,福州市,鼓楼区,17555224782,unknown,
baidu,6e8f4ccb3798a81651e5c56a,先京补胎拖车,福建省福州市晋安区晋安南路8号紫光公寓砌池1座,福建省,福州市,晋安区,,unknown,
baidu,64c1a46f8c322d0881288a01,福建悦车检测服务有限公司,福建省福州市台江区南门商圈广达路50号,福建省,福州市,台江区,,unknown,
baidu,a05214cea0e5d5b686420e07,福榕包车旅游租车接送,福建省福州市鼓楼区福新西路239号长短途包车接机送机商务中巴大巴旅游租车,福建省,福州市,鼓楼区,18767374199,unknown,
baidu,a5c0a7eac15dacb54251c04d,协和医院-外科楼,福建省福州市鼓楼区新权路29号,福建省,福州市,鼓楼区,,unknown,
baidu,b533ea4a8280fd584e6d46b2,福建医科大学附属协和医院(于山院区),福建省福州市鼓楼区新权路29号,福建省,福州市,鼓楼区,(0591)83357896,unknown,
baidu,b170c69e666905d05fbe86f9,凤鸣泊颜医疗美容,福建省福州市鼓楼区八一七路268号冠亚广场4号楼1层07店面,福建省,福州市,鼓楼区,(0591)83990072,unknown,
baidu,55fa2c0beda545501ce9997c,福建省妇幼保健院,福州市鼓楼区道山路18号,福建省,福州市,鼓楼区,(0591)87557800,unknown,
baidu,5508504dd95044b6c7f02558,福建医科大学附属协和医院-门诊部,福建省福州市鼓楼区新权路29号,福建省,福州市,鼓楼区,(0591)83357896,unknown,
baidu,faede22a1746d2fb31870a16,福建医科大学附属协和医院(于山院区)-2号病房楼,福建省福州市鼓楼区安泰街道新权路29号福建医科大学附属协和医院,福建省,福州市,鼓楼区,,unknown,
baidu,50fb64fff1ab6144e8f853ad,福州市第七医院,福建省福州市鼓楼区八一七北路238号一区,福建省,福州市,鼓楼区,(0591)87551350,unknown,
baidu,50ca82861684477206026f28,福建省妇幼保健院医疗保健综合楼,福建省福州市鼓楼区道山路18号2号楼,福建省,福州市,鼓楼区,,unknown,
baidu,032f0ee5b4317fc0047ce8f2,福建医科大学附属协和医院(于山院区)-1病房楼,福建省福州市鼓楼区新权路29号福建医科大学附属协和医院内,福建省,福州市,鼓楼区,,unknown,
baidu,7089a76d078b6f0a2cb96d00,鼓楼协医堂中医门诊部,福建省福州市鼓楼区八一七北路267-23号东兴大楼1号楼二层,福建省,福州市,鼓楼区,(0591)83305939,unknown,
baidu,ed997befdd559c67882fb586,福建医科大学附属协和医院-5号病房楼,福建省福州市鼓楼区安泰街道新权路29号福建医科大学附属协和医院内,福建省,福州市,鼓楼区,,unknown,
baidu,1db4fe6dcd70909fb817e790,福州市鼓楼区基源中医门诊有限公司,福建省福州市鼓楼区津泰路50号,福建省,福州市,鼓楼区,,unknown,
baidu,2eeb9e125a245c5a07fef549,福建医科大学附属协和医院-8号病房楼,福州市鼓楼区新权路29号,福建省,福州市,鼓楼区,,unknown,
baidu,732a09ee449e2eb8d518b72c,福建省妇幼保健院-门诊,福建省福州市鼓楼区道山路18号,福建省,福州市,鼓楼区,,unknown,
baidu,c72e4ba67f9b993d32f71dc2,福建医科大学附属协和医院(于山院区)-检验科,福建福州市鼓楼区新权路29号,福建省,福州市,鼓楼区,,unknown,
baidu,37cbf5c76148de182811d156,鼓楼区东街街道社区卫生服务中心,福建省福州市鼓楼区东泰路109号,福建省,福州市,鼓楼区,(0591)83327961,unknown,
baidu,06d2dffd36062f8b88f15d5b,福建省妇幼保健院-急诊,福建福州市鼓楼区道山路18号,福建省,福州市,鼓楼区,,unknown,
baidu,42a4b901028d9f8fdc1e5225,福建省妇幼保健院-儿童保健中心,道山路111号福建省妇幼保健院,福建省,福州市,鼓楼区,,unknown,
baidu,a4549655eb2f6d3d04fef562,福建省生殖医学中心大楼,福州市鼓楼区道山路18号福建省妇幼保健院道山路院区8号楼,福建省,福州市,鼓楼区,,unknown,
baidu,7d7652aa4fb3b48d25d2bbc0,福建医科大学附属协和医院-康复科,福建省福州市鼓楼区新权路29号,福建省,福州市,鼓楼区,,unknown,
baidu,b2b987cd38e83bde1b11d5c1,守正中医诊所,福建省福州市鼓楼区津泰路54-1号,福建省,福州市,鼓楼区,,unknown,
baidu,58c9ea2df20b0f3829fc4822,华氏医疗,福建省福州市鼓楼区道山路永祚社巷81号,福建省,福州市,鼓楼区,18396506183,unknown,
baidu,5bbdcd080ad6d0f59ee321e4,福州市第七医院-发热门诊,福州市鼓楼区817北路238号,福建省,福州市,鼓楼区,(0591)87627330,unknown,
baidu,1e4b810bb21648926140a9e1,福建医科大学附属协和医院(于山院区)-医院感染管理科,福州市鼓楼区新权路29号,福建省,福州市,鼓楼区,,unknown,
baidu,9ad7be3f488fbcab5abbbce7,马建河内科诊所,福建省福州市鼓楼区南营巷47号,福建省,福州市,鼓楼区,,unknown,
baidu,08fc93dfbc8a9b889a68b4b3,福建医科大学附属第一医院,福建省福州市茶中路20号,福建省,福州市,台江区,(0591)87983333,unknown,
baidu,4f4e20ab4228fad24d2fdff8,福建省妇幼保健院-发热门诊,福建省福州市鼓楼区道山路18号,福建省,福州市,鼓楼区,,unknown,
baidu,c50967d6a75dd96c100daa16,鼓楼区东街街道大根社区卫生服务站,福建省福州市鼓楼区城守前路18号,福建省,福州市,鼓楼区,(0591)87620120,unknown,
baidu,6789dddef0958270d1f49e0e,高济特慢病服务中心,福州市鼓楼区八一七北路东兴大楼,福建省,福州市,鼓楼区,,unknown,
baidu,e201d95c8aeaa7c5223bf22f,福州多乐儿科(儿童增高·多动抽动·行为发育专科门诊),福建省福州市鼓楼区乌山支路69号,福建省,福州市,鼓楼区,,unknown,
baidu,f633606ae49915570a69d9b3,福建省立医院,福建省福州市鼓楼区东街134号,福建省,福州市,鼓楼区,(0591)87557768,unknown,
baidu,7349e61fcb15a43b0b5cb34c,鼓楼协医堂中医门诊部-发热门诊,福州市鼓楼区八一七路267号东兴大楼第、2连体幢2单元02店面,福建省,福州市,鼓楼区,,unknown,
baidu,e93761f65b09b515223bf2f9,瑞来春堂中医馆(南后街馆),光禄坊4号，6号,福建省,福州市,鼓楼区,(0591)88563408,unknown,
baidu,36908c0360306ea76e476097,样品受理大厅,福建省福州市鼓楼区津泰路76号,福建省,福州市,鼓楼区,,unknown,
baidu,244413095e87b1e71676435c,康之美口腔门诊部,福建省福州市鼓楼区八一七中路48号,福建省,福州市,鼓楼区,(0591)87662658,unknown,
baidu,415f1285f584c1cf6240a905,AED(定光寺),福州市鼓楼区于山路9号定光寺,福建省,福州市,鼓楼区,,unknown,
baidu,77f25a807204777fd618b76d,许清枝诊所,福建省福州市鼓楼区乌山支路123号中寰商业中心D1-09号,福建省,福州市,鼓楼区,,unknown,
baidu,265af8b6b8ba1fe482288a9b,韵琼诊所,福建省福州市鼓楼区安泰街道澳门路47号,福建省,福州市,鼓楼区,(0591)87607263,unknown,
baidu,feb5b304a05d6faecf06a406,起跑线康复医疗中心,福建省福州市鼓楼区八一七中路18号,福建省,福州市,鼓楼区,,unknown,
baidu,5bb9a25ce14fffababf0cdfd,福建省妇幼保健院-3号楼,福建省福州市鼓楼区道山路18号,福建省,福州市,鼓楼区,,unknown,
baidu,05dd7d5fba3ab101ac080fb0,鼓楼区鼓东街道社区卫生服务中心,福建省福州市鼓楼区观风亭街23号公正台湾美食城3层,福建省,福州市,鼓楼区,(0591)87609069,unknown,
baidu,548c37ee8200f19f3ce2315e,福州国际旅行卫生保健中心(福州海关口岸门诊部),福建省福州市鼓楼区东街131号,福建省,福州市,鼓楼区,,unknown,
baidu,d24d124846cec12502897212,正华积德中医门诊(南门兜馆),福建省福州市鼓楼区古田路7号东升楼6楼,福建省,福州市,鼓楼区,,unknown,
baidu,36ed002622252ff65d0d0237,福州市第七医院-体检中心,福州市鼓楼区八一七路238号第七医院体检科,福建省,福州市,鼓楼区,,unknown,
baidu,db9c11ac19756a3407026fd0,鼓楼多乐儿科门诊部-发热门诊,福州市鼓楼区乌山支路69号,福建省,福州市,鼓楼区,,unknown,
baidu,4141b519daaf16a2bd48429f,福建医科大学附属口腔医院仁德路门诊部,福建省福州市台江区仁德路35号,福建省,福州市,台江区,"(0591)83334354,(0591)83732856,(0591)83732857",unknown,
baidu,3f9337d6af0777cef723105e,福建医科大学附属第一医院-门诊部,福建省福州市台江区茶中路20号,福建省,福州市,台江区,,unknown,
baidu,181eac7fe9a38e3815c9052e,康佰家大药房(第四十五分店),福建省福州市鼓楼区花园路11-4号,福建省,福州市,鼓楼区,(0591)62008770,unknown,
baidu,7c5720c93aa14e249b68b470,东街街道大根社区卫生服务站-发热门诊,福州市鼓楼区城守前路18号,福建省,福州市,鼓楼区,,unknown,
baidu,d75c59971a91442e364aae76,上工汇健康体检,福州市鼓楼区五一北路正祥中心三层,福建省,福州市,鼓楼区,(0591)87800755,unknown,
baidu,4b46a1f953c3868da8059d88,鼓楼区鼓西街道社区卫生服务中心,福建省福州市鼓楼区元帅路46号,福建省,福州市,鼓楼区,(0591)87861653,unknown,
baidu,55715ae2ceef8612a3acc4f9,福州市中医院-健康体检中心,福州市鼓楼区贤南路26号(原明星影城3楼),福建省,福州市,鼓楼区,(0591)87678560,unknown,
baidu,56e88cba84fa0a7ca5c756ad,福州市中医院(鼓东路),福州市鼓楼区鼓东路102号,福建省,福州市,鼓楼区,(0591)87678569,unknown,
baidu,c357fed56ca8aa15b34c49cf,百康灵大药房,鼓楼区东泰路254号,福建省,福州市,鼓楼区,18120797820,unknown,
baidu,1816533442aad11dfa2d61b2,北大医药商店(道山路店),道山路91号,福建省,福州市,鼓楼区,(0591)87567418,unknown,
baidu,2ffa94b7d90de0ae5abbbcbb,国药控股专业药房(古田路店),福建省福州市鼓楼区古田路38号,福建省,福州市,鼓楼区,(0591)87119926,unknown,
baidu,0bde43e845fcdcdf78f7965e,上海街道社区卫生服务中心,福州市台江区交通路171号,福建省,福州市,台江区,(0591)86301333,unknown,
baidu,ea4a3dc900b7f1374f5547ad,福建省级机关医院,福建省福州市鼓楼区鼓屏路67号,福建省,福州市,鼓楼区,(0591)87822809,unknown,
baidu,1d776735e1999f2a79dbd228,康利达医药连锁(东泰路店),福建省福州市鼓楼区中军后1~3号,福建省,福州市,鼓楼区,(0591)87555379,unknown,
baidu,94275b62c8c9bfd4ee74f86a,福建中医药大学附属康复医院,福州市鼓楼区湖东支路13号,福建省,福州市,鼓楼区,(0591)88529297,unknown,
baidu,86c1400089026acdcb213d2f,兴北方大药房(南禅寺分店),福建省福州市鼓楼区八一七北路267号,福建省,福州市,鼓楼区,(0591)83325616,unknown,
baidu,ce1feb13c9b6a0e483a12e4e,圆心大药房(思景大楼店),福建省福州市鼓楼区安泰街道东街口商圈道山路101号,福建省,福州市,鼓楼区,"(0591)85525921,13313788753",unknown,
baidu,1e0ef5c8d1ab4485b64f5477,鼓楼区东街街道社区卫生服务中心-发热门诊,东泰路109号,福建省,福州市,鼓楼区,(0591)83327202,unknown,
baidu,0835c47aa7a3875609a8d422,福建省人类精子库,福州市鼓楼区道山路18号福建省妇幼保健院4号楼5层,福建省,福州市,鼓楼区,,unknown,
baidu,064455a6529d27b07adbd231,鹭燕大药房(省妇幼店),福建省福州市鼓楼区道山路105-1号01-04店,福建省,福州市,鼓楼区,(0591)87625882,unknown,
baidu,be6250a3020e46d70a5cb36a,助听器听力验配中心,福建省福州市鼓楼区八一七北路东兴大楼一层,福建省,福州市,鼓楼区,,unknown,
baidu,bd50c334173dfee3725e8072,峰力助听器(协和南门兜店),福建省福州市鼓楼区八一七北路267-11号东兴大楼一层,福建省,福州市,鼓楼区,"(0591)83325985,13358267098",unknown,
baidu,38de1606f4fe779917b54b5a,高济特药专业药房(福州第五分店),福建省福州市鼓楼区八一七北路267号,福建省,福州市,鼓楼区,,unknown,
baidu,1bf85b25dc1c45bda0a934a2,爱康国宾(福州鼓楼分院),福州市鼓楼区六一北路328号金源花园二层,福建省,福州市,鼓楼区,"(0591)88508500,(0591)88508556",unknown,
baidu,7c62b4c445e4e2ada0d230ca,海王星辰健康药房(津泰商厦店),福建省福州市鼓楼区东街街道仙塔街125号金泰大厦1层07店面,福建省,福州市,鼓楼区,(0591)87988502,unknown,
baidu,2fc140c071d5231b2fb908e0,怡和嘉业睡眠呼吸体验中心,福建省福州市鼓楼区八一七路268-25号,福建省,福州市,鼓楼区,,unknown,
baidu,0ef79d2bd88a44bba8059dfa,北京同仁堂(大洋晶典乌山店),八一七北路268号大洋晶典2楼,福建省,福州市,鼓楼区,(0591)88590703,unknown,
baidu,3aba2e4548684df758f6be75,龙康益寿保健品店,福建省福州市鼓楼区乌山路5号,福建省,福州市,鼓楼区,(0591)83775566,unknown,
baidu,059a1b1c78e741ac4afc8d36,树德堂,福州市鼓楼区澳门路16号林则徐纪念馆,福建省,福州市,鼓楼区,,unknown,
baidu,fd6fb7a3562b77d3102935b5,美可普口腔(东街分院),福建省福州市鼓楼区八一七北路190号,福建省,福州市,鼓楼区,18106022506,unknown,
baidu,82ccbcd6f0c3dbcf2dfaa79d,芮妍医疗美容,福建省福州市鼓楼区安泰街道斗西路南侧东西河北侧中寰花园中寰商业中心(一至四区)地块三C1楼101-104商业,福建省,福州市,鼓楼区,,unknown,
baidu,6350d5e98d5f4ba5bea240d6,林珊口腔正畸工作室,福州市鼓楼区仙塔街138号津泰商务公寓2层,福建省,福州市,鼓楼区,,unknown,
baidu,61190b24df608965e31103e7,黄劲松口腔诊所,福建省福州市鼓楼区道山路2号-104室,福建省,福州市,鼓楼区,(0591)87532372,unknown,
baidu,9b531c0606b587c534b06c4d,悦尔丽访东医疗美容,福州市鼓楼区八一七北路安泰中心-A区西北侧约60米,福建省,福州市,鼓楼区,,unknown,
baidu,1717dfabf00d352a54bfff3b,何燕芳口腔诊所,福建省福州市鼓楼区东泰路144号,福建省,福州市,鼓楼区,"(0591)83037277,(0591)88933177",unknown,
baidu,ba352a9299d987694354d79f,沈慈云口腔,福建省福州市鼓楼区乌山支路29-26号力信新村13号店,福建省,福州市,鼓楼区,13313974673,unknown,
baidu,38c0bfa8bd5d9fdef6c59c14,福州名韩医疗美容,福建省福州市鼓楼区湖滨路66号,福建省,福州市,鼓楼区,13799365760,unknown,
baidu,c3e04573c6854eaacd04ef74,科尔口腔(鼓楼院),福建省福州市鼓楼区杨桥东路24号,福建省,福州市,鼓楼区,4000400022,unknown,
baidu,91ebfb8670660eca2a02e1fc,悦耳动听助听器,福建省福州市鼓楼区八一七北路267号,福建省,福州市,鼓楼区,"(0591)83371918,18905021805",unknown,
baidu,e5f3bb253b630c9fa6da395f,福州福能海峡口腔医院,福建省福州市台江区五一中路124号,福建省,福州市,台江区,0591-88338833,unknown,
baidu,8268589f3437f19c2b11d185,海之声助听器(福州鼓楼店),福建省福州市鼓楼区八一七中路62号澳林大厦1层(国家税务总局福州市税务局对面),福建省,福州市,鼓楼区,0591-83313600,unknown,
baidu,393229de1f7e1123eaf85311,健洛通,八一七中路41号新兴大厦13层,福建省,福州市,鼓楼区,,unknown,
baidu,f11c2d010ad31b9d841541f2,功德堂,东泰路95号大觉寺,福建省,福州市,鼓楼区,,unknown,
baidu,203e4af848a0f18980a00cd2,东方启音鼓楼店 言语矫正 自闭症(福州鼓楼店),福建省福州市鼓楼区八一七北路213号3楼,福建省,福州市,鼓楼区,18617383486,unknown,
baidu,ee80a2f81f591cbb1fe99968,学而思(金晖校区),福建省福州市鼓楼区八一七北路249号金晖大厦3楼,福建省,福州市,鼓楼区,(0591)87521175,unknown,
baidu,8e21ea0e94de216cb020a828,优师工场(南门校区),福建省福州市鼓楼区沧虹路319号汇利花园2层,福建省,福州市,鼓楼区,(0591)87527657,unknown,
baidu,6760dc4f59169b4d631c679d,学而优教育,福建省福州市鼓楼区津泰路48号安泰中心津泰路48号11号楼二层,福建省,福州市,鼓楼区,(0591)87558072,unknown,
baidu,d314f2cee3031173f942b2ee,与彤舞蹈(冠亚中心),福建省福州市鼓楼区八一七北路268号冠亚广场3号楼2楼金宝贝旁(美食街),福建省,福州市,鼓楼区,18859193133,unknown,
baidu,2f9326ec6ef097087adbd22e,梁济教育,福建省福州市鼓楼区八一七北路190号闽星楼3层,福建省,福州市,鼓楼区,(0591)87552184,unknown,
baidu,9a9e4c6ab948fb63a8f72997,福州市千里马职业培训学校,福州市鼓楼区东街街道八一七北路189号安泰新华书店2层,福建省,福州市,鼓楼区,,unknown,
baidu,665c3b46762cdb722902e141,英孚教育青少儿(东百C馆中心),福建省福州市鼓楼区八一七北路182号东百中心C5馆3楼,福建省,福州市,鼓楼区,4009210693,unknown,
baidu,ce03b802cfb2215572210be1,瀚听古琴,福建省福州市鼓楼区花园弄44号,福建省,福州市,鼓楼区,19959220936,unknown,
baidu,208cf25a74cce487a8f729ed,新东方(新南门校区),福建省福州市鼓楼区古田路7号东升楼4层,福建省,福州市,鼓楼区,(0591)63516572,unknown,
baidu,1ecf7fdb51d5fd0328d7abdd,三荷培训学校,福建省福州市鼓楼区八一七北路171号瑞丰楼F3,福建省,福州市,鼓楼区,(0591)87752946,unknown,
baidu,3218e1286f611d94c91b953a,贝尔机器人编程中心(津泰校区),福建省福州市鼓楼区仙塔街138号津泰商务公寓1楼12店面,福建省,福州市,鼓楼区,15859163372,unknown,
baidu,32a319cc5ae276b9f11937bf,雁山堂古琴传习所(大洋晶典乌山店),福建省福州市鼓楼区八一七北路268号冠亚广场负一楼,福建省,福州市,鼓楼区,15980680280,unknown,
baidu,9cd197c81f8bb913f82213b6,IKIDFIT爱酷少儿体能(东街店),八一七北路189号安泰中心A区二楼,福建省,福州市,鼓楼区,,unknown,
baidu,39a47e46227f0184a7c7562b,胡贝儿形体礼仪女子学堂(冠亚广场店),八一七北路268号冠亚广场1楼连接地下一层256店面,福建省,福州市,鼓楼区,15005995392,unknown,
baidu,c9a1df73d4b0d6349b68b4cb,大洋晶典-员工区域,福州市鼓楼区八一七北路268号大洋晶典B1,福建省,福州市,鼓楼区,,unknown,
baidu,62f2aab988d8bd469222e093,吴清源围棋会馆,乌山路78号(南门兜地铁站D2口步行370米),福建省,福州市,鼓楼区,,unknown,
baidu,b98aa24f2eb5f00e601c6753,一合华乐艺术交流中心·古琴·古筝,福建省福州市鼓楼区八一七北路268号冠亚广场B1层7号楼232室（东街口）,福建省,福州市,鼓楼区,"15720512001,18106028991",unknown,
baidu,3c33ffb67f81fca7fb2d6177,福州卓越培训学校(津泰商厦店),福建省福州市鼓楼区仙塔街125号津泰商厦4楼,福建省,福州市,鼓楼区,,unknown,
baidu,a6b10d5dd4f9b261a1046402,爱恳心智力儿童训练中心(冠亚广场店),福建省福州市鼓楼区八一七北路268号冠亚广场B1,福建省,福州市,鼓楼区,13609523369,unknown,
baidu,055392ddb8962106bea24036,树人酷学堂,福建省福州市鼓楼区安泰街道鳌峰坊47号,福建省,福州市,鼓楼区,15375953657,unknown,
baidu,afe1da25778fd40259bbbc12,FIND智慧钢琴学院(冠亚校区),福建省福州市鼓楼区八一七北路268号冠亚广场F2,福建省,福州市,鼓楼区,18559190319,unknown,
baidu,7fa02cf31110fba342afe61c,驴宝贝能力提升中心(大洋晶典乌山店),福州市鼓楼区八一七北路268号大洋晶典B1,福建省,福州市,鼓楼区,,unknown,
baidu,6765bf1b33daeb38ee74f88c,心向尚八一七路篮球校区,福建省福州市鼓楼区八一七北路207号阿迪达斯旗舰店四楼,福建省,福州市,鼓楼区,,unknown,
baidu,20c78e8fb904748d6cc02cce,福熹书院,津门路40号,福建省,福州市,鼓楼区,13720839654,unknown,
baidu,68fa030516a87c7ab320a8a1,训捷驾校(东街口店),八一七北路268号7号楼1层,福建省,福州市,鼓楼区,18396180226,unknown,
baidu,0538e0dbbd5fab767069d39b,福州市非常123语言基地(鼓楼店),八一七中路55号洪腾阁二楼,福建省,福州市,鼓楼区,17359003123,unknown,
baidu,fa99e95e4c067e198c55ec8d,小墨儿戏剧教育(南门兜校区),福建省福州市鼓楼区八一七中路49号联滨楼6楼（福州大饭店正对面）,福建省,福州市,鼓楼区,(0591)83894087,unknown,
baidu,f48564d1f47e56ab61685825,小白杨鳌峰艺术小学堂,福建省福州市鼓楼区鳌峰坊43号,福建省,福州市,鼓楼区,(0591)87625102,unknown,
baidu,180d1d70af85fd413310afaf,基因工程实验室,福建省福州市鼓楼区安泰街道新权路29号福建医科大学附属协和医院9号楼2层,福建省,福州市,鼓楼区,,unknown,
baidu,98b8d4f19229ca1e32f71d65,王牌嘻帝街舞少儿馆(鼓楼校区),福州市鼓楼区八一七北路133号大洋百货(东街口店)F6（海底捞对面）,福建省,福州市,鼓楼区,13559129512,unknown,
baidu,b3a0d4e5c53a93edad080fe7,美育音乐舞蹈国际机构(福州分校),福建省福州市八一七北路133号大洋百货四楼,福建省,福州市,鼓楼区,(0591)87509509,unknown,
baidu,827fc0a4b096a51815c905cc,哈鼓邦流行音乐(东街校区),福建省福州市鼓楼区八一七北路133号大洋百货(东街口店)F6,福建省,福州市,鼓楼区,"15880003070,18559955979",unknown,
baidu,4160fa33a492bbb7c909f06f,福建省茶叶学会社会培训评价中心,福建省福州市鼓楼区安泰街道古田路七号,福建省,福州市,鼓楼区,13859080625,unknown,
baidu,168049c3e7eeaaae3f9a5e19,于山平远诗书画院,虞山顶1号于山风景区内,福建省,福州市,鼓楼区,,unknown,
baidu,9cc655b824c6e76875e5b6f9,严复书院,福建省福州市鼓楼区南街街道三坊七巷宫巷35号,福建省,福州市,鼓楼区,13950487379,unknown,
baidu,c8e8f633af42796caa0dd8b8,福建省福州延安中学,福建省福州市鼓楼区学院前巷2号,福建省,福州市,鼓楼区,(0591)87556804,unknown,
baidu,3a79377df3126ab19fec2b6b,千鸟美术培训(鼓楼校区),福建省福州市鼓楼区秀冶里河墘巷2号,福建省,福州市,鼓楼区,18150805865,unknown,
baidu,26f771d5a6d4ef9c88db737f,福州延安中学(小学部),福建省福州市鼓楼区圣庙路福涧街17号（南门兜地铁站出入口步行240米）,福建省,福州市,鼓楼区,(0591)87550938,unknown,
baidu,8e8a3d7d42ee4dbdfbdc859a,快乐托辅,福州市鼓楼区马道街东锦楼,福建省,福州市,鼓楼区,"15959192295,18705095075",unknown,
baidu,ffca95cf9e4c4adab75f1e8c,福建庆隆驾驶训练基地(东街门店),鼓楼区石井新村1座907号,福建省,福州市,鼓楼区,18050330905,unknown,
baidu,26185378dad855a9d8eced8b,习听堂书画,福建省福州市鼓楼区马道街东锦楼204号,福建省,福州市,鼓楼区,,unknown,
baidu,b1b42195df7a2294e81e97b6,新星托育园(东街园),福建省福州市鼓楼区八一七北路209-2号,福建省,福州市,鼓楼区,17359000158,unknown,
baidu,2548e8f6dd82ec790ab93a70,绘众美学馆(南门兜校区),福州市鼓楼区斗东路12号联滨楼4层,福建省,福州市,鼓楼区,(0591)83322300,unknown,
baidu,67510fc1d528fc8558f6beb3,当学教育,福州市鼓楼区津泰路福建财会管理干部学院,福建省,福州市,鼓楼区,(0591)87555185,unknown,
baidu,2ad32cc319c03f8f9c95deb8,福建省福州格致中学(于山校区),福建省福州市鼓楼区法海路41号,福建省,福州市,鼓楼区,(0591)87551793,unknown,
baidu,bb6f80960a2c04fdda2f2812,福州市蓓蕾幼儿园,福建省福州市鼓楼区鳌峰坊景区46号,福建省,福州市,鼓楼区,(0591)87522751,unknown,
baidu,136fce4d1bcc741308ccdd61,福州市鼓楼第二中心小学,福建省福州市鼓楼区东泰路116号,福建省,福州市,鼓楼区,(0591)87660076,unknown,
baidu,f3c2373c3e7f2f52d32dd6b8,福州教育学院附属第二小学,福建省福州市鼓楼区鳌峰坊42号,福建省,福州市,鼓楼区,(0591)87502574,unknown,
baidu,6bac6774af46147e45e2746d,福州市斗南小学,福建省福州市鼓楼区马道街73号(南门兜地铁站D3口步行130米),福建省,福州市,鼓楼区,(0591)83310434,unknown,
baidu,d0987ad2eb34536cc1f1cf33,永福斋,福建省福州市鼓楼区府学弄31号,福建省,福州市,鼓楼区,,unknown,
baidu,f1ea30b0c537398095ca0768,八闽书院,福州市鼓楼区安民巷16号,福建省,福州市,鼓楼区,,unknown,
baidu,b1178d6422a21d7143e192aa,多特儿童专注力(福州大洋晶典训练中心),福建省福州市鼓楼区乌山路大洋晶典3楼,福建省,福州市,鼓楼区,"(0591)83702860,4009996098",unknown,
baidu,5c56edd6778e3927a1d2306d,陆庄幼儿园,福建省福州市鼓楼区道山路澳门新村3号楼,福建省,福州市,鼓楼区,13276013686,unknown,
baidu,f633606a7ef89f4e0a69d9b8,福建省福州第十一中学,福建省福州市劳动路18号,福建省,福州市,鼓楼区,(0591)87513414,unknown,
baidu,aa6877f24d2fcdd5abf0cdfd,福建省福州文教职业中专学校,福建省福州市台江区交通路22号,福建省,福州市,台江区,(0591)83332015,unknown,
baidu,161a0ed2fb350e505dd4fe80,福建省少年儿童图书馆,福建省福州市鼓楼区东街28号(东街口地铁站A口东215米),福建省,福州市,鼓楼区,(0591)88208129,unknown,
baidu,ebf862c2dc4d3ecb8c1a89c2,福建省继续教育中心,福建省福州市鼓楼区南街街道安民巷15,福建省,福州市,鼓楼区,,unknown,
baidu,5049f3229bc97b42e6e96575,笔墨家园书院,福建福州市鼓楼区吉庇路82号,福建省,福州市,鼓楼区,15606026991,unknown,
baidu,2cc3c8e8261ba9d64c2fdfb8,福州第二中学,福建省福州市鼓楼区光禄坊100号,福建省,福州市,鼓楼区,(0591)87551905,unknown,
baidu,84149caf11144697f03cbafe,福建省烧伤研究所,福建省福州市鼓楼区新权路29号福建医科大学附属协和医院9号楼,福建省,福州市,鼓楼区,,unknown,
baidu,6fddd7fdf9e7e57f3417dcac,福州教育学院附属第一小学,福建省福州市鼓楼区蒙古营巷5号,福建省,福州市,鼓楼区,(0591)87521773,unknown,
baidu,d7120c93bdc3448421f017f6,福州教育研究院,福建省福州市鼓楼区光禄坊103号,福建省,福州市,鼓楼区,(0591)87607526,unknown,
baidu,72e57fd7294cd0aef8dc8547,福州市第十九中学,福建省福州市鼓楼区庆城路16号,福建省,福州市,鼓楼区,"(0591)87522555,(0591)87553685",unknown,
baidu,cdef4edf16aab24d29d7ab89,福州市于山老年大学,福建省福州市鼓楼区五一北路172号,福建省,福州市,鼓楼区,13696832935,unknown,
baidu,b7ea22d3cb80de2f4107c1d0,福建医科大学(台江校区),福建省福州市台江区交通路88号,福建省,福州市,台江区,(0591)22862315,unknown,
baidu,a93b596d3052eef5eaf85346,沈绍安漆艺研究院,福州市鼓楼区津泰路圣庙社区,福建省,福州市,鼓楼区,,unknown,
baidu,3810c8791277208b9c09f76e,福州市群众路小学,福建省福州市台江区群众路158号,福建省,福州市,台江区,(0591)83320492,unknown,
baidu,f757e6eee8fa7717270bd0b8,福州乌山小学,福建省福州市鼓楼区乌山路120号,福建省,福州市,鼓楼区,(0591)87563654,unknown,
baidu,6e58f8c3901535fd30169bc1,福州市达明小学,福建省福州市鼓楼区元帅路39号,福建省,福州市,鼓楼区,(0591)87521203,unknown,
baidu,33884b4d81ddc0672fb9084d,福州市井大小学,福建省福州市鼓楼区鼓东街道化民支巷5号,福建省,福州市,鼓楼区,(0591)87617655,unknown,
baidu,a3e8341c2fe6e0944bfd3fa8,福州第十八中学,福建省福州市鼓楼区通湖路118号,福建省,福州市,鼓楼区,(0591)87516856,unknown,
baidu,fe712ca289a50e82cb213d09,福建财会管理干部学院,福建省福州市鼓楼区津泰路238号,福建省,福州市,鼓楼区,,unknown,
baidu,9881e00623d676927ab55c57,福州市闽都文化研究会,福建省福州市鼓楼区安泰街道东街口商圈八一七北路268号,福建省,福州市,鼓楼区,(0591)88302019,unknown,
baidu,373cf7572ec6e66e4254d7b8,福州市小柳小学,福建省福州市鼓楼区柳河路16号,福建省,福州市,鼓楼区,(0591)83779263,unknown,
baidu,67bc87a5193a4f9fab0dd8d6,鼓楼第一中心小学,福建省福州市鼓楼区鼓屏路40号,福建省,福州市,鼓楼区,"(0591)87272366,(0591)87560594",unknown,
baidu,63f84ffd51b103b70ab93af0,福建江夏学院(津泰校区),福建省福州市鼓楼区津泰路238号,福建省,福州市,鼓楼区,,unknown,
baidu,c8b5cdef53a85603130daa6e,福建省交通规划设计院,福建省福州市台江区交通路43号,福建省,福州市,台江区,(0591)83357798,unknown,
baidu,e6ee2fd2788312482a11d1b8,福州市华侨小学,福建省福州市鼓楼区琼河巷18号,福建省,福州市,鼓楼区,(0591)87503844,unknown,
baidu,41c65d75776af8a7f6c59c8a,中国寿山石文化发展研究中心,福建省福州市鼓楼区东街口商圈吉庇路90号,福建省,福州市,鼓楼区,,unknown,
baidu,f80c42b9b6657b03d23ce3ec,鼓楼区第二中心小学教学楼-1栋,福建省福州市鼓楼区石井巷鼓楼区第二中心小学,福建省,福州市,鼓楼区,,unknown,
baidu,f26ad9229aef2f0e6e20b9b2,福州市中山小学(中山校区),福建省福州市鼓楼区赛月亭巷16号,福建省,福州市,鼓楼区,"(0591)87272366,(0591)87831675",unknown,
baidu,a333460422ce1e8d14b54b74,福州大学数字城乡集成设计研究院,福州市鼓楼区太平街1号太平古街,福建省,福州市,鼓楼区,,unknown,
baidu,7b95916b476bf7def7e73b4c,成德公益书吧,福州市鼓楼区仓房街于山风景名胜公园,福建省,福州市,鼓楼区,,unknown,
baidu,6c0777a0711022c50ab93ac7,福州市三坊七巷历史文化研究会,福州市鼓楼区黄巷三坊七巷,福建省,福州市,鼓楼区,,unknown,
baidu,cc6804cba2e685cfe507387b,福建省林则徐研究会,福州市鼓楼区营房里直街林则徐祠堂,福建省,福州市,鼓楼区,,unknown,
baidu,db74910d19fefc60acb22a95,W·NAME无名(冠亚广场店),福建省福州市鼓楼区八一七北路268号冠亚广场负一楼D-146号,福建省,福州市,鼓楼区,18950358138,unknown,
baidu,4009dffd0b452280be48422b,极真空手道·巴西柔术总部(冠亚广场店),八一七北路冠亚广场负一层D-183店,福建省,福州市,鼓楼区,13850980980,unknown,
baidu,f8813598754f6d809403193e,福建医科大学妇儿临床医学院,福州市鼓楼区道山路18号福建省妇幼保健院,福建省,福州市,鼓楼区,,unknown,
baidu,ed31e7667c6f9b70aeb22a48,福州市水利水电规划设计院,桂枝里3-2号闽星楼,福建省,福州市,鼓楼区,,unknown,
baidu,2999dde7c3024dd140ab9a53,福州市鼓楼区佳美幼儿园,福建省福州市鼓楼区乌山支路12号3楼,福建省,福州市,鼓楼区,,unknown,
baidu,88883172101f4004b34c49d1,福建福大建筑规划设计研究院有限公司设计方案创作中心,福州市鼓楼区太平街1号太平古街,福建省,福州市,鼓楼区,,unknown,
baidu,a2e3e8c1ededd35036b06c77,福建省水生态与水工程研究中心,福建省福州市鼓楼区安泰街道乌山支路34号,福建省,福州市,鼓楼区,,unknown,
baidu,0b64010d756a085d2bd7abbe,协和医院外科楼-地上停车场,福建省福州市鼓楼区新权路1号,福建省,福州市,鼓楼区,,unknown,
baidu,7af989cba998d3ca58f6bed5,金晖大厦-地下停车场,福州市鼓楼区学院前巷金晖大厦,福建省,福州市,鼓楼区,,unknown,
baidu,dc4488cc20927666a90dd807,协和医院,11路;88路;159路,福建省,福州市,鼓楼区,,unknown,
baidu,7f79fbf755192ee8dad89116,道山路口,1路;8路;20路;20路夜间区间车;66路;101路;117路;121路;滨海7号线;滨海七号线;闽江之心旅游观光线;通勤快线8路,福建省,福州市,鼓楼区,,unknown,
baidu,94e9d85ca092fcafbbbd63dc,榕城大酒店西北侧停车场,福州市鼓楼区法海路圣庙社区西南侧,福建省,福州市,鼓楼区,,unknown,
baidu,594bc8ca8437ce16b42655b8,花园新村-地上停车场,福建省福州市鼓楼区安泰协和医院公交站(花园路),福建省,福州市,鼓楼区,,unknown,
baidu,9e442e79eaa217351fe99961,南门兜,地铁1号线;地铁2号线,福建省,福州市,鼓楼区,,unknown,
baidu,faf99f27b4ff2729ddee8b09,福建医科大学附属协和医院(于山院区)-地下停车场,福建省福州市鼓楼区新权路29号,福建省,福州市,鼓楼区,,unknown,
baidu,9dc09d89f133f50896f08c3c,格致中学(福五中),11路;88路;159路,福建省,福州市,鼓楼区,,unknown,
baidu,4a832b43f305c0012b3a9f8e,福建省妇幼保健院-地下停车场,福州市鼓楼区道山路18号,福建省,福州市,鼓楼区,,unknown,
baidu,17cd5cfed3473d81631c6714,冠亚广场-地下停车场,福建省福州市鼓楼区安泰街道八一七北路268号,福建省,福州市,鼓楼区,(0591)87600011,unknown,
baidu,8bdf38055560b99d7dc876be,于山(协和医院),8路;16路;86路;88路;97路;101路;103路;106路;122路;125路;133路;173路;303路;306路;K3路,福建省,福州市,鼓楼区,,unknown,
baidu,77c3787ca576400b81a12e1d,乌山路口,16路;54路;77路;86路;97路;103路;106路;117路;122路;125路;171路;173路;303路;312路;K3路,福建省,福州市,鼓楼区,,unknown,
baidu,3d172ea4e3a755052bb97cf4,缘之园-地下停车场,福州市鼓楼区吉庇巷三坊七巷,福建省,福州市,鼓楼区,,unknown,
baidu,c8c3e3400cddf8a3a1a934a4,林则徐纪念馆-北侧地上停车场,福州市鼓楼区林则徐纪念馆北,福建省,福州市,鼓楼区,,unknown,
baidu,1d158d68bc809cac14948e8c,南街,1路;8路;20路;20路夜间区间车;66路;101路;117路;121路;356路;闽江之心旅游观光线;通勤快线12路;通勤快线8路,福建省,福州市,鼓楼区,,unknown,
baidu,69a263eca6fa46fc9e9d6851,大洋百货(东街口店)-地下停车场,八一七北路133号大洋百货B2,福建省,福州市,鼓楼区,(0591)88319100,unknown,
baidu,e2c75f8bedda26a0b7f42f51,福州榕棠酒店(三坊七巷南门兜地铁站店)-地下停车场,福建省福州市鼓楼区花园路19号温馨园酒店,福建省,福州市,鼓楼区,,unknown,
baidu,26199763305208a015c9054e,国家电网充电站(鼓楼机关大院电动汽车充电桩),福州市鼓楼区津泰路9号机关大院停车场,福建省,福州市,鼓楼区,15396065798,unknown,
baidu,19d9e791fa449a958d772764,福州文庙-停车场,福州市鼓楼区圣庙路福州文庙,福建省,福州市,鼓楼区,,unknown,
baidu,45e8bcf5d79c61da0f0e6bd5,南门(福州儿童医院),1路;11路;20路;20路夜间区间车;54路;66路;77路;121路;133路;159路;171路;312路;闽江之心旅游观光线,福建省,福州市,鼓楼区,,unknown,
baidu,bd70cb02033ed52c3a13fdaf,龙华天桥,2路;19路;51路;52路;60路;64路;69路;74路;76路;80路;86路;106路;122路;129路;130路;133路;301路;303路;K1路;K3路;东部37号线,福建省,福州市,鼓楼区,,unknown,
baidu,c3f694ec8bcde21e4054d72b,东街口,地铁1号线;地铁4号线,福建省,福州市,鼓楼区,,unknown,
baidu,2c20c9fca993829688b98880,东街口,5路;19路;22路;27路;74路;102路;117路;118路;301路;327路,福建省,福州市,鼓楼区,,unknown,
baidu,8f3a05777f490965f503b8a2,花园新村-停车场,福州市鼓楼区花园路花园新村,福建省,福州市,鼓楼区,,unknown,
baidu,be92f0da8c65e064bca822c0,东兴大楼-停车场,福州市鼓楼区八一七北路267号东兴大楼,福建省,福州市,鼓楼区,,unknown,
baidu,c01ad02ecd72ddc2a8f7294a,邓拓故居东北侧-地上停车场,福州市鼓楼区八一七北路冠亚广场,福建省,福州市,鼓楼区,,unknown,
baidu,20a182f5c9db90b36fc02ce3,冠亚广场-地上停车场,福建省福州市鼓楼区冠亚美食街1-1号邓拓故居北侧,福建省,福州市,鼓楼区,,unknown,
baidu,2f662ac126b6d042afee7ad1,东兴大楼-地下停车场,福建省福州市鼓楼区八一七北路267号东兴大楼,福建省,福州市,鼓楼区,,unknown,
baidu,61453d5feda9e15e6e20b9bd,闽星楼-地下停车场,福建省福州市鼓楼区八一七北路190(闽星楼),福建省,福州市,鼓楼区,,unknown,
baidu,85c2dea6edaae3a78e55ec97,蒙古营,2路;19路;51路;52路;69路;74路;76路;80路;102路;106路;129路;130路;133路;301路;328路;338路;K1路;K3路,福建省,福州市,鼓楼区,,unknown,
baidu,f63e0db7de0a6d74f5e73bb0,安泰中心东侧-停车场,福州市鼓楼区817北路189号,福建省,福州市,鼓楼区,,unknown,
baidu,5196c22eabfec26e2ce67b37,金晖大厦-接送点,福州市鼓楼区金晖大厦附近,福建省,福州市,鼓楼区,,unknown,
baidu,33e149b26366aec1e5073821,三坊七巷(澳门路),339路;356路;7686船政文化城旅游专线;闽江之心旅游观光线,福建省,福州市,鼓楼区,,unknown,
baidu,66600184c19f65dec0364481,P非机动车停车位,福建省福州市鼓楼区马道街新兴大厦(福州大饭店西北200米),福建省,福州市,鼓楼区,,unknown,
baidu,03f229d2191ca42db35c6aa4,省立医院,地铁4号线,福建省,福州市,鼓楼区,,unknown,
baidu,49d9593816ddad43c71e51be,广场明珠-地下停车场,福州市鼓楼区古田路9号广场明珠,福建省,福州市,鼓楼区,,unknown,
baidu,a33450ac7f941f384251c0a7,特来电充电站(福州大洋百货),福建省福州市鼓楼区东街口商圈石井巷72号,福建省,福州市,鼓楼区,4001300001,unknown,
baidu,80cdc6ee693839f9c1f1cf18,西洋,地铁2号线,福建省,福州市,台江区,,unknown,
baidu,f22801d926a0fa474102455d,安泰中心-地上停车场,福州市鼓楼区津泰路安泰中心,福建省,福州市,鼓楼区,,unknown,
baidu,33d54940453010e49cf7798e,华榕广场-地下停车场,福州市鼓楼区古田路9号,福建省,福州市,鼓楼区,,unknown,
baidu,6dc9fa9bf4991020210262d4,茶亭,地铁1号线,福建省,福州市,台江区,,unknown,
baidu,9e07847ad6767394081cc7c3,钰景园-地下停车场,福建省福州市鼓楼区吉庇路61号,福建省,福州市,鼓楼区,,unknown,
baidu,82938b961c426b5426e0a0fe,福州市公安局地面停车场,福州市鼓楼区津门路福州市公安局,福建省,福州市,鼓楼区,,unknown,
baidu,38373c91273d4d74c909f031,仙塔街,11路;88路;159路,福建省,福州市,鼓楼区,,unknown,
baidu,299c87f965e2196a1b11d53f,东兴大楼西南侧临时停车点,福州市鼓楼区八一七北路东兴大楼,福建省,福州市,鼓楼区,,unknown,
baidu,54eb832d808a5fc3bd48425f,水部,地铁2号线,福建省,福州市,鼓楼区,,unknown,
baidu,ff0c63651f5f32984afc8db2,广场明珠-地上停车场,福州市鼓楼区古田路广场明珠,福建省,福州市,鼓楼区,,unknown,
baidu,1de370a64c03631b9b68b4d2,冠亚广场-接送点,福州市鼓楼区冠亚广场附近,福建省,福州市,鼓楼区,,unknown,
baidu,d3545d9355335d36bfa8224d,鳌峰坊-停车场,福州市鼓楼区津门路46-52号,福建省,福州市,鼓楼区,(0591)87959966,unknown,
baidu,620d42149c98333e46e2747e,大洋百货(东街口店)-地上停车场,八一七北路133号大洋百货B2,福建省,福州市,鼓楼区,(0591)88319100,unknown,
baidu,c334fc11cb8480fb5fbe8609,华榕广场-停车场,福州市鼓楼区新权南路2号,福建省,福州市,鼓楼区,,unknown,
baidu,00fe6b6bf5dffd8417c9052a,中共福州市鼓楼区委员会-停车场,福州市鼓楼区津泰路98号,福建省,福州市,鼓楼区,,unknown,
baidu,670a1af31d64cdd9a5da396a,金福商厦-停车场,福州市鼓楼区新权南路12号金福商厦,福建省,福州市,鼓楼区,,unknown,
baidu,6a7ce2889cbe117cfe0eb0df,于山,2路;73路,福建省,福州市,鼓楼区,,unknown,
baidu,46a0e8631bd85054d92f28b5,便民停车场,福州市鼓楼区津门路圣庙社区东侧约40米,福建省,福州市,鼓楼区,,unknown,
baidu,9b368900fe6b802b6c476051,万旭秀冶里-地下停车场,福州市鼓楼区秀冶里3号,福建省,福州市,鼓楼区,,unknown,
baidu,5a58564db002550d1894c679,西门,地铁4号线,福建省,福州市,鼓楼区,,unknown,
baidu,a5d66dac69ca7a83aecb66c7,于山风景名胜公园西南侧临时停车点,福州市鼓楼区古田路华榕广场东北侧约70米,福建省,福州市,鼓楼区,,unknown,
baidu,328feedbef3ab9e0095cb3ec,华商楼-停车场,福州市鼓楼区八一七中路11号华商楼,福建省,福州市,鼓楼区,,unknown,
baidu,ded389ac203887b02fe67ba2,西营里市场北侧-门前停车场,福建省福州市鼓楼区乌山支路29号,福建省,福州市,鼓楼区,,unknown,
baidu,2848ffd6e925870f49cc4abe,乌山文心园北区-地下停车场,福州市鼓楼区乌山加苑B座附近,福建省,福州市,鼓楼区,,unknown,
baidu,eb8be9a9b07d0ded93114c19,力信新村-停车场,福州市鼓楼区乌山支路29号力信新村,福建省,福州市,鼓楼区,,unknown,
baidu,1cc68de3ab730369abf0cd57,津泰商厦-停车场,福州市鼓楼区仙塔街125号,福建省,福州市,鼓楼区,,unknown,
baidu,90b37bb847e0f02bbda822fd,仙塔小区-停车场,福州市鼓楼区仙塔街130号仙塔小区,福建省,福州市,鼓楼区,,unknown,
baidu,cef37bcc038d55f587154160,东门,地铁4号线,福建省,福州市,鼓楼区,,unknown,
baidu,8e6a156c1afcdb0bb1077d2a,福州市花园小学西南侧-停车场,福建省福州市鼓楼区仙塔街18号,福建省,福州市,鼓楼区,,unknown,
baidu,0e79a5275ab66b2a00ff2d16,水部综合大楼-地上停车场,福建省福州市鼓楼区五一北路158号,福建省,福州市,鼓楼区,,unknown,
baidu,38ed39ecf17d8ffa018972e2,宇洋中央金地-停车场,福州市鼓楼区八一七中路98号宇洋中央金地,福建省,福州市,鼓楼区,,unknown,
baidu,b0a5797fa1970f16a3d23059,新兴大厦-地下停车场,福建省福州市鼓楼区八一七中路41号新兴大厦,福建省,福州市,鼓楼区,,unknown,
baidu,cc577201410a4e9e48cc4a73,新侨联广场-停车场,福州市鼓楼区五一北路107号,福建省,福州市,鼓楼区,,unknown,
baidu,e6f2cc25f08e93dca21de9fe,大觉寺-停车场,东泰路95号大觉寺,福建省,福州市,鼓楼区,,unknown,
baidu,a20f9bbc772c0ad35fbe86e8,锦颐(阿波罗)大酒店,空港快线阿波罗专线,福建省,福州市,台江区,,unknown,
baidu,dc8158cff4a2fd900c0a70e2,道山路一号大楼-停车场,福州市鼓楼区道山路福州市第七医院南侧约50米,福建省,福州市,鼓楼区,,unknown,
baidu,0046211ca8df7e0be215f95c,福州闽剧院-停车场,福建省福州市鼓楼区斗东路5号1楼,福建省,福州市,鼓楼区,,unknown,
baidu,a34ddcb3d804f76676e5b62b,法海花园-停车场,福州市鼓楼区法海路翰林苑,福建省,福州市,鼓楼区,,unknown,
baidu,e7cc7d6602848f68c61e51d6,银河大商会-停车场,福建省福州市鼓楼区八一七中路49号,福建省,福州市,鼓楼区,,unknown,
baidu,e92d5fe2c92760625cd4fe74,省妇幼保健院,356路;通勤快线12路,福建省,福州市,鼓楼区,,unknown,
baidu,e25d056baca123b5c909f035,塔头,9路;11路;17路;46路;64路;70路;72路;108路;118路;130路;310路;318路;322路;327路,福建省,福州市,晋安区,,unknown,
baidu,8d48d324c5853aa8fe0eb09f,鸿宇大厦-地上停车场,福州市鼓楼区五一北路96号,福建省,福州市,鼓楼区,,unknown,
baidu,62df83731d2e33d7a1a934eb,屏山,地铁1号线,福建省,福州市,鼓楼区,,unknown,
baidu,ab50822994fb88054bcc4a9a,博美诗邦,7路;10路;14路;15路;33路;38路;39路;41路;82路;89路;93路;105路;112路;121路;130路;169路;302路;313路;315路;318路,福建省,福州市,台江区,,unknown,
baidu,09b560d1341f34d21f38942e,福州市鼓楼区教育局-停车场,福州市鼓楼区津泰路146号,福建省,福州市,鼓楼区,,unknown,
baidu,e8784887544ab3d1d22dd68f,顺丰楼-地下停车场,福建省福州市鼓楼区八一七中路103号顺丰楼,福建省,福州市,鼓楼区,,unknown,
baidu,96462ac36504258f364aaed8,古三座(省康复医院),5路;9路;22路;49路;51路;52路;55路快线;62路;69路;72路;76路;107路;117路;121路;128路;129路;177路;322路;328路;338路;K1路;东部37号线,福建省,福州市,鼓楼区,,unknown,
baidu,dce0af6c3f84060a3c9a5e42,鸿宇大厦-停车场,福州市鼓楼区五一北路96号鸿宇大厦,福建省,福州市,鼓楼区,,unknown,
baidu,1bee08c5d9816b53f5c59cdb,陆庄,地铁4号线,福建省,福州市,鼓楼区,,unknown,
baidu,76312b024ff589f45d17c34b,宁化,地铁2号线,福建省,福州市,台江区,,unknown,
baidu,7e510194a1b5486b94ec8438,乌石山北坡站自行车租赁点(中共福州市委员会北),福州市鼓楼区澳门路尽头乌石山北坡公园旁,福建省,福州市,鼓楼区,,unknown,
baidu,f688446fd74f8c823686f45f,吉庇新村西南侧停车场,福州市鼓楼区桂枝里新村西北侧约30米,福建省,福州市,鼓楼区,,unknown,
baidu,65e15d2b63bd3586ce04ef8b,西营里新村-地下停车场,福州市鼓楼区乌山支路29号西营里新村,福建省,福州市,鼓楼区,15959148356,unknown,
baidu,12e0c6d48a9205d2f32d83be,省人民医院,1路;10路;11路;15路;19路;20路;66路;105路;136路;312路;351路,福建省,福州市,台江区,,unknown,
baidu,aa66b31dedbc0e385b3ac895,大洋百货(东街口店)-接送点,福州市鼓楼区大洋百货(东街口店)附近,福建省,福州市,鼓楼区,,unknown,
baidu,1a9836d6b383afe1d81318b9,于山风景名胜公园南侧停车场,福州市鼓楼区古田路32号,福建省,福州市,鼓楼区,(0591)83308787,unknown,
baidu,848a71cf1d5d30afc5effb96,鳌峰坊新村-停车场,福建省福州市鼓楼区鳌峰坊新村,福建省,福州市,鼓楼区,,unknown,
baidu,e37b5ab9c6ef62592fb96d2d,竹林境社区-停车场,福州市鼓楼区仙塔街竹林境社区,福建省,福州市,鼓楼区,,unknown,
baidu,aa4b49fc5866f90b1b11d58f,福师公寓北侧停车场,福州市鼓楼区鳌峰坊福州教育学院附属第二小学西侧,福建省,福州市,鼓楼区,,unknown,
baidu,638ce1d6fc1fb9c3f02d833b,海鑫大厦-停车场,福州市鼓楼区五一北路海鑫大厦,福建省,福州市,鼓楼区,,unknown,
baidu,16712eb29047973fabf0cd37,城守前新村西区-停车场,福州市鼓楼区城守前路16号,福建省,福州市,鼓楼区,,unknown,
baidu,d3a565d41afcf0299de3212d,光禄坊,福州市鼓楼区光禄坊公园正对面,福建省,福州市,鼓楼区,(0591)87762333,unknown,
baidu,227ae55f3bfead755fd4fe2f,津泰商务公寓-停车场,福州市鼓楼区仙塔街138号津泰公寓,福建省,福州市,鼓楼区,(0591)87515250,unknown,
baidu,1da751b9d136c818fa42b29b,格致小区-地上停车场,福州市鼓楼区鳌峰坊41号,福建省,福州市,鼓楼区,,unknown,
baidu,606289fdb3c5d533a2046474,澳林大厦-地下停车场,福州市鼓楼区斗西路1号,福建省,福州市,鼓楼区,(0591)83444888,unknown,
baidu,06f4b3929e402c1ac356ac78,福州农商银行(鼓楼支行)-停车场,福建省福州市鼓楼区仙塔街78号,福建省,福州市,鼓楼区,,unknown,
baidu,77d4145df409d1b4b9df8f2a,福州市公安局鼓楼分局南街派出所-地上停车场,福州市鼓楼区营房里8号,福建省,福州市,鼓楼区,,unknown,
baidu,8349a3673d8f81bed6b74e7c,龙华天桥,安泰街道,福建省,福州市,鼓楼区,,unknown,
baidu,7524cb4f74f5374904026f28,金福商厦-地下停车场,福州市鼓楼区斗东路12号联宾楼(福州大饭店对面),福建省,福州市,鼓楼区,(0591)83329833,unknown,
