source,bd_uid,name,address,province,city,area,tel,poi_type,tag
baidu,f8531c88bd073934bda24019,农家小馆,新安北路6号21,安徽省,黄山市,屯溪区,,unknown,
baidu,e5cadd198729b4de02897283,今晚火锅鸡,滨江中路1号（原黄山市屯溪区滨江东路1号）,安徽省,黄山市,屯溪区,15155999986,unknown,
baidu,0b2d6bbc9de728aad13ce3e4,疆小妞新疆炒米粉(新安广场店),新安北路新安广场6-30号,安徽省,黄山市,屯溪区,18655917650,unknown,
baidu,10cf994bccf7e7099fec2bf9,印象徽州·正宗徽菜体验店,滨江西路25-1号（千禧亭对面）,安徽省,黄山市,屯溪区,13515798850,unknown,
baidu,638f55201c103eeb17948e34,云家里,滨江西路新华书店四楼,安徽省,黄山市,屯溪区,(0559)2521777,unknown,
baidu,287486fa19bd88e5eb12e49d,休宁饭店,新民路10号,安徽省,黄山市,屯溪区,13685596223,unknown,
baidu,24f610eea7697ac85cd4fe94,田园碗碗香,黄山市屯溪区新安北路新安广场,安徽省,黄山市,屯溪区,,unknown,
baidu,1acaafb5b590374fe5e96539,火夫家(新安广场店),新民路22号,安徽省,黄山市,屯溪区,15862363180,unknown,
baidu,fc4d9eb589d87c585b109383,云进碳烤烧饼(新安广场店),安徽省黄山市屯溪区新安北路8号新安广场,安徽省,黄山市,屯溪区,15955903204,unknown,
baidu,88f72b6000a0f25db320a8e4,至上馄饨(新安广场店),新安北路8-12号,安徽省,黄山市,屯溪区,"13855923041,18755939918",unknown,
baidu,308d314057ea2bd3f03cba3c,成路烧饼,栗里商场底层44号,安徽省,黄山市,屯溪区,15056695831,unknown,
baidu,6b26a93a321847f7e507381b,北京饺子馆(新安广场店),新安北路6-27号(市医院对面),安徽省,黄山市,屯溪区,"15755970342,18205598074",unknown,
baidu,f39f3243c7511090b5f42f9e,蜜雪冰城(黄山百大店),黄山西路50号黄山银街30号,安徽省,黄山市,屯溪区,"13395593638,18255984464",unknown,
baidu,a552d44ab2ef2320b6f42f90,韦记柳州高汤螺蛳粉,百大后门往新华书店方向康乐一路45号,安徽省,黄山市,屯溪区,13877804925,unknown,
baidu,8d535a22b9db5072bb17e73c,本草淮南牛肉汤(新安广场店),新安北路6号-36号,安徽省,黄山市,屯溪区,17681294986,unknown,
baidu,80c4bcf0cb144e7731169bd5,兰州拉面馆市医院店(栗园路店),栗园路15号,安徽省,黄山市,屯溪区,18655981616,unknown,
baidu,8ddd9f187fe67e07a8059d4b,新安北路8-10许姐家常菜,安徽省黄山市屯溪区新安北路8号、10号,安徽省,黄山市,屯溪区,15056690441,unknown,
baidu,335f6761ee5186e0be4842ec,牛比达人披萨(商贸城店),惠中商城12号,安徽省,黄山市,屯溪区,"15212325010,18955994450",unknown,
baidu,75d0881a053cc24d3a04b1ca,芬芳快餐(新安广场店),栗园路9-13号,安徽省,黄山市,屯溪区,13965523425,unknown,
baidu,d8f2f277427ddc0f9ce32199,兰州牛肉拉面,老街街道栗里二期工程底层57号店面,安徽省,黄山市,屯溪区,15500685101,unknown,
baidu,045cc69edf0cd07649fc8d05,亿面情深(新安北路店),新安北路19号,安徽省,黄山市,屯溪区,18655928177,unknown,
baidu,4513e5e943ed887a4d776e4f,奶酪时光(新华书店店),滨江西路43号阅生活城市文化综合体新华书店五楼,安徽省,黄山市,屯溪区,(0559)2537077,unknown,
baidu,b4a12d6cd05b0be8471a326a,正宗河南凉皮(百大名品门特色小吃一条街店),栗园商场,安徽省,黄山市,屯溪区,13685596579,unknown,
baidu,8e0f36c3d9a8aa774d2fdfec,黄山风味馆(新安北路店),风味馆新民路19号,安徽省,黄山市,屯溪区,18455954309,unknown,
baidu,b4ffa8255c37bcd3a4c75614,馨晟桥头排骨(百大店),老街街道新安北路23号(黄山百大名品中心)百大名品中心F3,安徽省,黄山市,屯溪区,18355969476,unknown,
baidu,48dde026d2a3944026d2bb5c,米粉小吃(新安广场店),新民路30号,安徽省,黄山市,屯溪区,13035434033,unknown,
baidu,9808f801aeaa1e73100daab0,必胜客(黄山中路店),"黄山中路5号一层,二层",安徽省,黄山市,屯溪区,(0559)2331988,unknown,
baidu,7bfe8ae6f5d3f4f49e09f77f,朱朱粉粉小锅米线(屯溪店),康乐路44号一楼,安徽省,黄山市,屯溪区,(0559)2351989,unknown,
baidu,b8caa500dc5f73e175e5b66d,徽州喜面,昱中花园新安广场利民路30号,安徽省,黄山市,屯溪区,18805597676,unknown,
baidu,51f9dd31a669b9ed4e776e2a,凡星烧饼(黄山汇龙商场店),新安北路1汇龙商场F1层,安徽省,黄山市,屯溪区,,unknown,
baidu,6acb4762a24a28514e776e7c,成食记(百大美食街店),黄山西路特色一条街9号,安徽省,黄山市,屯溪区,13855901241,unknown,
baidu,fe6528b76133356ff8f0cb5d,小老吴锡纸美食(商贸城店),新安北路特色一条街10号,安徽省,黄山市,屯溪区,13965522389,unknown,
baidu,5f542397ae4f8153cb213dd3,旺达美食,黄山市屯溪区新园西路时代广场,安徽省,黄山市,屯溪区,,unknown,
baidu,0b0d41f850d42bd46b49f322,百大名品门特色小吃一条街,安徽省黄山市屯溪区新安北路与老街交叉口南50米百大商贸城,安徽省,黄山市,屯溪区,,unknown,
baidu,37d60864c45f30e4a104643d,徽商故里,安徽省黄山市屯溪区莫泰168(黄山滨江路屯溪老街店)东,安徽省,黄山市,屯溪区,,unknown,
baidu,a15577ea52b185f9c03644bb,方燕烤猪蹄(商贸城店),老街街道老街百大名品中心内（中国农业银行对面）,安徽省,黄山市,屯溪区,18955951450,unknown,
baidu,4c9b03e5090ec8b58bdb7357,一楼食业·老街第一楼,老街247号（近老街口）,安徽省,黄山市,屯溪区,15905599962,unknown,
baidu,7d5f3a0a850b1b522cb90801,老妈土菜馆·徽州土菜,滨江西路30号（近老街）,安徽省,黄山市,屯溪区,13905594445,unknown,
baidu,3daf010d5aa06a8cee74f8a9,沪上阿姨鲜果茶(商贸城形象店),黄山西路74-4号,安徽省,黄山市,屯溪区,18755957717,unknown,
baidu,fc7a349ffc21f718f4b916d8,梨涡养身甜品屋(商贸城店),康乐一路34号,安徽省,黄山市,屯溪区,15855598832,unknown,
baidu,f29ce4c41999520d78b55cb2,梅山餐馆,屯塘尾路5号,安徽省,黄山市,屯溪区,15222994738,unknown,
baidu,9caeb0cab3d98bc75abbbc8c,老公园饺面馆(百大名品门特色小吃一条街店),康乐一路公园巷17号院东北侧约160米,安徽省,黄山市,屯溪区,15955905967,unknown,
baidu,865d24af5a296f8908f5ebcf,张师傅现包饺子,新安北路9号,安徽省,黄山市,屯溪区,18356901777,unknown,
baidu,e86cb55ce061af42c7f02543,歙县风味馆,黄山市屯溪区栗园路新安广场,安徽省,黄山市,屯溪区,,unknown,
baidu,a9848eb49f65dbf751e5c555,CoCo都可(银街店),黄山西路50号银街黄山路地下商业街负一楼35-36号,安徽省,黄山市,屯溪区,13855995834,unknown,
baidu,aad83769bd309327d42ce28c,CHAGEE霸王茶姬(安徽黄山银街店),昱中街道黄山西路50号黄山银街31-32号（近银街4号口）,安徽省,黄山市,屯溪区,17358069912,unknown,
baidu,60cc802fec74746e4657267f,知乡菜馆(百大名品门特色小吃一条街店),新安北路,安徽省,黄山市,屯溪区,13955993347,unknown,
baidu,942d0e5325f744a7b34c495a,古茗(昱城路商贸城店),昱城路62-4,安徽省,黄山市,屯溪区,18055992932,unknown,
baidu,8c197349646b6aa982288a09,SPR COFFEE(新华书店店),滨江西路43号阅生活文化综合体新华书店一楼第一间,安徽省,黄山市,屯溪区,19955931602,unknown,
baidu,aee98a6df2d6bf8428d7abc5,可喜冰糖葫芦,昱城路59-1号,安徽省,黄山市,屯溪区,,unknown,
baidu,1f8efe204bd8cfcd220220bd,九庄火锅(老街店),黄山西路百盛苑2幢（百大农村商业银行三楼）,安徽省,黄山市,屯溪区,(0559)2512777,unknown,
baidu,7da740416e2cb1baf60e772c,冬兰豆腐坊,老街街道新安北路23号(黄山百大名品中心)百大名品中心底商F1,安徽省,黄山市,屯溪区,"13645594614,13695592372",unknown,
baidu,6597ed1a9fa4641ed8d89156,胖子鸡蛋煎饼,老街街道新安北路23号(黄山百大名品中心)百大名品中心底商F1,安徽省,黄山市,屯溪区,,unknown,
baidu,1ce26317d82e618f00ec0170,徽三说·土徽菜·中国徽菜连锁品牌(屯溪老街店),滨江西路4号,安徽省,黄山市,屯溪区,(0559)2775797,unknown,
baidu,db4b3bca4cc9c10de6e96512,阿毛四季屋(百大名品门特色小吃一条街店),商贸城小吃一条街中间,安徽省,黄山市,屯溪区,13615592986,unknown,
baidu,a185f98debae609a17b54bf4,裴记啤酒烤鸭(屯溪店),长干西路3-7号,安徽省,黄山市,屯溪区,13855959998,unknown,
baidu,5262ec06c15964333310afff,库迪咖啡(黄山银街店),黄山西路50号黄山银街-23号、-25号,安徽省,黄山市,屯溪区,15215594069,unknown,
baidu,c950e569bb15469eabf0cd0c,渝味重庆麻辣烫(商贸城店),商贸城小吃1条街13号,安徽省,黄山市,屯溪区,13567768896,unknown,
baidu,a99889e8ebbcefb8f603b84c,胡夫炸串(黄山百大店),黄山西路特色一条街15号,安徽省,黄山市,屯溪区,18955958026,unknown,
baidu,5cd9d0d8d31752391e580079,养生烤梨水果冰粉,老街街道新安北路23号(黄山百大名品中心)百大名品中心F2,安徽省,黄山市,屯溪区,,unknown,
baidu,a0485406bdc87e3083a00ce1,红九九冒菜,黄山西路特色一条街12-2号,安徽省,黄山市,屯溪区,18154188832,unknown,
baidu,132cde456450a3a23c9a5efc,红火飞扬老汤面疙瘩(康乐路店),黄山西路特色一条街7号,安徽省,黄山市,屯溪区,18255910179,unknown,
baidu,200e479fe9a0d4f588b98863,廖姐韭菜粉丝粿,长干西路柏树新村,安徽省,黄山市,屯溪区,13855993586,unknown,
baidu,6a812a6f1616c68159bbbc57,百信小吃(老街店),屯溪老街241号老街,安徽省,黄山市,屯溪区,15212310846,unknown,
baidu,829b3bb41167318d04026fbe,旋转木马(青春商贸城店),老街街道康乐路112号(商贸城森马店旁),安徽省,黄山市,屯溪区,15855596200,unknown,
baidu,9809095cebe69a6fb23c8135,魏记特色早点,乐善里1幢103号,安徽省,黄山市,屯溪区,15212311097,unknown,
baidu,e253d18853c762cfee74f87a,柒小月(商贸城店),康乐一路旅游商贸城入口处第二间,安徽省,黄山市,屯溪区,18855941990,unknown,
baidu,48d2da693d87b310abf7290a,小芸来馋,宇隆商贸城14幢101号,安徽省,黄山市,屯溪区,13855947904,unknown,
baidu,aba40ddbebc223649d95de4c,顺芬小吃,屯栗园路9-5号,安徽省,黄山市,屯溪区,18855933684,unknown,
baidu,851256ffbac58f903904b171,状元煲仔饭(商贸城店),新安北路27号特色一条街11号,安徽省,黄山市,屯溪区,13855907171,unknown,
baidu,f76e8438241d55d33a04b1a1,糖栗儿糖炒板栗,老街街道新安北路23号(黄山百大名品中心)百大名品中心F2,安徽省,黄山市,屯溪区,,unknown,
baidu,d75eeef00d3453c849cc4aad,绝味鸭脖(栗园路店),黄山中路（8一2）号,安徽省,黄山市,屯溪区,18726829599,unknown,
baidu,90c72d6629bd1e3173210bab,多味源老汤面馆,黄山市屯溪区昱城路坞山巷小区西南侧约120米,安徽省,黄山市,屯溪区,,unknown,
baidu,9852d761a7930c73b23c81d6,悠小咖U-PLAYER(黄山屯溪商贸城店),老街街道康乐一路34号,安徽省,黄山市,屯溪区,19955929021,unknown,
baidu,1d5d4ad8389bfb068605bf93,张记炭烤猴,屯溪区商贸城小吃一条街1号,安徽省,黄山市,屯溪区,15255989489,unknown,
baidu,607c23d10108f7691ef74d39,糖串儿(昱城路店),百大商厦小吃一条街61号,安徽省,黄山市,屯溪区,"16762049999,18755943568",unknown,
baidu,b83bcc3964a099545bf6befe,花蛤兄妹(商贸城店),康乐路特色一条街1幢1号-1,安徽省,黄山市,屯溪区,18955971300,unknown,
baidu,b3f302c307e71b5745e274e1,雀家面馆,黄山市屯溪区栗园路柏树新村西侧约30米,安徽省,黄山市,屯溪区,13865599768,unknown,
baidu,a2c2b458a9c7e80507026f50,大傻徽菜园·中国徽菜大师(老街店),屯溪老街三马路37号(全季酒店斜对面)车请停河街付费地下停车场。,安徽省,黄山市,屯溪区,18756270666,unknown,
baidu,d18098bc8ad243cc2a02e1db,臭鳜鱼土菜馆·地道徽菜,下马路25-2号（全季酒店对面）,安徽省,黄山市,屯溪区,15212306465,unknown,
baidu,e30828487b0757c2b34c49ce,嘉兴粽子大王(百大名品门特色小吃一条街店),商贸城13栋108号,安徽省,黄山市,屯溪区,"(0559)2531391,13329099906",unknown,
baidu,2b7341f9221521c61fe999f9,黑色经典长沙臭豆腐(昱城路店),老街街道新安北路23号(黄山百大名品中心)百大名品中心F1,安徽省,黄山市,屯溪区,13681461530,unknown,
baidu,42a674dc31bdaa9779b55c19,好又来烧饼(老街店),延安路78号东,安徽省,黄山市,屯溪区,13095448988,unknown,
baidu,cbb4c1a552e6a28d8733047b,特味面馆,滨江中路5-2号,安徽省,黄山市,屯溪区,,unknown,
baidu,b8eb3c172e655c51ddee8b7e,唛檬,老街街道新安北路23号(黄山百大名品中心)百大名品中心F1,安徽省,黄山市,屯溪区,,unknown,
baidu,f757e6ee6fa8ee0e260bd042,肯德基(昱中店),黄山中路5号昱中花园肯德基餐厅,安徽省,黄山市,屯溪区,(0559)2539771,unknown,
baidu,1a80bd459efb1b9dd81318b3,仄家甜品,昱中街道滨江东路9号1幢1号,安徽省,黄山市,屯溪区,,unknown,
baidu,a016eb42944b728da0acc43e,歙县小吃店(长干西路店),柏树路2号1-20号,安徽省,黄山市,屯溪区,,unknown,
baidu,160d7840e09d1a0bb9bd6373,橘里ORANGE IN,老街街道新安北路23号(黄山百大名品中心)百大名品中心F3,安徽省,黄山市,屯溪区,,unknown,
baidu,efb3f1e826aac8430aa8d4f5,嘴爱面面馆,长干西路3-6号,安徽省,黄山市,屯溪区,13342984287,unknown,
baidu,73de16c16802e655b35c6ac1,老味道馄饨面馆,黄山市屯溪区长干西路黄山市人民医院,安徽省,黄山市,屯溪区,,unknown,
baidu,f161a5438bcc86fc1b94c649,阿联饼屋,柏树路2号1幢12号,安徽省,黄山市,屯溪区,13695590881,unknown,
baidu,512c151f9f4747ab4657261f,端饭碗·吃饭(元一店),南滨江西路7号黄山元一大观水口街1B幢116-118号、128号,安徽省,黄山市,屯溪区,(0559)2320077,unknown,
baidu,4cb0f044f10b71b3be48429c,粿然香餐店,柏树新村2号,安徽省,黄山市,屯溪区,13965401095,unknown,
baidu,5b8373c40b69b0e8f5c59c8e,365美食,安徽省黄山市屯溪区新园西路黄山市人民医院南门西55米路南,安徽省,黄山市,屯溪区,,unknown,
baidu,6793239645076e28dbd8912f,飞记土菜,安徽省黄山市屯溪区柏树路13号,安徽省,黄山市,屯溪区,18075428087,unknown,
baidu,c2a3e9c36187216ea3acc4cf,老街手工面,公园路20号,安徽省,黄山市,屯溪区,13955951185,unknown,
baidu,176a9c94a9b03ea13e9a5e45,luckincoffee瑞幸咖啡(屯溪河街店),滨江西路1号屯溪河街R幢101,安徽省,黄山市,屯溪区,13395594477,unknown,
baidu,76d285f75f5e833cd3ff234f,黄山市人民医院食堂,黄山市屯溪区长干西路柏树新村东北侧约30米,安徽省,黄山市,屯溪区,,unknown,
baidu,c442bee38d828340abf72947,肯德基(黄山大观店),安徽省黄山市屯溪区阳湖镇新安大道9-19-104号,安徽省,黄山市,屯溪区,(0559)2329222,unknown,
baidu,42fd755e80e5eff19b68b4d8,星巴克(黄山益田屯溪老街店),老街街道滨江西路6-5号,安徽省,黄山市,屯溪区,4008206998,unknown,
baidu,0097b243b60635dac51b7584,敏青商行,安徽省黄山市屯溪区滨江中路10号,安徽省,黄山市,屯溪区,13083237707,unknown,
baidu,1f4dd2f61c713c2c4151c0a8,誉悦工场自助烤肉火锅(黄山店),新黄山商业步行街C区8幢,安徽省,黄山市,屯溪区,"(0559)2351299,17757021003",unknown,
baidu,0819dce5a7db5d4cf72310c2,盘古(老街店),黄山市屯溪区康乐二路公园巷17号院北侧,安徽省,黄山市,屯溪区,,unknown,
baidu,5e29d60e46e587416fc02c4c,黄山百大名品中心,安徽省黄山市屯溪区老街街道新安北路23号,安徽省,黄山市,屯溪区,(0559)2522948,unknown,
baidu,f49b8c20fef06506f4b91604,合家福超市(百大店),屯溪路老街街道新安北路23号,安徽省,黄山市,屯溪区,(0559)2321103,unknown,
baidu,017dac5c7b29dab59de32112,金磊商行,安徽省黄山市屯溪区新安北路6-19号,安徽省,黄山市,屯溪区,,unknown,
baidu,8201aaf51f72d1583617dc7f,新安劳保,黄山市屯溪区新安北路8-4号,安徽省,黄山市,屯溪区,18955996800,unknown,
baidu,1d8591e6af13dfbb4557268a,利华商行(栗园路店),安徽省黄山市屯溪区栗园路19号,安徽省,黄山市,屯溪区,13855992551,unknown,
baidu,d31babd46194c74138e4a6f0,赵一鸣零食(黄山市清华苑店),黄山东路19号,安徽省,黄山市,屯溪区,,unknown,
baidu,2eea6c48711e372e0aa8d4b8,以纯(新园西路店),黄山市屯溪区新安北路时代广场西侧约140米,安徽省,黄山市,屯溪区,4001288078,unknown,
baidu,9e0c20575e11306fb11e36c7,黄山百大商厦,安徽省黄山市屯溪区新安北路23号,安徽省,黄山市,屯溪区,(0559)2522948,unknown,
baidu,0ca01aabddbb17f471210b73,果玉果源,安徽省黄山市屯溪区新安北路8-3号,安徽省,黄山市,屯溪区,"13855957327,15655631927",unknown,
baidu,51a08657ef17d1ff14b54b61,钟表店,黄山市屯溪区新园西路新安广场,安徽省,黄山市,屯溪区,,unknown,
baidu,05625089ff8ccc4e2902e123,童装小铺,安徽省黄山市屯溪区女人街6-16-24号,安徽省,黄山市,屯溪区,,unknown,
baidu,de0730f12e485d9e9ef77974,MLB(黄山百大店),安徽省黄山市屯溪区老街街道新安北路23号黄山百大名品中心F1,安徽省,黄山市,屯溪区,17756201989,unknown,
baidu,e889a744b60a67b58605bfc5,丰华菜市场,滨江东路14号,安徽省,黄山市,屯溪区,,unknown,
baidu,ef1c97307746de37cb213d51,陶子家,6街14号,安徽省,黄山市,屯溪区,,unknown,
baidu,c34e094ffce732e694ec8487,隐形眼镜中心,黄山市屯溪区新安北路新安广场,安徽省,黄山市,屯溪区,,unknown,
baidu,ff2d957fa4ec8a4ea80dd86b,六禾,黄山市屯溪区康乐路公园巷17号院东侧约50米,安徽省,黄山市,屯溪区,,unknown,
baidu,ac15b33e5e44c67c3686f490,栗园批发部,安徽省黄山市屯溪区栗园路32号,安徽省,黄山市,屯溪区,,unknown,
baidu,2a5115d7ecce433e270bd0ae,阿玛施(黄山百大名品中心店),安徽省黄山市屯溪区老街街道新安北路23号黄山百大名品中心F2,安徽省,黄山市,屯溪区,,unknown,
baidu,44eae2536a6d4a9cc6effb1d,欧品男装直销店,老街街道新安北路23号(黄山百大名品中心)百大名品中心F2,安徽省,黄山市,屯溪区,,unknown,
baidu,b00f7ddb2b96821c31f71daa,银街,黄山西路宽网大厦六楼,安徽省,黄山市,屯溪区,13805594049,unknown,
baidu,147d971c66826a83e507380c,政龙水产,老街街道新安北路23号(黄山百大名品中心)百大名品中心底商F1,安徽省,黄山市,屯溪区,,unknown,
baidu,5a69a1cca5d1c65e9d95de2d,名门秀,老街街道新安北路23号(黄山百大名品中心)百大名品中心底商F1,安徽省,黄山市,屯溪区,,unknown,
baidu,052efd68c7dfdbd9cf06a4bb,炫舞男女潮鞋,老街街道新安北路23号(黄山百大名品中心)百大名品中心底商F1,安徽省,黄山市,屯溪区,,unknown,
baidu,fab532c34a477c9e38e4a62b,body.ing(黄山百大名品中心店),安徽省黄山市屯溪区老街街道新安北路23号黄山百大名品中心F2,安徽省,黄山市,屯溪区,,unknown,
baidu,2d3602830ddee5cda2a934be,乔万尼(黄山百大名品中心店),安徽省黄山市屯溪区老街街道新安北路23号黄山百大名品中心F2,安徽省,黄山市,屯溪区,,unknown,
baidu,f88f8daf9452ed36ca09f097,裤王,老街街道新安北路23号(黄山百大名品中心)百大名品中心F1,安徽省,黄山市,屯溪区,,unknown,
baidu,287ff30b958829a1ae31e5bf,女惑,安徽省黄山市屯溪区6街6号,安徽省,黄山市,屯溪区,,unknown,
baidu,57828f2c6178ea946240a9b0,明秀,老街街道新安北路23号(黄山百大名品中心)百大名品中心F1,安徽省,黄山市,屯溪区,,unknown,
baidu,0c3c4b67b629640df6c59c3d,瑞威,老街街道新安北路23号(黄山百大名品中心)百大名品中心底商F1,安徽省,黄山市,屯溪区,,unknown,
baidu,d4a8817fcd85f24d1b11d592,秋屿,老街街道新安北路23号(黄山百大名品中心)百大名品中心底商F1,安徽省,黄山市,屯溪区,,unknown,
baidu,7e0a98c6cc2f7fdac16c1470,萌衣小铺(商贸城店),老街街道新安北路23号(黄山百大名品中心)百大名品中心F2,安徽省,黄山市,屯溪区,,unknown,
baidu,6a08d679765d35dcaeb22a77,戈美其(商贸城),老街街道新安北路23号(黄山百大名品中心)百大名品中心底商F1,安徽省,黄山市,屯溪区,,unknown,
baidu,2e752dee7fec4cbecd04ef23,利奥纳多(百大名品店),安徽省黄山市屯溪区新安北路23号百大名品中心4楼,安徽省,黄山市,屯溪区,,unknown,
baidu,c3c8baf2dcad710eb6f42f67,惠中商城,黄山市屯溪区康乐一路公园巷17号院东侧约60米,安徽省,黄山市,屯溪区,,unknown,
baidu,6cd02e20cc04b8691676439b,宝珍便利店,安徽省黄山市屯溪区康乐路40号,安徽省,黄山市,屯溪区,,unknown,
baidu,03909cd3ce83067cc51e516c,栗里便民市场(老街店),安徽省黄山市屯溪区新安北路9号,安徽省,黄山市,屯溪区,,unknown,
baidu,8d10611ead0cce03e8e58234,邻几便利店(屯溪河街店),安徽省黄山市屯溪区滨江西路25-1号,安徽省,黄山市,屯溪区,19942599949,unknown,
baidu,fbc7db61da04e8cde0110352,菜园小百货,黄山市屯溪区栗园路柏树新村西侧约30米,安徽省,黄山市,屯溪区,,unknown,
baidu,e582177b00696f713310af0c,百大电器(黄山百大名品中心店),安徽省黄山市屯溪区新安北路23号百大名品中心4楼,安徽省,黄山市,屯溪区,(0559)2524308,unknown,
baidu,c879fa01894b3153c909f07c,新华书店(滨江路店),公园路47号附近,安徽省,黄山市,屯溪区,"(0559)2513562,(0559)2528013",unknown,
baidu,5653fb55e567a0b662685876,精功眼镜(黄山屯溪店),新安广场利民路4号1幢,安徽省,黄山市,屯溪区,13956273250,unknown,
baidu,4f43d50a87cc565aa1d23086,NIKE(老街店),昱城路5-1号,安徽省,黄山市,屯溪区,"15055987104,4008806453",unknown,
baidu,300eab92ec71e5ac42d63e93,绿色水果(黄山店),安徽省黄山市屯溪区昱中街道栗园路29-31号,安徽省,黄山市,屯溪区,,unknown,
baidu,012d63ac8aec0625626858ee,右町品牌童装,黄山市屯溪区康乐一路滨江时尚酒店(黄山屯溪老街店)西北侧约100米,安徽省,黄山市,屯溪区,,unknown,
baidu,c879fa01c4e5e237c909f0ce,极乐鸟花行,安徽省黄山市屯溪区栗园路9-2号,安徽省,黄山市,屯溪区,13615592097,unknown,
baidu,78bd4edfbab4a915fa0cad21,广诚表行-(黄山百大店),安徽省黄山市屯溪区新安北路23号黄山百大一楼广诚表行,安徽省,黄山市,屯溪区,,unknown,
baidu,a88266199ca2a96dd4851fe2,波司登(新园西路店),安徽省黄山市屯溪区利民路10号,安徽省,黄山市,屯溪区,4008035888,unknown,
baidu,5a27fa6dbf8ceb923f9a5e30,华为授权体验店(新安北路店),安徽省黄山市屯溪区新安北路29号,安徽省,黄山市,屯溪区,,unknown,
baidu,b65c11fd2db01271fbf0cb71,阅共享书店,安徽省黄山市屯溪区滨江西路43号1楼,安徽省,黄山市,屯溪区,"(0559)2513562,18075424545",unknown,
baidu,24dd6df5a023d034d3ff235c,酷芭芭(华馨路店),延安路74号,安徽省,黄山市,屯溪区,13855937098,unknown,
baidu,3cf30bf7e477c6027c29bdc0,vivo官方授权体验店(黄山屯溪延安路店),安徽省黄山市屯溪区延安路82号,安徽省,黄山市,屯溪区,15655915669,unknown,
baidu,36ff2319ee09b7fe283a9f65,肯拓普户外服饰(百大名品中心店),老街街道新安北路23号(黄山百大名品中心)百大名品中心F6,安徽省,黄山市,屯溪区,,unknown,
baidu,70abba124f41644ea0a934b4,方便快捷,黄山市屯溪区新安北路滨江时尚酒店(黄山屯溪老街店)西北侧约150米,安徽省,黄山市,屯溪区,,unknown,
baidu,6bc8d0ac93bf7006ddee8ba3,ESTEE LAUDER雅诗兰黛(黄山百大名品中心店),安徽省黄山市屯溪区老街街道新安北路23号黄山百大名品中心F1,安徽省,黄山市,屯溪区,,unknown,
baidu,22309a0149fd9a83c4f50d31,老街邮局,老街183号,安徽省,黄山市,屯溪区,(0559)2571077,unknown,
baidu,d375fb26964d52f9f8f0cbbb,小米之家(安徽黄山屯溪区延安路专卖店),安徽省黄山市屯溪区老街街道延安路82-6号,安徽省,黄山市,屯溪区,,unknown,
baidu,c2ef56e416844215cc06a41d,沐,老街街道新安北路23号(黄山百大名品中心)百大名品中心F1,安徽省,黄山市,屯溪区,,unknown,
baidu,96f7311f6fc0054d58f6beaa,相依美女装,老街街道新安北路23号(黄山百大名品中心)百大名品中心F2,安徽省,黄山市,屯溪区,,unknown,
baidu,0dea825b1a2ae57b26e0a05e,福寿安,安徽省黄山市屯溪区栗园路3-9号,安徽省,黄山市,屯溪区,,unknown,
baidu,8f708c8f4c962cdb88fc06fc,小米之家(安徽黄山屯溪大润发店),安徽省黄山市屯溪区跃进路大润发A区5栋3号,安徽省,黄山市,屯溪区,13637206503,unknown,
baidu,0e741f453b9589335e0d0266,绿肥红瘦宠物店,滨江中路1-4号,安徽省,黄山市,屯溪区,13095595752,unknown,
baidu,18b7c093a5217d34f9dc85b3,中国联通,安徽省黄山市屯溪区延安路807号,安徽省,黄山市,屯溪区,,unknown,
baidu,00f74965f6d63bb6bea24065,大厦干洗(新安广场店),黄山市屯溪区新安北路8-8号,安徽省,黄山市,屯溪区,13955968588,unknown,
baidu,1548a2af6e615c3ed7851f9f,五福街社区服务中心,新安北路五福街1号,安徽省,黄山市,屯溪区,,unknown,
baidu,ea602d842dad28df0aa8d4a5,环卫工人休息房,黄山市屯溪区老街华馨苑东侧约100米,安徽省,黄山市,屯溪区,,unknown,
baidu,3d26125380328f2627d2bb00,天诚通讯手机快修,安徽省黄山市屯溪区延安路82-8号,安徽省,黄山市,屯溪区,18855990698,unknown,
baidu,87aaef0ccaa86da7e856fa63,维修中心,安徽省黄山市屯溪区栗园路4号,安徽省,黄山市,屯溪区,,unknown,
baidu,4e7750d39afb936b95ca07a2,母婴护理中心,黄山市屯溪区新园西路时代广场,安徽省,黄山市,屯溪区,,unknown,
baidu,eb6c506ff8056154c1f1cfbb,中国邮政(新安北路邮政支局),安徽省黄山市屯溪区延安路78号,安徽省,黄山市,屯溪区,11185,unknown,
baidu,15326e01e004957deee4a56c,户外劳动者服务站点工会驿站(黄山市屯溪区总工会),安徽省黄山市屯溪区昱城路73号,安徽省,黄山市,屯溪区,,unknown,
baidu,1c443edb11d55de46e20b9f1,有礼二小姐喜铺伴手礼定制,延安路76-9号,安徽省,黄山市,屯溪区,,unknown,
baidu,6d4766a4e548c7f0b020a83c,美佳照相(汇龙商场店),新安北路1-9号,安徽省,黄山市,屯溪区,18605591363,unknown,
baidu,ccbde3de37f456e6471a3237,艺海照相(滨江中路店),滨江中路5-3号1栋2单元5层502室,安徽省,黄山市,屯溪区,(0559)2510061,unknown,
baidu,6198a9330f2a746243afe6cc,小罗车行服务中心,安徽省黄山市屯溪区新安北路28号,安徽省,黄山市,屯溪区,13955997765,unknown,
baidu,d6301c2568f4756b97ca075f,洁净所能家政保洁,黄山市屯溪区公园路公园巷17号院,安徽省,黄山市,屯溪区,,unknown,
baidu,12978731f87f97b9c6effb65,鞋大夫皮具护理,黄山市屯溪区新园西路时代广场东侧,安徽省,黄山市,屯溪区,13731841364,unknown,
baidu,ca9aaefe438909e9b6147f1b,妮子宠物,安徽省黄山市屯溪区新安北路41-3号,安徽省,黄山市,屯溪区,13965522909,unknown,
baidu,347faeb0c1082ef1b35c6ae1,寿衣(老柏树店),黄山市屯溪区新园西路时代广场东侧,安徽省,黄山市,屯溪区,13955954893,unknown,
baidu,41f21748b0888d8f704b87e5,聚贤家政服务中心,黄山市屯溪区黄山西路维多利亚广场-北区东南侧约50米,安徽省,黄山市,屯溪区,,unknown,
baidu,b0170ace76461957e812e404,秋琴徽菜食材配送中心,安徽省黄山市屯溪区长干西路1-5号,安徽省,黄山市,屯溪区,13855990005,unknown,
baidu,c0167520323da5c704fef52c,星月天使精品儿童摄影,新园西路与东里巷交叉口新黄山商业步行街A区2幢5号铺（屯溪柏树小学对面）,安徽省,黄山市,屯溪区,(0559)2523616,unknown,
baidu,163bc7e06dc5ebb745e27493,中国体育彩票(新园西路黄山市人民医院店),黄山市屯溪区新园西路黄山市人民医院北侧,安徽省,黄山市,屯溪区,95086,unknown,
baidu,4032851d7e2fe716ed74f82e,四合手机快修,安徽省黄山市屯溪区延安路89-8号,安徽省,黄山市,屯溪区,18855966688,unknown,
baidu,ff6a0c6fca80f18f843304a3,宝贝宝儿童摄影(品牌优选店),大润发商圈上影电影院对面,安徽省,黄山市,屯溪区,"(0559)2583566,15955900609",unknown,
baidu,ae6bfb3912c695466c476005,初贝儿产后修复中心,安徽省黄山市屯溪区老街七街19号,安徽省,黄山市,屯溪区,18855983848,unknown,
baidu,31e63d9fedd8aea6e507388d,建宾广告,安徽省黄山市屯溪区老街三马路利民巷1栋104室,安徽省,黄山市,屯溪区,13675559862,unknown,
baidu,1e3cba8da287ecc8283a9fb5,程氏三宅售票处,屯溪区柏树东里巷6号-7号程氏三宅,安徽省,黄山市,屯溪区,(0559)2513714,unknown,
baidu,4c1e3215c6515b694151c07c,娟子改衣坊,安徽省黄山市屯溪区长亭路52号,安徽省,黄山市,屯溪区,13615591764,unknown,
baidu,9185df85fec861e43110afbd,乘风手机快修,昱中街道黄山中路38号维多利亚广场1幢13号,安徽省,黄山市,屯溪区,18155958199,unknown,
baidu,6e7a651ce4aa764628201a1c,团子家宠物店,滨江中路滨江苑115号舒可心足浴巷子里进来10米,安徽省,黄山市,屯溪区,18855961934,unknown,
baidu,9b1cffb7b6f51f1301897214,售后服务,黄山市屯溪区中马路华馨苑,安徽省,黄山市,屯溪区,,unknown,
baidu,be89fd60fbf428dd3fe231b9,随缘信息中心,黄山市屯溪区黄山西路维多利亚广场-北区东南侧约50米,安徽省,黄山市,屯溪区,,unknown,
baidu,6835e3a7ebbb8430e3110337,溪流景水族宠物(滨江路店),安徽省黄山市屯溪区滨江中路13-1号,安徽省,黄山市,屯溪区,13085593755,unknown,
baidu,8ffae477875fc6352a02e1a1,屯溪区滨江路环卫工幸福驿站,安徽省黄山市滨江西路二马路与三马路之间,安徽省,黄山市,屯溪区,,unknown,
baidu,38d565fb321d65817adbd2ec,平安屯溪小哥智慧养老,安徽省黄山市屯溪区滨江路屯溪长干小学东南侧约70米,安徽省,黄山市,屯溪区,,unknown,
baidu,d4cdc24123ee31fb40ab9ae5,养老服务照料中心,黄山市屯溪区滨江路长干村小区北侧,安徽省,黄山市,屯溪区,,unknown,
baidu,2e165b7dc0b9db65471a32c2,中国福利彩票(阳湖洽阳山店),黄山市屯溪区栗园路柏树新村西侧约30米,安徽省,黄山市,屯溪区,"13855936878,15395596878",unknown,
baidu,47c2dc8dcc15747c940319a5,纸扎,黄山市屯溪区长亭路65号,安徽省,黄山市,屯溪区,"(0559)2519118,15215595357",unknown,
baidu,35c89bb2027e0a4606fef5b6,国家电网(黄山东路供电营业厅),黄山东路55-2号附近,安徽省,黄山市,屯溪区,95598,unknown,
baidu,a7c56ee0d2fcc4b3a3acc4c4,公共厕所,黄山市屯溪区栗园路18-6号,安徽省,黄山市,屯溪区,,unknown,
baidu,a2a4c77d67afeeafa4c756f7,公共厕所,安徽省黄山市屯溪区华馨路41号,安徽省,黄山市,屯溪区,,unknown,
baidu,cb2eba3d29cc8b6c6140a960,佳佰寄卖行(回收黄金名表名包屯溪店),黄山市屯溪区滨江东路长干园1号楼106号,安徽省,黄山市,屯溪区,13776337727,unknown,
baidu,1f5047f84681d2480ab93a06,中国福利彩票(公园路店),安徽省黄山市屯溪区延安路81-22号,安徽省,黄山市,屯溪区,13855987786,unknown,
baidu,a959948bd6f1923a9a005095,公共厕所,安徽省黄山市屯溪区华馨路41号,安徽省,黄山市,屯溪区,,unknown,
baidu,bdf6a23b44b9e22152e5c506,肯德基(昱中餐厅)-洗手间,黄山市屯溪区黄山西路11号之1-2号,安徽省,黄山市,屯溪区,,unknown,
baidu,36f18e37c7a56c22f4b9160d,屯溪昱中花园公厕,安徽省黄山市屯溪区利民路8号,安徽省,黄山市,屯溪区,,unknown,
baidu,d3673ddc3441bca8d8ecedb7,长春巷公共厕所,安徽省黄山市屯溪区延安路89-2号,安徽省,黄山市,屯溪区,,unknown,
baidu,6aa511b4bd26065087330479,中国福利彩票(长亭路店),安徽省黄山市屯溪区长亭路维多利亚广场57号,安徽省,黄山市,屯溪区,954168,unknown,
baidu,7ea5a2789eb9287e1576430e,潮人专业手机贴膜手机美容,黄山市屯溪区老街公园巷17号院西北侧约40米,安徽省,黄山市,屯溪区,,unknown,
baidu,bd58efacc290be9ae9f853b8,国有房产租赁,安徽省黄山市屯溪区栗园路黄山市人民医院西南侧约30米,安徽省,黄山市,屯溪区,,unknown,
baidu,75bcc7a8f7690fda077ce8ce,小明托管,黄山市屯溪区黄山西路时代广场北侧约30米,安徽省,黄山市,屯溪区,,unknown,
baidu,9650448cc98afb78b54f546b,王云手机快修,安徽省黄山市屯溪区延安路89-3号,安徽省,黄山市,屯溪区,18005590688,unknown,
baidu,310b0f7d5bfa32afe215f940,工会户外劳动者服务站,安徽省黄山市屯溪区昱城路62-5号,安徽省,黄山市,屯溪区,,unknown,
baidu,4ef90816e68c3b29b15c6a7c,新声斋刻字社,安徽省黄山市屯溪区滨江西路28号,安徽省,黄山市,屯溪区,13855910533,unknown,
baidu,d973922d40d75e7078f796cd,黄山市老街旅游咨询中心,黄山市屯溪区老街华馨苑南侧约40米,安徽省,黄山市,屯溪区,,unknown,
baidu,94430905f38a454246e2747d,中国移动(黄山西路店),安徽省黄山市屯溪区黄山西路黄山市新安中医医院西侧约40米,安徽省,黄山市,屯溪区,"(0559)2117055,13685597070",unknown,
baidu,2f54dfbed5fb957dd81318fe,七彩路中介,安徽省黄山市屯溪区昱中街道黄山西路18号,安徽省,黄山市,屯溪区,"(0559)2187271,13965521843",unknown,
baidu,63d67d0d3a1f54caede4a589,黄山徽腾,黄山市屯溪区老街滨江新村东北侧,安徽省,黄山市,屯溪区,(0559)2539581,unknown,
baidu,f81e267a669ad976a21de94a,洪泰旧货,安徽省黄山市屯溪区昱中街道丰华大市场东里巷18号,安徽省,黄山市,屯溪区,18605590277,unknown,
baidu,767373b3c431ae2f102935b2,公共厕所,黄山市屯溪区东里巷新柏家园西北侧,安徽省,黄山市,屯溪区,,unknown,
baidu,18c0b0923c2b4d15fb42b245,街电(诚实大头品味馆),黄山市屯溪区滨江西路39-40号(莫泰酒店隔壁),安徽省,黄山市,屯溪区,4006868588,unknown,
baidu,c722329045f9b8743f9a5ebd,公共厕所(AH-HS-0116),黄山市屯溪区新安大道一江园东侧约70米,安徽省,黄山市,屯溪区,,unknown,
baidu,aefaeaa104d463004d2fdf89,嘉裕房产,黄山市屯溪区黄山西路时代广场东北侧约40米,安徽省,黄山市,屯溪区,,unknown,
baidu,4de61006ef1eabcb0f0a701f,中国体育彩票(长干西路店),安徽省黄山市屯溪区长干西路28号,安徽省,黄山市,屯溪区,95086,unknown,
baidu,ee51dc5aeac1a110a11de9f9,百分百广告,安徽省黄山市屯溪区昱中街道黄山西路38-12号,安徽省,黄山市,屯溪区,18655961550,unknown,
baidu,9511e90bc6e51255b5f42f93,废品回收,安徽省黄山市屯溪区长干巷36号-14幢,安徽省,黄山市,屯溪区,18305594835,unknown,
baidu,2753fcecce80ec8f6cc02c51,海翔图文广告,安徽省黄山市屯溪区黄山中路维多利亚广场2-89号,安徽省,黄山市,屯溪区,13305599063,unknown,
baidu,7b39109d34e4fe510b1cc760,洁丰干洗(长干西路店),安徽省黄山市屯溪区长干西路20-6号,安徽省,黄山市,屯溪区,,unknown,
baidu,70bbb13fb925cfa143afe66e,工会户外劳动者服务站(屯溪区大润发商圈A区工会驿站)00246,黄山市屯溪区东里巷新柏家园西北侧约50米,安徽省,黄山市,屯溪区,18255978997,unknown,
baidu,f96ac34b5619b07ab44f5460,快乐星球托管,安徽省黄山市屯溪区黄山西路38-26号,安徽省,黄山市,屯溪区,13305593350,unknown,
baidu,2cd76441244b96e9b64f54e1,第一开锁店,安徽省黄山市屯溪区长干西路屯溪长干小学东北侧约110米,安徽省,黄山市,屯溪区,13955996714,unknown,
baidu,0fcf21590a65eac19fec2b1a,文霞广告,安徽省黄山市屯溪区延安路81号,安徽省,黄山市,屯溪区,,unknown,
baidu,5786ee1eced7dab6132935f6,光明中介,安徽省黄山市屯溪区昱中街道黄山市黄山西路34-4号,安徽省,黄山市,屯溪区,"(0559)2572168,13685595101",unknown,
baidu,1b9b21511313dc482db96d98,天使动物医院(徽山路店),徽山路1之9-11号,安徽省,黄山市,屯溪区,13083229029,unknown,
baidu,31f9101b0390c8c726e0a010,公共厕所,黄山市屯溪区滨江西路华山园(延安路)南侧约40米,安徽省,黄山市,屯溪区,,unknown,
baidu,40492c01e90e731c3be4a6b9,锦绣江山月营销中心,安徽省黄山市屯溪区新安南路15号,安徽省,黄山市,屯溪区,(0559)5280888,unknown,
baidu,fd35f92e43eaa2d9f942b26b,街电(乐兮母婴生活馆),黄山市屯溪区跃进路6-20-78号,安徽省,黄山市,屯溪区,4006868588,unknown,
baidu,95ccc938d8ccf63826d2bb57,街电(银蝶咖啡元一店),黄山市屯溪区元一大观水口街1号楼122室,安徽省,黄山市,屯溪区,4006868588,unknown,
baidu,3877a655048d7c24deee8b9b,黄山大众电摩配(徽山路店),黄山市屯溪区徽山路1之14-16号,安徽省,黄山市,屯溪区,(0559)2126408,unknown,
baidu,8da1077ff77a86ecc72ba1cc,利荣宇通红雨房产,安徽省黄山市屯溪区长亭路维多利亚广场,安徽省,黄山市,屯溪区,18555097366,unknown,
baidu,cf7a74fcea38ae451ef74df8,怪兽充电(小龙坎老火锅元一店),安徽省黄山市屯溪区南滨江西路7号黄山元一大观1b幢118号,安徽省,黄山市,屯溪区,4006703303,unknown,
baidu,226e5dea2c7ed0a3e60738c2,优红年间·宴会厅,徽州大道与红星路交叉处一号家居网对面,安徽省,黄山市,屯溪区,18855978888,unknown,
baidu,3db217895bd533dab64f544d,乐居房产(黄山西路店),安徽省黄山市屯溪区黄山西路38-24号,安徽省,黄山市,屯溪区,(0559)2575666,unknown,
baidu,06994f4d19b9b8eab23c8142,公厕,黄山市屯溪区文峰路黎阳in巷古戏台广场旁,安徽省,黄山市,屯溪区,,unknown,
baidu,38144347c8bca403ae080f0a,公共厕所,黄山市屯溪区西镇街黎阳in巷,安徽省,黄山市,屯溪区,,unknown,
baidu,f53afa54a113caf6deee8b18,公共厕所,黄山市屯溪区荷花池新村30-1幢,安徽省,黄山市,屯溪区,,unknown,
baidu,3a0f8ceb489c51d53a221cd6,国家电网黄山供电公司调度大楼,黄山市屯溪区黄山东路55号,安徽省,黄山市,屯溪区,95598,unknown,
baidu,93f179341d5ca645fea77818,中国移动(黄山分公司),安徽省黄山市屯溪区黄山东路137号,安徽省,黄山市,屯溪区,13695591860,unknown,
baidu,ff215540dcdbc87f26d2bb05,公共厕所,安徽省黄山市屯溪区西海路22-35号(稽灵山欢乐世界内),安徽省,黄山市,屯溪区,,unknown,
baidu,bba873889bc279debca8225c,公共厕所,黄山市屯溪区安东路宇隆广场西侧约40米,安徽省,黄山市,屯溪区,,unknown,
baidu,8c3ef7d5b06886baa1d2300f,花样年华(新安店),安徽省黄山市屯溪区新安北路8-11号,安徽省,黄山市,屯溪区,(0559)2515868,unknown,
baidu,57034e34d8b46ac66c3e1be9,新发现发艺(新安北路店),新安北路6-28号,安徽省,黄山市,屯溪区,13965501025,unknown,
baidu,127bc1ad418fc5220f0a7060,邦豆皮肤修护中心(黄山一店),昱中街道黄山西路38-9号(银街19号出口),安徽省,黄山市,屯溪区,18055939665,unknown,
baidu,6f798516e363025fa1a9347c,苗医生专业祛痘(黄山店),黄山西路维多利亚广场北区21-48号,安徽省,黄山市,屯溪区,"(0559)2559025,18155963535",unknown,
baidu,7e0fdc8dd455b10604026fd3,秀一时尚,老街街道康乐一路44-1号店铺,安徽省,黄山市,屯溪区,18255914767,unknown,
baidu,b3b442201c47ea86fa42b2f5,恒美美容护肤·皮肤管理·SPA(黄山西路店),黄山西路14-1,安徽省,黄山市,屯溪区,"(0559)2518383,18955996285",unknown,
baidu,137b1eb7c149029ada13186d,初悦美发馆,黄山西路银街地下商城17号口,安徽省,黄山市,屯溪区,,unknown,
baidu,15a497ac8c98384626e0a086,戈木造型(江心洲店),新安大道江心洲广场东区2号店面,安徽省,黄山市,屯溪区,"(0559)2357850,15955598592",unknown,
baidu,822b553869b64c6604fef545,IN TIME护肤SPA体验馆(老街店),华馨路33号,安徽省,黄山市,屯溪区,15955599504,unknown,
baidu,4700b5142d22a32109ccdd32,匠心美发形象工作室,横街3幢48号（匠心美发造型工作室）,安徽省,黄山市,屯溪区,,unknown,
baidu,1c7c3a1fa32458d730169ba3,澜玥美容养生馆,老街街道宇隆商贸城14幢118号,安徽省,黄山市,屯溪区,,unknown,
baidu,59446b9c84316542afee7a68,半边天(商贸城店),华馨路21号(市老街派出所往西10米处路北),安徽省,黄山市,屯溪区,13733069090,unknown,
baidu,90db93d8a44a68fa01294f55,加七美甲美睫半永久皮肤管理(华馨苑店),延安路华馨苑三街7号,安徽省,黄山市,屯溪区,13515599620,unknown,
baidu,b8484ddec37adf45b34c4994,7号护肤造型,公园巷4号(商贸城盘古对面),安徽省,黄山市,屯溪区,,unknown,
baidu,f9cf3e01a5ad6a77c7f0258e,斯莉然科技冻龄美肌管理,阳湖西路栢悦公馆1-3号（网红粉丝煲隔壁）,安徽省,黄山市,屯溪区,13812050276,unknown,
baidu,dd65b0096d958c0b8bdb7302,嗯美(新柏家园店),新柏家园西门8-1号,安徽省,黄山市,屯溪区,15395596087,unknown,
baidu,8b89bc3b84a3cd413fe231b1,沐雅·美甲美睫,黄山东路3号104店面,安徽省,黄山市,屯溪区,,unknown,
baidu,f145d3b158558fa9dad8915b,卡蒂亚美容美发(大润发店),长干西路29号31-3-4,安徽省,黄山市,屯溪区,15715592600,unknown,
baidu,671ef38e8fe0b8fe31870a81,伊人阁美容中心(华馨苑店),老街街道华馨路17号,安徽省,黄山市,屯溪区,15720593070,unknown,
baidu,027c8d7b8b66c49582a12e16,伊颜,黄山市屯溪区老街公园巷17号院东北侧约60米,安徽省,黄山市,屯溪区,,unknown,
baidu,42d27ae45711c21be81e973a,青丝美发造型(汇龙商场店),安徽黄山市屯溪区新安北路1~5号,安徽省,黄山市,屯溪区,13955995303,unknown,
baidu,4993343669717fbf33169b0c,阿文造型(百大商贸城店),康乐一路宇隆商贸城14幢118号,安徽省,黄山市,屯溪区,18055961448,unknown,
baidu,b4c2a73df7a3fbca30621202,3M时尚造型,老街街道康乐一路44号（新华书店对面）,安徽省,黄山市,屯溪区,13635598067,unknown,
baidu,ef89103689ab67b8430245ce,成(个人形象),安徽省黄山市屯溪区老街街道公园巷13,安徽省,黄山市,屯溪区,,unknown,
baidu,45c2bd586151e0cb30169bea,美颜阁,黄山市屯溪区黄山西路维多利亚广场-南区,安徽省,黄山市,屯溪区,,unknown,
baidu,489b54a322de0e90f60e777e,QUEENHOO·谦和国际·美肌美体(屯溪店),阳湖西路柏悦公馆1-21号,安徽省,黄山市,屯溪区,(0559)2311332,unknown,
baidu,6bef789c6f8ac19801294ff3,LY美发工作室(老街店),安徽省黄山市屯溪区公园巷25号,安徽省,黄山市,屯溪区,,unknown,
baidu,4964bdabba9933d73686f475,三千丝(华馨苑店),商贸城七街12号,安徽省,黄山市,屯溪区,13635597605,unknown,
baidu,1ccb94d327affb6c00ff2d25,圣图刺青(商贸城店),宇隆商贸城7幢121号,安徽省,黄山市,屯溪区,13855927762,unknown,
baidu,0b7f660bf345f5cb1894c616,AS艾莎造型(二店),跃进路6号新柏家园4幢1-1号,安徽省,黄山市,屯溪区,"18255937100,18655993069",unknown,
baidu,e5f4042a25bac5918f55ec1e,菲灵美容养生会所,黄山市屯溪区黄山西路维多利亚广场-南区,安徽省,黄山市,屯溪区,,unknown,
baidu,1b9999971ecd54c0593ac83c,丝意美发沙龙,安徽省黄山市屯溪区昱中街道黄山西路38-3号,安徽省,黄山市,屯溪区,18605595151,unknown,
baidu,8ca85fa4b5d20836f4eafc41,蔓城美容护肤中心,黄山市屯溪区阳湖路栢悦公馆,安徽省,黄山市,屯溪区,,unknown,
baidu,93c1f7baa4fcde5f3517dc6d,NK美肌故事,黄山中路香谢大街2-96号,安徽省,黄山市,屯溪区,,unknown,
baidu,498df5260f4ec7472cb17e4c,毛豆理发店,安徽省黄山市屯溪区长干西路20号,安徽省,黄山市,屯溪区,15855596237,unknown,
baidu,ad8bf72a9500caea6cc02c48,痣·痘王,黄山市屯溪区黄山西路维多利亚广场-南区,安徽省,黄山市,屯溪区,,unknown,
baidu,5e845c99c3e86eb2c61b75e8,曼芭沙龙,阳湖西路栢悦公馆1-8号Manba理发店,安徽省,黄山市,屯溪区,18655999294,unknown,
baidu,89f11a943ea51da5cc06a462,胡峰个人形象工作室(维多利亚广场店),黄山中路38号维多利亚广场1-71号,安徽省,黄山市,屯溪区,15056684213,unknown,
baidu,971e1cea7851a6fbca213d42,悦己,安徽省黄山市屯溪区香榭大街1-61号,安徽省,黄山市,屯溪区,,unknown,
baidu,e2f29f743139547e26e0a044,迷你美容美发(长亭路店),长亭路13号,安徽省,黄山市,屯溪区,13955994851,unknown,
baidu,382f3d13dff1ffcc0f0e6b9d,阿威美发工作室,长亭路49号阿威工作室,安徽省,黄山市,屯溪区,13685597538,unknown,
baidu,c8b66d5749c725117bf796cb,梵画造型(黄山大观店),徽州大道11-255,安徽省,黄山市,屯溪区,15205597736,unknown,
baidu,9694bc5cc91129bbb75f1efd,非色化妆美甲,昱中街道大润发跃进路6-16-37号(爱尚KTV旁),安徽省,黄山市,屯溪区,15955595873,unknown,
baidu,3e73e452889c67872cb9084a,转转理发店,安徽省黄山市屯溪区新建巷34号13栋,安徽省,黄山市,屯溪区,,unknown,
baidu,0b112f6ea911ba29c52ba197,芷柔美甲美睫,跃进路昱中街道商业区A区5栋6-16-82,安徽省,黄山市,屯溪区,15168364199,unknown,
baidu,e0d0710934bffc95a0acc465,凯莉美容美发(维多利亚广场南苑店),安徽省黄山市屯溪区长亭路维多利亚南苑52号,安徽省,黄山市,屯溪区,13855937262,unknown,
baidu,2fa7e0f741531baea3acc4d3,戈木造型(黎阳店),黎阳水街银蝶咖啡楼下,安徽省,黄山市,屯溪区,"(0559)2333106,15205597736",unknown,
baidu,8cc31b1c266bebdd26e0a0d7,杭城故事·体龄管理(维多利亚南苑店),黄山中路38号,安徽省,黄山市,屯溪区,,unknown,
baidu,bc3b9cab76badc892de67b52,麦克阿辉美发工作室(栢悦公馆店),柏悦公馆大门旁边1-7号,安徽省,黄山市,屯溪区,18005596688,unknown,
baidu,ff62a65a7243bb63901fc959,DUO DUO造美计划,大润发(黄山店)跃进路6-16-28,安徽省,黄山市,屯溪区,,unknown,
baidu,e292ec076e3d103f8605bfdd,霞儿美甲店,屯溪大润发跃进路6-16-28,安徽省,黄山市,屯溪区,,unknown,
baidu,19d07b7ccc55705188db733f,玺佳造型,徽山路4-11号,安徽省,黄山市,屯溪区,,unknown,
baidu,8cf7ca7bff142ce2d13ce3bd,米兰发艺(黎阳店),文峰路7号柏景雅居丹桂轩5幢3-9号,安徽省,黄山市,屯溪区,13855982653,unknown,
baidu,f57703342f37499e373a7194,纤纤丝语专业美发,安徽省黄山市屯溪区长亭路89号,安徽省,黄山市,屯溪区,15720594321,unknown,
baidu,94a4dee6e9f42d71b5147f6a,永辉私人定制(维多利亚广场南苑店),黄山中路38号维多利亚广场2幢75号,安徽省,黄山市,屯溪区,18010809188,unknown,
baidu,a9e4e0cbb421c1cd130daabb,汉斯造型(黎阳店),昱新路2号黎阳in巷12栋一号,安徽省,黄山市,屯溪区,(0559)2310011,unknown,
baidu,430a217c7a51a1cdc9fa5fdb,剪艺造型(维多利亚广场南苑店),长亭路27号,安徽省,黄山市,屯溪区,13955957465,unknown,
baidu,99424d46462c6ac28bb988e0,梵西造型(仙人洞北路店),荷花新村28栋104号,安徽省,黄山市,屯溪区,13955966122,unknown,
baidu,4c7b802d1875e7f34302453c,里享·美发HAIRSALOn(文峰花园店),文峰花园白石路2-6号,安徽省,黄山市,屯溪区,17733373533,unknown,
baidu,f81bd22117c6d85f6c3e1bb7,一成造型,安徽省黄山市屯溪区新黄山商业步行街A区7幢大厅四层,安徽省,黄山市,屯溪区,18505599199,unknown,
baidu,766ebb5cb351d412b45f1e61,第九区男士barbershop理发厅,滨江中路罗汉松7号,安徽省,黄山市,屯溪区,18225595931,unknown,
baidu,65d6bdfdf401f786afee7ac5,美发之星(文峰路店),柏景雅居书香阁小区门口（金逸影城正对面100米）,安徽省,黄山市,屯溪区,18655969545,unknown,
baidu,2027dbd1eb58dc0bbadf8f3f,七喵美甲美睫(黄山太平洋店),黎新路置地柏景雅居紫薇轩3幢1楼113号商铺,安徽省,黄山市,屯溪区,15212323308,unknown,
baidu,6d6d06fb444cc678b020a801,简一造型,黎阳水街135号,安徽省,黄山市,屯溪区,,unknown,
baidu,2a62ced95ea7cca61088247e,OUNI高端私人定制(太平洋店),西海路18-2号太平洋购物中心2楼015号,安徽省,黄山市,屯溪区,(0559)2545558,unknown,
baidu,ed7ac6ac24cc6b269ee321c7,优加造型(栢景雅居翠竹轩店),栢景雅居龙山路7-1,安徽省,黄山市,屯溪区,17733373743,unknown,
baidu,dc3063166b8cabb4a20464ee,非常理剪美容美发专业店,阜上路42-11号,安徽省,黄山市,屯溪区,15955903895,unknown,
baidu,f9a1ddd8bc3f2dac6140a95e,素境美容养生(维多利亚广场店),黄山西路38-45号,安徽省,黄山市,屯溪区,13675559980,unknown,
baidu,c68b2906033aba2922f01766,瑷尔博士(黎阳店),黎阳水街78号,安徽省,黄山市,屯溪区,"(0559)2310048,19886591228",unknown,
baidu,cd9d05dd8bf26eb585420e30,稽灵山,安徽省黄山市屯溪区五里亭路55号,安徽省,黄山市,屯溪区,,unknown,
baidu,c879fa01c4f8e237c909f0cd,屯溪博物馆,安徽省黄山市屯溪区老街168号,安徽省,黄山市,屯溪区,"(0559)2539891,0559-2538024",unknown,
baidu,0cf040c85e4cc68f21f017ac,黎阳in巷,安徽省黄山市屯溪区黎阳老街昱新路2号,安徽省,黄山市,屯溪区,(0559)2560088,unknown,
baidu,4eecf54defd78ad1b45f1eb1,屯溪公园,黄山市屯溪区滨江西路公园巷17号院东南侧约50米,安徽省,黄山市,屯溪区,,unknown,
baidu,631c41573eb78e7831f71d01,黄山蛇园,黄山市屯溪区新安北路63-1号,安徽省,黄山市,屯溪区,,unknown,
baidu,d6df91c1af4af56af7b916cb,戴震公园,安徽省黄山市屯溪区新安北路45号,安徽省,黄山市,屯溪区,,unknown,
baidu,a2a66ce57be974cfc3364401,戴震纪念馆,黄山市屯溪区老街90号,安徽省,黄山市,屯溪区,(0559)2534595,unknown,
baidu,b615366f5be3e0030f0e6be8,滨江路湿地公园,安徽省黄山市屯溪区阳湖镇滨江中路17-7,安徽省,黄山市,屯溪区,15910090700,unknown,
baidu,d3eaba649c8b83ad8bf15dde,千禧亭,黄山市屯溪区滨江西路23号,安徽省,黄山市,屯溪区,(0559)2329199,unknown,
baidu,62d3a524af6ac0be626858cd,屯溪到黄山风景区乘车处,安徽省黄山市屯溪区站前路8-6号,安徽省,黄山市,屯溪区,,unknown,
baidu,a5ef680fb0df2bd7b9df8fc5,万粹楼博物馆,黄山市屯溪区老街143-145号,安徽省,黄山市,屯溪区,,unknown,
baidu,2ad17a433ce17b0b0b1cc717,新安胜景,安徽省黄山市屯溪区滨江西路42号,安徽省,黄山市,屯溪区,,unknown,
baidu,ef6e69aac39ac1164107c13a,中共皖南特委旧址纪念馆,黄山市屯溪区老街69号,安徽省,黄山市,屯溪区,(0559)2591071,unknown,
baidu,6e230c65351c83bace06a40a,杨业功纪念馆,安徽省黄山市屯溪区山语人家11幢101号,安徽省,黄山市,屯溪区,(0559)2833080,unknown,
baidu,76ddc5e75313603015a19056,程氏三宅,安徽省黄山市屯溪区柏树东里巷6~7号,安徽省,黄山市,屯溪区,(0559)2513714,unknown,
baidu,7814b93dbdc58c6bc5effba0,万安门,安徽省黄山市屯溪区昱西街道西海路18-2号(黄山栢景国际大酒店西侧三楼),安徽省,黄山市,屯溪区,,unknown,
baidu,73f8baf511e9f490d1f49e83,大玩家游乐场,黄山市屯溪区阳湖镇江心洲三层观景楼,安徽省,黄山市,屯溪区,15905593077,unknown,
baidu,cda77839483017ecc92915ee,永腾欢乐城,黄山市屯溪区惠仁商业步行街C区9栋,安徽省,黄山市,屯溪区,(0559)2787227,unknown,
baidu,536f43d4a93a482610293532,屯溪老大桥,黄山市屯溪区老街1号,安徽省,黄山市,屯溪区,,unknown,
baidu,73fa8213da37ae821f389462,石家大院,黄山市屯溪区黎阳街12号,安徽省,黄山市,屯溪区,,unknown,
baidu,ca5d44ec760c1ef025d2bbe3,黄山野生动物馆,安徽省黄山市屯溪区新安北路63-1号,安徽省,黄山市,屯溪区,,unknown,
baidu,6079c97f28da83169fec2b0d,程大位珠算博物馆,黄山市屯溪区前园南路52-1号,安徽省,黄山市,屯溪区,(0559)2515424,unknown,
baidu,00fb9172783cc92922f0172b,手印,黄山市屯溪区延安路81-12号,安徽省,黄山市,屯溪区,,unknown,
baidu,c76280c12620161cfa42b20a,龙王潭,安徽省黄山市屯溪区昱中街道滨江中路25,安徽省,黄山市,屯溪区,,unknown,
baidu,b6bbfff2d1c7147282a12e4e,贾家大院,安徽省黄山市屯溪区黎阳印象30号,安徽省,黄山市,屯溪区,,unknown,
baidu,c6e014b761799d85047ce840,黄山太平猴魁博物馆,安徽省黄山市屯溪区延安路3号,安徽省,黄山市,屯溪区,(0559)2310811,unknown,
baidu,2fc7e30170c6ea4fdc1e52bf,云海湿地,黄山市屯溪区昱中街道云海路南滨江游园,安徽省,黄山市,屯溪区,,unknown,
baidu,962257f8b6d693cbca29152b,叶瘦谷纪念馆,安徽省黄山市屯溪区老街街道延安路52-2号,安徽省,黄山市,屯溪区,,unknown,
baidu,4ce10ce6425792b8441a3242,黄山市屯溪清真寺,黄山市屯溪区仙人洞北路5-10号,安徽省,黄山市,屯溪区,,unknown,
baidu,f5a8f80d1f5604cacf06a4ec,梁宅,黄山市屯溪区黎阳老街昱新路2号黎阳in巷,安徽省,黄山市,屯溪区,,unknown,
baidu,8820379004b42ef3f4c59c84,工艺造型茶博物馆,黄山市屯溪区老街104号,安徽省,黄山市,屯溪区,,unknown,
baidu,6551e30ce5422c42932ca3e3,街心公园,黄山市屯溪区黄山西路荷花池新村东南侧约30米,安徽省,黄山市,屯溪区,,unknown,
baidu,2b74cf88b3cbe052c72ba140,稽云胜境,黄山市屯溪区西海路山语人家西北侧约150米,安徽省,黄山市,屯溪区,,unknown,
baidu,9446b9cae67e06461d580025,婚礼堂,黄山市屯溪区黎阳老街昱新路2号黎阳in巷,安徽省,黄山市,屯溪区,,unknown,
baidu,475ee6c379862851343a7196,越国汪公会馆,黄山市屯溪区百鸟亭路12号,安徽省,黄山市,屯溪区,,unknown,
baidu,0b46c92aa2a6f6b2a8f72991,东原亭,黄山市屯溪区戴震公园,安徽省,黄山市,屯溪区,,unknown,
baidu,0ea323fe2c3e6cd081288a09,基督教堂,安徽省黄山市屯溪区老街街道华山路30号,安徽省,黄山市,屯溪区,,unknown,
baidu,2633e5fb5b096c23c9c3db33,流水花园,黄山市屯溪区瑶里路8号新安江滨水旅游景区滨江游园,安徽省,黄山市,屯溪区,,unknown,
baidu,a8abbf7c6c077421e115f9cd,黄山市摄影博物馆,黄山市屯溪区南滨江路黄山市外国语学校,安徽省,黄山市,屯溪区,,unknown,
baidu,a15623f503cdef4261685855,李宅,黄山市屯溪区黎阳老街昱新路2号黎阳in巷,安徽省,黄山市,屯溪区,,unknown,
baidu,56b200ff701c895d45e2746e,徽州税文化博物馆,黄山市屯溪区黄山东路109号,安徽省,黄山市,屯溪区,,unknown,
baidu,2633e5fb5b096c23c9c3db33,流水花园,黄山市屯溪区瑶里路8号新安江滨水旅游景区滨江游园,安徽省,黄山市,屯溪区,,unknown,
baidu,0ea323fe2c3e6cd081288a09,基督教堂,安徽省黄山市屯溪区老街街道华山路30号,安徽省,黄山市,屯溪区,,unknown,
baidu,89a45219372927149d82eaac,古构件博物馆,黄山市屯溪区百鸟亭路越国汪公会馆,安徽省,黄山市,屯溪区,,unknown,
baidu,4f7dff16be081f7438221c02,柏山法治文化园,黄山市屯溪区云海路南滨江公园,安徽省,黄山市,屯溪区,,unknown,
baidu,ba2540eb13ef2d2dc9e33caa,上新民族团结小公园,黄山市屯溪区阜上路与新园东路交叉路口往南约220米,安徽省,黄山市,屯溪区,,unknown,
baidu,54a524819b8030ee28d7ab59,仁爱楼,安徽省黄山市屯溪区华山路黄山国际大酒店屯溪老街店南侧约70米,安徽省,黄山市,屯溪区,,unknown,
baidu,71e41d14ce097f68ca1b959f,黄山徽州研学旅行文化交流中心,黄山市屯溪区阳湖东路黄山滨江花园酒店(黄山屯溪老街店)西南侧约60米,安徽省,黄山市,屯溪区,,unknown,
baidu,d74c8bd8913cf576ec74f886,丰山书院,黄山市屯溪区稽灵山路稽灵山,安徽省,黄山市,屯溪区,,unknown,
baidu,8ac17ec6ec14712358109377,黄山市基督教会,安徽省黄山市屯溪区华山路30号,安徽省,黄山市,屯溪区,,unknown,
baidu,9c9d638a7cb56ac028d7ab59,昱城网咖,安徽省黄山市屯溪区新安北路8-6号,安徽省,黄山市,屯溪区,,unknown,
baidu,757dfb51986b466cc9c3dba0,扬州足浴·正宗中式古方沐足推拿(老街店),延安路32-1号（建设银行旁边）,安徽省,黄山市,屯溪区,,unknown,
baidu,72aa25139215f147077ce8c4,海上皇,黄山中路38-18-3号（宽网大厦对面）,安徽省,黄山市,屯溪区,13635595556,unknown,
baidu,39ea27f64923a79196f08c1c,圣贤汤泉(元一店),南滨江路西路7号元一大观水口街1A幢202号（滨江花园酒店旁）,安徽省,黄山市,屯溪区,(0559)2551919,unknown,
baidu,dc34ee333c333fee0c0a7078,Vi BOX六号包厢(黎阳店),率水路黎阳映像B0201,安徽省,黄山市,屯溪区,(0559)2168666,unknown,
baidu,930892375187155ca0acc4c2,老鲍浴室,新安北路41号,安徽省,黄山市,屯溪区,,unknown,
baidu,58121e1beae6b101c91b9574,威风俱乐部,昱中街道新安北路68号黄山国际广场b座317室,安徽省,黄山市,屯溪区,13955997737,unknown,
baidu,ed113edb4db31b6545e27461,童年阳光(安徽黄山店),跃进路6号大润发1楼,安徽省,黄山市,屯溪区,,unknown,
baidu,4b83911921d912f207026f45,古方沐阳熏道(维多利亚广场店),黄山中路香榭大街38号6-33,安徽省,黄山市,屯溪区,,unknown,
baidu,0d6c04c22bc492bb2e4733ec,唯秀主题量贩KTV(大润发店),仙人洞南路大润发C区9号楼永腾儿童城楼上4层,安徽省,黄山市,屯溪区,(0559)2531616,unknown,
baidu,20964c854b5d6abf1e5800ab,忆澜珊·足疗按摩·SPA·影院式,黎阳in巷34幢7-10号2楼,安徽省,黄山市,屯溪区,17858350651,unknown,
baidu,d0e7c614e70083f4f503b820,后海音乐酒馆(屯溪河街店),滨江西路屯溪河街码头八角亭旁,安徽省,黄山市,屯溪区,15205597676,unknown,
baidu,bac575dc12e4a2623586f419,壹号公馆·足疗洗浴·SPA,新安南路一江园101-106,安徽省,黄山市,屯溪区,(0559)2513333,unknown,
baidu,5859fbd28701a0f579dbd248,clubluxury china(国会店),黄山中路38号维多利亚广场18幢6号,安徽省,黄山市,屯溪区,,unknown,
baidu,c4f1a6da6d88d485e856faba,清清养生,延安路34-1号,安徽省,黄山市,屯溪区,15056690535,unknown,
baidu,e1975481cf9e0772fa0cad9d,欧皇美体美甲养生馆(新柏家园店),跃进路6-7号,安徽省,黄山市,屯溪区,13615596984,unknown,
baidu,d05e97d600cd6afc932ca3e6,屯I LiveHouse·酒吧,末酸奶对面二楼,安徽省,黄山市,屯溪区,,unknown,
baidu,6dd8f1474d3287efb9df8f6b,周天苏可泰(黎阳店),黎新路10-1号,安徽省,黄山市,屯溪区,,unknown,
baidu,0e3f8ecdfe4facf784330459,陕西足道(大润发店),跃进路4-2,安徽省,黄山市,屯溪区,,unknown,
baidu,55587f90d3818a6d2bb97c27,Helens海伦司小酒馆(黄山黎阳in巷店),黎阳in巷4幢6-2、13-2、15号,安徽省,黄山市,屯溪区,0559-2531098,unknown,
baidu,627ce98b04198a670bf5ebf8,简壹美颜美体中心(阳光绿水花园店),阳湖东路4-50号,安徽省,黄山市,屯溪区,,unknown,
baidu,5038b5b9b5e0d2671811d56b,开颜时代超级美养院(大润发店),长干中路39号三华园北苑7幢108号,安徽省,黄山市,屯溪区,(0559)2528898,unknown,
baidu,c4c01ec115b96b133904b171,郑远元专业修脚房(屯溪老街店),延安路54-2号,安徽省,黄山市,屯溪区,,unknown,
baidu,2c9895e236885a22970319c9,江心洲广场,黄山市屯溪区新安大道16号,安徽省,黄山市,屯溪区,,unknown,
baidu,73fe093e28477db78f55ec41,优妮柔美容美体会所(黄山西路店),黄山路百盛苑1号楼苏卡时尚酒店5楼,安徽省,黄山市,屯溪区,,unknown,
baidu,8c0ac8d28aef1f989e82ea89,足天下(公园路),老街街道新安北路23号(黄山百大名品中心)百大名品中心F1,安徽省,黄山市,屯溪区,,unknown,
baidu,0bf05812b87507d7100daa0b,昱中花园社会主义核心价值观主题广场,黄山市屯溪区新安北路与黄山西路交叉路口往东约50米,安徽省,黄山市,屯溪区,,unknown,
baidu,07f624a8afbc20e8c5f0256e,天工坊(下马路店),老街194号,安徽省,黄山市,屯溪区,(0559)2529986,unknown,
baidu,a8471393210b23b46fa3ccde,彩虹经络调理养生(维多利亚广场店),昱城南苑长亭路95号,安徽省,黄山市,屯溪区,,unknown,
baidu,f226728d7bf985ff4354d767,金辉专业推拿·指上功夫,延安路75-1号,安徽省,黄山市,屯溪区,15255988903,unknown,
baidu,2ee2bd652a27ae03c17da237,雲海足跡·汤泉足道SPA,元一柏庄·黄山大观水口街1A,安徽省,黄山市,屯溪区,,unknown,
baidu,badbdfe195fc1bb801294f8c,萱萱足道,黄山市屯溪区黄山西路维多利亚广场-南区,安徽省,黄山市,屯溪区,,unknown,
baidu,3765dee67a0b2a56fd0eb0b6,足之语,安徽省黄山市屯溪区新安南路4号,安徽省,黄山市,屯溪区,,unknown,
baidu,5fbd862fd783a821b8bd6379,王子殿,屯溪区阳湖镇南滨江西路7号元一大观水口街6栋107号,安徽省,黄山市,屯溪区,(0559)2772555,unknown,
baidu,a8507d00e1c0345c3be4a616,郑远元专业修脚房(跃进路大润发店),跃进路4-5号,安徽省,黄山市,屯溪区,,unknown,
baidu,5f41d07dac92a13cb1077d84,米轩爸爸手工坊(锦绣江南店),新安南路3号锦绣江南5幢3-20号-1,安徽省,黄山市,屯溪区,13855929191,unknown,
baidu,354164bf65d251cf6fc02ce3,金拇指盲人推拿按摩,黄山中路38号维多利亚广场南苑内街1幢56,安徽省,黄山市,屯溪区,,unknown,
baidu,44c14be393b2ea0f8605bf07,好轻松盲人按摩(跃进路店),跃进路1号滨江华庭11幢13号,安徽省,黄山市,屯溪区,18955920553,unknown,
baidu,6e97ba2d4375682615c90501,SARA,老街街道新安北路23号(黄山百大名品中心)百大名品中心F4,安徽省,黄山市,屯溪区,,unknown,
baidu,13c2da4a5489da8e0f0a7090,飞飞网咖(优盛派克黄山旗靓店),黄山东路33-1号附近,安徽省,黄山市,屯溪区,,unknown,
baidu,4dcc43d9633781640bccdde1,陕西专业修脚房(大润发店),长干西路35号(大润发往南100米),安徽省,黄山市,屯溪区,18955976493,unknown,
baidu,87aabfdbde235aaf40ab9a76,紫薇星养生会所(黄山总店),安徽省黄山市屯溪区黄山中路38-3-1号,安徽省,黄山市,屯溪区,13805591391,unknown,
baidu,c6bf5cb0c0fc872dc72ba126,黄山市九易堂足浴服务有限公司,安徽省黄山市屯溪区新安南路二号一江园小区五幢101－106号,安徽省,黄山市,屯溪区,,unknown,
baidu,e9b91dff44028faa2b11d1d1,福足堂,安徽省黄山市屯溪区黄山西路38-18号,安徽省,黄山市,屯溪区,18355987489,unknown,
baidu,2f565b94c89f7c2b4c6d462f,ET全景俱乐部,南滨江路7号黄山元一大观水口街B1-8幢5楼,安徽省,黄山市,屯溪区,,unknown,
baidu,b90437337bc9b716b54f540a,街啤LIIEPIE精酿鲜啤(跃进路店),跃进路2-19号,安徽省,黄山市,屯溪区,18955936763,unknown,
baidu,1e0255d84f94320204fef504,创物手作,一江园11幢103号,安徽省,黄山市,屯溪区,,unknown,
baidu,33d4b63abcd2212840d63e1d,茶乡茶香,黄山市屯溪区老街新安小区东北侧,安徽省,黄山市,屯溪区,,unknown,
baidu,2a6d9ed221c1bdfca80dd863,芬芳理疗韩式汗蒸,黄山市屯溪区黄山西路维多利亚广场,安徽省,黄山市,屯溪区,,unknown,
baidu,84ad36e913355d2bd8eced12,万古基缘,黄山市屯溪区渔亭镇徽山路1-11号,安徽省,黄山市,屯溪区,"13305598105,15805599157",unknown,
baidu,c9a9a634d85e860257bfff25,屯溪人民广场,安徽省黄山市屯溪区八一大道4-43号,安徽省,黄山市,屯溪区,,unknown,
baidu,da50eb570918e03f42d63e8f,童溧雅美容养生会所(大润发店),跃进路大润发北门旁,安徽省,黄山市,屯溪区,,unknown,
baidu,d991e116ac8d0f551f3894c8,徽州大剧院,前园北路1号,安徽省,黄山市,屯溪区,(0559)2513072,unknown,
baidu,e83c2ee9a184a5b9270bd086,茶花网咖,黎新路3号栢景雅居翠竹轩综合楼C幢2号,安徽省,黄山市,屯溪区,13365596098,unknown,
baidu,fa82c48c2f4a49a1b2077dc6,素妆科技美容养生中心,黄山中路香榭大街2-88号,安徽省,黄山市,屯溪区,,unknown,
baidu,cf1b894e14acc3bfadcb6624,徽骆驼文化广场,安徽省黄山市屯溪区横江路7号,安徽省,黄山市,屯溪区,,unknown,
baidu,364d041deb56227e43e192ff,金逸影城(光美黎阳IMAX店),黎阳in巷L18号,安徽省,黄山市,屯溪区,(0559)2528866,unknown,
baidu,a069afe554f21eb92b201a90,青岛啤酒鲜啤吧(元一店),元一大观水口街5栋206,安徽省,黄山市,屯溪区,19955934093,unknown,
baidu,8bec241afaa2312b5cbe865d,居名广场,黄山市屯溪区长干中路三华园北苑西南侧,安徽省,黄山市,屯溪区,,unknown,
baidu,ac47d54e5408ee53c4f50d07,老茶坊(老街店),安徽省黄山市屯溪区老街街道屯溪老街222号,安徽省,黄山市,屯溪区,,unknown,
baidu,04421e21c056d529a1a9345d,JIE'U·新中式下午茶,康乐路滨江西路交叉口,安徽省,黄山市,屯溪区,,unknown,
baidu,b81cc846bcd9e0be9868b47a,德艺茶社,安徽省黄山市屯溪区昱中街道长干西路20号,安徽省,黄山市,屯溪区,,unknown,
baidu,ef6fc464f2257e5f95ca0794,欧拉电竞·网吧,前园南路1-5号,安徽省,黄山市,屯溪区,15222999990,unknown,
baidu,f647dffe64d8a177d2f49e3e,芬芳美社,商贸城横街73号,安徽省,黄山市,屯溪区,(0559)2321679,unknown,
baidu,a3c2999afd6bdc90dbd8914c,帆奕·悦生活(商贸城店),商贸城横街40号,安徽省,黄山市,屯溪区,,unknown,
baidu,ccff3462778197553a13fd15,轮回咖啡酒馆,黄山市屯溪区滨江西路新安小区东南侧约30米,安徽省,黄山市,屯溪区,,unknown,
baidu,8c197349646b6aa982288a09,SPR COFFEE(新华书店店),滨江西路43号阅生活文化综合体新华书店一楼第一间,安徽省,黄山市,屯溪区,19955931602,unknown,
baidu,9852d761a7930c73b23c81d6,悠小咖U-PLAYER(黄山屯溪商贸城店),老街街道康乐一路34号,安徽省,黄山市,屯溪区,19955929021,unknown,
baidu,184d02902eee85b66b49f3af,倾城国际·美容美体(老街店),华馨路44号,安徽省,黄山市,屯溪区,19556224113,unknown,
baidu,3d137dc6a098cbea6c3e1b70,一品阁(老街店),屯溪老街251号老街,安徽省,黄山市,屯溪区,13805599348,unknown,
baidu,59e0d573c5ef8508d618b75e,FINE CAFE(大润发店),昱中街道东里巷1幢104,安徽省,黄山市,屯溪区,13155596689,unknown,
baidu,9bd6872c9c8923188c1a8979,精酿啤酒,黄山市屯溪区阳湖路阳光绿水花园,安徽省,黄山市,屯溪区,,unknown,
baidu,fc767524a39313fa4e776ec4,滨江时尚酒店(黄山屯溪老街店),滨江中路1号,安徽省,黄山市,屯溪区,"(0559)2519966,(0559)2599966",unknown,
baidu,2a194949330458e3f4231005,如家商旅酒店(黄山滨江路屯溪老街店),安徽省黄山市屯溪区滨江西路41号,安徽省,黄山市,屯溪区,(0559)2529999,unknown,
baidu,bdf937ad40f7a4eddf1e5270,黄山昱龙客栈,新安北路8-14号,安徽省,黄山市,屯溪区,(0559)2510785,unknown,
baidu,3a0fbba86d959e589fe3219f,黄山老街苑精品酒店(屯溪老街店),延安路78号,安徽省,黄山市,屯溪区,"(0559)2528088,(0559)2529808",unknown,
baidu,fe8f6e8d0e9cfe51455726f6,漫颐酒店(黄山屯溪老街店),安徽省黄山市屯溪区黄山中路3-108号（百盛苑肯德基旁）,安徽省,黄山市,屯溪区,(0559)2581818,unknown,
baidu,51311da705d8428d725e8024,华中客栈,新民路32-2号,安徽省,黄山市,屯溪区,13615597280,unknown,
baidu,8176fd795add1e1d2e4733c3,黄山茂轩电竞酒店(屯溪老街店),黄山旅游商贸城入口处昱城路62-8号1楼、3楼、4楼,安徽省,黄山市,屯溪区,(0559)2559986,unknown,
baidu,3eecf319cbc94ff338221cf4,大众旅社(黄山新民路店),安徽省黄山市屯溪区栗园路15号,安徽省,黄山市,屯溪区,(0559)2532521,unknown,
baidu,286c2f24528aa8fc84154156,黄山开元曼居酒店(黄山屯溪老街店),黄山市屯溪区南滨江西路6号元一大观天邑府12幢,安徽省,黄山市,屯溪区,"(0559)2518111,(0559)2787999",unknown,
baidu,f748bf2863d34883a1d230e9,黄山初遇缘曼居民宿(屯溪老街景区店),安徽省黄山市屯溪区老街89号,安徽省,黄山市,屯溪区,17755977550,unknown,
baidu,2597e4038f90b0d8cae33c0f,黄山新桥宾馆,新安北路27号三楼,安徽省,黄山市,屯溪区,"(0559)2515192,15955903914,18955998885",unknown,
baidu,66330c9f859134ab6240a980,黄山慕舍酒店(屯溪老街店),黄山西路32号（人民医院新大楼对面）,安徽省,黄山市,屯溪区,(0559)2766866,unknown,
baidu,14054e6dc6257371c4f50da2,汉庭酒店(黄山屯溪老街中心店),滨江西路29号,安徽省,黄山市,屯溪区,(0559)2556818,unknown,
baidu,1bc21ea373dff60e4107c123,Zsmart智尚酒店(黄山屯溪老街二店),新黄山商业步行街A区2号楼20-25号,安徽省,黄山市,屯溪区,"(0559)2525915,18955928846",unknown,
baidu,3a0fbba86da09e589fe32190,如家商旅酒店(黄山屯溪老街店),安徽省黄山市屯溪区西海路9号,安徽省,黄山市,屯溪区,"(0559)2575318,(0559)2575933,(0559)2578877",unknown,
baidu,e116be545ff5a362c81b959c,黄山国际大酒店,华山路31号,安徽省,黄山市,屯溪区,(0559)2565396,unknown,
baidu,345079d0f448206b84154154,Zsmart智尚酒店(黄山屯溪老街一店),跃进路6-20-118号（大润发超市后门小吃一条街）,安徽省,黄山市,屯溪区,(0559)2525511,unknown,
baidu,4d7745b4fc7b8acc3ce2312b,夜泊瑞居·老街店,下马路3号,安徽省,黄山市,屯溪区,(0559)2769975,unknown,
baidu,c7fb04bd30051a6bfa0cad35,黄山广交大酒店,昱阳路147号,安徽省,黄山市,屯溪区,(0559)2588899,unknown,
baidu,b30456e1ff0dd04fba17e7a0,黄山迎客招待所,栗园路18号4幢,安徽省,黄山市,屯溪区,"(0559)2187026,15055986790",unknown,
baidu,f9d20147097949424657260d,黄山奈斯电竞主题酒店,南滨江西路7号元一大观水口街5幢210号,安徽省,黄山市,屯溪区,(0559)2588028,unknown,
baidu,7ebb6a0dad133e6428201a77,黄山新龙旅社,新安苑5幢205室,安徽省,黄山市,屯溪区,18855955536,unknown,
baidu,b388f9fd8555c858b25c6a80,黄山徽商国际大酒店,安徽省黄山市屯溪区前园北路19号,安徽省,黄山市,屯溪区,(0559)5208888,unknown,
baidu,42b15288135764136140a959,君禧酒店(黄山屯溪老街店),安徽省黄山市屯溪区迎宾大道10号,安徽省,黄山市,屯溪区,(0559)2577777,unknown,
baidu,3946feb2c977f5213686f46b,黄山栢景假日酒店,西海路18号,安徽省,黄山市,屯溪区,"(0559)2933088,(0559)2933333",unknown,
baidu,f35544baf6ded1c8f7e73b7e,你好酒店(黄山屯溪老街新安江畔店),老街街道华山路23号,安徽省,黄山市,屯溪区,(0559)2312121,unknown,
baidu,8043266123a284f72db908f5,黄山新安山庄园林酒店,华山路29号,安徽省,黄山市,屯溪区,(0559)2589190,unknown,
baidu,236aa2870f9dcac49e95de37,黄山老街聚文客栈,延安路延干巷1号,安徽省,黄山市,屯溪区,(0559)2359437,unknown,
baidu,f5784753b8f91addb5147f1f,环翠堂滨江酒店(黄山屯溪老街店),阳湖新安大桥元元一大观4号楼（阳湖路口）,安徽省,黄山市,屯溪区,(0559)2588808,unknown,
baidu,c0f8222c17490073744ff104,黄山临江客栈(屯溪老街店),安徽省黄山市屯溪区滨江中路2-5号,安徽省,黄山市,屯溪区,13905596599,unknown,
baidu,caf411fca9dc9ec38d7727ef,黄山栢景国际大酒店,黎阳镇西海路万安门内18-2号,安徽省,黄山市,屯溪区,"(0559)2933166,(0559)2933333",unknown,
baidu,93aed9e0d30543070d3dda23,江园·老街里精品古建民宿(黄山屯溪老街黎阳水街店),黄山市屯溪区老街街道海底巷2号,安徽省,黄山市,屯溪区,18155986669,unknown,
baidu,11110d244fd33b3cbb17e733,黄山星悦·M酒店(屯溪老街店),阳湖南滨江西路6号黄山元一大观天邑府别墅13栋,安徽省,黄山市,屯溪区,"(0559)2518188,18075229554",unknown,
baidu,74863d1c7f32b2ed31f71d15,溪街庭院民宿(黄山屯溪老街黎阳老街景区店),安徽省黄山市屯溪区老街140号-142号中间永新巷2号,安徽省,黄山市,屯溪区,(0559)2522198,unknown,
baidu,6e1a8674bbd68b834f6d465b,黄山诗曼酒店(屯溪老街店),南滨江西路6号元一大观天邑府14幢1层,安徽省,黄山市,屯溪区,(0559)2588666,unknown,
baidu,7b2ff2998c15fac3abf0cdfc,三月里度假民宿(黄山屯溪老街店),安徽省黄山市屯溪区屯溪老街93号,安徽省,黄山市,屯溪区,18955996659,unknown,
baidu,f8fcc50b4c3a2aa748cc4abd,黄山同聚楼徽州宴大酒店,黄山东路111号,安徽省,黄山市,屯溪区,(0559)2353111,unknown,
baidu,634e2776883955639d82ea12,茉莉花香酒店(黄山屯溪老街店),安徽省黄山市屯溪区新安大道元一大观3楼,安徽省,黄山市,屯溪区,(0559)2588388,unknown,
baidu,cf9317fd99a8dca1e812e4ed,黄山同聚楼新安宴大酒店,长干东路165号,安徽省,黄山市,屯溪区,"(0559)2595555,18905590577",unknown,
baidu,18de5198ed4e3ffa48fc8d4b,蝶尚兰花酒店(黄山屯溪老街店),仙人洞北路1-6号,安徽省,黄山市,屯溪区,(0559)2329999,unknown,
baidu,a5718d31567c8c0eb45f1e5d,昱见老街囍舍文化客栈,安徽省黄山市屯溪区屯溪老街永新巷10号,安徽省,黄山市,屯溪区,15705595227,unknown,
baidu,aff26c70ebf17223f4eafcbe,黄山老街大院客栈(屯溪老街店),长春巷4号,安徽省,黄山市,屯溪区,(0559)2585811,unknown,
baidu,78c236d8e549bdf79f09f721,且山居民宿,黄山市屯溪区二马路/延安路(路口)27号,安徽省,黄山市,屯溪区,18957140103,unknown,
baidu,d3bc3dd3bc58747a4d5547c3,达拉然电竞酒店,新安南路4号,安徽省,黄山市,屯溪区,18726853031,unknown,
baidu,39662e6827cd15915e0d02ed,环翠堂美居酒店(黄山屯溪老街店),安徽省黄山市屯溪区南滨江西路7号9栋108号,安徽省,黄山市,屯溪区,(0559)2589588,unknown,
baidu,c65d5318035292c6d6b74e3a,黄山鱼儿的家公寓(4号店),安徽省黄山市屯溪区东杨梅山一弄四号106室,安徽省,黄山市,屯溪区,(0559)1547331,unknown,
baidu,afa6b9aeab596c97ae31e5bb,麦田居舍酒店(屯溪老街大润发店),黄山市屯溪区东里巷蓓蕾柏树幼儿园东北侧约80米,安徽省,黄山市,屯溪区,,unknown,
baidu,6e4987cacdda00bae31103a6,黄山鱼儿的家公寓(8号店),安徽省黄山市屯溪区老街街道延安路79-2号（实验小学隔壁）,安徽省,黄山市,屯溪区,18815594978,unknown,
baidu,3ffd97059581bbe0fb2d618a,依山伴水度假酒店,黄山市还淳巷15号,安徽省,黄山市,屯溪区,18198401855,unknown,
baidu,f4288ac02471bb719ff7797e,程小姐的民宿(延安路店),安徽省黄山市屯溪区屯溪四中宿舍-东南门,安徽省,黄山市,屯溪区,,unknown,
baidu,205e64e61b00e1a3b6f42fe2,七安小屋,老街街道新安北路23号(黄山百大名品中心)百大名品中心底商F1,安徽省,黄山市,屯溪区,,unknown,
baidu,05950306c35f46dde5e965bf,黄山途掌柜118926民宿,安徽省黄山市屯溪区康乐一路27号,安徽省,黄山市,屯溪区,,unknown,
baidu,044921db8aa180f97dc876a8,黄山大观园林酒店,安徽省黄山市屯溪区徽州大道11号4号楼,安徽省,黄山市,屯溪区,,unknown,
baidu,21e56956fcca85127fc8764f,黄山永春公寓,安徽省黄山市屯溪区新安北路28-11号1栋302室,安徽省,黄山市,屯溪区,13855970165,unknown,
baidu,31fe1b00399f4537b2077d9e,黄山芳华燕巢公寓,安徽省黄山市屯溪区中马路山田园东南侧约40米(祁红巷对面),安徽省,黄山市,屯溪区,,unknown,
baidu,efd6438f7afd09faeb56fa0e,黄山花田美舍客栈,安徽省黄山市屯溪区跃进路17-32-39号,安徽省,黄山市,屯溪区,(0559)2329888,unknown,
baidu,6619e311a44dfa7e6da3cc63,汉庭酒店(屯溪老街中心店)-大堂,安徽省黄山市屯溪区滨江西路29号,安徽省,黄山市,屯溪区,,unknown,
baidu,c7d50d04ff922df777026979,金虎快捷汽车服务部,徽州大道江南新城西区金杉苑4幢101室,安徽省,黄山市,屯溪区,18010808580,unknown,
baidu,ec508eed92720bf8774ff1e3,滨江智慧泊车,黄山市屯溪区滨江中路滨江时尚酒店(黄山屯溪老街店)西侧,安徽省,黄山市,屯溪区,,unknown,
baidu,e59d109b266b643b744ff1ee,慕升汽车服务中心,安徽省黄山市屯溪区阳湖西路1-15号,安徽省,黄山市,屯溪区,,unknown,
baidu,86711d5c67c37164e507381c,洗车人家(新安大道店),新安大道9号,安徽省,黄山市,屯溪区,13955992631,unknown,
baidu,f0e587f3a13975965d0d028c,顺通事故理赔,黄山市屯溪区栗园路柏树新村西侧,安徽省,黄山市,屯溪区,13965515238,unknown,
baidu,f210494293b5ba224afd3f90,亮典汽车一站式服务中心,安徽省黄山市屯溪区新安南路3号,安徽省,黄山市,屯溪区,"13083228202,15655984567",unknown,
baidu,cace1fd417af79c7a2046444,马可汽车养护中心,徽州大道大观上河城3-111号,安徽省,黄山市,屯溪区,15715595613,unknown,
baidu,c44954c2e6870125d02dd678,健行汽车服务,安徽省黄山市屯溪区徽山路19号永佳府邸1栋104室,安徽省,黄山市,屯溪区,"18715592887,18755962217",unknown,
baidu,051b98ccdf7bff5e8d55ec4d,平达汽贸名车馆,安徽黄山市屯溪区仙人洞路1-8号,安徽省,黄山市,屯溪区,,unknown,
baidu,d703f788ee8e3d561df74dd2,扬威汽车维修服务中心,颐和观邸,安徽省,黄山市,屯溪区,13855984852,unknown,
baidu,eec2bfef117ccce0e311039f,黄山尔丽汽车服务有限公司,北海路5号联运公司院内,安徽省,黄山市,屯溪区,(0559)2316668,unknown,
baidu,34abd8461a28890c15c9051f,小张汽车服务,安徽省黄山市屯溪区八一大道8-7号颐和观邸,安徽省,黄山市,屯溪区,18075486961,unknown,
baidu,6c8ba17d71e3d8cb3fe231bb,黄山明宇汽车租赁销售有限公司,黄山市屯溪区康乐二路华馨苑东北侧,安徽省,黄山市,屯溪区,"(0559)2354555,13305595666,4008656800",unknown,
baidu,aef371cefb5f881a9f09f77b,佰昆·奥迪专业维修,八一大道8号长宏御泉湾香榭苑2幢8-19号,安徽省,黄山市,屯溪区,17755920655,unknown,
baidu,44a64e626fd706be04026f25,新能源汽车生活馆,黄山市屯溪区黄山西路维多利亚广场,安徽省,黄山市,屯溪区,,unknown,
baidu,c7e465c64501860a58f6be99,宝利锋汽车一站式服务,怡阳路与红星路交叉口东60米,安徽省,黄山市,屯溪区,18555095058,unknown,
baidu,a264d9b12cc49c508b2fb582,恒信汽车服务,安徽省黄山市屯溪区怡阳路花上园小区二期5-39号,安徽省,黄山市,屯溪区,18605591380,unknown,
baidu,8a421131f7ac9e5b2ce67b5f,锦锋汽车服务专业汽车维修,安徽省黄山市屯溪区阳湖镇广宇桥南翡翠滨江19号,安徽省,黄山市,屯溪区,13955956509,unknown,
baidu,9b4099d2a514f0a12efaa700,皇冠汽车美容服务中心(长干东路店),安徽省黄山市屯溪区长干东路139-3号,安徽省,黄山市,屯溪区,"(0559)2333300,13645595559",unknown,
baidu,e889a744f70426c88605bfce,老板车居,安徽省黄山市屯溪区新安北路64-5号,安徽省,黄山市,屯溪区,13665595990,unknown,
baidu,c0423b7bc52ed0bc441a32b8,佰车汇汽车维修中心,新安南路20-1御龙花园小区9幢104、105(阳湖镇政府斜对面),安徽省,黄山市,屯溪区,18755967590,unknown,
baidu,908c5b66076272a5d718b759,迪凯斯汽车美容装璜服务中心(黄山连锁店),安徽省黄山市屯溪区荷花东路19号,安徽省,黄山市,屯溪区,15212321230,unknown,
baidu,4cc50ac84207c634f9dc8520,车之悦汽车一站式服务,安徽省黄山市屯溪区江南新城紫藤3栋109号,安徽省,黄山市,屯溪区,(0559)2336698,unknown,
baidu,d5ecbea87db50066b5147f3a,黄山市屯溪区洗咖汽车美容店,新安北路59-6号,安徽省,黄山市,屯溪区,13955993319,unknown,
baidu,18f50aab246bbc9475e5b6a0,黄山市嘉强汽车服务有限公司,长干东路139号,安徽省,黄山市,屯溪区,,unknown,
baidu,a3d77ee32f82c5ca79b55cf4,车海汽车美容中心(玉屏府店),云海路4-6号,安徽省,黄山市,屯溪区,13615595816,unknown,
baidu,180f0c236b7756eb1df74d7b,新宇汽修,安徽省黄山市屯溪区北海路2号,安徽省,黄山市,屯溪区,13905593184,unknown,
baidu,ca182b88c99aa6ea8505bfd1,张辉机修,黄山市屯溪区黄山东路文采小区东北侧约40米,安徽省,黄山市,屯溪区,,unknown,
baidu,7814cd1faae538c3f90cad1f,海涌护理,安徽省黄山市屯溪区新安北路72-2号,安徽省,黄山市,屯溪区,18755916129,unknown,
baidu,8a867d73746aad40c7f02520,黄山嘉旅汽贸,徽山路17号永佳福邸20幢109号,安徽省,黄山市,屯溪区,,unknown,
baidu,fbb2beecff8d5371a20464cc,乐驾汽车美容中心,徽州大道20号长宏御泉湾21幢23-24号(佩琅西路与兴昱路交叉路口),安徽省,黄山市,屯溪区,15324543996,unknown,
baidu,762abbd0fb1ed331e70738f2,黄山非凡汽车灯光电器改装,安徽省黄山市屯溪区北海路永嘉福邸小区21栋103室,安徽省,黄山市,屯溪区,18705599777,unknown,
baidu,6c43771e1bc1ec5c26e0a0ae,宏丰汽配(雀山路),安徽省黄山市屯溪区北海路119-2号,安徽省,黄山市,屯溪区,"(0559)5202288,13905592030",unknown,
baidu,3ca8cda0fd279c69b6147f6e,亿晨汽车服务(齐云大道店),齐云大道8号桃花源名人俱乐部3幢1-1室,安徽省,黄山市,屯溪区,17705590559,unknown,
baidu,fa6e70cb36e455109d82ea6c,君安汽车养护服务中心,安徽省黄山市屯溪区迎宾大道12-1号,安徽省,黄山市,屯溪区,13855989974,unknown,
baidu,7d005f1584102b6d2cb96ddc,单行道维修喷漆保养轮胎,安徽省黄山市屯溪区新安南路20-1号御龙花园9栋,安徽省,黄山市,屯溪区,13955992955,unknown,
baidu,82e442da348db619901fc933,SunTek,黄山市屯溪区南滨江路新城时代大厦,安徽省,黄山市,屯溪区,,unknown,
baidu,025e0158b0a14ee87f29bd25,黄山市旧机动车交易中心,安徽省黄山市屯溪区长干东路139号,安徽省,黄山市,屯溪区,(0559)2313926,unknown,
baidu,0ed20a15554b86e957bfff34,黄山市建兴汽车贸易有限公司(横江路店),黄山市屯溪区横江路7-28号(秀水豪园大门旁),安徽省,黄山市,屯溪区,(0559)2356694,unknown,
baidu,0c618d66d40b34fda0acc414,卡维希汽车会所,文峰鑫苑黎新路1-1号,安徽省,黄山市,屯溪区,,unknown,
baidu,53fd48d7de0aa286ac080fb8,一嗨租车(黄山站送车点),黄山市屯溪区站前路4号(黄山站广场右侧停车场),安徽省,黄山市,屯溪区,(0559)2591766,unknown,
baidu,07bcdb6b89083984d1f49efa,广交汽车养护服务中心,黄山市屯溪区横江路7之40-41号,安徽省,黄山市,屯溪区,13855955349,unknown,
baidu,f0bf77d5fe264143be48428f,宣扬汽车音响(黄山旗舰店),安徽省黄山市屯溪区徽州大道11-28号,安徽省,黄山市,屯溪区,15212590515,unknown,
baidu,880e84002b2c5e6b9a005060,汽车维修保养,安徽黄山市屯溪区朋云路9号,安徽省,黄山市,屯溪区,,unknown,
baidu,9fcd97a8e8e743ee51e5c501,佳兴汽修,西海路辅路黄山出入境边防检查站东门西50米,安徽省,黄山市,屯溪区,15056690475,unknown,
baidu,e16fc70509aac9690d3dda6f,华荣汽修,安徽省黄山市屯溪区横江路秀水豪园北区132号,安徽省,黄山市,屯溪区,(0559)2577655,unknown,
baidu,186dbb6429aab288b5147fe3,黄山淘车人汽车销售有限公司,安徽省黄山市屯溪区昱中街道仙人洞路10号,安徽省,黄山市,屯溪区,,unknown,
baidu,4cf43e78e19bfaf8d0ff2364,鑫胜汽车真皮座套,安徽省黄山市屯溪区永佳福邸21栋101室,安徽省,黄山市,屯溪区,13965522885,unknown,
baidu,550fd5f938c12404931fc9cd,凯兴新能源汽车,安徽省黄山市屯溪区黄山东路139号,安徽省,黄山市,屯溪区,"(0559)2351198,(0559)5207888",unknown,
baidu,ea27d75fd6fea5c209a8d484,卡尔租车(滨江花园门店),安徽省黄山市屯溪区滨江中路24-11至12号,安徽省,黄山市,屯溪区,(0559)2150007,unknown,
baidu,8ff8a88c6ecf8f365a3ac8ca,宏达汽修,黄山市屯溪区黎阳路柏景雅居.翠竹轩,安徽省,黄山市,屯溪区,,unknown,
baidu,68a37046333ce507157643f1,深蓝汽车黄山齐云大道店-维保中心,黄山市屯溪区齐云大道黄山国际大酒店(屯溪老街店)西北侧约290米,安徽省,黄山市,屯溪区,15705590789,unknown,
baidu,76e89f91cb7efcff4e5547b1,行万里专业洗车,齐云大道8号,安徽省,黄山市,屯溪区,18005598388,unknown,
baidu,6fbe1253d00eddd5f7231088,众奥汽车配件,黄山市屯溪区洽阳路长宏御泉湾-三期,安徽省,黄山市,屯溪区,,unknown,
baidu,e14d31cf165aaeacf82d6178,路尚汽车养护中心(东方丽景店),黄山市屯溪区徽州大道东方丽景悠然居5幢1层104号,安徽省,黄山市,屯溪区,18755957822,unknown,
baidu,b1bb5b66a90b75c226e0a0ca,精诚汽修(洽阳路店),安徽省黄山市屯溪区洽阳路御泉湾四期9幢17-15号,安徽省,黄山市,屯溪区,"(0559)2352181,13305591281",unknown,
baidu,9ec0dd5fe6d9cc8beb12e47b,黄山腾马汽保,安徽省黄山市屯溪区北海路115号,安徽省,黄山市,屯溪区,(0559)5207316,unknown,
baidu,9dd85405728e867a6849f342,南翔专业汽车维修钣金喷漆,安徽省黄山市屯溪区横江路7-39号,安徽省,黄山市,屯溪区,"13855936608,15385597362",unknown,
baidu,1eea48a0cd0fd28dd7851fc1,捷捷汽配,安徽省黄山市屯溪区北海路74-3号,安徽省,黄山市,屯溪区,13955968393,unknown,
baidu,bb8e5b005d1aa1cad618b789,瑞江汽车,黄山市屯溪区北海路荷花东路新村西北侧约50米,安徽省,黄山市,屯溪区,,unknown,
baidu,5450a23a2235d0bf23f01745,黄山福跃,安徽省黄山市屯溪区北海路143号,安徽省,黄山市,屯溪区,13335598099,unknown,
baidu,b8e968c6442811650c0a7097,平安租车(滨江中路店),滨江中路龙翔御景38-17号,安徽省,黄山市,屯溪区,,unknown,
baidu,8eb2db0d4984412d6fc02cfa,一嗨租车(迎宾丽景店),安徽省黄山市屯溪区迎宾大道8号、17号幢,安徽省,黄山市,屯溪区,(0559)2591766,unknown,
baidu,286c680a3ba22dbed518b7a8,黄山浩隆汽车,黄山市屯溪区北海路中国石化(环城北路加油站)西侧约60米,安徽省,黄山市,屯溪区,,unknown,
baidu,90ecf83d4045b11c58f6be86,汽配市场,黄山市屯溪区北海路中国石化(环城北路加油站)北侧约60米,安徽省,黄山市,屯溪区,13705594833,unknown,
baidu,70d8fa780b1b87b2b6147f09,豫徽自动变速箱精修,安徽省黄山市屯溪区雀山路104号,安徽省,黄山市,屯溪区,13231313721,unknown,
baidu,3635a0b5c013330aca1b9591,吴氏星坤装潢服务,黄山市屯溪区中马路山田园西侧,安徽省,黄山市,屯溪区,,unknown,
baidu,4e1bc71d808f1e60cb213d7a,快乐租车,安徽省黄山市屯溪区G205(徽州大道),安徽省,黄山市,屯溪区,18655912007,unknown,
baidu,a83e3ada09cd039988db73a5,爱车360,黄山市屯溪区兖山路洽阳小区,安徽省,黄山市,屯溪区,15755982843,unknown,
baidu,b56fa717f02253f1d22dd630,中国一汽,黄山市屯溪区齐云大道全季酒店(屯溪老街店)东南侧约120米,安徽省,黄山市,屯溪区,,unknown,
baidu,ef4a57c0abbd0a12fe0eb0d4,理想汽车黄山屯溪授权钣喷中心(风驰店),安徽省黄山市屯溪区齐云大道1号,安徽省,黄山市,屯溪区,(0559)5289119,unknown,
baidu,eb2d8f156d2653f2b2077dff,朝阳轮胎(怡阳路店),安徽省黄山市屯溪区怡阳路5141号,安徽省,黄山市,屯溪区,15155991184,unknown,
baidu,78812a1a416b8b9ece04efe5,福盛汽配,黄山市屯溪区北海路宇隆广场,安徽省,黄山市,屯溪区,,unknown,
baidu,d5f7006e1abb9db5b817e787,鑫众汽配,安徽省黄山市屯溪区北海路47-3号,安徽省,黄山市,屯溪区,"(0559)2178887,13705590828",unknown,
baidu,7b089c2205a260fa95f08c73,老唐汽配,黄山市屯溪区北海路宇隆广场,安徽省,黄山市,屯溪区,"(0559)2113477,13956278270",unknown,
baidu,c582c83a08c00e02a1a93466,华安汽配(雀山路店),安徽省黄山市屯溪区北海路162号,安徽省,黄山市,屯溪区,15715595466,unknown,
baidu,337be6aa2d7a0e81f503b8f7,易汇汽配,安徽省黄山市屯溪区北海路184-3号,安徽省,黄山市,屯溪区,13855965498,unknown,
baidu,c489281c6e4ec93208f5eb53,小顾二手车经纪有限公司,安徽省黄山市屯溪区长干东路139号,安徽省,黄山市,屯溪区,"13063221677,13855980109",unknown,
baidu,16375ec30d93d3f9f60e770e,黄山德胜汽车电子(屯溪服务站),安徽省黄山市屯溪区北海路30-9号,安徽省,黄山市,屯溪区,13615591555,unknown,
baidu,5f29dadc3733cdc530169bad,杭州叉车(永佳福邸东),北海路火车站西(永佳福邸22a-101号),安徽省,黄山市,屯溪区,(0559)2585366,unknown,
baidu,dece127950ad818b8bfc0621,奇飞二手车,安徽省黄山市屯溪区徽山路17号永佳福邸21栋104号,安徽省,黄山市,屯溪区,,unknown,
baidu,4f2c80d11db805b0d0ff2301,合肥玉成旧机动车鉴定评估有限公司,黄山市屯溪区长干东路洁美园西南侧约40米,安徽省,黄山市,屯溪区,,unknown,
baidu,82ebf6ad200af360aeb22ac2,原二手车市场,安徽省黄山市屯溪区长干东路139号,安徽省,黄山市,屯溪区,,unknown,
baidu,cca9e08f16de459a601c671e,中国移动通信集团安徽有限公司黄山分公司电动汽车租赁点,安徽省黄山市屯溪区昱东街道黄山东路139-1号,安徽省,黄山市,屯溪区,,unknown,
baidu,fcc18f4a8dc28e6e32f71d2c,俊哥精品二手车展厅,黄山市屯溪区北海路永佳福邸,安徽省,黄山市,屯溪区,"13329093531,17175598888",unknown,
baidu,6c7c76b240f511cfb05c6a53,黄山市苗氏叉车吊车出租公司,安徽省黄山市屯溪区五里亭路55号山语人家9幢121号,安徽省,黄山市,屯溪区,4008752603,unknown,
baidu,2b8f87a15569e7a40d3dda7e,黄山市人民医院-医疗急救分中心,黄山市人民医院医疗急救分中心,安徽省,黄山市,屯溪区,,unknown,
baidu,00f1c7fbade8b706c156aca7,黄山市人民医院,黄山市屯溪区栗园路4号,安徽省,黄山市,屯溪区,(0559)2513720,unknown,
baidu,9fc1ac7a395787255e17c3a3,黄山市人民医院-门诊部,安徽省黄山市屯溪区栗园路4号,安徽省,黄山市,屯溪区,,unknown,
baidu,97bf9349f189dc92f32d839b,黄山市人民医院-住院部,安徽省黄山市屯溪区栗园路4号,安徽省,黄山市,屯溪区,,unknown,
baidu,1cb9c4372f5fd2964bcc4a08,牙博士口腔门诊部(百大机构),安徽省黄山市屯溪区新安北路10号,安徽省,黄山市,屯溪区,,unknown,
baidu,e6f3a47606822e1d3fe2310c,春草堂中医诊所,黄山市屯溪区滨江中路滨江时尚酒店(黄山屯溪老街店)西北侧约30米,安徽省,黄山市,屯溪区,,unknown,
baidu,768bd1b51fd43d55e81e973f,黄山市人民医院-综合病房大楼,安徽省黄山市屯溪区长干西路黄山市人民医院5号楼6楼,安徽省,黄山市,屯溪区,,unknown,
baidu,51e0d5237384061e6f3e1bf9,柏拉医疗,安徽省黄山市屯溪区跃进路新黄山商业步行街A-6-119号东侧117~118号后半间商铺(春风里对面马路),安徽省,黄山市,屯溪区,,unknown,
baidu,881a28e7aba4845ef842b2a7,黄山市新安中医医院,安徽省黄山市屯溪区黄山西路28号,安徽省,黄山市,屯溪区,(0559)2512249,unknown,
baidu,ae516b710a47a085fe0eb07a,黄山市人民医院-综合楼,安徽省黄山市屯溪区栗园路4号,安徽省,黄山市,屯溪区,,unknown,
baidu,976dfd0cbbb542950782c223,黄山市人民医院-感染门诊,黄山市屯溪区栗园路4号,安徽省,黄山市,屯溪区,,unknown,
baidu,0fcb6cebacc180eb0bf5eb0e,屯溪区人民医院,新安北路55号,安徽省,黄山市,屯溪区,(0559)2513716,unknown,
baidu,fc3bdc936da5ca5602294fda,黄山市人民医院体检中心,安徽省黄山市屯溪区栗园路4号妇儿大楼3楼,安徽省,黄山市,屯溪区,,unknown,
baidu,8012c5b31fe3f5a215c90531,黄山市人民医院-发热门诊,黄山市屯溪区栗园路4号,安徽省,黄山市,屯溪区,,unknown,
baidu,231169139f848683734b8734,屯溪区昱城社区卫生服务中心,安徽省黄山市屯溪区新安北路55号,安徽省,黄山市,屯溪区,,unknown,
baidu,7a8a3f36aaeaa9e695f08cbf,屯溪区口腔医院,安徽省黄山市屯溪区滨江中路2号,安徽省,黄山市,屯溪区,(0559)2512437,unknown,
baidu,1c15e60b4efed03ab5147f9f,黄山市口腔医院,黄山市屯溪区栗园路4号黄山市人民医院门诊部,安徽省,黄山市,屯溪区,,unknown,
baidu,fa56f2475fe594b440e19209,屯溪徐潜生耳鼻咽喉科诊所,安徽省黄山市屯溪区滨江中路14-3号,安徽省,黄山市,屯溪区,,unknown,
baidu,7aea43b73c2d80867c29bd3b,屯溪侨康门诊部,安徽省黄山市屯溪区跃进路6-20-101号,安徽省,黄山市,屯溪区,(0559)2543888,unknown,
baidu,cdef4edf3deaad5729d7aba7,黄山市眼科医院,安徽省黄山市屯溪区延安路8号,安徽省,黄山市,屯溪区,(0559)2536774,unknown,
baidu,f727ae861d8a5a49d81318bb,屯溪朝阳诊所,安徽省黄山市屯溪区新安南路4号绿水花园34幢,安徽省,黄山市,屯溪区,,unknown,
baidu,89699e28ac42cf30b5f42fc4,黄山名人眼科门诊部,黄山市屯溪区中马路山田园西北1门西南侧约90米,安徽省,黄山市,屯溪区,,unknown,
baidu,066a1ba3bac928a2132935a6,屯溪皖健诊所,安徽省黄山市屯溪区跃进路9-1号,安徽省,黄山市,屯溪区,(0559)2115366,unknown,
baidu,b9bf1ff038666aa75fbe861e,声桥助听器(黄山利民路店),安徽省黄山市屯溪区利民路17号,安徽省,黄山市,屯溪区,13645593707,unknown,
baidu,d53138ef7eb320d0acee7a1a,刘茂松诊所,安徽省黄山市屯溪区跃进路2-23号办公楼二楼,安徽省,黄山市,屯溪区,,unknown,
baidu,8fee2bf21aa910e78936ee3b,回春大药房(滨江中路店),安徽省黄山市屯溪区滨江中路1-2号,安徽省,黄山市,屯溪区,(0559)2546462,unknown,
baidu,b7892166463a5ad571210b76,权科视力(七小店),安徽省黄山市屯溪区长干西路17-12号,安徽省,黄山市,屯溪区,,unknown,
baidu,fd8488b37b2daf8af6c59c56,同春大药房(屯溪一店),安徽省黄山市屯溪区栗园路19号,安徽省,黄山市,屯溪区,(0559)2512866,unknown,
baidu,0651047f79bf4b64c7f02516,黄山市屯溪区365大药房,安徽省黄山市屯溪区栗园路25号27号365室,安徽省,黄山市,屯溪区,(0559)2579899,unknown,
baidu,b9e5d0b83ae33fbc81a12ec4,黄山黎明牙科诊所,安徽省黄山市屯溪区黄山东路52号维多利亚东苑内街,安徽省,黄山市,屯溪区,(0559)2579832,unknown,
baidu,d6c5d991f2ca7ce830169bc5,花园大药房(栗园路店),安徽省黄山市屯溪区栗园路18-1号,安徽省,黄山市,屯溪区,"13359090693,13855937681",unknown,
baidu,a81191ba41629c21fbf0cb7f,天星大药房(黄山店),安徽省黄山市屯溪区昱中街道时代广场利民路14-15号,安徽省,黄山市,屯溪区,(0559)2333670,unknown,
baidu,d6e5ef9e84c419ad4054d711,屯溪王湧中医诊所,黄山市屯溪区黄山西路维多利亚广场-南区,安徽省,黄山市,屯溪区,,unknown,
baidu,b61f87c379058207ae045768,黄山市屯溪区百姓大药房(栗园路店),昱中街道栗园路21号(栗园大药房),安徽省,黄山市,屯溪区,"(0559)2541484,15855598400",unknown,
baidu,25c7de6c36b579f415a19001,跃进社区卫生服务站,安徽省黄山市屯溪区东苑内街52-42-155号,安徽省,黄山市,屯溪区,(0559)2320333,unknown,
baidu,a7f3246fca6c0e99b42655e0,郑氏西园喉科,安徽省黄山市屯溪区八一大道8号,安徽省,黄山市,屯溪区,,unknown,
baidu,5fea70cb1c3587344154d768,阳湖镇卫生院,安徽省黄山市屯溪区阳湖镇八一大道8号屯溪人民广场西侧,安徽省,黄山市,屯溪区,,unknown,
baidu,b004a9da8f7bc5af2afc4837,牙博士口腔门诊部(阳湖机构),安徽省黄山市屯溪区洽阳路13-2号,安徽省,黄山市,屯溪区,,unknown,
baidu,9b174de9f72e38afa3acc4d7,屯溪区人民医院-发热门诊,黄山市屯溪区新安北路55号,安徽省,黄山市,屯溪区,,unknown,
baidu,a5e96744cf408d8d36b06c23,斯达克助听器(黄山专卖店),黄山市屯溪区黄山西路时代广场,安徽省,黄山市,屯溪区,(0559)2325702,unknown,
baidu,a5ef680ff1d16aaab9df8fce,精一堂药店,安徽省黄山市屯溪区长干西路1-15号,安徽省,黄山市,屯溪区,,unknown,
baidu,2470c323d0a904d6c056acbe,解放军九六六0一部队医院,安徽省黄山市屯溪区新安南路63号,安徽省,黄山市,屯溪区,(0559)2836742,unknown,
baidu,7bcaa4d45aeddbbebadf8f98,阳湖社区卫生服务中心,黄山市屯溪区八一大道洽阳小区,安徽省,黄山市,屯溪区,,unknown,
baidu,3a0a78bda34285f963180928,中铁四局集团黄山疗养院,安徽省黄山市屯溪区稽灵山路32号,安徽省,黄山市,屯溪区,,unknown,
baidu,a3f80d2a5454bc72dc1e528c,屯溪张月仙口腔诊所,安徽省黄山市屯溪区仙人洞南路仙人洞新苑2-34号,安徽省,黄山市,屯溪区,,unknown,
baidu,0523a141e508db1eb23c8126,金玉牙科诊所(新园西路店),安徽省黄山市屯溪区新园西路1-23号,安徽省,黄山市,屯溪区,(0559)2542446,unknown,
baidu,8c246e598379be9c14b54b9a,黄山市中心血站,黄山市屯溪区昱东街道安东路36号,安徽省,黄山市,屯溪区,(0559)2126003,unknown,
baidu,75d0881a84b243543b04b1a7,黄山市妇幼保健所,安徽省黄山市屯溪区北海路170号,安徽省,黄山市,屯溪区,"(0559)2353554,(0559)2353631",unknown,
baidu,c47ff5bbcc275e8cc4f50dcc,大众大药房(东里巷),安徽省黄山市屯溪区长干西路15-3号,安徽省,黄山市,屯溪区,(0559)2183785,unknown,
baidu,eb6aac968c8613de4f6d46f4,花园大药房(跃进店),安徽省黄山市屯溪区昱中街道跃进路33-6号,安徽省,黄山市,屯溪区,(0559)2349968,unknown,
baidu,17f712bdca628c87c336447f,自然之声助听器(黄山屯溪店),安徽省黄山市屯溪区跃进路6-7号,安徽省,黄山市,屯溪区,17355955917,unknown,
baidu,e96168cad8767e1988fc0645,广源大药房,黄山市屯溪区新园西路黄山市人民医院东北侧约40米,安徽省,黄山市,屯溪区,,unknown,
baidu,764421fbfa423acaf90cad14,新安缘大药房,黄山市屯溪区跃进路黄山城市花园西南侧约50米,安徽省,黄山市,屯溪区,(0559)2321187,unknown,
baidu,82aafd4ca93d0354b020a85a,尽心大药房(阳湖店),安徽省黄山市屯溪区新安南路4号阳光绿水19幢112室,安徽省,黄山市,屯溪区,18005590991,unknown,
baidu,d991e116ef864e281f3894ce,杨梅山平价大药房,安徽省黄山市屯溪区徽山路9号建林小区1幢45号,安徽省,黄山市,屯溪区,(0559)2541517,unknown,
baidu,7fc4f732a404ec68bda24068,大峰堂,安徽省黄山市屯溪区老街113-1号,安徽省,黄山市,屯溪区,,unknown,
baidu,3f826ed310e69746d1f49ec5,黄山人大药房,安徽省黄山市屯溪区长干西路35号长跃小区4幢,安徽省,黄山市,屯溪区,13956268972,unknown,
baidu,2aafc80537d0aae340afe611,一代宗师膏药铺,安徽省黄山市屯溪区老街街道中马路27号,安徽省,黄山市,屯溪区,,unknown,
baidu,96a719806737ea4c1d1d115c,昌盛大药房(阳湖路店),安徽省黄山市屯溪区跃进路4-27号c区1幢9-—10号,安徽省,黄山市,屯溪区,(0559)2561487,unknown,
baidu,55f67244533595dc715e8074,屯溪区疾病预防控制中心,安徽省黄山市屯溪区人民广场西侧公共卫生服务中心大楼内,安徽省,黄山市,屯溪区,(0559)12320,unknown,
baidu,a6daa693e224095ed4851f0e,凝济堂,安徽省黄山市屯溪区长干西路17-14号,安徽省,黄山市,屯溪区,,unknown,
baidu,d3d05ff5ba7c0a6c40ab9a29,华氏大药房(阳湖店),新安南路11号,安徽省,黄山市,屯溪区,(0559)2340926,unknown,
baidu,a4e4b90a17234502fea778b1,民生大药房(新安大道店),安徽省黄山市屯溪区新安南路锦绣江南7幢3~7号,安徽省,黄山市,屯溪区,(0559)5298585,unknown,
baidu,a7564a250180d1363310af2a,福美药房(黄山新街店),安徽省黄山市屯溪区黄山西路49-7号,安徽省,黄山市,屯溪区,0559-2768869,unknown,
baidu,94fbf50c92c55f74911fc93a,国胜大药房(天禄店),安徽省黄山市屯溪区徽州大道11号大观园上河城4栋14号,安徽省,黄山市,屯溪区,13645596762,unknown,
baidu,17916dc8143a8161ad080fad,惠耳听力助听器(前园南路店),安徽省黄山市屯溪区前园南路9号,安徽省,黄山市,屯溪区,0559-2511108,unknown,
baidu,a057afc52aa27c4e5b10937a,黄山市疾病预防控制中心,安徽省黄山市屯溪区安东路36-7号,安徽省,黄山市,屯溪区,,unknown,
baidu,5dcb476aebe492c7220220e3,峰力助听器黄山旗舰中心(屯溪大润发店),安徽省黄山市屯溪区跃进路21号2幢102号,安徽省,黄山市,屯溪区,"0559-6510120,18155953928",unknown,
baidu,8f49523420950072e5073830,百信大药房(阳湖店),安徽省黄山市屯溪区新安南路4-40号,安徽省,黄山市,屯溪区,13905591146,unknown,
baidu,3eaabfe837951e778d77278f,花园大药房(徽山店),安徽省黄山市屯溪区徽山路建林小区1幢18号、19号,安徽省,黄山市,屯溪区,(0559)2599100,unknown,
baidu,9edf1f5794fb2a90fa0cadc2,余仁堂大药房(徽州大道店),安徽省黄山市屯溪区徽州大道17-23号,安徽省,黄山市,屯溪区,(0559)2338184,unknown,
baidu,6ad72ebd01c1139f1811d5da,天健药房(稽灵山路店),安徽省黄山市屯溪区稽灵山路34号假日公寓11幢,安徽省,黄山市,屯溪区,"(0559)2335627,13855989077",unknown,
baidu,7c8a29837d92596ba21de968,春天大药房(柏景雅居丹桂轩店),安徽省黄山市屯溪区昱新路7--10号柏景雅居2幢8~9号,安徽省,黄山市,屯溪区,18055929919,unknown,
baidu,0e81d14d269aa33786330463,保圆药店,黄山市屯溪区仙人洞南路清华苑,安徽省,黄山市,屯溪区,(0559)2535081,unknown,
baidu,43d6a7d4278f454ab13c81ec,庆和堂大药房(杨梅山店),安徽省黄山市屯溪区徽山路11-3号,安徽省,黄山市,屯溪区,,unknown,
baidu,cc29355ae44921af3913fddd,新声万聪听力连锁助听器·呼吸机(黄山听力中心),安徽省黄山市屯溪区跃进路21号2幢102室,安徽省,黄山市,屯溪区,"13083231368,18155953928",unknown,
baidu,c153bc964a9300650c0e6b85,百信大药房(栢景店),安徽省黄山市屯溪区西海路18号黄山太平洋购物中心底商F1,安徽省,黄山市,屯溪区,(0559)2319012,unknown,
baidu,09ca5f730e891bd293114c58,专业取痣(黄山店),安徽省黄山市屯溪区新安北路1-7号,安徽省,黄山市,屯溪区,17755938768,unknown,
baidu,58e34bc03bdd3e9eb6f42fa4,陌客尔口腔(黄山店),安徽省黄山市屯溪区黄山中路8号时代广场7.8.9号,安徽省,黄山市,屯溪区,,unknown,
baidu,7c2b01e0908fdb0515948e91,黄山口腔门诊部,安徽省黄山市屯溪区徽州大道28-3-4号,安徽省,黄山市,屯溪区,(0559)2356866,unknown,
baidu,1fe7b1ae93ea46abeb56fa00,心艺医疗美容,安东路77号,安徽省,黄山市,屯溪区,(0559)2786888,unknown,
baidu,7e667d08cc6a69149c09f72b,杨阳口腔诊所,安徽省黄山市屯溪区新安南路4号阳光绿水花园43幢101号,安徽省,黄山市,屯溪区,18755988878,unknown,
baidu,7c310f38090df32efe0eb032,宛伊健康馆(黄山店),安徽省黄山市屯溪区维多利亚南苑,安徽省,黄山市,屯溪区,13515598506,unknown,
baidu,8d2516c757bd337580a00cb5,湘川经络调理,长跃小区长干西路35-16,安徽省,黄山市,屯溪区,,unknown,
baidu,576681dfdae235df96ca0720,相对面教育,黄山市屯溪区徽州大道格林豪泰商务酒店(黄山屯溪老街店)西侧,安徽省,黄山市,屯溪区,18155905220,unknown,
baidu,b4a3b197784dc9ab3c9a5ebf,喜墨书法,安徽省黄山市屯溪区新安北路1-8号,安徽省,黄山市,屯溪区,18205595570,unknown,
baidu,f3e1bf28ee12138131870aaa,月迎艺术,安徽省黄山市屯溪区新安北路1-1号,安徽省,黄山市,屯溪区,18297682562,unknown,
baidu,9f49a28ab5a58b8b871541ef,帝吾街舞概念店,安徽省黄山市屯溪区东里巷54号,安徽省,黄山市,屯溪区,17755909926,unknown,
baidu,6fb87b73efae71c59ee321af,新绘美术,安徽省黄山市屯溪区黄山中路香榭大街3-10号,安徽省,黄山市,屯溪区,,unknown,
baidu,9e08158ebc5b3fa23913fdfd,美迪乐教育,安徽省黄山市屯溪区黄山中路14号辣阿婆5层,安徽省,黄山市,屯溪区,"(0559)2538904,(0559)2555111",unknown,
baidu,a201bca6aabec0bf9d9d68fa,点金教育(大润发校区),黄山市屯溪区新园西路屯溪柏树小学东南侧约70米,安徽省,黄山市,屯溪区,18855998868,unknown,
baidu,443b599b00951ee62dfaa75c,晨音·钢琴(华馨苑店),安徽省黄山市屯溪区黄山西路16号,安徽省,黄山市,屯溪区,13955992430,unknown,
baidu,2965632855e36f1b2fe67ba9,和武吉他艺术,老街街道新安北路23号(黄山百大名品中心)百大名品中心F4,安徽省,黄山市,屯溪区,13855955941,unknown,
baidu,05a61c865fce969ab2077d7a,蚂蚁力量儿童潜能开发中心,安徽省黄山市屯溪区滨江中路19号广交商务大楼3楼,安徽省,黄山市,屯溪区,,unknown,
baidu,268850fd3e7ad1c4fa0cada6,京秋书院,黄山市屯溪区延安路坞山巷小区西南侧约70米,安徽省,黄山市,屯溪区,,unknown,
baidu,5747e942b3750319636858da,中国工商银行工银研修中心(安徽黄山),安徽省黄山市屯溪区徽山路20-2号,安徽省,黄山市,屯溪区,,unknown,
baidu,0ac6618031429ba2a11de9a5,小荷文学,黄山市屯溪区南滨江路黄山滨江花园酒店(黄山屯溪老街店)南侧约40米,安徽省,黄山市,屯溪区,,unknown,
baidu,b292b3aa94fb5d28be484234,黄山市屯溪区图书馆,安徽省黄山市屯溪区滨江西路44号,安徽省,黄山市,屯溪区,(0559)2581893,unknown,
baidu,8eeffb14343e73a9b11e36c3,天翼中小学翼校体验店,安徽省黄山市屯溪区新安北路24,安徽省,黄山市,屯溪区,,unknown,
baidu,d47e0dca7d62b004f50e77a5,圣火文化,徽山路4-1-8号,安徽省,黄山市,屯溪区,13855976500,unknown,
baidu,3810c879d4ce6af69c09f7cd,黄山开放大学,安徽省黄山市屯溪区延安路73号,安徽省,黄山市,屯溪区,(0559)2527502,unknown,
baidu,040c61d4d2e417b9f50e7732,铭童教育(阳湖校区),安徽省黄山市屯溪区景徽国际(徽州大道南),安徽省,黄山市,屯溪区,"(0559)2521998,19105591998",unknown,
baidu,594438b60e36515c2e47337e,徽娃艺术(大润发校区),安徽省黄山市屯溪区跃进路1号,安徽省,黄山市,屯溪区,18705594700,unknown,
baidu,720e212c1720ac91a7c7560b,画风美术(专业少儿美术培训基地),安徽省黄山市屯溪区徽州大道阳光绿水花园沿街商铺10栋,安徽省,黄山市,屯溪区,13637204317,unknown,
baidu,e3a7fd13d92fdc5228b97cc7,黄山市实验小学,安徽省黄山市屯溪区延安路81号,安徽省,黄山市,屯溪区,(0559)2513344,unknown,
baidu,4cec7a82787fe5a89900500f,屯溪示范幼儿园(宇隆分园),安徽省黄山市屯溪区康乐一路商贸城15栋,安徽省,黄山市,屯溪区,,unknown,
baidu,6a46689173e812766fc02c89,小央美·少儿美术(阳湖校区),安徽省黄山市屯溪区阳湖西路1-12号,安徽省,黄山市,屯溪区,(0559)2556669,unknown,
baidu,750368359f7a3faf5e0d02c7,屯溪长干小学,安徽省黄山市屯溪区长干西路18号,安徽省,黄山市,屯溪区,(0559)2513457,unknown,
baidu,67392c1b4eb943995a3ac80f,北京马承英语(黄山分校),安徽省黄山市屯溪区黄山西路49-55号新街商务楼4楼,安徽省,黄山市,屯溪区,(0559)2535711,unknown,
baidu,b757f12b400884c13913fd28,金色摇篮(江心洲园),安徽省黄山市屯溪区G205(新安大桥),安徽省,黄山市,屯溪区,15215590366,unknown,
baidu,7c5e480b1b7872caadb22a37,屯溪柏树小学,安徽省黄山市屯溪区长亭巷1号,安徽省,黄山市,屯溪区,,unknown,
baidu,79e40e1e7fc01a3394ec848b,码小钉科创教育,安徽省黄山市屯溪区洽阳路13-16号,安徽省,黄山市,屯溪区,13645597899,unknown,
baidu,69a9ca670aac6a725e0d0237,蓓蕾柏树幼儿园,安徽省黄山市屯溪区柏树路19号,安徽省,黄山市,屯溪区,,unknown,
baidu,8d96925c53dc5638c1f1cfc9,昱中幼儿园,安徽省黄山市屯溪区栗园路18号,安徽省,黄山市,屯溪区,,unknown,
baidu,0adce3e24740c76180a00cc7,屯溪现代实验学校,安徽省黄山市屯溪区戴震路5号,安徽省,黄山市,屯溪区,(0559)2512097,unknown,
baidu,80fa148b0f35fcba0f0e6b8e,黄山博文教育培训学校(总部),安徽省黄山市屯溪区南滨江路新城时代大厦a座5楼,安徽省,黄山市,屯溪区,(0559)2510101,unknown,
baidu,8b2df201d6717c8994031965,黄山市兰亭书法院,安徽省黄山市屯溪区延安路34号,安徽省,黄山市,屯溪区,,unknown,
baidu,6fa4bb59e1f3f09fa0acc4dd,德茗舍茶艺职业培训学校,安徽省黄山市屯溪区稽灵山路26-6-9号,安徽省,黄山市,屯溪区,13855902007,unknown,
baidu,6e91cf21c68998e6c72ba114,黄山小步智学体验中心,安徽省黄山市屯溪区新黄山商业步行街A区6幢402号,安徽省,黄山市,屯溪区,,unknown,
baidu,d55c828d052c9ba129201a4f,枫林美术,安徽省黄山市屯溪区昱中街道仙人洞南路2号仙人洞新苑7幢2层201室,安徽省,黄山市,屯溪区,19840032115,unknown,
baidu,8ed1906e1509007dc51b7596,黄山市启行教育,黄山市屯溪区荷花西路1-2-4号附近,安徽省,黄山市,屯溪区,,unknown,
baidu,4b36e8de252e3fbb22022090,安徽省黄山市屯溪第三中学,安徽省黄山市屯溪区徽山路18号,安徽省,黄山市,屯溪区,,unknown,
baidu,baa82f4dcd64cec81288249e,燕子舞蹈,安徽省黄山市屯溪区新安南路24号,安徽省,黄山市,屯溪区,19905592307,unknown,
baidu,222592c2e8016f0731870aab,I DANCE七舞街舞工作室,安徽省黄山市屯溪区八一大道8号长宏·御泉湾香榭苑1幢二楼204号,安徽省,黄山市,屯溪区,13675594570,unknown,
baidu,ffdfdd4c3cca4baba1a9348c,梦享舞蹈,安徽省黄山市屯溪区江南新城东门百鸟亭路1-15号,安徽省,黄山市,屯溪区,17755950802,unknown,
baidu,619125fd018a3710ac0457a8,雅婷模特学院(黄山总校区),黄山市屯溪区文峰路中铁滨江名邸东侧约90米,安徽省,黄山市,屯溪区,,unknown,
baidu,6f37641f21cbd6c1260bd088,黄山市实验小学-科学楼,延安路81-17号附近,安徽省,黄山市,屯溪区,,unknown,
baidu,81d86ed51a370cf517c8f627,佳音英语(黎阳分校),安徽省黄山市屯溪区昱新路2号黎阳印象39栋10号,安徽省,黄山市,屯溪区,(0559)2596660,unknown,
baidu,2bcb26d3e19650c5118824f5,翰林教育城,安徽省黄山市屯溪区徽州大道11-23号,安徽省,黄山市,屯溪区,,unknown,
baidu,6a52570ca1124a314d55472c,蓓蕾阳光绿水幼儿园,安徽省黄山市屯溪区阳湖镇阳光绿水二期44号楼,安徽省,黄山市,屯溪区,18154182946,unknown,
baidu,9f4a2141c53f8c6ad3ff23bc,潮童演义(阳湖店),安徽省黄山市屯溪区百鸟亭路2-25号,安徽省,黄山市,屯溪区,15385432678,unknown,
baidu,ad830be1d23608655cbe86ed,黄山市屯溪第四中学,安徽省黄山市屯溪区率水路27号,安徽省,黄山市,屯溪区,,unknown,
baidu,ba375da0b81e822ab7265524,黄山炎培职业学校技校校区,安徽省黄山市屯溪区戴震路23号,安徽省,黄山市,屯溪区,(0559)2578064,unknown,
baidu,9dbd63f4f65ad92181288ad6,未来艺术,黄山市屯溪区徽州大道黄山大观度假公寓(屯溪老街店),安徽省,黄山市,屯溪区,,unknown,
baidu,4d21d163cea110a9e31103bb,佳音教育(阜上路分校),安徽省黄山市屯溪区阜上路90号,安徽省,黄山市,屯溪区,13355590119,unknown,
baidu,d853819981cc0e8cf4eafcdc,芝麻编程专业少儿编程培训中心,安徽省黄山市屯溪区洽阳路13-1号,安徽省,黄山市,屯溪区,,unknown,
baidu,d52831f99da692a42efaa721,屯溪六中,安徽省黄山市屯溪区百鸟亭路6号(近江南新城),安徽省,黄山市,屯溪区,(0559)2334281,unknown,
baidu,dc1420631b1a17a7fbdc8538,勤策教育(江南新城校区),安徽省黄山市屯溪区江南新城百鸟亭路1-20号,安徽省,黄山市,屯溪区,(0559)2315578,unknown,
baidu,53b02f67df9f2a105bf6beca,黄山市社区科普大学,安徽黄山市屯溪区延安路73-2号,安徽省,黄山市,屯溪区,,unknown,
baidu,fd13a3f2673317fab1077dc7,大位小学,安徽省黄山市屯溪区长干中路59号,安徽省,黄山市,屯溪区,(0559)2515352,unknown,
baidu,b48f4a625f3a3e501894c68d,高博外语培训中心,安徽省黄山市屯溪区前园南路3号2楼(原天竺茶楼),安徽省,黄山市,屯溪区,18005595060,unknown,
baidu,5dee144f7b64244581a12ef8,新安驾校报名处,安徽省黄山市屯溪区百鸟亭路13号,安徽省,黄山市,屯溪区,18096490918,unknown,
baidu,1e0d5bad34ada665fe0eb00c,屯溪江南实验小学,安徽省黄山市屯溪区徽州大道30号,安徽省,黄山市,屯溪区,(0559)2347795,unknown,
baidu,8a554dab5477be78902ca3ff,黄山市外国语学校-东区,黄山市屯溪区阳湖路黄山市外国语学校,安徽省,黄山市,屯溪区,,unknown,
baidu,c0a4eb140f1a8fc052e5c57f,妙趣童生艺术中心,黄山市屯溪区文峰路中铁滨江名邸东侧约100米,安徽省,黄山市,屯溪区,,unknown,
baidu,e3e2cd9d8c00bfe3c7f50dc7,屯溪五中,安徽省黄山市屯溪区黄山东路244号,安徽省,黄山市,屯溪区,(0559)2313575,unknown,
baidu,84480edfa7ef258f3913fd75,专注力教育,黄山市屯溪区百鸟亭路黄山广宇·江南新城-东区,安徽省,黄山市,屯溪区,,unknown,
baidu,9ee7cc780e03bb7016c905c7,黄山市新世纪学校,安徽省黄山市屯溪区新园东路33号阜安新村21幢,安徽省,黄山市,屯溪区,,unknown,
baidu,abbf640148bd74c386420ef7,屯溪江南幼儿园,安徽省黄山市屯溪区红星路16-22号,安徽省,黄山市,屯溪区,,unknown,
baidu,3f9337d6849b1eb3f72310c7,黄山市技工学校,安徽省黄山市屯溪区戴震路21号,安徽省,黄山市,屯溪区,(0559)2578064,unknown,
baidu,b16baf1d7ba264005af6be73,锦绣爱乐祺早教中心,安徽省黄山市屯溪区新安南路3282号,安徽省,黄山市,屯溪区,(0559)2532211,unknown,
baidu,dbf4d6ee8ef70e576fa3ccc9,荷花池小学,安徽省黄山市屯溪区前园北路3号,安徽省,黄山市,屯溪区,(0559)2514241,unknown,
baidu,74c68b3dee56966f58f6bead,玛利娅蒙特梭利早教·托育(屯溪长宏御泉湾校区),徽州大道20号长宏御泉湾一期1-1号,安徽省,黄山市,屯溪区,13965500452,unknown,
baidu,7acec047d76bace8d4851f49,蓓蕾哚哆幼儿园,安徽省黄山市屯溪区荷花西路2号,安徽省,黄山市,屯溪区,(0559)2510560,unknown,
baidu,a9584e3be6404bfbfb2d6118,黄山市外国语学校-西区,黄山市屯溪区南滨江路黄山市屯溪二中,安徽省,黄山市,屯溪区,,unknown,
baidu,29c8373651aac92a3ae4a683,金缨幼儿园,黄山市屯溪区红星路安置小区西侧约70米,安徽省,黄山市,屯溪区,,unknown,
baidu,d888f725ab253095c909f0d7,百鸟亭小学,黄山市屯溪区阳湖镇百鸟亭兖山社区旁,安徽省,黄山市,屯溪区,,unknown,
baidu,55d07d53f88cc9c8adcb6631,黄山市示范幼儿园,安徽省黄山市屯溪区新园东路31号,安徽省,黄山市,屯溪区,(0559)2314884,unknown,
baidu,20d0a1f70b7135a3fda77872,德兴斋砚雕技艺创研室,黄山市屯溪区中马路山田园东南侧约40米,安徽省,黄山市,屯溪区,13515595710,unknown,
baidu,dac0c9cd3500eae6e9f8530a,纵横幼教中心(广宇园),安徽省黄山市屯溪区南滨江东路9号翡翠滨江大厦1栋807西南方向80米,安徽省,黄山市,屯溪区,13955954881,unknown,
baidu,e85a954decbb0784d81318bb,黄山育才幼儿园(安东路分园),安徽省黄山市屯光大道2号世贸绿洲,安徽省,黄山市,屯溪区,(0559)2319461,unknown,
baidu,c63c1552c6e3de35d4851f10,昱西街道新时代文明实践所,安徽省黄山市屯溪区横江路锦绣横江,安徽省,黄山市,屯溪区,,unknown,
baidu,fe7c176136c1c8c41ce99917,帜童广宇幼儿园,安徽省黄山市屯溪区百鸟亭路江南新城棕榈苑14幢,安徽省,黄山市,屯溪区,15755980880,unknown,
baidu,e4c056550e02dae02a02e161,小翰林幼儿园,安徽省黄山市屯溪区徽州大道11号黄山大观,安徽省,黄山市,屯溪区,(0559)2556667,unknown,
baidu,94f0628fda6345270f0a70de,荷花池幼儿园,安徽省黄山市屯溪区徽山路28幢,安徽省,黄山市,屯溪区,,unknown,
baidu,860fd512b00d58e786420eff,纵横亲亲幼儿园,安徽省黄山市屯溪区排云路亲亲家园2栋,安徽省,黄山市,屯溪区,,unknown,
baidu,24963472bb0b7b9f5cbe8624,银河幼儿园,安徽省黄山市屯溪区徽山路11栋,安徽省,黄山市,屯溪区,,unknown,
baidu,50f7d1461d3a0ec472210bc7,黄山育才学校,安徽省黄山市屯溪区北海路55-23号,安徽省,黄山市,屯溪区,,unknown,
baidu,184eb022bca4c85b9cec2ba6,帜童森林幼儿园,黄山市屯溪区齐云大道5号桃花源小区,安徽省,黄山市,屯溪区,19855951281,unknown,
baidu,d43919812f13ae9838e4a6bf,黄山市屯溪区图书馆(占川书局分馆),安徽省黄山市屯溪区黎阳镇黎阳映像23幢,安徽省,黄山市,屯溪区,,unknown,
baidu,56229df3e0bdacb378f7963f,屯溪十小,荷花池新村7幢2单元104号,安徽省,黄山市,屯溪区,,unknown,
baidu,f9c722bfd22f6e098f1a89aa,阳光幼儿园,安徽省黄山市屯溪区新安南路4-34号,安徽省,黄山市,屯溪区,(0559)2340117,unknown,
baidu,8c81f720514d85cf2811d1d9,金色摇篮幼儿园,安徽省黄山市屯溪区阳湖镇云海路1-1号东方丽景四期禧园门口,安徽省,黄山市,屯溪区,15805599855,unknown,
baidu,644198dd6a0fcb609222e0f5,安徽财经大学黄山产业金融研究院,黄山市屯溪区兴昱路景徽国际南侧约30米,安徽省,黄山市,屯溪区,,unknown,
baidu,6eebbb5cd5b4cb7ed5851f5a,托恩未来幼儿园,安徽省黄山市屯溪区华山路9号恒大滨江左岸邻里中心,安徽省,黄山市,屯溪区,18755981846,unknown,
baidu,4f8d438f79d0618cabf729cb,黄山市徽州中华职业学校,安徽省黄山市屯溪区新安北路65号,安徽省,黄山市,屯溪区,,unknown,
baidu,b0c00c90d0a71c9e21f01713,黄山市林业科学研究所,安徽省黄山市屯溪区G205(山深线),安徽省,黄山市,屯溪区,(0559)3531170,unknown,
baidu,9a2c5efbb138f8b70782c218,黄山市林业科学研究所实验楼,黄山市屯溪区北海路永佳福邸西北侧约170米,安徽省,黄山市,屯溪区,,unknown,
baidu,2322802b2dc88b2e2cb908b3,黄山市养蜂研究所,安徽黄山市屯溪区前园南路53幢-2号53幢2号,安徽省,黄山市,屯溪区,13205596666,unknown,
baidu,45c07df80d53f0c01b94c6ef,国家林草长期科研基地,黄山市屯溪区北海路永佳福邸西北侧约180米,安徽省,黄山市,屯溪区,,unknown,
baidu,52413ba4fc62c70aeaf853d8,光明小记者黄山工作站,黄山市屯溪区洽阳路黄山大观度假公寓(屯溪老街店),安徽省,黄山市,屯溪区,,unknown,
baidu,51eaf40a142191b907fef5c8,黄山市水电勘测设计院,安徽省黄山市屯溪区新安北路57号,安徽省,黄山市,屯溪区,,unknown,
baidu,1cf0977819ae464bcc06a4eb,省工行干部培训中心站,安徽省黄山市屯溪区徽山路20-2号,安徽省,黄山市,屯溪区,,unknown,
baidu,a9d188434daef3f378f796ed,停车场,黄山市屯溪区新安北路新安广场,安徽省,黄山市,屯溪区,,unknown,
baidu,887ac1f3249e4e06ad31e5fa,阿达驻车乐善里-滨江智慧停车场,黄山市滨江中路滨江时尚酒店(黄山屯溪老街店)西侧,安徽省,黄山市,屯溪区,,unknown,
baidu,d21ce6304c282b16c9fa5f2e,新华书店(滨江路店)-地下停车场,安徽省黄山市屯溪区滨江西路43号,安徽省,黄山市,屯溪区,,unknown,
baidu,60f8a458ab0d80932cb96d2f,市医院西门,1路;10路;12路;216路;220路;5003路;高铁快线1路,安徽省,黄山市,屯溪区,,unknown,
baidu,dc4b3876344b59cc7f29bdf3,黄山市昱中花园-地下停车场,安徽省黄山市屯溪区新民路35号,安徽省,黄山市,屯溪区,,unknown,
baidu,9d91ff6db90f1084734b87ac,黄山市人民医院-地上停车场,黄山市屯溪区栗园路4号黄山市人民医院内,安徽省,黄山市,屯溪区,,unknown,
baidu,a2cb2a3e9a95d3a140e192a9,昱中花园社会主义核心价值观主题广场-地下停车场,黄山市屯溪区栗园路昱中花园社会主义核心价值观主题广场,安徽省,黄山市,屯溪区,,unknown,
baidu,4c2535e46e1bc4cde215f966,黄山市人民医院-地下停车场,黄山市屯溪区栗园路4号,安徽省,黄山市,屯溪区,,unknown,
baidu,836a596cc259bd78d92f2860,中国银行(黄山分行)-停车场,黄山市屯溪区新安北路坞山巷小区南侧,安徽省,黄山市,屯溪区,,unknown,
baidu,83fedff697a6656fede4a534,黄山市人民医院-地上停车场,黄山市屯溪区新园西路黄山市人民医院,安徽省,黄山市,屯溪区,,unknown,
baidu,060431bd6b2323dee6e9654d,商贸城,5路;8路;12路;21路;202路;203路;高铁快线1路;机场市区通勤车;新安花月夜游线,安徽省,黄山市,屯溪区,,unknown,
baidu,a1a654c8ec10e26f5d0d028b,屯溪老街聚文停车场,安徽省黄山市屯溪区延安路75-7号,安徽省,黄山市,屯溪区,,unknown,
baidu,c4cb7d49d65cc0cc95ca0789,大润发北门,3路;9路;215路;230路;5007路,安徽省,黄山市,屯溪区,,unknown,
baidu,b19f630fb9bc2fd1a8f729f4,惠中小区-停车场,黄山市屯溪区康乐路,安徽省,黄山市,屯溪区,,unknown,
baidu,aa2d87866307c3db256e98e3,老街二马路,5路;8路;12路;21路;202路;203路;新安花月夜游线,安徽省,黄山市,屯溪区,,unknown,
baidu,a9c724aff870444243e192ed,公园路南侧临时停车点,黄山市屯溪区公园路公园巷17号院东北侧,安徽省,黄山市,屯溪区,,unknown,
baidu,0faabce1448ac00da1a934a4,华馨苑-地上停车场,安徽省黄山市屯溪区黄山西路三街西路3街西1号附近,安徽省,黄山市,屯溪区,,unknown,
baidu,ab4ad0b9c99d9de8adcb66ca,昱中花园,5路;8路;12路;21路;201路;211路;花山谜窟专线;花山谜窑专线;机场市区通勤车;屯王专线;新安花月夜游线,安徽省,黄山市,屯溪区,,unknown,
baidu,a7f82dee1c85122894ec8408,艾米利亚(市医院北门),3路;9路;12路;215路;220路;230路;5007路,安徽省,黄山市,屯溪区,,unknown,
baidu,c20878fec834137394031911,新安商厦-地上停车场,安徽省黄山市屯溪区延安路戴震公园,安徽省,黄山市,屯溪区,,unknown,
baidu,e274effec4b5bcfef4c59ca6,时代广场-停车场,黄山市屯溪区新园西路时代广场,安徽省,黄山市,屯溪区,,unknown,
baidu,56548eb281639d260aa8d4db,新安小区南侧-门前停车场,老街285-311号附近,安徽省,黄山市,屯溪区,,unknown,
baidu,30882bad8b24f2b0f7eafc64,交投集团(区医院),10路;201路;211路;218路;220路;221路;230路;5001路;5003路;傍霞线;花山谜窟专线;屯王专线;休屯5001路;休屯5002路;休屯公交5001路,安徽省,黄山市,屯溪区,,unknown,
baidu,ffb4dda1cdbe67cc2a02e18e,长干园-停车场,长干西路1-6号附近,安徽省,黄山市,屯溪区,,unknown,
baidu,494f424585b847b75cd4fea8,大润发西门,12路;216路;6004路,安徽省,黄山市,屯溪区,,unknown,
baidu,a9807b29fe18a66af723108a,江心洲广场-停车场,黄山市屯溪区新安大道16号,安徽省,黄山市,屯溪区,,unknown,
baidu,106bb4ed4e61f78be115f92d,康乐二路-路侧停车场,新安北路27号3幢附近,安徽省,黄山市,屯溪区,,unknown,
baidu,a32443d5ad12fbd1354aaeb3,戴震公园-东北门地上停车场,黄山市屯溪区新安北路45号,安徽省,黄山市,屯溪区,,unknown,
baidu,9bb20cd7fa9dc48b8f55ec1f,柏树新村-停车场,长干西路1-13西北50米,安徽省,黄山市,屯溪区,,unknown,
baidu,93d0153f6f34bef1581093c8,坞山巷小区-停车场,黄山市新安北路坞山巷小区,安徽省,黄山市,屯溪区,,unknown,
baidu,19ac39e81fce6298c8213dc8,公园巷17号院北侧-停车场,黄山市屯溪区康乐二路公园巷17号院北侧,安徽省,黄山市,屯溪区,,unknown,
baidu,cc9700de7b9af62230169bf9,黄山西路辅路北侧-路侧停车场,黄山市屯溪区黄山西路维多利亚广场-北区西南侧约30米,安徽省,黄山市,屯溪区,,unknown,
baidu,f02c414176f9d9ec373a713c,新安商厦-地下停车场,黄山市屯溪区延安路89号,安徽省,黄山市,屯溪区,,unknown,
baidu,75437018166a6fc3aa0dd8b6,山田园(延安路店)中区-停车场,下马路11-3号附近,安徽省,黄山市,屯溪区,,unknown,
baidu,86f9a77d39af6c79cac3dbf3,黄山站,黄山市屯溪区站前路4号,安徽省,黄山市,屯溪区,(0559)12306,unknown,
baidu,8219fce0aa5e19a5882fb5d2,中国电信(屯溪新安北路营业厅)-停车场,黄山市屯溪区新安北路24号,安徽省,黄山市,屯溪区,,unknown,
baidu,ee0b265f82208523a2a9344d,停车场,黄山市屯溪区黄山西路维多利亚广场-北区西侧约70米,安徽省,黄山市,屯溪区,,unknown,
baidu,4d10a52577dceb6eeddfcae0,达克云充电站(交投新柏家园小区充电站),黄山市屯溪区跃进路6-7号,安徽省,黄山市,屯溪区,4006717555,unknown,
baidu,cbe81a11024c9a8d9d82ea16,市医院南门,6004路,安徽省,黄山市,屯溪区,,unknown,
baidu,db88d52d3b595e31a0a9349f,大润发(黄山店)-地下停车场,黄山市屯溪区跃进路36号,安徽省,黄山市,屯溪区,,unknown,
baidu,e448d481ab7f7f9e3904b166,维多利亚广场北区-停车场,黄山市屯溪区黄山西路维多利亚广场-北区,安徽省,黄山市,屯溪区,,unknown,
baidu,155127b4d5eb6fde4f3a5937,屯溪区人民医院-停车场,黄山市屯溪区新安北路55号,安徽省,黄山市,屯溪区,,unknown,
baidu,990e2fbd9f08741bfda77899,林业和草原局宿舍-停车场,黄山市屯溪区下马路易佰连锁旅店(筹店)北侧约30米,安徽省,黄山市,屯溪区,,unknown,
baidu,1722fdebf890f0ff60685863,花溪饭店-停车场,黄山市屯溪区西镇街1号,安徽省,黄山市,屯溪区,17755932105,unknown,
baidu,c418a557f34bed1032870a16,徽行屯溪支行,5路;8路;12路;21路;201路;211路;花山谜窟专线;屯王专线;新安花月夜游线,安徽省,黄山市,屯溪区,,unknown,
baidu,0a92f894dd20efee4c6d4620,丰华苑-停车场,黄山市屯溪区滨江中路丰华菜市场东南侧约50米,安徽省,黄山市,屯溪区,,unknown,
baidu,57b3cee4f61e00b242afe671,柏树苑小区-停车场,黄山市长干西路柏树苑小区,安徽省,黄山市,屯溪区,,unknown,
baidu,19015efdd7e5c7081df74d9b,黎阳in巷-地下停车场,黄山市屯溪区胜天巷1号,安徽省,黄山市,屯溪区,,unknown,
baidu,3ad8099ccdaad2156e20b983,华馨苑-停车场,黄山市屯溪区华馨路,安徽省,黄山市,屯溪区,,unknown,
baidu,63b1f26d531e2a8b04fef57c,三华园北苑,10路;216路;6004路;高铁快线1路,安徽省,黄山市,屯溪区,,unknown,
baidu,c8bfe3c8865081a1e31103cd,一江园-停车场,安徽省黄山市屯溪区一江园(元一柏庄·黄山大观西北),安徽省,黄山市,屯溪区,,unknown,
baidu,21498f4f1efeae423a13fd3e,康乐三路44号楼-停车场,黄山市屯溪区康乐三路44号,安徽省,黄山市,屯溪区,,unknown,
baidu,2686204e25eb04281894c68f,三马路(延安路),机场市区通勤车,安徽省,黄山市,屯溪区,,unknown,
baidu,9dcac13581d6a0946fc02c32,新柏家园-停车场,安徽省黄山市屯溪区长干西路滨江医院西北侧约110米,安徽省,黄山市,屯溪区,,unknown,
baidu,c3c86f89fb9c0e7b1b94c6fd,横江桥(西海路),机场市区通勤车,安徽省,黄山市,屯溪区,,unknown,
baidu,34684420fb2baed0774ff1d8,东杨梅山一二三弄小区-停车场,新安北路28-12号附近,安徽省,黄山市,屯溪区,,unknown,
baidu,b1d789990a0c922ad618b748,南滨江路观景台,花山世界夜游公交专线江南线,安徽省,黄山市,屯溪区,,unknown,
baidu,1ccb939c64dab1308c77276c,星悦M酒店(屯溪老街店)北侧临时停车点,安徽省黄山市屯溪区南滨江西路6号黄山元一大观天邑府13号楼北侧,安徽省,黄山市,屯溪区,,unknown,
baidu,63595c3b5f9ff95c22022032,交投集团区医院,218路;221路,安徽省,黄山市,屯溪区,,unknown,
baidu,e41a77e985c1e7e6eb1e9768,宽网大厦-停车场,黄山市屯溪区黄山西路宽网大厦,安徽省,黄山市,屯溪区,,unknown,
baidu,876b548677b635311fe9996e,长干小学,10路;216路;6004路,安徽省,黄山市,屯溪区,,unknown,
baidu,dbe8f7ce15284ee86b49f341,徽山路新安北路口,1路,安徽省,黄山市,屯溪区,,unknown,
baidu,8febc221b9c63d1917b54b5d,老六中,花山谜窑专线,安徽省,黄山市,屯溪区,,unknown,
baidu,33185393d0c855b896ca0782,黄山市公路局宿舍-停车场,黄山市屯溪区徽山路新华山庄西南侧约50米,安徽省,黄山市,屯溪区,,unknown,
baidu,72e60b4a54ada3e916948e77,广交商务大楼-停车场,跃进路2-5号附近,安徽省,黄山市,屯溪区,,unknown,
baidu,3482b93a1e6d0717e01103e4,市路桥处宿舍-停车场,黄山市徽山路新华小区南侧约140米,安徽省,黄山市,屯溪区,,unknown,
baidu,d0e93967ace834f28f55ec35,塘尾路东侧停车场,黄山市屯溪区塘尾路新华小区西侧约80米,安徽省,黄山市,屯溪区,,unknown,
baidu,83774ca6ad63a6854e55473f,长干村小区-停车场,黄山市屯溪区滨江中路14号,安徽省,黄山市,屯溪区,,unknown,
baidu,a1ee8472d8977df622f0175e,建工小区-停车场,安徽省黄山市屯溪区滨江中路16号,安徽省,黄山市,屯溪区,,unknown,
baidu,06994f9fb4b380b999005063,新跃小区-停车场,黄山市新园西路新跃小区,安徽省,黄山市,屯溪区,,unknown,
baidu,80d7555d57b49dbe57bfff66,元一柏庄黄山大观-停车场,安徽省黄山市屯溪区环球影城(阳光绿水花园北),安徽省,黄山市,屯溪区,,unknown,
baidu,0e57d1ea2424a19685330499,国家电网充电站(安徽省黄山市屯溪区阳湖镇徽州大道中石化加油站站),安徽省黄山市屯溪区阳湖镇中国石化加油站(徽州大道),安徽省,黄山市,屯溪区,95598,unknown,
baidu,ba6f564a36c3d497fbdc8523,牛角巷,5路;5007路,安徽省,黄山市,屯溪区,,unknown,
baidu,9a41f74c34e5d30a9d9d6820,昱城南苑-停车场,黄山市屯溪区长亭路维多利亚广场-南区,安徽省,黄山市,屯溪区,,unknown,
baidu,c807cf080a3dd9e8e3110376,大润发自行车租赁点,黄山市屯溪区跃进路新柏家园东北侧,安徽省,黄山市,屯溪区,,unknown,
baidu,95ee559706bb19539122e05e,一江园西区-停车场,安徽省黄山市屯溪区南滨江路一江园,安徽省,黄山市,屯溪区,,unknown,
baidu,4716b3eb3708769ab020a856,黄山市教育局-停车场,黄山市屯溪区延安路55号,安徽省,黄山市,屯溪区,,unknown,
baidu,9540c92ac6d1c184d4851f68,二马路(延安路),机场市区通勤车,安徽省,黄山市,屯溪区,,unknown,
baidu,036cd587d53a23808adb7358,丰盈万家超市,9路,安徽省,黄山市,屯溪区,,unknown,
baidu,cbc3a23584831ce1601c6731,徽山路7号院-停车场,黄山市屯溪区徽山路新华小区北侧,安徽省,黄山市,屯溪区,,unknown,
baidu,37e9a39737e74b7b2fb17ee7,栢悦公馆-停车场,安徽省黄山市屯溪区新安南路一江园,安徽省,黄山市,屯溪区,,unknown,
baidu,6c0c4d40ece9817f8bb98875,长干村小区,1路,安徽省,黄山市,屯溪区,,unknown,
baidu,498997907cca05de51e5c531,元一柏庄·黄山大观商业街-停车场,安徽省黄山市屯溪区阳湖镇朱村阳湖路江南之星北,安徽省,黄山市,屯溪区,,unknown,
baidu,e7052d46f8daf0114afd3fd9,特斯拉超级充电站(黄山昱城皇冠假日酒店地下站(新国标)-多品牌可用),屯溪区徽州大道1号皇冠假日酒店地下一层停车场,安徽省,黄山市,屯溪区,4009100707,unknown,
baidu,d1e5fe449b076ac6d81318b5,栢悦公馆停车场,黄山市新安大道一江园东南侧,安徽省,黄山市,屯溪区,,unknown,
baidu,71887973f8253c921576431b,展望家居名广场-停车场,安徽省黄山市屯溪区昱中街道跃进路展望家居名广场,安徽省,黄山市,屯溪区,,unknown,
baidu,22734dfd1e9f89772902e1d0,屯溪区医院,休屯5002路,安徽省,黄山市,屯溪区,,unknown,
baidu,a112cea6887282512bb97cf7,新园路1号院-停车场,黄山市屯溪区长亭路,安徽省,黄山市,屯溪区,,unknown,
baidu,acb457e2a3375351a1a93493,黄山昱城皇冠假日酒店(黄口店)-停车场,安徽省黄山市屯溪区徽州大道1号,安徽省,黄山市,屯溪区,,unknown,
baidu,00d4c740ebf31d4b0bf5eb67,新华小区-停车场,徽山路3-2-8号附近,安徽省,黄山市,屯溪区,,unknown,
baidu,b058e98608731e02a8059d34,黄山温州假日宾馆(屯溪老街店)-停车场,徽山路7-9号附近,安徽省,黄山市,屯溪区,,unknown,
baidu,5d6fb9eb620161af4002453b,市交通局宿舍西南侧-停车场,黄山市屯溪区新安北路56号,安徽省,黄山市,屯溪区,,unknown,
baidu,ed0696d37d0163743310af8e,江南之星-停车场,黄山市屯溪区新安南路4号,安徽省,黄山市,屯溪区,,unknown,
baidu,01dd1e4648e999b8b5147f66,温州假日酒店,1路,安徽省,黄山市,屯溪区,,unknown,
baidu,d0261a0d9672c3b6cb213dc9,停车场(滨江华庭东北),黄山市屯溪区新园西路120-1号附近,安徽省,黄山市,屯溪区,,unknown,
baidu,fb0a41ea5828bc52057ce879,南滨江路南侧临时停车点,黄山市屯溪区南滨江路元一天邑府别墅东侧约80米,安徽省,黄山市,屯溪区,,unknown,
baidu,67193e8b7f8393bb46e274a4,阳湖路南侧临时停车点,黄山市屯溪区阳湖路老洽阳小区,安徽省,黄山市,屯溪区,,unknown,
baidu,9ad90b7524bb137deddfcaea,跃进路口,花山谜窑专线,安徽省,黄山市,屯溪区,,unknown,
baidu,3d34e3e8b7fbe6ca2afc48d7,前园公寓-停车场,安徽省黄山市屯溪区阜上路馥丽蓝山酒店北侧约270米,安徽省,黄山市,屯溪区,,unknown,
baidu,35beff4b027c68d8354aaeb6,老洽阳小区-停车场,阳湖东路19号,安徽省,黄山市,屯溪区,,unknown,
baidu,6affecdcb9b12e8758f6bebe,牛角巷1号院-停车场,跃进路33北60米,安徽省,黄山市,屯溪区,,unknown,
baidu,4ea4452e9d1c685d26d2bbcc,滨江华庭-停车场,黄山市长干中路滨江华庭,安徽省,黄山市,屯溪区,,unknown,
baidu,50e9f4fd2e1ddcdc373a71b0,清沁园-停车场,黄山市滨江中路清沁园,安徽省,黄山市,屯溪区,,unknown,
baidu,4062eb302f997d6fa21de9e4,特来电充电站(交投特来电横江桥站),安徽省黄山市屯溪区横江路横江桥,安徽省,黄山市,屯溪区,4001300001,unknown,
baidu,04ffec10b2e36c0d2a02e110,达克云充电站(交投比亚迪充电站),黄山市屯溪区西海路泰丰花园南侧约50米,安徽省,黄山市,屯溪区,17611069175,unknown,
baidu,88c12bcc296478fe283a9fc1,五三二医院,3路;202路;203路;龙田线,安徽省,黄山市,屯溪区,,unknown,
baidu,c435e836f7ae0307cbe33c71,黄山学院南区,12路;31路;5007路;高铁快线2路,安徽省,黄山市,屯溪区,,unknown,
baidu,c93a98c31d907eaabbbd63b3,江心洲广场-新安大桥,安徽黄山市屯溪区新安大桥1-1号,安徽省,黄山市,屯溪区,,unknown,
baidu,029437ec73b403f74251c0ef,电力公司宿舍(新安南路)-停车场,黄山市屯溪区新安南路电力公司宿舍,安徽省,黄山市,屯溪区,,unknown,
baidu,f829ea7765a063bf5abbbc02,黄山栢景假日酒店-地下停车场,安徽省黄山市屯溪区西海路18号栢景假日酒店,安徽省,黄山市,屯溪区,,unknown,
