source,bd_uid,name,address,province,city,area,tel,poi_type,tag
baidu,627aa318cabd7a2d38221cf9,五湖烧烤店,兴盛路友好委（陶然居小区2号楼1层3室）,黑龙江省,齐齐哈尔市,昂昂溪区,15845603360,unknown,
baidu,b1c0fe6e6e2b0d4a07fef53c,原小俭烧烤,文化小区西南门东130米,黑龙江省,齐齐哈尔市,昂昂溪区,"(0452)6324442,13079663433",unknown,
baidu,c846528dfff467668936eecc,老关东农家院(宏顺嘉园店),宏顺嘉园18号楼,黑龙江省,齐齐哈尔市,昂昂溪区,"13144520077,15645257000",unknown,
baidu,4afd88f47e80183096f08ca8,喜年来(兴盛路店),黑龙江省齐齐哈尔市昂昂溪区兴盛路217号老店喜年来春饼锅烙老店,黑龙江省,齐齐哈尔市,昂昂溪区,13359522887,unknown,
baidu,6fddd7fd3fb9ab023517dc76,韩城烧烤(区府路店),长兴街40号,黑龙江省,齐齐哈尔市,昂昂溪区,(0452)6304678,unknown,
baidu,7e559c4433a75e8aebe58209,牧羊人烧烤(兴盛路店),兴盛路342号,黑龙江省,齐齐哈尔市,昂昂溪区,13766516111,unknown,
baidu,45dcbf2a255f23aef603b862,东来顺餐馆(丰源路店),黑龙江省齐齐哈尔市昂昂溪区丰源路庆华小区18号,黑龙江省,齐齐哈尔市,昂昂溪区,,unknown,
baidu,b098ee6711fc5a142dfaa718,添柴铁锅居(兴盛路店),兴盛路飞跃通讯西行50米,黑龙江省,齐齐哈尔市,昂昂溪区,(0452)6328789,unknown,
baidu,7ee1d3bc1ed7c4666ca3cc16,鑫鑫锅烙馆,长兴街兴盛小区东南门南40米,黑龙江省,齐齐哈尔市,昂昂溪区,13069730866,unknown,
baidu,80d472f9ae285e6af8dc854f,丁氏清真火锅府(文化小区店),区府路文化小区9号楼,黑龙江省,齐齐哈尔市,昂昂溪区,,unknown,
baidu,82ac6dc7d5384eb325e0a056,海运私房菜小馅饼,黑龙江省齐齐哈尔市昂昂溪区新兴街道兴盛路140号,黑龙江省,齐齐哈尔市,昂昂溪区,,unknown,
baidu,f8034a8b3e55c35e79b55c87,沣果快餐,陶然居西南门西150米,黑龙江省,齐齐哈尔市,昂昂溪区,13763520924,unknown,
baidu,bf0da5a1325124fe5fbe86f7,蔡家金福源烧烤城(文化小区店),文化小区十号楼一层10门,黑龙江省,齐齐哈尔市,昂昂溪区,15764528775,unknown,
baidu,790056019ea55cfe6ec02c8d,食韵佳麻辣香锅,黑龙江省齐齐哈尔市昂昂溪区府路宏顺嘉园北门斜对面友好委10组,黑龙江省,齐齐哈尔市,昂昂溪区,15846221133,unknown,
baidu,5dc44c6675fd706609b93ac6,一味源老菜馆(飞鹤茗苑店),黑龙江省齐齐哈尔市昂昂溪区新兴街道区府路83号,黑龙江省,齐齐哈尔市,昂昂溪区,,unknown,
baidu,43bc502d473d9c1226d2bb96,汁道火锅(昂昂溪店),139号,黑龙江省,齐齐哈尔市,昂昂溪区,(0452)6332567,unknown,
baidu,59dcadbfd3d436b10bf5eb3b,马兰花拉面(兴盛路店),黑龙江省齐齐哈尔市昂昂溪区兴盛路兴盛小区,黑龙江省,齐齐哈尔市,昂昂溪区,,unknown,
baidu,fea6868fb28d88493fe231f2,鑫福源烧烤城(庆华家园店),区府路庆华家园小区4号楼1层2室,黑龙江省,齐齐哈尔市,昂昂溪区,15764528775,unknown,
baidu,fecbdccb5fa82ffd8505bf19,营信刘罗锅铁锅炖(昂昂溪店),区府路225号宏顺小区1期北门东10米,黑龙江省,齐齐哈尔市,昂昂溪区,(0452)6215666,unknown,
baidu,d12da7acfea71701d42ce264,聚味兰州拉面馆,福田商服楼1-2层24室,黑龙江省,齐齐哈尔市,昂昂溪区,15663325959,unknown,
baidu,c9169ceae767645bdb1318cb,罗西亚大街肉枣·红肠,齐齐哈尔市昂昂溪区振兴路陶然居东北侧,黑龙江省,齐齐哈尔市,昂昂溪区,,unknown,
baidu,b7b56f288e9b54a0c909f0a5,金火手拉面(庆华家园店),庆华家园小区3号楼1单元3室,黑龙江省,齐齐哈尔市,昂昂溪区,15344611988,unknown,
baidu,b249852007c68bbc21026273,乡情小农庄小吃,黑龙江省齐齐哈尔市昂昂溪区齐齐哈尔市第十一中学西南门西140米,黑龙江省,齐齐哈尔市,昂昂溪区,,unknown,
baidu,2c212d654df50ade9868b49c,鑫福隆砂锅居,区府路115号,黑龙江省,齐齐哈尔市,昂昂溪区,13904623348,unknown,
baidu,00eb6cd46099ee0db64f54ea,君味包子铺,长兴街兴盛小区对面,黑龙江省,齐齐哈尔市,昂昂溪区,13945287093,unknown,
baidu,72200a91b75df88d1f3894fb,驴肉蒸饺(区府路店),区府路325号,黑龙江省,齐齐哈尔市,昂昂溪区,,unknown,
baidu,fbcb8ed9f316bb5c882fb568,小颖面馆,铁南街庆华小区16号楼10门,黑龙江省,齐齐哈尔市,昂昂溪区,13846271321,unknown,
baidu,48e6aadd6c19825f21f01702,金梦缘烧烤,齐齐哈尔市昂昂溪区铁北街齐齐哈尔农商银行(桥头分理处)南侧约60米,黑龙江省,齐齐哈尔市,昂昂溪区,,unknown,
baidu,c3bc7ef1f3397c58451a3292,锦阳川天椒麻辣烫(昂昂溪店),兴盛路235号川天椒麻辣烫,黑龙江省,齐齐哈尔市,昂昂溪区,15636229832,unknown,
baidu,c98d9a5684d9d7043517dc93,米乐披萨小屋,友好委9组2楼,黑龙江省,齐齐哈尔市,昂昂溪区,15002431772,unknown,
baidu,56adf6403fc9173db64f5434,大尧手工炸串,新兴街道市场委(交通局住宅楼1层5室),黑龙江省,齐齐哈尔市,昂昂溪区,17745203321,unknown,
baidu,d4fabbf405336aaf3fe231c4,老渔村铁锅炖,齐齐哈尔市昂昂溪区兴盛路陶然居,黑龙江省,齐齐哈尔市,昂昂溪区,,unknown,
baidu,f2391f420075a992fbdc850a,小盘菜手拉面烧烤串,齐齐哈尔市昂昂溪区兴盛路陶然居西侧约50米,黑龙江省,齐齐哈尔市,昂昂溪区,13763598809,unknown,
baidu,c6c9afdf435c7f086140a972,老汇宾包子铺(宏顺嘉园店),宏顺嘉园7号楼3单元3室,黑龙江省,齐齐哈尔市,昂昂溪区,18745250909,unknown,
baidu,260efd9ea524d4dbd1f49e44,辣嘟嘟小渔馆,黑龙江省齐齐哈尔市昂昂溪区区府路70号,黑龙江省,齐齐哈尔市,昂昂溪区,16646250111,unknown,
baidu,775ae2441d14f21814948e7b,金夜醉美海鲜烧烤(文化小区店),区府路文化小区10号楼1层1室,黑龙江省,齐齐哈尔市,昂昂溪区,13069737779,unknown,
baidu,ceb04d157936225a3617dc89,杨国福麻辣烫(昂昂溪店),农贸市场,黑龙江省,齐齐哈尔市,昂昂溪区,"15845209630,15845210799",unknown,
baidu,e885c36c01ed1bafad080fdb,敬和轩素食坊,齐齐哈尔市昂昂溪区兴盛路陶然居南侧约30米,黑龙江省,齐齐哈尔市,昂昂溪区,,unknown,
baidu,df3bf74a69f32183901fc976,红星馒头店,黑龙江省齐齐哈尔市昂昂溪区新兴街道陶然居二期15号楼,黑龙江省,齐齐哈尔市,昂昂溪区,,unknown,
baidu,2d8208f0dd99c168a3acc424,艾米林那(昂昂溪店),新立委铁南商服2号楼15室,黑龙江省,齐齐哈尔市,昂昂溪区,(0452)6328757,unknown,
baidu,9b14e76c7f34e31f931fc998,馋猫快餐,农行住宅楼2单元101室,黑龙江省,齐齐哈尔市,昂昂溪区,,unknown,
baidu,51ffe353fba31eb058109303,华悦过桥米线,庆华小区24号楼一层十室,黑龙江省,齐齐哈尔市,昂昂溪区,13199628989,unknown,
baidu,0168b74fd336343982288a9d,小巷鸡柳饭(区府路店),市场委1组1门,黑龙江省,齐齐哈尔市,昂昂溪区,13766510835,unknown,
baidu,cca245d29e436165ddee8b32,百顺家常菜馆,长兴街67号,黑龙江省,齐齐哈尔市,昂昂溪区,,unknown,
baidu,6e46c6ced0ffd354b05c6a14,友家粥铺,新兴街道市场委(园丁2号楼1层5室),黑龙江省,齐齐哈尔市,昂昂溪区,15164640300,unknown,
baidu,8cc542c753b218f0fda77887,老财源熏鸡店(昂昂溪总店),黑龙江省齐齐哈尔市昂昂溪区新建街道铁南街124号,黑龙江省,齐齐哈尔市,昂昂溪区,15164672000,unknown,
baidu,79601535446ab6928bdb73bb,小螺号烧烤店(庆华家园店),庆华家园21号楼1层16室,黑龙江省,齐齐哈尔市,昂昂溪区,15164634118,unknown,
baidu,900486905dcdb9241811d514,旺德福蛋糕西饼屋,长兴街110号,黑龙江省,齐齐哈尔市,昂昂溪区,(0452)6328989,unknown,
baidu,17313091113b764e9c09f7e3,德洲刘老四扒鸡店,长兴街园丁2号楼,黑龙江省,齐齐哈尔市,昂昂溪区,(0452)6320477,unknown,
baidu,7b6ab2524602cd063ce231dd,沈膳坊原汁臭豆腐,长兴街122号,黑龙江省,齐齐哈尔市,昂昂溪区,,unknown,
baidu,31654f9f32fc4a529cec2b8c,万玲烧烤(庆华家园店),丰源路204号附近,黑龙江省,齐齐哈尔市,昂昂溪区,13766576229,unknown,
baidu,953582e99d6c6e759868b45a,汤火功夫骨汤麻辣烫(铁南街店),铁南商服4号楼1-2层13室,黑龙江省,齐齐哈尔市,昂昂溪区,13634843969,unknown,
baidu,cbfb9b2dfa2338a975e5b63b,孙记熏酱手擀面(兴盛小区店),齐齐哈尔市昂昂溪区兴盛路兴盛小区(兴盛路),黑龙江省,齐齐哈尔市,昂昂溪区,,unknown,
baidu,9ce843a655eb3548ad31e531,飞飞蛋糕店,黑龙江省齐齐哈尔市昂昂溪区庆华购物中心市场飞飞蛋糕店,黑龙江省,齐齐哈尔市,昂昂溪区,,unknown,
baidu,9a73242aed15635b8bdb733d,玉春小吃(同德路店),黑龙江省齐齐哈尔市昂昂溪区长兴街159号,黑龙江省,齐齐哈尔市,昂昂溪区,(0452)6323850,unknown,
baidu,e11c916804de6f5e8a2fb576,奇舰火锅店,新建街道中心委(铁南商服3号楼1-2层21室),黑龙江省,齐齐哈尔市,昂昂溪区,,unknown,
baidu,8e89d9df9053775f15a190fe,文哥麻辣鸭脖,政府3号楼1层10室,黑龙江省,齐齐哈尔市,昂昂溪区,,unknown,
baidu,52364eebcb945bc000ff2d3b,特色大片肉,黑龙江省齐齐哈尔市昂昂溪区长兴街40,黑龙江省,齐齐哈尔市,昂昂溪区,,unknown,
baidu,73a91a28c8871a5cd42ce2eb,依面缘拉面馆,黑龙江省齐齐哈尔市昂昂溪区区府路240号新兴委兴盛小区2单元101室,黑龙江省,齐齐哈尔市,昂昂溪区,13384523669,unknown,
baidu,6c3d90a9d27e49a46c3e1bd6,铜锅涮肉,齐齐哈尔市昂昂溪区区府路庆华家园,黑龙江省,齐齐哈尔市,昂昂溪区,,unknown,
baidu,05cdf6ab2ed2b40e16c90590,万利达(长兴街店),长兴街市场委2组,黑龙江省,齐齐哈尔市,昂昂溪区,15946232347,unknown,
baidu,8086d57a7c1aefcdb11e36d7,惠客真槽子糕,黑龙江省齐齐哈尔市昂昂溪区铁南街铁南商服13号,黑龙江省,齐齐哈尔市,昂昂溪区,,unknown,
baidu,19a9b0143505d26c08ccdd3b,特色大肉串,齐齐哈尔市昂昂溪区铁南街文化小区东南侧,黑龙江省,齐齐哈尔市,昂昂溪区,(0452)6324442,unknown,
baidu,febb062aa023e3ec2cb96ddb,马小浩烧饼店,新立委(铁男商服2楼1-2层9室),黑龙江省,齐齐哈尔市,昂昂溪区,15304825805,unknown,
baidu,4b11cd1e1a09d0739ee321b9,骨里香香吧佬熟食城,黑龙江省齐齐哈尔市昂昂溪区新建街道铁南商服一号楼21室,黑龙江省,齐齐哈尔市,昂昂溪区,,unknown,
baidu,1da998fbff80dfbf715e8002,柏亿面馆,庆华小区23号楼1层3室,黑龙江省,齐齐哈尔市,昂昂溪区,13634849226,unknown,
baidu,9fc81f2c517492e26240a9f3,小鲜羊木炭铜锅(文化小区店),区府路文化小区10号楼,黑龙江省,齐齐哈尔市,昂昂溪区,,unknown,
baidu,ba704f0e88fb0d55f4231089,李记狗肉馆,黑龙江省齐齐哈尔市昂昂溪区G232(区府路),黑龙江省,齐齐哈尔市,昂昂溪区,15084586026,unknown,
baidu,44582e7cb2cf58b35abbbc13,人和轩熟食店,齐齐哈尔市昂昂溪区长兴街庆华购物中心,黑龙江省,齐齐哈尔市,昂昂溪区,,unknown,
baidu,096e7cba7a0eeb41daeced5c,胖胖现炒现卖,齐齐哈尔市昂昂溪区铁南街庆华家园东侧,黑龙江省,齐齐哈尔市,昂昂溪区,15845601653,unknown,
baidu,75684076c06e1ea2c5f50d7a,西安开花大馒头(富区分店),黑龙江省齐齐哈尔市昂昂溪区庆华家园13号楼1单元7门市,黑龙江省,齐齐哈尔市,昂昂溪区,,unknown,
baidu,e852c505e4c4bcb1f5c59c95,红艳小锅炖,齐齐哈尔市昂昂溪区丰源路昂昂溪客运站西北侧约120米,黑龙江省,齐齐哈尔市,昂昂溪区,,unknown,
baidu,977f72d71c83c6a45b1093db,孙记粗粮小馆,齐齐哈尔市昂昂溪区区府路庆华家园,黑龙江省,齐齐哈尔市,昂昂溪区,,unknown,
baidu,e77e306a81b9d64646572698,嘉味私厨,齐齐哈尔市昂昂溪区丰源路宏顺嘉园西南侧约40米,黑龙江省,齐齐哈尔市,昂昂溪区,,unknown,
baidu,9d46b4f3c18e8069cd04efd5,玉荣主食店,齐齐哈尔市昂昂溪区丰源路齐齐哈尔市昂昂溪区第一小学校东南侧约90米,黑龙江省,齐齐哈尔市,昂昂溪区,,unknown,
baidu,dc0d7c3d8c289090eaf853a9,鑫隆家常菜馆,黑龙江省齐齐哈尔市昂昂溪区铁南街149号,黑龙江省,齐齐哈尔市,昂昂溪区,(0452)6321904,unknown,
baidu,80bb022f72f76f61d5851f32,卤家熏鸡鸡骨架,齐齐哈尔市昂昂溪区铁南街齐齐哈尔市昂昂溪区第一小学校西北侧,黑龙江省,齐齐哈尔市,昂昂溪区,,unknown,
baidu,b90dda1e93500c5f5cbe86f7,全来顺馅饼,齐齐哈尔市昂昂溪区丰源路庆华家园东南侧约90米,黑龙江省,齐齐哈尔市,昂昂溪区,,unknown,
baidu,603e166a78728dbb5d17c3ae,馨月斋小吃,黑龙江省齐齐哈尔市昂昂溪区长兴街38号宏顺二期1号楼,黑龙江省,齐齐哈尔市,昂昂溪区,,unknown,
baidu,18ab5da339e250d7db13184f,添添好卤熟食店,黑龙江省齐齐哈尔市昂昂溪区新建街道铁南街8号铁南商服1号楼1-2层8室,黑龙江省,齐齐哈尔市,昂昂溪区,13136638281,unknown,
baidu,3c9f14165219ee5e16a19041,鑫乐园饺子馆(庆华家园店),区府路文化小区,黑龙江省,齐齐哈尔市,昂昂溪区,13298713818,unknown,
baidu,e50e5b1fdd941a5e0f0a703c,龙安小吃,齐齐哈尔市昂昂溪区庆华家园3号楼,黑龙江省,齐齐哈尔市,昂昂溪区,,unknown,
baidu,53a604761765ad571e580029,惠龙小吃(庆华家园店),黑龙江省齐齐哈尔市昂昂溪区新建街道G232(区府路),黑龙江省,齐齐哈尔市,昂昂溪区,13763599477,unknown,
baidu,5fef25f66afdb0e0593ac8fd,超越食堂,齐齐哈尔市昂昂溪区长兴街昂昂溪客运站西侧约80米,黑龙江省,齐齐哈尔市,昂昂溪区,,unknown,
baidu,3dcac8261ecfdbe88a36ee5d,不一样(浩源·欧洲假日店),齐齐哈尔市昂昂溪区铁南街庆华家园南侧约90米,黑龙江省,齐齐哈尔市,昂昂溪区,,unknown,
baidu,e430ca5dd2f4789bc909f088,大菊烧饼,铁南街齐齐哈尔市昂昂溪区第一小学校南侧约60米,黑龙江省,齐齐哈尔市,昂昂溪区,18204650727,unknown,
baidu,259eea5403d590ea9f09f730,旺福园小吃,黑龙江省齐齐哈尔市昂昂溪区庆华家园15号楼1层8室,黑龙江省,齐齐哈尔市,昂昂溪区,,unknown,
baidu,1995d77eb8bb1c7973210ba5,利源烧饼店,铁南街147号附近,黑龙江省,齐齐哈尔市,昂昂溪区,15164636431,unknown,
baidu,613d94f4edeb220c9e9d6827,森哥快餐,铁南街与丰源路交叉口东北20米,黑龙江省,齐齐哈尔市,昂昂溪区,,unknown,
baidu,01308275c2c5d027d92f2810,娜娜牛肉板面馆,区府路宏顺嘉园北门嘉华超市东走80米,黑龙江省,齐齐哈尔市,昂昂溪区,15146658606,unknown,
baidu,f664005c3670231102897206,琉璃猫蛋糕店,政府3号楼1层7室,黑龙江省,齐齐哈尔市,昂昂溪区,18946204630,unknown,
baidu,5ce2637dea60922cae31e576,庆华购物中心,长兴街5号,黑龙江省,齐齐哈尔市,昂昂溪区,,unknown,
baidu,273924cf2da4c15fda2f2878,荣金园超市(陶然居店),齐齐哈尔市昂昂溪区振兴路陶然居,黑龙江省,齐齐哈尔市,昂昂溪区,,unknown,
baidu,d5a1059135c8bd2ad8eced3b,蕊瑞食品超市,齐齐哈尔市昂昂溪区兴盛路陶然居南侧,黑龙江省,齐齐哈尔市,昂昂溪区,,unknown,
baidu,9cfc608a978f67b97adbd27e,鑫乐佳仓卖超市,齐齐哈尔市昂昂溪区长兴街第十一中学南侧约100米,黑龙江省,齐齐哈尔市,昂昂溪区,,unknown,
baidu,194f0bb7100e583671210bbf,可可超市,黑龙江省齐齐哈尔市昂昂溪区东胜街飞鹤名苑3号楼,黑龙江省,齐齐哈尔市,昂昂溪区,,unknown,
baidu,6ca524e1457de96e96f08cfb,金帝超市(昂昂溪店),齐齐哈尔市昂昂溪区丰源路庆华家园东南侧约40米,黑龙江省,齐齐哈尔市,昂昂溪区,0452-6323789,unknown,
baidu,f2508e15f310d91a6d20b92e,法宝超市,黑龙江省齐齐哈尔市昂昂溪区北疆小区,黑龙江省,齐齐哈尔市,昂昂溪区,,unknown,
baidu,ef20bd92c4ec34d03a04b1f8,丁丁家超市,黑龙江省齐齐哈尔市昂昂溪区G111(区府路),黑龙江省,齐齐哈尔市,昂昂溪区,"(0452)6301555,13101626446",unknown,
baidu,9056197660c01208f4b9162f,丽敏工艺品,齐齐哈尔市昂昂溪区兴盛路陶然居,黑龙江省,齐齐哈尔市,昂昂溪区,13836201030,unknown,
baidu,3b6f07124dc462bea11de989,大宝名酒行,黑龙江省齐齐哈尔市昂昂溪区兴盛路移动综合楼1层6室,黑龙江省,齐齐哈尔市,昂昂溪区,,unknown,
baidu,2b3deece013b533748cc4a17,金厚源仓卖店,兴盛路145号兴盛路小区1号楼11室,黑龙江省,齐齐哈尔市,昂昂溪区,18604528208,unknown,
baidu,07fb06b62c71a79288b9882a,鑫虹文化用品商店,黑龙江省齐齐哈尔市昂昂溪区新城开发区文化小区1号楼,黑龙江省,齐齐哈尔市,昂昂溪区,,unknown,
baidu,fdeec010aec508673686f419,四维视光配镜中心,齐齐哈尔市昂昂溪区长兴街兴盛小区(兴盛路)南侧约40米,黑龙江省,齐齐哈尔市,昂昂溪区,15765052666,unknown,
baidu,7fbd1aaacef8b14acac3dbe1,万福家水果生鲜超市,齐齐哈尔市昂昂溪区区府路兴盛小区(兴盛路)南侧约60米,黑龙江省,齐齐哈尔市,昂昂溪区,18946256722,unknown,
baidu,59b6c8e180df627f78b55cff,聚源仓卖,齐齐哈尔市昂昂溪区兴盛路兴盛小区(兴盛路),黑龙江省,齐齐哈尔市,昂昂溪区,18745214411,unknown,
baidu,41e7e847044be847d22dd63a,方亮通讯手机专卖店,齐齐哈尔市昂昂溪区兴盛路兴盛小区(兴盛路)东北侧约40米,黑龙江省,齐齐哈尔市,昂昂溪区,,unknown,
baidu,7c9938c4b6a798382b3a9f84,中国烟草(昂昂溪区人民政府二号院东),齐齐哈尔市昂昂溪区兴盛路140号(昂昂溪区人民政府二号院东),黑龙江省,齐齐哈尔市,昂昂溪区,,unknown,
baidu,e55a3e4c2e1fceb8b34c4986,子沣誉装饰材料商店,齐齐哈尔市昂昂溪区振兴路第十一中学西侧约60米,黑龙江省,齐齐哈尔市,昂昂溪区,,unknown,
baidu,9eac3b50c8d6d3432e473364,心河食杂店,齐齐哈尔市昂昂溪区兴盛路陶然居东南侧约90米,黑龙江省,齐齐哈尔市,昂昂溪区,(0452)6215000,unknown,
baidu,e7932bdaa88170fe9b68b4d6,悦客果蔬仓卖店,黑龙江省齐齐哈尔市昂昂溪区新兴街道陶然居二期9号楼,黑龙江省,齐齐哈尔市,昂昂溪区,,unknown,
baidu,94de9238ee67659d7369d3d9,劳保服装商店,黑龙江省齐齐哈尔市昂昂溪区铁南街与区府路交叉口南100米,黑龙江省,齐齐哈尔市,昂昂溪区,,unknown,
baidu,d77281ea3fc0ea660782c272,欣洋果蔬超市,齐齐哈尔市昂昂溪区区府路飞鹤茗苑,黑龙江省,齐齐哈尔市,昂昂溪区,,unknown,
baidu,865f79f2f91cb8d64e55472b,康康食品仓卖店,黑龙江省齐齐哈尔市昂昂溪区区府路205号,黑龙江省,齐齐哈尔市,昂昂溪区,13945224474,unknown,
baidu,73ec3ca4e783d80ea4c75673,青青食杂店,黑龙江省齐齐哈尔市昂昂溪区铁南街185号,黑龙江省,齐齐哈尔市,昂昂溪区,,unknown,
baidu,9f9c63153fc23f1508ccdd7b,电瓶专卖,齐齐哈尔市昂昂溪区区府路宏顺嘉园北侧约40米,黑龙江省,齐齐哈尔市,昂昂溪区,,unknown,
baidu,d5e4957cce9e9e688605bf13,哈成五金,飞鹤商服1号楼7号门,黑龙江省,齐齐哈尔市,昂昂溪区,,unknown,
baidu,36de8232a97245af22f01712,高雅皮鞋店,齐齐哈尔市昂昂溪区振兴路文化小区东北侧约160米,黑龙江省,齐齐哈尔市,昂昂溪区,,unknown,
baidu,8228b1e7714586942e47333e,金乐达食品仓卖,兴盛路193号陶然居小区2号楼,黑龙江省,齐齐哈尔市,昂昂溪区,13212954468,unknown,
baidu,1f4f84659ad66a7988fc0600,玉旺仓卖店(兴盛路店),长兴街昂昂溪区人民医院南侧约130米,黑龙江省,齐齐哈尔市,昂昂溪区,13194520990,unknown,
baidu,b0fd02d895919e7f22026281,鑫源日用品商店,黑龙江省齐齐哈尔市昂昂溪区铁南街170号,黑龙江省,齐齐哈尔市,昂昂溪区,(0452)6326737,unknown,
baidu,f896c013b60ebdf4a1a93487,兴隆食杂商店,齐齐哈尔市昂昂溪区铁南街文化小区东北侧约60米,黑龙江省,齐齐哈尔市,昂昂溪区,,unknown,
baidu,6b8719025fd858f078f796ae,家电家俱商场,黑龙江省齐齐哈尔市昂昂溪区铁南街116号,黑龙江省,齐齐哈尔市,昂昂溪区,"(0452)6326487,15765060866",unknown,
baidu,5f3f368f449a2a56f8221395,飞达文化用品商店,黑龙江省齐齐哈尔市昂昂溪区新兴街道长兴街56号,黑龙江省,齐齐哈尔市,昂昂溪区,,unknown,
baidu,312179084462a00b740269af,嘉隆铁艺牌匾,黑龙江省齐齐哈尔市昂昂溪区铁南街62号,黑龙江省,齐齐哈尔市,昂昂溪区,13836222597,unknown,
baidu,3d940f69c93ea4f2f6c59c7a,金成纸业商店,黑龙江省齐齐哈尔市昂昂溪区府路98号房产综合楼003号,黑龙江省,齐齐哈尔市,昂昂溪区,13359755378,unknown,
baidu,c88267776562d02c6018090f,成挚鞭炮自选超市,齐齐哈尔市昂昂溪区兴盛路兴盛小区(兴盛路)西北侧约110米,黑龙江省,齐齐哈尔市,昂昂溪区,,unknown,
baidu,6ec67520004cedcaf503b8b2,一二三文化,黑龙江省齐齐哈尔市昂昂溪区宏顺嘉园北门,黑龙江省,齐齐哈尔市,昂昂溪区,,unknown,
baidu,739704f5b49778ffa204641c,源润城副食品商店,黑龙江省齐齐哈尔市昂昂溪区兴盛路185号,黑龙江省,齐齐哈尔市,昂昂溪区,,unknown,
baidu,c69ad7a037b9debb0e3dda84,琦琦礼品玩具店,齐齐哈尔市铁南商服中北2号楼4室,黑龙江省,齐齐哈尔市,昂昂溪区,13234612389,unknown,
baidu,911cdcb9ebb4ea4001ff2db4,侯家纸行,黑龙江省齐哈尔市昂溪区区府路277号,黑龙江省,齐齐哈尔市,昂昂溪区,,unknown,
baidu,5afb0521ab48f0ba4207c1b1,装饰大全,齐齐哈尔市昂昂溪区振兴路第十一中学西侧约70米,黑龙江省,齐齐哈尔市,昂昂溪区,,unknown,
baidu,3a4c59dbadee3b0cf4b9165b,华昌钟表眼镜(长兴街店),齐齐哈尔市昂昂溪区长兴街宏顺嘉园西北侧约120米,黑龙江省,齐齐哈尔市,昂昂溪区,,unknown,
baidu,62ea3bf9977332d3b11e36e4,新隆腾化妆名品店,黑龙江省齐齐哈尔市昂昂溪区铁南街140号,黑龙江省,齐齐哈尔市,昂昂溪区,,unknown,
baidu,9c13cd59f6ee24345af6be5c,佳盛日用品商店,齐齐哈尔市昂昂溪区长兴街庆华购物中心,黑龙江省,齐齐哈尔市,昂昂溪区,,unknown,
baidu,82ed14924a0567e387154122,盛名副食品商店,黑龙江省齐齐哈尔市昂昂溪区新兴街道长兴街园丁2号楼1层1室,黑龙江省,齐齐哈尔市,昂昂溪区,13845293510,unknown,
baidu,a1002b201738be17ab059dd2,盛鑫仓卖店(宏顺嘉园店),黑龙江省齐齐哈尔市昂昂溪区区府路237号宏顺嘉园18号楼,黑龙江省,齐齐哈尔市,昂昂溪区,,unknown,
baidu,3c96b1d77128ab8be8e58250,天兴物资商店,黑龙江省齐齐哈尔市昂昂溪区长兴街273号,黑龙江省,齐齐哈尔市,昂昂溪区,,unknown,
baidu,1ff353efd69c41dcc17da203,文鑫食品商店,黑龙江省齐齐哈尔市昂昂溪区工商局家属楼2单元,黑龙江省,齐齐哈尔市,昂昂溪区,,unknown,
baidu,ce5d6585e513a3c095ca07e8,顺源副食品商店,齐齐哈尔市昂昂溪区长兴街庆华购物中心,黑龙江省,齐齐哈尔市,昂昂溪区,15145263620,unknown,
baidu,e2a1091b1e37e7bc4107c14e,玉芝疏菜商店,齐齐哈尔市昂昂溪区罗西亚大街与铁中街交叉路口往北约120米,黑龙江省,齐齐哈尔市,昂昂溪区,(0452)2971588,unknown,
baidu,fd8481ba6d7cd36e03ec0123,新视界眼镜(长兴街店),政府2号楼长兴街47号,黑龙江省,齐齐哈尔市,昂昂溪区,18345287111,unknown,
baidu,98f01f2d08e5452d8936ee00,这里花铺·鲜花坊,齐齐哈尔市昂昂溪区长兴街兴盛小区(兴盛路)东南侧约80米,黑龙江省,齐齐哈尔市,昂昂溪区,,unknown,
baidu,a81f2397217aa7a77f29bdb1,你好甜水果捞店,新兴街道友好委(隆兴商服楼1-2层10室),黑龙江省,齐齐哈尔市,昂昂溪区,,unknown,
baidu,47bb71f96b8f37c28936ee98,绿丰种子经销处,黑龙江省齐齐哈尔市昂昂溪区兴盛路259号,黑龙江省,齐齐哈尔市,昂昂溪区,,unknown,
baidu,cbd0788073df46193b13fd9a,伊美鲜花礼品店,新兴街道长兴街市场委2组(园丁2号楼1层8号),黑龙江省,齐齐哈尔市,昂昂溪区,15303629688,unknown,
baidu,910e1d2770bfb309932ca367,艾迪新生活化妆品(区府路店),齐齐哈尔市昂昂溪区区府路宏顺嘉园北侧约60米,黑龙江省,齐齐哈尔市,昂昂溪区,,unknown,
baidu,f7f27a361f9c67e02b201a76,华兴五金日杂商店,黑龙江省齐齐哈尔市昂昂溪区兴盛路陶然居二期9号楼,黑龙江省,齐齐哈尔市,昂昂溪区,,unknown,
baidu,2394c7b9286a3037ede4a5da,源泉名优酒行,黑龙江省齐齐哈尔市昂昂溪区区府路195号一期,黑龙江省,齐齐哈尔市,昂昂溪区,13836205911,unknown,
baidu,dfc496b651c0a2d28936ee76,新华书店(兴盛路店),黑龙江省齐齐哈尔市昂昂溪区兴盛路293号,黑龙江省,齐齐哈尔市,昂昂溪区,(0452)6322724,unknown,
baidu,a7ba3fa9f2517b41fea7784a,鑫发粮油(东胜街店),黑龙江省齐齐哈尔市昂昂溪区新兴街道兴盛路188号,黑龙江省,齐齐哈尔市,昂昂溪区,,unknown,
baidu,1ebe9f804b8dc924d3ff23e5,陈记炒货店(铁南商服务店),铁南商服务2号楼,黑龙江省,齐齐哈尔市,昂昂溪区,13836255315,unknown,
baidu,338aa10145e47aaada2f284f,亲亲贝贝孕婴童用品店(长兴街店),黑龙江省齐齐哈尔市昂昂溪区长兴街132号商服1号楼,黑龙江省,齐齐哈尔市,昂昂溪区,,unknown,
baidu,3429f94250abadb4eee4a54a,灵善阁纸业,齐齐哈尔市昂昂溪区兴盛路兴盛小区(兴盛路),黑龙江省,齐齐哈尔市,昂昂溪区,,unknown,
baidu,c647d33750b5f2b43686f436,丽莉果品仓卖店,长兴街34号丽莉果品,黑龙江省,齐齐哈尔市,昂昂溪区,18745263222,unknown,
baidu,ff4381434dd7b688fe0eb0f8,冬暖水暖商店,黑龙江省齐齐哈尔市昂昂溪区铁南街132号,黑龙江省,齐齐哈尔市,昂昂溪区,15636255856,unknown,
baidu,0bd599df41883cda0f0e6b8b,金土地种子经销处(兴盛路店),黑龙江省齐齐哈尔市昂昂溪区长兴街26号,黑龙江省,齐齐哈尔市,昂昂溪区,,unknown,
baidu,22ccb8f2c94919f8095cb378,福润兽药商店,黑龙江省齐齐哈尔市昂昂溪区长兴街园丁2号楼,黑龙江省,齐齐哈尔市,昂昂溪区,,unknown,
baidu,0083b97a5384f146d8d8910b,富鑫岳食杂店,齐齐哈尔市昂昂溪区民顺路文化小区,黑龙江省,齐齐哈尔市,昂昂溪区,,unknown,
baidu,78cbcfcfc9ab0158aecb6618,盛世运动,齐齐哈尔市昂昂溪区庆华小区24号楼商服,黑龙江省,齐齐哈尔市,昂昂溪区,,unknown,
baidu,74f76e6c45a93e06d0ff234a,鑫和意纸制品店,齐齐哈尔市昂昂溪区兴盛路陶然居西侧约80米,黑龙江省,齐齐哈尔市,昂昂溪区,,unknown,
baidu,bc75bbf3dfbef42eb1077d7d,金国泰手机卖场,黑龙江省齐齐哈尔市昂昂溪区长兴街86号,黑龙江省,齐齐哈尔市,昂昂溪区,,unknown,
baidu,e9a6b5723289479628b97c0b,晨阳水漆(振兴路店),齐齐哈尔市昂昂溪区振兴路第十一中学西侧约70米,黑龙江省,齐齐哈尔市,昂昂溪区,,unknown,
baidu,46f257201d153ae007fef51d,宏顺门业(文化小区店),黑龙江省齐齐哈尔市昂昂溪区铁南街88号,黑龙江省,齐齐哈尔市,昂昂溪区,15604522244,unknown,
baidu,835a043e2f2e15ec02294fa4,新日电动车(庆华小区店),黑龙江省齐齐哈尔市昂昂溪区庆华小区6号楼,黑龙江省,齐齐哈尔市,昂昂溪区,4008886999,unknown,
baidu,9d33d27e11ece857223bf2d3,华丰自行车商行,黑龙江省齐齐哈尔市昂昂溪区铁南街126号,黑龙江省,齐齐哈尔市,昂昂溪区,,unknown,
baidu,dd2cadf51fca2e64da2f2851,鑫火炬仓卖店,黑龙江省齐齐哈尔市昂昂溪区区府路301号,黑龙江省,齐齐哈尔市,昂昂溪区,,unknown,
baidu,eb206ac8bcf39c6c704b8757,福旺纸业商店,黑龙江省齐齐哈尔市昂昂溪区铁南街79号,黑龙江省,齐齐哈尔市,昂昂溪区,13009735881,unknown,
baidu,60cad312241271cddbeced01,坤隆烟花鞭炮,黑龙江省齐哈尔市昂溪区铁南街122号,黑龙江省,齐齐哈尔市,昂昂溪区,18745218666,unknown,
baidu,f3648bb2f6721929ad31e5cf,红日液化气炉具商店,长兴街14号,黑龙江省,齐齐哈尔市,昂昂溪区,,unknown,
baidu,69e3e97b1af3b5d81f3894e5,霸克鞋店(宏顺嘉园店),齐齐哈尔市昂昂溪区长兴街宏顺嘉园西北侧约130米,黑龙江省,齐齐哈尔市,昂昂溪区,13796877345,unknown,
baidu,4c3a2239e3a8eca608f5ebff,西然潮品童衣馆,黑龙江省齐齐哈尔市昂昂溪区长兴街38,黑龙江省,齐齐哈尔市,昂昂溪区,,unknown,
baidu,d4510be5993a6a4b74026928,鑫宏利食品仓卖(飞鹤茗苑店),黑龙江省齐齐哈尔市昂昂溪区新兴街道区府路107号飞鹤名苑8号楼,黑龙江省,齐齐哈尔市,昂昂溪区,13009754220,unknown,
baidu,33dfda5debb710b5c1f1cf0d,如意五金机电(丰源路店),黑龙江省齐齐哈尔市昂昂溪区长兴街198号,黑龙江省,齐齐哈尔市,昂昂溪区,,unknown,
baidu,9aa676a8386c90b945572624,热点精品服饰行(昂昂溪区庆华小区店),黑龙江省齐齐哈尔市昂昂溪区庆华小区24号楼,黑龙江省,齐齐哈尔市,昂昂溪区,,unknown,
baidu,f69c291e8f5818192cb17e03,美伦新派内衣(昂昂溪店),黑龙江省齐齐哈尔市昂昂溪区庆华小区24号,黑龙江省,齐齐哈尔市,昂昂溪区,15214414802,unknown,
baidu,788d050d4a2ba18ece04ef3e,尚品男装折扣店,黑龙江省齐齐哈尔市昂昂溪区庆华小区24号楼,黑龙江省,齐齐哈尔市,昂昂溪区,,unknown,
baidu,d15b972116990b5a6cc02c4f,小溪食杂店,黑龙江省齐齐哈尔市昂昂溪区区府路242号,黑龙江省,齐齐哈尔市,昂昂溪区,,unknown,
baidu,017f65d89a4c28fc4e55473a,美菱冰箱(兴盛路店),兴盛路316号,黑龙江省,齐齐哈尔市,昂昂溪区,13304627277,unknown,
baidu,721e8dc54ada4c2b932ca3f0,爱宝宝童装工厂店,黑龙江省齐齐哈尔市昂昂溪区长兴街80号,黑龙江省,齐齐哈尔市,昂昂溪区,15145261399,unknown,
baidu,6fb3642a2ae70b59d2f49ef7,龙溪种业,黑龙江省齐齐哈尔市昂昂溪区长兴街南侧,黑龙江省,齐齐哈尔市,昂昂溪区,15545203777,unknown,
baidu,06126ad7a9e75e62e812e497,满意塑窗加工部,齐齐哈尔市昂昂溪区丰源路昂昂溪客运站西北侧约140米,黑龙江省,齐齐哈尔市,昂昂溪区,13836205001,unknown,
baidu,648a2dca1863a2838c1a8969,庆云石材,黑龙江省齐齐哈尔市昂昂溪区铁南街60号,黑龙江省,齐齐哈尔市,昂昂溪区,13796857161,unknown,
baidu,beb0799eac5d1025c51b7598,文君五金商店,齐齐哈尔市昂昂溪区铁南街文化小区东北侧约30米,黑龙江省,齐齐哈尔市,昂昂溪区,,unknown,
baidu,4aca373050323eb2882fb510,海尔专卖店(铁南店),黑龙江省齐齐哈尔市昂昂溪区铁南街94号西北70米,黑龙江省,齐齐哈尔市,昂昂溪区,4006999999,unknown,
baidu,75f5c40c91520884aa0dd8b7,电采暖节能炉,齐齐哈尔市昂昂溪区铁南街文化小区东侧,黑龙江省,齐齐哈尔市,昂昂溪区,13351322224,unknown,
baidu,b69bc8d453af18fd882fb515,饮水处,齐齐哈尔市昂昂溪区迎宾路昂昂溪站,黑龙江省,齐齐哈尔市,昂昂溪区,,unknown,
baidu,5663306cb6e87ee1b45f1ee2,中国联通智慧生活服务站(巧梅门店),齐齐哈尔市昂昂溪区兴盛路陶然居西侧约40米,黑龙江省,齐齐哈尔市,昂昂溪区,,unknown,
baidu,726d89993815b16f8a36ee49,公共厕所,齐齐哈尔市昂昂溪区罗西亚大街与铁中街交叉路口往东约190米,黑龙江省,齐齐哈尔市,昂昂溪区,,unknown,
baidu,eae5a1da676145dc4d776e06,中国移动通信手机专卖店新陶然店(兴盛路营业厅),齐齐哈尔市昂昂溪区兴盛路陶然居,黑龙江省,齐齐哈尔市,昂昂溪区,,unknown,
baidu,1e0aac79fc6f919e2bb97c7b,中国电信(兴盛路营业厅),齐齐哈尔市昂昂溪区兴盛路商服楼4号,黑龙江省,齐齐哈尔市,昂昂溪区,(0452)6100075,unknown,
baidu,aaa364a04b1e7f2a15a190d7,微彩照相馆,齐齐哈尔市昂昂溪区长兴街兴盛小区(兴盛路)东侧约80米,黑龙江省,齐齐哈尔市,昂昂溪区,,unknown,
baidu,d8b24ed7fd4ae52aede4a535,便民花圈店,齐齐哈尔市昂昂溪区兴盛路兴盛小区(兴盛路)西北侧约50米,黑龙江省,齐齐哈尔市,昂昂溪区,,unknown,
baidu,95916f90c71a77e375e5b68d,中通快递(中通昂昂溪公司),齐齐哈尔市昂昂溪区铁南街132号,黑龙江省,齐齐哈尔市,昂昂溪区,95311,unknown,
baidu,a54ddc545be5701df40e7797,光明照相馆,齐齐哈尔市昂昂溪区振兴路第十一中学西侧约160米,黑龙江省,齐齐哈尔市,昂昂溪区,,unknown,
baidu,0859232956c5f934bda24006,中国联通智慧生活服务站,齐齐哈尔市昂昂溪区铁南街齐齐哈尔市昂昂溪区第一小学校西侧,黑龙江省,齐齐哈尔市,昂昂溪区,,unknown,
baidu,9a2e5573b1cf15f27ab55c47,鑫鹏白钢制作,齐齐哈尔市昂昂溪区铁南街文化小区东北侧约60米,黑龙江省,齐齐哈尔市,昂昂溪区,"13836201358,15945244646",unknown,
baidu,ddbcdf9e5e99c3a933621241,东兴电器修理,齐齐哈尔市昂昂溪区区府路宏顺嘉园北侧约40米,黑龙江省,齐齐哈尔市,昂昂溪区,,unknown,
baidu,f87406d3a0c163681c38949c,超越电脑监控,齐齐哈尔市昂昂溪区铁南街文化小区东北侧约70米,黑龙江省,齐齐哈尔市,昂昂溪区,,unknown,
baidu,412f501de08f93e9b33c81b1,昂昂溪站-售票处,齐齐哈尔市昂昂溪区迎宾路昂昂溪站,黑龙江省,齐齐哈尔市,昂昂溪区,,unknown,
baidu,707c357bc47aec7ab7265585,中国邮政(昂昂溪区兴盛邮政所),黑龙江省齐齐哈尔市昂昂溪区兴盛路92号,黑龙江省,齐齐哈尔市,昂昂溪区,(0452)6322674,unknown,
baidu,a04c0db0bfad2e30cd04ef91,东兴社区服务中心,齐齐哈尔市昂昂溪区兴盛路第三十六中学校西北侧约30米,黑龙江省,齐齐哈尔市,昂昂溪区,,unknown,
baidu,24ed8d24acc03d5d16a19032,长虹家电修理部,黑龙江省齐哈尔市昂昂溪区区府路工商局1楼,黑龙江省,齐齐哈尔市,昂昂溪区,13763588108,unknown,
baidu,e991e4d0e64b71139c09f7c4,前进社区服务中心,齐齐哈尔市昂昂溪区区府路庆华家园,黑龙江省,齐齐哈尔市,昂昂溪区,,unknown,
baidu,c25c80d2197b299e38e4a6f2,红胜社区服务中心,齐齐哈尔市昂昂溪区兴盛路齐齐哈尔市昂昂溪区人民政府东北侧约70米,黑龙江省,齐齐哈尔市,昂昂溪区,,unknown,
baidu,afe52845b5b3c20e373a71ef,仟仟棉被加工,黑龙江省齐齐哈尔市昂昂溪区区府路齐齐哈尔市昂昂溪区第一小学校东北侧约80米,黑龙江省,齐齐哈尔市,昂昂溪区,13149525385,unknown,
baidu,cec2c3a6fd6584de2eb17e9e,申通快递(丰源路店),齐齐哈尔市昂昂溪区丰源路庆华家园东南侧约100米,黑龙江省,齐齐哈尔市,昂昂溪区,95543,unknown,
baidu,12f44b5b70fc2effc056ac1e,圆通速递(区府路店),黑龙江省齐齐哈尔市昂昂溪区区府路190号,黑龙江省,齐齐哈尔市,昂昂溪区,95554,unknown,
baidu,9add7af3769f4c1ccbc3dbab,中国邮政(道北邮政支局),黑龙江省齐齐哈尔市昂昂溪区丰源路204号,黑龙江省,齐齐哈尔市,昂昂溪区,(0452)6210540,unknown,
baidu,23b4ab233d833593471a3205,共赢货站,区府路367号,黑龙江省,齐齐哈尔市,昂昂溪区,,unknown,
baidu,6ae1c5df64037da7dc1e521d,宝峰动物诊所,黑龙江省齐齐哈尔市昂昂溪区铁南街147号,黑龙江省,齐齐哈尔市,昂昂溪区,13224527733,unknown,
baidu,3ad5b5fa2a59bb582eb17ea0,作斌装潢商店,黑龙江省齐齐哈尔市昂昂溪区丰源路庆华小区6号楼,黑龙江省,齐齐哈尔市,昂昂溪区,"13763569584,15945242976",unknown,
baidu,f6be22f42bc8f0b11ce9992c,宠物之家(丰源路店),黑龙江省齐齐哈尔市昂昂溪区丰源路庆华家园22号楼,黑龙江省,齐齐哈尔市,昂昂溪区,18746816966,unknown,
baidu,21a62349ab5927b38605bfdb,中心村党群服务中心,齐齐哈尔市昂昂溪区丰源路庆华家园南侧约30米,黑龙江省,齐齐哈尔市,昂昂溪区,,unknown,
baidu,82ce336c94967c1a90114c09,家宝旧物商店,黑龙江省齐齐哈尔市昂昂溪区长兴街192号,黑龙江省,齐齐哈尔市,昂昂溪区,15845210257,unknown,
baidu,b6b5635a2c959f33dc1e5231,拓友纸扎店,齐齐哈尔市昂昂溪区丹阳路童之梦幼儿园东侧,黑龙江省,齐齐哈尔市,昂昂溪区,,unknown,
baidu,99ff37d62c013ba5fda778db,农机维修,齐齐哈尔市昂昂溪区丹阳路,黑龙江省,齐齐哈尔市,昂昂溪区,,unknown,
baidu,e1b1d9fc2a2595f0e6073892,中国移动(稻田专营店),黑龙江省齐齐哈尔市昂昂溪区稻田村,黑龙江省,齐齐哈尔市,昂昂溪区,,unknown,
baidu,fd75e52eda5a5d1deb56fac8,花圈寿衣店,黑龙江省齐齐哈尔市昂昂溪区长兴街19号,黑龙江省,齐齐哈尔市,昂昂溪区,18745218444,unknown,
baidu,3c22b284e6e900e9f42310c7,公厕,齐齐哈尔市昂昂溪区迎宾路昂昂溪站,黑龙江省,齐齐哈尔市,昂昂溪区,,unknown,
baidu,2f5b0fd43e685fb5fd0eb0c8,公共厕所,齐齐哈尔市昂昂溪区铁南街第十一中学西北侧约230米,黑龙江省,齐齐哈尔市,昂昂溪区,,unknown,
baidu,b2d82042f10310162b06ce14,乔老大花圈店寿材骨灰盒店,黑龙江省齐齐哈尔市昂昂溪区兴盛路269号,黑龙江省,齐齐哈尔市,昂昂溪区,,unknown,
baidu,87cdb9ecd4d9493fe8e58205,忠孝堂寿衣店,齐齐哈尔市昂昂溪区长兴街第十一中学南侧约110米,黑龙江省,齐齐哈尔市,昂昂溪区,17033344444,unknown,
baidu,b4a8d5bffee541694c6d460f,洁顺心洗衣店,黑龙江省齐哈尔市昂昂溪区兴盛路211号陶然小区一期1号楼,黑龙江省,齐齐哈尔市,昂昂溪区,,unknown,
baidu,9dce24f4eee1162afe0eb01b,鑫海电机修理部,齐齐哈尔市昂昂溪区兴盛路陶然居东南侧约90米,黑龙江省,齐齐哈尔市,昂昂溪区,,unknown,
baidu,58f3d0284cd1e51d704b8731,港华燃气(振兴路店),黑龙江省齐齐哈尔市昂昂溪区兴盛路122-1号,黑龙江省,齐齐哈尔市,昂昂溪区,,unknown,
baidu,6b8b27239bd99ff49868b43a,东祥家电维修部,黑龙江省齐齐哈尔市昂昂溪区长兴街61号,黑龙江省,齐齐哈尔市,昂昂溪区,,unknown,
baidu,4426cc8210447cae9cec2bf2,威特斯国际洗衣(区府路店),福田商服楼1-2层8室,黑龙江省,齐齐哈尔市,昂昂溪区,13766510371,unknown,
baidu,41b38ce35c0010e1c26c1422,昂昂溪长兴街户外劳动者爱心驿站,齐齐哈尔市区府路与长兴街交叉口东北处,黑龙江省,齐齐哈尔市,昂昂溪区,,unknown,
baidu,7ebe1474b511cb9014948eb3,鑫辉铁艺制作,齐齐哈尔市昂昂溪区兴盛路文化小区东侧约50米,黑龙江省,齐齐哈尔市,昂昂溪区,13766576537,unknown,
baidu,1cc883582a384db1095cb3f5,公共厕所,齐齐哈尔市昂昂溪区苗圃路与铁中街交叉路口往西约60米,黑龙江省,齐齐哈尔市,昂昂溪区,,unknown,
baidu,7c5e480b6cfc4bcaacb22ab3,公共厕所,齐齐哈尔市昂昂溪区铁南街文化小区东南侧约40米,黑龙江省,齐齐哈尔市,昂昂溪区,,unknown,
baidu,ebb61dbcd3badd482902e110,中国福利彩票(区府路313号店),黑龙江省齐齐哈尔市昂昂溪区区府路313号,黑龙江省,齐齐哈尔市,昂昂溪区,954168,unknown,
baidu,798db62d79b49b7b3010af95,京东快递(齐齐哈尔昂昂溪营业部),黑龙江省齐齐哈尔市昂昂溪区文化小区4号楼6门市,黑龙江省,齐齐哈尔市,昂昂溪区,18845224566,unknown,
baidu,98cf108157b760efe856faba,乔老五殡葬用品服务部,黑龙江省齐齐哈尔市昂昂溪区兴盛路141号,黑龙江省,齐齐哈尔市,昂昂溪区,13845293553,unknown,
baidu,1639f94e868e955708ccdd32,长兴彩票,长兴街120号,黑龙江省,齐齐哈尔市,昂昂溪区,15945248128,unknown,
baidu,58607c9aec98ed3fafee7ac5,家佳乐房产,黑龙江省齐齐哈尔市昂昂溪区区府路邮政家属楼1单元,黑龙江省,齐齐哈尔市,昂昂溪区,,unknown,
baidu,8569f2c86891ec617069d39e,中国体育彩票(长兴街店),黑龙江省齐齐哈尔市昂昂溪区长兴街北疆小区9号楼110号,黑龙江省,齐齐哈尔市,昂昂溪区,13304621178,unknown,
baidu,b039e74ab535ebe24e2fdf76,自来水公司营业厅,黑龙江省齐齐哈尔市昂昂溪区铁南街花儿之都幼儿园旁边,黑龙江省,齐齐哈尔市,昂昂溪区,,unknown,
baidu,24408b2bf4ed2fe7d5b74e9c,起航广告装饰,黑龙江省齐齐哈尔市昂昂溪区铁南街第一小学校北侧约200米,黑龙江省,齐齐哈尔市,昂昂溪区,15845609789,unknown,
baidu,92fb5282d1f2667d2b201aa9,齐齐哈尔站昂昂溪碧林宾馆铁路车票代售所,齐齐哈尔市昂昂溪区长兴街宏顺嘉园西北侧约150米,黑龙江省,齐齐哈尔市,昂昂溪区,,unknown,
baidu,4991ba20f0892f2e00ff2dc9,庆喜开锁店,齐齐哈尔市昂昂溪区铁南街庆华家园,黑龙江省,齐齐哈尔市,昂昂溪区,15845609022,unknown,
baidu,20678c0dfae0d182e50738c5,昂昂溪水师镇户外劳动者爱心驿站,齐齐哈尔市昂昂溪区区府路与兴盛路交叉路口往东北约130米,黑龙江省,齐齐哈尔市,昂昂溪区,,unknown,
baidu,a19d627c7d9685fa28d7ab1a,高泽殡葬,齐齐哈尔市昂昂溪区铁南街文化小区东南侧,黑龙江省,齐齐哈尔市,昂昂溪区,,unknown,
baidu,2231b844ead6676dc27da2b3,诺言房产,齐齐哈尔市昂昂溪区丰源路宏顺嘉园,黑龙江省,齐齐哈尔市,昂昂溪区,,unknown,
baidu,d8042f88e1e91732276e98d6,国家电网(齐齐哈尔昂昂溪供电营业厅),黑龙江省齐齐哈尔市昂昂溪区区府路38号,黑龙江省,齐齐哈尔市,昂昂溪区,(0452)2484731,unknown,
baidu,55e1156ff2d3ee16364aaed4,福音托老所,齐齐哈尔市昂昂溪区区府路文化小区,黑龙江省,齐齐哈尔市,昂昂溪区,,unknown,
baidu,d7b5d7c3c1934f87223bf208,韵达速递(铁南街店),齐齐哈尔市昂昂溪区铁南街庆华家园东南侧约80米,黑龙江省,齐齐哈尔市,昂昂溪区,95546,unknown,
baidu,6deee308c3f5e21429fc48dd,公共厕所,齐齐哈尔市昂昂溪区区府路齐齐哈尔市昂昂溪区第三小学校东北侧约30米,黑龙江省,齐齐哈尔市,昂昂溪区,,unknown,
baidu,400a59a410d007a82cb17e77,公共厕所,西江路南50米,黑龙江省,齐齐哈尔市,昂昂溪区,,unknown,
baidu,db1f264610b8ffdded74f8bb,兴顺摩托车修理部,黑龙江省齐哈尔市昂溪区新建街庆华家园3号楼,黑龙江省,齐齐哈尔市,昂昂溪区,,unknown,
baidu,2ddb9e511b21fd31c51e5148,玉亮摩托车修理部,黑龙江省齐齐哈尔市昂昂溪区新建街道庆华家园2号楼商服4门,黑龙江省,齐齐哈尔市,昂昂溪区,,unknown,
baidu,766567e4c1236f47c51b75aa,公共厕所,齐齐哈尔市昂昂溪区丹阳路童之梦幼儿园西北侧约270米,黑龙江省,齐齐哈尔市,昂昂溪区,,unknown,
baidu,972669379864f3b5b35c6a95,万金自行车修理,齐齐哈尔市昂昂溪区丰源路庆华家园东南侧约100米,黑龙江省,齐齐哈尔市,昂昂溪区,,unknown,
baidu,d8b6251612d1125a2cb96d82,锐达机械加工部,齐齐哈尔市昂昂溪区丹阳路童之梦幼儿园北侧约60米,黑龙江省,齐齐哈尔市,昂昂溪区,15846210677,unknown,
baidu,88309f94c1f3543f36b06cea,平安液化气炉具维修商店,齐齐哈尔市昂昂溪区地质街庆华家园西南侧约40米,黑龙江省,齐齐哈尔市,昂昂溪区,"(0452)6327658,13634849515",unknown,
baidu,0b90afc54bb701f70ab93aff,公共厕所,齐齐哈尔市昂昂溪区地质街庆华家园西南侧约80米,黑龙江省,齐齐哈尔市,昂昂溪区,,unknown,
baidu,a7c6fd781731418a3517dc91,公共厕所(HLJ-QQ-0163),黑龙江省齐齐哈尔市昂昂溪区西江路,黑龙江省,齐齐哈尔市,昂昂溪区,,unknown,
baidu,fe94dd0d0f2000a9fbdc856a,经典专业烫染会所,新兴委(福田商服楼1-2层7室),黑龙江省,齐齐哈尔市,昂昂溪区,18746825556,unknown,
baidu,f72cc7a8f54e8bce09a8d4c6,发庄造型工作室,丰源路与铁南街交叉口东160米,黑龙江省,齐齐哈尔市,昂昂溪区,18845299917,unknown,
baidu,bac09c5dbd5d46dda8f0cda9,秀蒂千姿减肥会所(庆华小区店),庆华小区13号楼10门,黑龙江省,齐齐哈尔市,昂昂溪区,,unknown,
baidu,82e8da90e757b77b0ba8d4a0,金漫迪美容院(陶然居店),陶然居4-3号商服,黑龙江省,齐齐哈尔市,昂昂溪区,15145287550,unknown,
baidu,66c13654ea848c6707fef586,书君美容美发中心,长兴街33号,黑龙江省,齐齐哈尔市,昂昂溪区,,unknown,
baidu,45ff185b1caf29fa6f47605b,伊美养生会馆,齐齐哈尔市昂昂溪区区府路宏顺嘉园西北侧约60米,黑龙江省,齐齐哈尔市,昂昂溪区,,unknown,
baidu,a57b85eae81b16b84e55473b,香薰阁生活美容会馆,齐齐哈尔市昂昂溪区丰源路齐齐哈尔市昂昂溪区第一小学校南侧约130米,黑龙江省,齐齐哈尔市,昂昂溪区,,unknown,
baidu,ea8a038320ace6b079b55c95,潮流坊形象纹刺设计,齐齐哈尔市昂昂溪区兴盛路陶然居西侧约30米,黑龙江省,齐齐哈尔市,昂昂溪区,"13079617267,18686907267",unknown,
baidu,1edc8bfc59b74761cafa5f4f,晶美美容院(庆华家园店),长兴路庆华家园21号楼,黑龙江省,齐齐哈尔市,昂昂溪区,,unknown,
baidu,e6e41aaa05f8eee5b220a8a3,益参美尔美容养生会所(文化小区店),黑龙江省齐齐哈尔市昂昂溪区G232(区府路),黑龙江省,齐齐哈尔市,昂昂溪区,18945240335,unknown,
baidu,193bad3d8891d3a1230220bf,天艺美发,黑龙江省齐哈尔市昂溪区区府路174号,黑龙江省,齐齐哈尔市,昂昂溪区,,unknown,
baidu,a95abfd922a1c0e242d63e0f,轮廓造型,黑龙江省齐齐哈尔市昂昂溪区区府路209号宏顺小区18号楼,黑龙江省,齐齐哈尔市,昂昂溪区,,unknown,
baidu,092c7a1719301c8b3de23130,尊尚造型烫染店,齐齐哈尔市昂昂溪区兴盛路陶然居西侧,黑龙江省,齐齐哈尔市,昂昂溪区,,unknown,
baidu,70df1d4c693cbcd12c4733ad,如壹美甲工作室,黑龙江省齐齐哈尔市昂昂溪区G111(区府路),黑龙江省,齐齐哈尔市,昂昂溪区,18746828391,unknown,
baidu,085db4f81a56aaffbea240ee,完美发艺,黑龙江省齐齐哈尔市昂昂溪区新兴街道G111(区府路),黑龙江省,齐齐哈尔市,昂昂溪区,,unknown,
baidu,444c5120ff30c71f9703195e,沐卉美容工作室,黑龙江省齐齐哈尔市昂昂溪区丰源路164号,黑龙江省,齐齐哈尔市,昂昂溪区,,unknown,
baidu,4cb045acdadc2d8af7eafcc2,佳甲美美甲美睫,齐齐哈尔市昂昂溪区区府路齐齐哈尔市昂昂溪区第一小学校东南侧约120米,黑龙江省,齐齐哈尔市,昂昂溪区,,unknown,
baidu,0da45ee65e5a1a83882fb571,王筋卫护肤会所,齐齐哈尔市昂昂溪区丰源路庆华家园东南侧约110米,黑龙江省,齐齐哈尔市,昂昂溪区,,unknown,
baidu,d722882be366d546e812e48f,朝熙美甲美睫,齐齐哈尔市昂昂溪区长兴街宏顺嘉园西侧约160米,黑龙江省,齐齐哈尔市,昂昂溪区,18724475657,unknown,
baidu,fec8d3e97690c650d12dd638,青青发屋,黑龙江省齐齐哈尔市昂昂溪区丰源路38号,黑龙江省,齐齐哈尔市,昂昂溪区,,unknown,
baidu,2346eba779cbe5c23a04b1ee,爱尚美甲(丰源路店),丰源路217号庆华小区13号楼1层,黑龙江省,齐齐哈尔市,昂昂溪区,,unknown,
baidu,da27d7f4471eeb7d2bb97cb5,赵家大理发店,黑龙江省齐哈尔市昂溪区铁南街38号,黑龙江省,齐齐哈尔市,昂昂溪区,,unknown,
baidu,0da2b99d8295aa1d97f08c69,美钰发艺,齐齐哈尔市昂昂溪区区府路文化小区,黑龙江省,齐齐哈尔市,昂昂溪区,15945255769,unknown,
baidu,52a95430829519598b2fb5ad,际来美理容院,黑龙江省齐齐哈尔市昂昂溪区丰源路宏顺一期6号楼,黑龙江省,齐齐哈尔市,昂昂溪区,15945248406,unknown,
baidu,e0bc75cf54f38d0f3ee2318d,发源地专业美发传播室(区府路店),齐齐哈尔市昂昂溪区新兴街道庆华小区24号楼商服11门,黑龙江省,齐齐哈尔市,昂昂溪区,,unknown,
baidu,753705b72caf48fcfbf0cb8a,木星理发店,黑龙江省齐齐哈尔市昂昂溪区长兴街38号,黑龙江省,齐齐哈尔市,昂昂溪区,,unknown,
baidu,097bfa841fc7341f09b93a0f,东方印迹纹刺工作室,黑龙江省齐齐哈尔市昂昂溪区区府路232号,黑龙江省,齐齐哈尔市,昂昂溪区,13614522202,unknown,
baidu,7e8f98400561683e2cb96d65,思冉造型(飞鹤茗苑店),黑龙江省齐齐哈尔市昂昂溪区新兴街道G111(区府路),黑龙江省,齐齐哈尔市,昂昂溪区,,unknown,
baidu,db555aa90e8f7db5e3110309,老根发廊,齐齐哈尔市昂昂溪区新兴街道长兴街政府2号楼,黑龙江省,齐齐哈尔市,昂昂溪区,,unknown,
baidu,c706b17643eabd8026d2bb5d,可心理发,黑龙江省齐齐哈尔市昂昂溪区铁南街文化小区1号楼,黑龙江省,齐齐哈尔市,昂昂溪区,,unknown,
baidu,3d47fff640efbafd95f08cb2,佳琦琦美发造型室,黑龙江省齐齐哈尔市昂昂溪区文化小区1号楼,黑龙江省,齐齐哈尔市,昂昂溪区,,unknown,
baidu,747ec7cc5db3fe2be011036d,阿彬烫染,黑龙江省齐齐哈尔市昂昂溪区北疆楼7号商服,黑龙江省,齐齐哈尔市,昂昂溪区,,unknown,
baidu,0b4fc5f44117d2e6a6da39fe,飘艺烫染,齐齐哈尔市昂昂溪区长兴街齐齐哈尔市昂昂溪区第一小学校东南侧约150米,黑龙江省,齐齐哈尔市,昂昂溪区,,unknown,
baidu,cc8c3754deef4c6bb34c491f,超然发艺,齐齐哈尔市昂昂溪区铁南街庆华家园东侧,黑龙江省,齐齐哈尔市,昂昂溪区,15845603265,unknown,
baidu,aff3a4f00c8325e1bfa240f8,铭门美发,齐齐哈尔市昂昂溪区铁南街齐齐哈尔市昂昂溪区第一小学校东南侧,黑龙江省,齐齐哈尔市,昂昂溪区,,unknown,
baidu,80c5fde27469a558ca09f0f1,特别特美发,齐齐哈尔市昂昂溪区丰源路齐齐哈尔市昂昂溪区第一小学校南侧约90米,黑龙江省,齐齐哈尔市,昂昂溪区,,unknown,
baidu,8b3f5a49374522a03617dccd,鑫头领造型,齐齐哈尔市昂昂溪区丰源路齐齐哈尔市昂昂溪区第一小学校南侧约120米,黑龙江省,齐齐哈尔市,昂昂溪区,,unknown,
baidu,483f15f328c2f75e223bf26d,顶级美发,黑龙江省齐齐哈尔市昂昂溪区庆华家园12号楼,黑龙江省,齐齐哈尔市,昂昂溪区,,unknown,
baidu,4709015629c9d4c41d5800bf,斌尚理容院,宏顺嘉园2期1号楼,黑龙江省,齐齐哈尔市,昂昂溪区,,unknown,
baidu,3d6b074ad2a1395cc51b75e5,小青烫染,黑龙江省齐齐哈尔市昂昂溪区庆华家园12号楼2号商服,黑龙江省,齐齐哈尔市,昂昂溪区,18746812973,unknown,
baidu,13c4a62d8cfc5ef293114c46,原老理发店,齐齐哈尔市昂昂溪区丰源路齐齐哈尔市昂昂溪区第一小学校南侧约160米,黑龙江省,齐齐哈尔市,昂昂溪区,,unknown,
baidu,e005316f5ef85221c9fa5ff5,蓝萱发艺,齐齐哈尔市昂昂溪区丰源路齐齐哈尔市昂昂溪区第一小学校南侧约160米,黑龙江省,齐齐哈尔市,昂昂溪区,,unknown,
baidu,70e3b20f8aa31a6926d2bb6f,顶丽美发,齐齐哈尔市昂昂溪区丰源路齐齐哈尔市昂昂溪区第一小学校南侧约160米,黑龙江省,齐齐哈尔市,昂昂溪区,,unknown,
baidu,a57a081d3cdb2e11a2d23077,友怡佳美甲,黑龙江省齐齐哈尔市昂昂溪区新立委铁南商服2号楼1层3室,黑龙江省,齐齐哈尔市,昂昂溪区,13115328661,unknown,
baidu,cc507cef87eeb2dae215f9dd,时尚发型设计(同德路店),黑龙江省齐齐哈尔市昂昂溪区同德路庆华小区3号楼,黑龙江省,齐齐哈尔市,昂昂溪区,,unknown,
baidu,a501900b3af72eb0d22dd6a7,甲如遇见美甲美睫,齐齐哈尔市昂昂溪区丰源路昂昂溪客运站西北侧约180米,黑龙江省,齐齐哈尔市,昂昂溪区,18746829992,unknown,
baidu,782b282a193a6d6f8ab988b3,名姿美发店(丰源路),黑龙江省齐齐哈尔市昂昂溪区丰源路庆华小区13号楼1层3门,黑龙江省,齐齐哈尔市,昂昂溪区,,unknown,
baidu,d83b0e8f0d77c85bca1b951e,白婧理发店,齐齐哈尔市昂昂溪区地质街庆华家园,黑龙江省,齐齐哈尔市,昂昂溪区,15663381773,unknown,
baidu,f157c85d9c1c3d114054d776,美秀理发,丰源路庆华家园小区22号楼1层,黑龙江省,齐齐哈尔市,昂昂溪区,,unknown,
baidu,2ac5da34457239990d3dda7e,百倍美发(庆华家园店),黑龙江省齐齐哈尔市昂昂溪区丰源路庆华家园22号楼,黑龙江省,齐齐哈尔市,昂昂溪区,,unknown,
baidu,4f87f2f5f17bdd095e17c3ea,昂昂溪遗址博物馆,黑龙江省齐齐哈尔市昂昂溪区河南街2号,黑龙江省,齐齐哈尔市,昂昂溪区,(0452)6326442,unknown,
baidu,7762bc61fce065c8b1077dff,悦来客栈旧址,齐齐哈尔市昂昂溪区振兴路文化小区东北侧约120米,黑龙江省,齐齐哈尔市,昂昂溪区,,unknown,
baidu,64ff3be117f2c3bb91114c8d,苏军烈士陵园(昂昂溪区人大常委会道北街道工作委员会西),齐齐哈尔市昂昂溪区罗西亚大街与铁中街交叉路口往西南约70米,黑龙江省,齐齐哈尔市,昂昂溪区,,unknown,
baidu,7734cbde30964bef2b201a9b,清真寺,齐齐哈尔市昂昂溪区丰源路昂昂溪客运站西北侧约190米,黑龙江省,齐齐哈尔市,昂昂溪区,,unknown,
baidu,da9fbc68eec6b4a67adbd2d6,天主堂,齐齐哈尔市昂昂溪区振兴路第十一中学西侧约150米,黑龙江省,齐齐哈尔市,昂昂溪区,,unknown,
baidu,35ab1ad0360f8d06c7f02593,聚龙湾休闲会馆(振兴路店),振兴路6号,黑龙江省,齐齐哈尔市,昂昂溪区,,unknown,
baidu,e30828486585b9beb34c494c,洗浴中心,黑龙江省齐齐哈尔市昂昂溪区区府路131号,黑龙江省,齐齐哈尔市,昂昂溪区,,unknown,
baidu,a3da74f3de22e8532bb97cb1,美竹按摩,齐齐哈尔市昂昂溪区丰源路昂昂溪客运站西北侧约200米,黑龙江省,齐齐哈尔市,昂昂溪区,,unknown,
baidu,8992f14181d7531243ab9a35,客运浴池,齐齐哈尔市昂昂溪区振兴路第十一中学西侧约140米,黑龙江省,齐齐哈尔市,昂昂溪区,,unknown,
baidu,aa40108b32809268c5effb76,秀水浴场,长兴街政府商服楼8号,黑龙江省,齐齐哈尔市,昂昂溪区,,unknown,
baidu,0c8403721e8feb51f7eafcb2,普信保健养生馆,齐齐哈尔市昂昂溪区区府路兴盛小区(兴盛路)西南侧约60米,黑龙江省,齐齐哈尔市,昂昂溪区,,unknown,
baidu,0763d2d303780d062bd7ab08,足疗修脚,齐齐哈尔市昂昂溪区区府路齐齐哈尔市昂昂溪区第一小学校东侧约50米,黑龙江省,齐齐哈尔市,昂昂溪区,,unknown,
baidu,46e10335990a935082288aff,金马娱乐,齐齐哈尔市昂昂溪区兴盛路陶然居西侧约60米,黑龙江省,齐齐哈尔市,昂昂溪区,,unknown,
baidu,ad1156d395a4d6b20f3ddaa7,手道修脚店,齐齐哈尔市昂昂溪区丰源路庆华家园,黑龙江省,齐齐哈尔市,昂昂溪区,,unknown,
baidu,34f68ab0faae11778f55ec76,舞夜练歌广场,兴盛路314号,黑龙江省,齐齐哈尔市,昂昂溪区,13199636613,unknown,
baidu,f139f7a0c01eaae2f8f0cb03,金帝量贩式KTV,齐齐哈尔市昂昂溪区东胜街陶然居南侧约70米,黑龙江省,齐齐哈尔市,昂昂溪区,,unknown,
baidu,178e6d5d51216b602fe67b58,小关先生的棋牌馆,黑龙江省齐齐哈尔市昂昂溪区区府路70号,黑龙江省,齐齐哈尔市,昂昂溪区,19535114826,unknown,
baidu,0e9d46143a8cbb52a21de9ee,尚悦采耳,齐齐哈尔市昂昂溪区兴盛路兴盛小区(兴盛路)北侧约40米,黑龙江省,齐齐哈尔市,昂昂溪区,,unknown,
baidu,c115b06d00951dfcf5231054,蔷薇棋牌室,齐齐哈尔市昂昂溪区区府路飞鹤茗苑,黑龙江省,齐齐哈尔市,昂昂溪区,,unknown,
baidu,bc56bfaa2e3c04f6b320a8a1,昂昂溪区青少年活动中心,齐齐哈尔市昂昂溪区区府路齐齐哈尔市昂昂溪区人民政府东南侧约160米,黑龙江省,齐齐哈尔市,昂昂溪区,,unknown,
baidu,cbe844db4e325c9c0b1cc7cd,境缘欣养生馆,黑龙江省齐齐哈尔市昂昂溪区铁南街庆华家园小区12号楼1层-室,黑龙江省,齐齐哈尔市,昂昂溪区,,unknown,
baidu,381540375bb9b50db5147fac,杨洋保健按摩馆,齐齐哈尔市昂昂溪区区府路庆华家园,黑龙江省,齐齐哈尔市,昂昂溪区,,unknown,
baidu,89f99051909d6b05c2f1cf56,飞鹤会所,齐齐哈尔市昂昂溪区东胜街飞鹤茗苑,黑龙江省,齐齐哈尔市,昂昂溪区,,unknown,
baidu,5a8c13508f3af69eede4a50d,温馨茶庄(东胜街店),齐齐哈尔市昂昂溪区东胜街陶然居南侧约70米,黑龙江省,齐齐哈尔市,昂昂溪区,,unknown,
baidu,f71f13e28cc4a82209b93a06,聚友棋牌,铁南商服5号,黑龙江省,齐齐哈尔市,昂昂溪区,15945244088,unknown,
baidu,d1c39fd76785045595ca071e,华益康养生馆,齐齐哈尔市昂昂溪区丰源路庆华家园东南侧约120米,黑龙江省,齐齐哈尔市,昂昂溪区,13199676517,unknown,
baidu,e16bd46d3201b40fab059dea,六号俱乐部,齐齐哈尔市昂昂溪区丹阳路庆华家园南侧约180米,黑龙江省,齐齐哈尔市,昂昂溪区,13359571711,unknown,
baidu,faa1dd09fe80072840d63e0d,阳铭美容院(宏顺嘉园店),区府路商服楼13号,黑龙江省,齐齐哈尔市,昂昂溪区,,unknown,
baidu,b3cb59b54c2c66a54d6d466b,祥润茶庄,齐齐哈尔市昂昂溪区丰源路齐齐哈尔市昂昂溪区第一小学校南侧约60米,黑龙江省,齐齐哈尔市,昂昂溪区,,unknown,
baidu,d1e179ab77677d6c9d95ded7,鑫韩都酒店,黑龙江省齐齐哈尔市昂昂溪区区府路与齐昂公路交叉口西100米,黑龙江省,齐齐哈尔市,昂昂溪区,(0452)5970000,unknown,
baidu,88e375edf0d606059e82ea20,齐齐哈尔鼎红宾馆,兴盛路227号,黑龙江省,齐齐哈尔市,昂昂溪区,18804522818,unknown,
baidu,38ae72ad31ead00bca1b95df,齐齐哈尔家艺术旅馆,兴盛路194号,黑龙江省,齐齐哈尔市,昂昂溪区,18645200011,unknown,
baidu,33fb322d52420489b726556b,亿源招待所,区府路文化小区7号楼1层20号商服,黑龙江省,齐齐哈尔市,昂昂溪区,13263527111,unknown,
baidu,03c1f8ac43a7fbc51a94c605,齐齐哈尔莱悦宾馆,兴盛路陶然居二期9号楼1层8室,黑龙江省,齐齐哈尔市,昂昂溪区,17645251118,unknown,
baidu,a737816f0647174eae080f01,友家宾馆,同德路土地局正对面(喜龙缘酒店东100米),黑龙江省,齐齐哈尔市,昂昂溪区,(0452)6325663,unknown,
baidu,bee9f935c9d5dcd8901fc9f1,昂昂溪站-国际旅客候车室,齐齐哈尔市昂昂溪区迎宾路昂昂溪站,黑龙江省,齐齐哈尔市,昂昂溪区,,unknown,
baidu,441d06ffed1abfb4e211038d,润逸快捷宾馆,齐齐哈尔市昂昂溪区丰源路昂昂溪客运站西北侧约90米,黑龙江省,齐齐哈尔市,昂昂溪区,(0452)6322288,unknown,
baidu,074e69dc27078a16a8175a34,小城故事旅馆,丰源路93号顺建嘉园1号楼5号商服,黑龙江省,齐齐哈尔市,昂昂溪区,13384526276,unknown,
baidu,b0f4fc5aef7abf7c0aa8d496,齐齐哈尔福兴旅店,齐齐哈尔市昂昂溪区铁南街齐齐哈尔市昂昂溪区第一小学校西侧约30米,黑龙江省,齐齐哈尔市,昂昂溪区,(0452)6325070,unknown,
baidu,d29b18e93671bf06abf0cdd9,勇亮民宿,黑龙江省齐齐哈尔市昂昂溪区丰源路163号（第一小学校南侧约200米）,黑龙江省,齐齐哈尔市,昂昂溪区,13351124668,unknown,
baidu,3c3cbce920b17af33813fd61,喜居旅店,黑龙江省齐齐哈尔市昂昂溪区长兴街15号,黑龙江省,齐齐哈尔市,昂昂溪区,,unknown,
baidu,1aa0a49d33d36257b34c4984,馨春大酒店,黑龙江省齐齐哈尔市昂昂溪区区府路131号,黑龙江省,齐齐哈尔市,昂昂溪区,(0452)6334555,unknown,
baidu,18de45dcf8bc9c987069d3f1,悦来客栈(兴盛路店),黑龙江省齐齐哈尔市昂昂溪区东胜街兴盛路陶然居二期10号楼12号,黑龙江省,齐齐哈尔市,昂昂溪区,(0452)6325696,unknown,
baidu,f505bb288ec261d9a6da39e3,鑫梁旅店,齐齐哈尔市昂昂溪区长兴街第十一中学南侧约60米,黑龙江省,齐齐哈尔市,昂昂溪区,,unknown,
baidu,743fa96484df8c4c88fc06cd,远文旅店,齐齐哈尔市昂昂溪区兴盛路陶然居西侧,黑龙江省,齐齐哈尔市,昂昂溪区,,unknown,
baidu,9d883b45d61132488a36ee0b,宏亮旅店(区府路店),黑龙江省齐齐哈尔市昂昂溪区区府路一期18号楼,黑龙江省,齐齐哈尔市,昂昂溪区,,unknown,
baidu,4df4d67bbcb1ef8e0e3ddaf8,红日旅店(同德路店),黑龙江省齐齐哈尔市昂昂溪区长兴街167号,黑龙江省,齐齐哈尔市,昂昂溪区,13136625688,unknown,
baidu,c77941f2283cc280b54f5468,永发旅店(同德路店),黑龙江省齐齐哈尔市昂昂溪区长兴街161号,黑龙江省,齐齐哈尔市,昂昂溪区,,unknown,
baidu,a2bc42d61dc79d82223bf253,红福旅店(长兴街店),黑龙江省齐齐哈尔市昂昂溪区长兴街176号,黑龙江省,齐齐哈尔市,昂昂溪区,,unknown,
baidu,b1b3b506fa882440128824d6,孟广杰旅店,齐齐哈尔市昂昂溪区丹阳路童之梦幼儿园西南侧,黑龙江省,齐齐哈尔市,昂昂溪区,,unknown,
baidu,ae723461a43de3380c0a7095,晓薇机动车中介所,黑龙江省齐齐哈尔市昂昂溪区振兴路陶然居7号楼,黑龙江省,齐齐哈尔市,昂昂溪区,"13763598288,13945241050",unknown,
baidu,79bf734d45c4cda2bbbd6395,融达汽车保修厂,黑龙江省齐齐哈尔市昂昂溪区齐昂公路与迎宾路交叉路口西南侧,黑龙江省,齐齐哈尔市,昂昂溪区,,unknown,
baidu,6c335411c456b26908ccddf5,瑞洁洗车装饰,黑龙江省齐齐哈尔市昂昂溪区长兴街35号,黑龙江省,齐齐哈尔市,昂昂溪区,,unknown,
baidu,74fe1f3f689feed38715412b,通路汽车电器修理部,黑龙江省齐齐哈尔市昂昂溪区区府路174,黑龙江省,齐齐哈尔市,昂昂溪区,13634849874,unknown,
baidu,f283a4322f1bb6fe16c905fa,玉凤洗车行,黑龙江省齐齐哈尔市昂昂溪区东胜街与区府路交叉口南20米,黑龙江省,齐齐哈尔市,昂昂溪区,,unknown,
baidu,c03592b51a47f779adcb665a,非洗不可洗车行(区府路店),黑龙江省齐齐哈尔市昂昂溪区区府路91号,黑龙江省,齐齐哈尔市,昂昂溪区,,unknown,
baidu,d231710461a2cbb95fd4fe53,马上好车新车直购超市,齐齐哈尔市昂昂溪区兴盛路第三十六中学校北侧约40米,黑龙江省,齐齐哈尔市,昂昂溪区,,unknown,
baidu,05660adbc778a0818e77279e,车港湾蒸汽洗车行,齐齐哈尔市昂昂溪区丰源路齐齐哈尔市昂昂溪区第一小学校南侧约160米,黑龙江省,齐齐哈尔市,昂昂溪区,,unknown,
baidu,b553bd21b7cb355defe4a51b,蓝庭洗车行,齐齐哈尔市昂昂溪区区府路齐齐哈尔市昂昂溪区人民政府南侧约30米,黑龙江省,齐齐哈尔市,昂昂溪区,,unknown,
baidu,c76460ec212acbc6f82213e2,福盛洗车行,齐齐哈尔市昂昂溪区铁南街文化小区,黑龙江省,齐齐哈尔市,昂昂溪区,,unknown,
baidu,9246ec825493dd2846e27401,车万家洗车行,齐齐哈尔市昂昂溪区区府路文化小区,黑龙江省,齐齐哈尔市,昂昂溪区,,unknown,
baidu,48a7e130278bc9aca0acc4df,爱车坊洗车行,飞鹤小区14号楼外门市,黑龙江省,齐齐哈尔市,昂昂溪区,13351229449,unknown,
baidu,ec772a1a94f4a48fdeee8b43,冯超汽配商店,黑龙江省齐齐哈尔市昂昂溪区陶然居7号,黑龙江省,齐齐哈尔市,昂昂溪区,,unknown,
baidu,b164c79c8cb1bd43220220d1,洁静洗车行,黑龙江省齐齐哈尔市昂昂溪区宏顺一期五号楼,黑龙江省,齐齐哈尔市,昂昂溪区,13634525553,unknown,
baidu,c501881f3b6762b4bfa822d9,彦坤汽车电器修理部,黑龙江省齐齐哈尔市昂昂溪区丰源路飞鹤茗苑16号楼,黑龙江省,齐齐哈尔市,昂昂溪区,"13136628930,13763520521",unknown,
baidu,60fe6067fb4da0fc4151c02d,通盛农机,黑龙江省齐齐哈尔市昂昂溪区长兴街252号,黑龙江省,齐齐哈尔市,昂昂溪区,13634849698,unknown,
baidu,8454c248dcdf5b56ae080f3f,添添洗车行,齐齐哈尔市昂昂溪区丰源路庆华家园东南侧约170米,黑龙江省,齐齐哈尔市,昂昂溪区,,unknown,
baidu,78356d454e7870f97ab55c3b,保玉汽车钣金,黑龙江省齐哈尔市昂溪区长兴街206号,黑龙江省,齐齐哈尔市,昂昂溪区,"13349421687,15600005987",unknown,
baidu,5464929e4f52f76d88f15d0c,金美孚润滑油商行(飞鹤茗苑店),黑龙江省齐齐哈尔市昂昂溪区区府路飞鹤名苑22号楼101号,黑龙江省,齐齐哈尔市,昂昂溪区,,unknown,
baidu,21e6477b32962fa890114c87,鑫达汽配修理(长兴街店),长兴街228号,黑龙江省,齐齐哈尔市,昂昂溪区,,unknown,
baidu,736a38df019d2b3bae080f08,轮胎修理,黑龙江省齐齐哈尔市昂昂溪区G111(丹阳路),黑龙江省,齐齐哈尔市,昂昂溪区,15845215024,unknown,
baidu,55398aafaf465442c7f025c2,聚兴农机,黑龙江省齐齐哈尔市昂昂溪区长兴街254号,黑龙江省,齐齐哈尔市,昂昂溪区,15946200678,unknown,
baidu,42cfbc858b0d203dc51e51d0,兴顺机动车配件,黑龙江省齐齐哈尔市昂昂溪区长兴街130号,黑龙江省,齐齐哈尔市,昂昂溪区,(0452)6323886,unknown,
baidu,185d7e41076adba6157643fb,小许汽车配件商店,齐齐哈尔市昂昂溪区丰源路宏顺嘉园南侧约30米,黑龙江省,齐齐哈尔市,昂昂溪区,,unknown,
baidu,4a2038ae0a3afc1836b06c96,喷漆汽配商店轮胎商店,齐齐哈尔市昂昂溪区丹阳路童之梦幼儿园北侧,黑龙江省,齐齐哈尔市,昂昂溪区,,unknown,
baidu,e91f501347e42045b54f5436,盈鑫汽车配件商店,齐齐哈尔市昂昂溪区丰源路宏顺嘉园南侧约40米,黑龙江省,齐齐哈尔市,昂昂溪区,,unknown,
baidu,e09c62d36ed80f1d01897289,宏飞汽配商店,黑龙江省齐哈尔市昂溪区二期5号楼16号,黑龙江省,齐齐哈尔市,昂昂溪区,15663338444,unknown,
baidu,5abedec0bbec567f28b97cc1,建国水箱轮胎修理部,黑龙江省齐齐哈尔市昂昂溪区长兴街260号,黑龙江省,齐齐哈尔市,昂昂溪区,13136600286,unknown,
baidu,1d5045f5646b611b38221cb3,鑫意轩农机修理,齐齐哈尔市昂昂溪区丹阳路童之梦幼儿园东南侧约120米,黑龙江省,齐齐哈尔市,昂昂溪区,,unknown,
baidu,e38d5194ebfd00e34bcc4a0a,玉凤汽车装具屋,齐齐哈尔市昂昂溪区丹阳路童之梦幼儿园南侧约80米,黑龙江省,齐齐哈尔市,昂昂溪区,13514646460,unknown,
baidu,23781ab34ae1c8912cb908fe,源老海汽配商店,齐齐哈尔市昂昂溪区长兴街昂昂溪客运站西南侧约190米,黑龙江省,齐齐哈尔市,昂昂溪区,13359522678,unknown,
baidu,45be6c9e25ca26000ba8d4c4,郭浩校泵,齐齐哈尔市昂昂溪区丹阳路童之梦幼儿园南侧约80米,黑龙江省,齐齐哈尔市,昂昂溪区,"13134529898,15845215558",unknown,
baidu,3d859b45f4647ebe364aae64,徐二宝农机,黑龙江省齐齐哈尔市昂昂溪区长兴街246号,黑龙江省,齐齐哈尔市,昂昂溪区,15945255939,unknown,
baidu,af3b89ac19ba584602294f1c,朋辉农机,齐齐哈尔市昂昂溪区丹阳路,黑龙江省,齐齐哈尔市,昂昂溪区,,unknown,
baidu,c2313139e9e246d0f50e7766,张国成农机修理,长兴街259号附近,黑龙江省,齐齐哈尔市,昂昂溪区,,unknown,
baidu,cbbb8e773da0f0d949fd3f70,海伟轮胎修理部,齐齐哈尔市昂昂溪区丹阳路童之梦幼儿园南侧约150米,黑龙江省,齐齐哈尔市,昂昂溪区,15603626699,unknown,
baidu,b3595cae72ed8d5f25e0a0fb,齐齐哈尔市永晟检车线,黑龙江省齐齐哈尔市昂昂溪区G111(区府路),黑龙江省,齐齐哈尔市,昂昂溪区,15146685888,unknown,
baidu,d922c60b297cc5a20482c203,兴盛机动车配件商店,黑龙江省齐齐哈尔市昂昂溪区长兴街庆华小区1号楼,黑龙江省,齐齐哈尔市,昂昂溪区,(0452)6323886,unknown,
baidu,107a9704a34df419b817e77a,欧萨克汉堡(铁南街店),齐齐哈尔市昂昂溪区铁南街庆华家园东南侧约60米,黑龙江省,齐齐哈尔市,昂昂溪区,,unknown,
baidu,4bacd6c15a9390b5a3acc4a4,华溪汽车电器配件,长兴街258号,黑龙江省,齐齐哈尔市,昂昂溪区,13796857644,unknown,
baidu,6952ffd459b619828433042e,德旺精品二手车,齐齐哈尔市昂昂溪区丹阳路童之梦幼儿园北侧,黑龙江省,齐齐哈尔市,昂昂溪区,,unknown,
baidu,cf08f02beb73ef61eb56fa4e,昂昂溪区人民医院,齐齐哈尔市昂昂溪区长兴街5号,黑龙江省,齐齐哈尔市,昂昂溪区,(0452)6320737,unknown,
baidu,e49f1afcdca0dc5443ab9a1c,昂昂溪区人民医院-发热门诊,齐齐哈尔市昂昂溪区长兴街5号,黑龙江省,齐齐哈尔市,昂昂溪区,(0452)6013847,unknown,
baidu,d8ec6fb408211be9583ac876,新兴社区卫生服务中心,齐齐哈尔市昂昂溪区长兴街5号,黑龙江省,齐齐哈尔市,昂昂溪区,(0452)6013829,unknown,
baidu,d76efcb8ae33e89ac51b759f,昂昂溪区第二人民医院,黑龙江省齐齐哈尔市昂昂溪区陵园路6号,黑龙江省,齐齐哈尔市,昂昂溪区,,unknown,
baidu,5f757c5f70dc9807a4da395d,顺康药店,齐齐哈尔市昂昂溪区铁北街齐齐哈尔农商银行(桥头分理处)南侧约60米,黑龙江省,齐齐哈尔市,昂昂溪区,,unknown,
baidu,2bdc25ab58e48ae91d1d1145,张玉华中医诊所,齐齐哈尔市昂昂溪区兴盛路兴盛小区(兴盛路)东北侧约40米,黑龙江省,齐齐哈尔市,昂昂溪区,13234627499,unknown,
baidu,99e7d5dbcbd6746ec336440a,昂昂溪区第二人民医院分院,黑龙江省齐齐哈尔市昂昂溪区兴盛路92号,黑龙江省,齐齐哈尔市,昂昂溪区,,unknown,
baidu,8703b6d122401ceda2a934b1,王春杰中医诊所,齐齐哈尔市昂昂溪区兴盛路陶然居东南侧约50米,黑龙江省,齐齐哈尔市,昂昂溪区,,unknown,
baidu,7dc4dcc2b934280b72210ba3,红胜村卫生所,黑龙江省齐齐哈尔市昂昂溪区兴盛路146号,黑龙江省,齐齐哈尔市,昂昂溪区,13946232051,unknown,
baidu,6a789a87eb1277a331f71d9b,广益综合门诊,黑龙江省齐齐哈尔市昂昂溪区长兴街147号,黑龙江省,齐齐哈尔市,昂昂溪区,,unknown,
baidu,e18a4e97290ccf5dd12dd65f,新兴综合门诊部,黑龙江省齐齐哈尔市昂昂溪区长兴街104号,黑龙江省,齐齐哈尔市,昂昂溪区,(0452)6322757,unknown,
baidu,2f150345c43250d5deee8b4f,昂昂溪区第二人民医院-发热门诊,陵园路6号,黑龙江省,齐齐哈尔市,昂昂溪区,(0452)6332036,unknown,
baidu,dffd4642c75aa2b23d9a5e90,福祥医院,齐齐哈尔市昂昂溪区兴盛路与铁南街交叉口西北50米,黑龙江省,齐齐哈尔市,昂昂溪区,,unknown,
baidu,9add9ea7a63e2fd1d3ff2304,益福康服务中心,齐齐哈尔市昂昂溪区丰源路庆华家园,黑龙江省,齐齐哈尔市,昂昂溪区,,unknown,
baidu,5459b748a9e7c3d3276e9845,中心村卫生二室,齐齐哈尔市昂昂溪区丰源路昂昂溪客运站西北侧约160米,黑龙江省,齐齐哈尔市,昂昂溪区,,unknown,
baidu,0aa7dfa86c07c03d15c90581,昂昂溪区妇幼保健所,铁南街106号附近,黑龙江省,齐齐哈尔市,昂昂溪区,,unknown,
baidu,6c9aaf62269fd48d9a005059,中心村卫生所(同德路店),齐齐哈尔市昂昂溪区同德路昂昂溪客运站西侧约140米,黑龙江省,齐齐哈尔市,昂昂溪区,,unknown,
baidu,958d6437961e4dbd250bd0ca,骨康保健,齐齐哈尔市昂昂溪区区府路庆华家园,黑龙江省,齐齐哈尔市,昂昂溪区,,unknown,
baidu,fa244340a3d0dc3322f01768,张长辉口腔诊所,黑龙江省齐齐哈尔市昂昂溪区头道街齐翔综合楼1层4室,黑龙江省,齐齐哈尔市,昂昂溪区,,unknown,
baidu,a653b9f562d7c9cabbdf8f71,众脉医疗器械经销处,齐齐哈尔市昂昂溪区铁南街庆华家园,黑龙江省,齐齐哈尔市,昂昂溪区,,unknown,
baidu,78a78de2260b9ed8fda7782b,泰德医药(博信店),黑龙江省齐齐哈尔市昂昂溪区兴盛路147号,黑龙江省,齐齐哈尔市,昂昂溪区,,unknown,
baidu,4a2e2eaa4d801f08047ce824,朝旭康复服务中心,齐齐哈尔市昂昂溪区长兴街昂昂溪客运站西南侧约190米,黑龙江省,齐齐哈尔市,昂昂溪区,,unknown,
baidu,d155b0ed5103b9c72cb908bc,周氏桂霞牙科,黑龙江省齐齐哈尔市昂昂溪区长兴街庆华家园21栋,黑龙江省,齐齐哈尔市,昂昂溪区,13089734578,unknown,
baidu,e66ceb9d31812cc915a1908b,泰德医药(友和店),齐齐哈尔市昂昂溪区长兴街兴盛小区(兴盛路)东侧约80米,黑龙江省,齐齐哈尔市,昂昂溪区,,unknown,
baidu,d0d936bfcda8a6695f17c3ed,昂昂溪区疾病预防控制中心,黑龙江省齐齐哈尔市昂昂溪区长兴街189号,黑龙江省,齐齐哈尔市,昂昂溪区,,unknown,
baidu,2c54aa75da8ab8d3b23c8106,隆利医药,齐齐哈尔市昂昂溪区飞鹤名苑8号楼,黑龙江省,齐齐哈尔市,昂昂溪区,,unknown,
baidu,2126b4e3d4c5fcfb48cc4aef,齐康药店(区府路店),黑龙江省齐齐哈尔市昂昂溪区区府路222号,黑龙江省,齐齐哈尔市,昂昂溪区,13514647111,unknown,
baidu,83d78bc0e189d28dd72ce229,普生堂医药(昂昂溪区众生店),长兴街40号,黑龙江省,齐齐哈尔市,昂昂溪区,13763569995,unknown,
baidu,6440b246bb748caf02897246,普生堂医药(健安店),齐齐哈尔市昂昂溪区铁南街齐齐哈尔市昂昂溪区第一小学校西北侧,黑龙江省,齐齐哈尔市,昂昂溪区,15863060522,unknown,
baidu,bbf3790ac80130a8eaf85375,王家康保健理疗馆,齐齐哈尔市昂昂溪区丰源路宏顺嘉园西侧,黑龙江省,齐齐哈尔市,昂昂溪区,15174651260,unknown,
baidu,1ab65847d6c12360d13ce3ba,百姓弘发医药(庆华分店店),黑龙江省齐齐哈尔市昂昂溪区长兴街40号,黑龙江省,齐齐哈尔市,昂昂溪区,15545619190,unknown,
baidu,543b9ba82a789028f33cba5d,顺华大药房,黑龙江省齐齐哈尔市昂昂溪区铁南街庆华家园11栋09号,黑龙江省,齐齐哈尔市,昂昂溪区,15303622248,unknown,
baidu,3c7737b94d982b804251c042,巴克健康调理中心,齐齐哈尔市昂昂溪区丰源路齐齐哈尔市昂昂溪区第一小学校南侧约130米,黑龙江省,齐齐哈尔市,昂昂溪区,,unknown,
baidu,2528b76b3723361438221c8b,泰德医药(诚心店),齐齐哈尔市昂昂溪区铁南街庆华家园东侧约30米,黑龙江省,齐齐哈尔市,昂昂溪区,(0452)6327989,unknown,
baidu,b8844483dfdc4653d13ce331,百众药店,黑龙江省齐齐哈尔市昂昂溪区丰源路183号,黑龙江省,齐齐哈尔市,昂昂溪区,,unknown,
baidu,029b5d76b137064bc7effbc5,守升兽药店,黑龙江省齐齐哈尔市昂昂溪区新建街道铁南商服4号楼12层10室,黑龙江省,齐齐哈尔市,昂昂溪区,,unknown,
baidu,b662f4b7ac2a10c0c5effbd5,百诺口腔,黑龙江省齐齐哈尔市昂昂溪区铁南街5号楼,黑龙江省,齐齐哈尔市,昂昂溪区,,unknown,
baidu,be0f322bd29ccdf7e50738ee,金寿老年公寓,齐齐哈尔市昂昂溪区兴盛路陶然居东南侧约60米,黑龙江省,齐齐哈尔市,昂昂溪区,,unknown,
baidu,5829a2c609fea6ba78f79618,孙岩口腔诊所,黑龙江省齐齐哈尔市昂昂溪区丰源路76号,黑龙江省,齐齐哈尔市,昂昂溪区,,unknown,
baidu,20816596e9349d0443e192d3,桐希口腔门诊部,齐齐哈尔市昂昂溪区兴盛路兴盛小区(兴盛路)北侧约40米,黑龙江省,齐齐哈尔市,昂昂溪区,,unknown,
baidu,53349ee3d5abd16e2302628d,齐齐哈尔市昂昂溪区教师进修学校,黑龙江省齐齐哈尔市昂昂溪区头道街齐翔楼1号,黑龙江省,齐齐哈尔市,昂昂溪区,,unknown,
baidu,f4f82c8d45bfd51dd2f49e18,鹏艺架子鼓学校,齐齐哈尔市昂昂溪区长兴街兴盛小区(兴盛路)东南侧,黑龙江省,齐齐哈尔市,昂昂溪区,,unknown,
baidu,e5e7821c13b39dc6ebe5823b,豹子格斗,齐齐哈尔市陶然居二期15号楼1-2层6室2号,黑龙江省,齐齐哈尔市,昂昂溪区,15663379753,unknown,
baidu,db88bcf756c6c0c7f13cbabc,永玉集团龙昊考试场科目三候考大厅,新兴街道丹阳路顺建嘉园20号楼,黑龙江省,齐齐哈尔市,昂昂溪区,,unknown,
baidu,cea2c67882800d411e5800e8,铁路小学,齐齐哈尔市昂昂溪区罗西亚大街与铁中街交叉路口往北约210米,黑龙江省,齐齐哈尔市,昂昂溪区,,unknown,
baidu,33d2d98006c8df6ad72ce2ca,腾飞艺校(昂区分校),庆华家园4栋,黑龙江省,齐齐哈尔市,昂昂溪区,,unknown,
baidu,9ee392b840c10841babd638d,市第三十六中学校,黑龙江省齐齐哈尔市昂昂溪区兴盛路44号,黑龙江省,齐齐哈尔市,昂昂溪区,,unknown,
baidu,fddde9f14fbdac01b34c49a0,昂铁中小学,迎宾路苏军烈士陵园(昂昂溪区道北街道办事处西)附近,黑龙江省,齐齐哈尔市,昂昂溪区,,unknown,
baidu,681e122477d8d91c3904b164,阿拉丁教育,齐齐哈尔市昂昂溪区丰源路宏顺嘉园西南侧约40米,黑龙江省,齐齐哈尔市,昂昂溪区,18686905905,unknown,
baidu,c62e70a3b3e43534b21e36e4,起源幼儿园,齐齐哈尔市昂昂溪区东胜街与兴盛路交叉路口往东约120米,黑龙江省,齐齐哈尔市,昂昂溪区,13836206699,unknown,
baidu,7f0a88959219754615a190aa,七彩童年幼儿园(飞鹤茗苑),齐齐哈尔市昂昂溪区飞鹤名苑8号楼,黑龙江省,齐齐哈尔市,昂昂溪区,,unknown,
baidu,2b048b68531cd0c7aa059dda,昂昂溪区二小,黑龙江省齐齐哈尔市昂昂溪区区府路48号,黑龙江省,齐齐哈尔市,昂昂溪区,,unknown,
baidu,ac17106a633c8ab1cb213dd4,智佳幼儿园,黑龙江省齐齐哈尔市昂昂溪区区府路275号,黑龙江省,齐齐哈尔市,昂昂溪区,,unknown,
baidu,06d2dffd025153f689f15d8d,齐齐哈尔市昂昂溪区第一小学校,黑龙江省齐齐哈尔市昂昂溪区区府路309号,黑龙江省,齐齐哈尔市,昂昂溪区,,unknown,
baidu,c6330cf51c4b71214e776ede,第二小学校,黑龙江省齐齐哈尔市昂昂溪区区府路48号,黑龙江省,齐齐哈尔市,昂昂溪区,,unknown,
baidu,a804ccb119371f24fbf0cb07,北方农业科学技术研究所,黑龙江省齐齐哈尔市昂昂溪区兴盛路273号1楼19号,黑龙江省,齐齐哈尔市,昂昂溪区,,unknown,
baidu,499604edef6de2a28505bf72,丑小鸭幼儿园,黑龙江省齐齐哈尔市昂昂溪区新建街浩源小区7号楼3单元,黑龙江省,齐齐哈尔市,昂昂溪区,,unknown,
baidu,dffd4642c759a2b23d9a5e8d,齐齐哈尔市昂昂溪区第三小学校,黑龙江省齐齐哈尔市昂昂溪区区府路493号,黑龙江省,齐齐哈尔市,昂昂溪区,,unknown,
baidu,d025ad60e2446e5bd42ce263,黑龙江省实物地质资料齐齐哈尔研发中心,齐齐哈尔市昂昂溪区丰源路庆华家园西侧约90米,黑龙江省,齐齐哈尔市,昂昂溪区,,unknown,
baidu,c0aaa2fc03b7aa82a5da3927,齐齐哈尔市第八职业高级中学校,黑龙江省齐齐哈尔市昂昂溪区长兴街276号,黑龙江省,齐齐哈尔市,昂昂溪区,,unknown,
baidu,830b3aacda9abd179cec2b37,昂昂溪火车站,31路;32路,黑龙江省,齐齐哈尔市,昂昂溪区,,unknown,
baidu,9859c01163b45dbfdeee8bd7,昂昂溪站-站前广场,齐齐哈尔市昂昂溪区迎宾路昂昂溪站,黑龙江省,齐齐哈尔市,昂昂溪区,,unknown,
baidu,8a7b54348eb7c88e465726fd,昂昂溪站,齐齐哈尔市昂昂溪区迎宾路,黑龙江省,齐齐哈尔市,昂昂溪区,(0452)2972632,unknown,
baidu,0656209fcd29ec1d9122e026,区政务中心,31路,黑龙江省,齐齐哈尔市,昂昂溪区,,unknown,
baidu,dc46b3fc75ed6c6a95ec8492,秀水花园浴场,36路,黑龙江省,齐齐哈尔市,昂昂溪区,,unknown,
baidu,65f9e6b446babb6fb817e75d,庆华市场,31路;32路;36路;303路,黑龙江省,齐齐哈尔市,昂昂溪区,,unknown,
baidu,e19524b99f2434867adbd2ce,昂昂溪庆华购物中心,36路,黑龙江省,齐齐哈尔市,昂昂溪区,,unknown,
baidu,7f868dbfb54084d214b54bbf,昂区政府,303路,黑龙江省,齐齐哈尔市,昂昂溪区,,unknown,
baidu,70bb6a107b3ebb0f27e0a020,大连罗宾森充电站(昂昂溪区民生公交充电站),齐齐哈尔市昂昂溪区振兴路第十一中学西侧,黑龙江省,齐齐哈尔市,昂昂溪区,,unknown,
baidu,390943d80967065d10293508,昂区庆华市场,32路,黑龙江省,齐齐哈尔市,昂昂溪区,,unknown,
baidu,63a3277b10b71cd0ab0dd82f,昂区一小,36路,黑龙江省,齐齐哈尔市,昂昂溪区,,unknown,
baidu,4116efa8e110cae3d23ce3cc,昂昂溪客运站,黑龙江省齐齐哈尔市昂昂溪区新兴街道长兴街145号,黑龙江省,齐齐哈尔市,昂昂溪区,,unknown,
baidu,1ef29c9c84942a02f72310d1,嘉尚宾馆,36路,黑龙江省,齐齐哈尔市,昂昂溪区,,unknown,
baidu,22e114075efd34b4d4b74e8d,中国石油加油站(昂昂溪站),齐齐哈尔市昂昂溪区兴榆路与齐昂公路交汇处,黑龙江省,齐齐哈尔市,昂昂溪区,,unknown,
baidu,43b8f789448d47e4d13ce311,中化石油加油站(区府路站),齐齐哈尔市昂昂溪区区府路与地质西街交叉路口往西南约120米,黑龙江省,齐齐哈尔市,昂昂溪区,,unknown,
baidu,1929004af5211f56a1a934a8,宏顺嘉园-停车场,齐齐哈尔市昂昂溪区丰源路宏顺嘉园,黑龙江省,齐齐哈尔市,昂昂溪区,,unknown,
baidu,694a7856fedde86f33169b00,昂昂溪遗址博物馆,303路,黑龙江省,齐齐哈尔市,昂昂溪区,,unknown,
baidu,134047333b5cfc4a5fd4fe77,永安加气站,黑龙江省齐齐哈尔市昂昂溪区榆树屯镇溪水森林公园,黑龙江省,齐齐哈尔市,昂昂溪区,,unknown,
baidu,2e6a2ae9de0e7300c42ba1d3,第三小学,36路,黑龙江省,齐齐哈尔市,昂昂溪区,,unknown,
baidu,4890f3c2517211d0fda778d4,安泰生物,36路,黑龙江省,齐齐哈尔市,昂昂溪区,,unknown,
baidu,9ef53bdd8f47a077f503b8c5,红星村,31路;32路,黑龙江省,齐齐哈尔市,昂昂溪区,,unknown,
