source,bd_uid,name,address,province,city,area,tel,poi_type,tag
baidu,9fbfeef26463035cece4a5ad,故宫餐厅(景运门店),东华门街道景山前街4号故宫博物院内景运门南侧(近钟表馆),北京市,北京市,东城区,(010)65285179,unknown,
baidu,138d1329c51e33bf8bf15ddb,四季民福烤鸭店(故宫店),南池子大街11号,北京市,北京市,东城区,"(010)65267369,13141492392,17310759535",unknown,
baidu,6fe3804fc3e518c1bfa82254,第六季自助餐厅(王府井店),东安门大街55号王府世纪一层105-106号（王府世纪西北侧）,北京市,北京市,东城区,"(010)65241488,(010)65241499",unknown,
baidu,55dba3f924af369c4054d778,永盛斋小吃(故宫店),骑河楼大街40号,北京市,北京市,东城区,13681516914,unknown,
baidu,70bc6919d194fe1588db73b3,全福德烤鸭店(故宫店),东华门大街63号,北京市,北京市,东城区,18901198700,unknown,
baidu,0c8acea873718bcfad0457b4,故宫冰窖餐厅,北长街故宫博物院慈宁宫南侧,北京市,北京市,东城区,(010)65214285,unknown,
baidu,f5f7d37b2487fbf2b35c6aa7,小吊梨汤(南池子大街店),北京市东城区南池子大街东华门小区西侧约150米,北京市,北京市,东城区,,unknown,
baidu,772c74d16abe87ab260bd07a,满姐饺子(故宫店),北河沿大街143-1号,北京市,北京市,东城区,(010)65596567,unknown,
baidu,22f097cd808df251a2a9345b,京城九门轩烤鸭店(故宫店),东华门大街11号,北京市,北京市,东城区,17812356385,unknown,
baidu,c9922ecc3252373337b06cf0,食鼎轩茶餐厅(五四大街店),北京市五四大街46号,北京市,北京市,东城区,13161907027,unknown,
baidu,5d3c608e8f72aed6c5effbc7,鹏宏天外天烤鸭店(故宫店),北河沿大街141号,北京市,北京市,东城区,(010)65266547,unknown,
baidu,93b04af83923a4899de3216d,河沿肉饼Beijing Pie(东华门店),东华门大街60一层二层,北京市,北京市,东城区,(010)65237811,unknown,
baidu,3c021f05e5138eb18f7727e7,十一号烤鸭店(故宫店),南池子大街11号四季民福旁,北京市,北京市,东城区,13439258999,unknown,
baidu,5e271507a3d9d75bf80cad5e,巧思府,北京市东城区东华门街道智德北巷3号,北京市,北京市,东城区,,unknown,
baidu,e7e007913675434a5fd4fe19,河沿肉饼Beijing Pie(锡拉胡同店),锡拉胡同14号,北京市,北京市,东城区,(010)65283828,unknown,
baidu,02dec5dcbfaff0fb2d4733a7,紫光园(王府井店),王府井大街99号（一层底商G05）,北京市,北京市,东城区,"(010)53658058,15510622877",unknown,
baidu,b55da73deb0a21f73913fddc,四季民福烤鸭店(王府井东安门店),东安门大街53号1楼（万程华府酒店旁）,北京市,北京市,东城区,"(010)65238571,18600371386",unknown,
baidu,d7032f09ad45477ab6147f6d,紫光园(美术馆店),美术馆后街58号,北京市,北京市,东城区,13552698914,unknown,
baidu,2c0bd6c57d39d3b343ab9a10,悦宾饭馆(翠花胡同店),翠花胡同43号,北京市,北京市,东城区,(010)85117853,unknown,
baidu,21e2fe63bd9d77f7c61e515b,阿达西新疆风味餐厅(王府井店),东华门街道王府井西街1-2号（金鱼胡同地铁站C西南口步行120米）,北京市,北京市,东城区,13910773085,unknown,
baidu,90ab0025a4700ebadc1e5200,南门烤鸭店(东华门店),东华门大街56号,北京市,北京市,东城区,(010)65697281,unknown,
baidu,d1a7cfec93ff15144e5547c1,清真兰州牛肉拉面(东华门店),东华门大街55号,北京市,北京市,东城区,13521419780,unknown,
baidu,a9ceb8edf157a62d8936eefc,老北京炸酱面·渝湘美食,东华门大街81号,北京市,北京市,东城区,15901271659,unknown,
baidu,327fadb697fda800343a7143,便民主食沙县小吃(骑河楼店),骑河楼街首都医科大学附属北京妇产医院(西院区)百客雅超市,北京市,北京市,东城区,18570698969,unknown,
baidu,98e0d172923693ea250bd024,海碗居(王府井店),王府井大街255号百货大楼6层,北京市,北京市,东城区,(010)65262118,unknown,
baidu,d991e1161f90fe4c1f389434,北京王府井东华饭店,灯市口西街32号,北京市,北京市,东城区,"(010)65257531,18519753589",unknown,
baidu,a52ef8ebfb2dae591d1d1113,故宫角楼咖啡(故宫店),景山前街4号故宫博物院神武门西围房,北京市,北京市,东城区,"010-85007421,010-85007938",unknown,
baidu,e378b2761ff207084e2fdf23,小吊梨汤(王府井银泰in88店),王府井大街88号银泰in88购物中心3层,北京市,北京市,东城区,18210051934,unknown,
baidu,a950f05f7996357bf5c59cca,聚宝源(王府井店),东华门街道王府井大街253号百货大楼6层608,北京市,北京市,东城区,"(010)65060608,18311295902",unknown,
baidu,6525820538403a8515c90575,海底捞火锅(王府井银泰in88店),王府井大街88号王府井银泰in88商场3层（近王府井教堂）,北京市,北京市,东城区,"(010)59785688,(010)59785689",unknown,
baidu,2f38997f90e2b81688db7386,宫廷香酥牛肉饼(东华门店),南池子大街与东华门大街交叉口东南20米,北京市,北京市,东城区,,unknown,
baidu,ba2f40301a6e87de16c90589,老北京烤鸭,北京市东城区东华门大街东华门小区,北京市,北京市,东城区,,unknown,
baidu,95db332354f9bf14581093fd,老北京炸鸡(王府井店),北河沿大街143号,北京市,北京市,东城区,13810550729,unknown,
baidu,6ba626a2984a9f6703ec012f,婧格格·门钉肉饼(东华门店),东华门大街54号满堂烤鸭店隔壁,北京市,北京市,东城区,13439815028,unknown,
baidu,d3b8dcb310bc2fef9e95de53,御炙汇北京烤鸭(王府井店),北河沿大街143号天泽祥生活超市底商,北京市,北京市,东城区,"15010227333,15233765533",unknown,
baidu,b1a8ac31be55e7c002ff2d2b,老酱道(南池子大街店),东华门大街64号2楼,北京市,北京市,东城区,15840797379,unknown,
baidu,bff8fa7de48300b9c8213d4d,诗意栖居咖啡馆(故宫店),南池子大街15号（故宫旁）,北京市,北京市,东城区,"13810792894,18513898518",unknown,
baidu,0f5c487cb4ba104aab175a2d,长春堂顺时而饮(北大红楼店),五四大街28号,北京市,北京市,东城区,13810525420,unknown,
baidu,ea1eff18dff0da1c59bbbc4f,胡同是甜的,磁器库北巷8号,北京市,北京市,东城区,17611335997,unknown,
baidu,5c56edd672363e43a1d23021,全聚德(王府井店),北京市东城区帅府园胡同9号,北京市,北京市,东城区,"(010)65228384,(010)65253310",unknown,
baidu,8b29e9f152c4fd2ec0364494,三惜堂,富强胡同22号,北京市,北京市,东城区,,unknown,
baidu,994488b3965c9abdcb213dbd,老王府羊蝎子·铜锅涮肉(王府井店),王府井西街C4号,北京市,北京市,东城区,13661006626,unknown,
baidu,df4976a60945e92d631c67df,晶丽香榭自助餐(南京大饭店),王府井西街5号南京大饭店1楼（近百货大楼）,北京市,北京市,东城区,"(010)65262188,(010)65269388",unknown,
baidu,f009adb7b303833383a00ce5,大董烤鸭店(王府井喜悦购物中心店),王府井大街301喜悦购物中心五层,北京市,北京市,东城区,(010)65288802,unknown,
baidu,021e95926c086ebdf03cba8a,杭州小笼包(王府井店),东安门大街45号,北京市,北京市,东城区,13675797655,unknown,
baidu,eedac8d86adf0b4baecb6679,木棉花酒店-咖啡厅,北京市东城区东华门大街16号,北京市,北京市,东城区,,unknown,
baidu,17bf45c77489da165abbbcb1,沙县小吃(王府井大街店),"东安门大街45,47号,中国儿童剧场对面(近东单邮局)",北京市,北京市,东城区,15910815483,unknown,
baidu,157695272179805b430245fd,邂逅奶茶店,东华门大街56号东档口门钉肉饼,北京市,北京市,东城区,18931688348,unknown,
baidu,f0c380d36a8b89a017c8f69f,北京稻香村(王府井百货大楼店),王府井大街255号B1层,北京市,北京市,东城区,"13311206218,13911724955",unknown,
baidu,eeac7ca7738f2c305e17c343,木棉小厨(东华门大街店),北京市东城区东华门大街16号木棉花酒店1层,北京市,北京市,东城区,(010)65259988,unknown,
baidu,7388dffd491c72f2d2ff23f8,增盛魁小吃店,大佛寺东街26号(隆福医院北),北京市,北京市,东城区,"18701088902,18701695891",unknown,
baidu,ec4fbc8320b42be345e27419,北京烤鸭(南池子1号店),北京市东城区南池子大街汉庭酒店(天安门店)西北侧约60米,北京市,北京市,东城区,,unknown,
baidu,0a46dc0f1697d147316212ad,功德林素菜饭庄(前门店),前门东大街甲2号（祈年大街北口）,北京市,北京市,东城区,(010)67020867,unknown,
baidu,15e1e85ebe4a8cbb5810934f,利苑酒家(金宝店),金宝街89号金宝大厦3层,北京市,北京市,东城区,"(010)85221212,(010)85221250",unknown,
baidu,f5e3bcaef4d9c8d85f17c39b,翠明庄宾馆-西餐厅,南河沿大街1号,北京市,北京市,东城区,(010)58580909,unknown,
baidu,8eebe65ec50bac835fd4fe51,御用茶饮,北京市东城区景山前街4号故宫博物院,北京市,北京市,东城区,,unknown,
baidu,43b7e889c35a171759f6be82,麦当劳(前门西大街店),前门西大街正阳市场2号楼一层西侧部分商铺,北京市,北京市,西城区,(010)83150517,unknown,
baidu,ea31107a7bfe24cafe0eb03f,1923COFFEE,北京市东城区五四大街北沿河大街87号院,北京市,北京市,东城区,13269173533,unknown,
baidu,4577566104531adfcb213d76,王府井商业街,北京市东城区东长安街北侧,北京市,北京市,东城区,,unknown,
baidu,84c1b96b32527daef503b8ac,王府井百货,北京市东城区王府井大街255号,北京市,北京市,东城区,"(010)85260063,(010)85260315",unknown,
baidu,c4b6285a23e57865e507383e,北京王府井银泰in88,北京市东城区王府井大街88号,北京市,北京市,东城区,(010)59785114,unknown,
baidu,f2f15ffbf6666091631c674b,北京利生体育商厦,王府井大街201号,北京市,北京市,东城区,(010)65250870,unknown,
baidu,b74ba134350dd440ae080f5a,王府中环-西座,王府中环,北京市,北京市,东城区,(010)85648888,unknown,
baidu,98b0bb148ad61b8ef4eafc4c,双瑞祥食品店,北池子大街52-1号,北京市,北京市,东城区,13717531333,unknown,
baidu,e7b0810f074d26abca1b954f,北京市百货大楼北馆-超市(王府井百货店),东华门街道王府井大街255号王府井百货大楼,北京市,北京市,东城区,,unknown,
baidu,1869ce6e245c5eff8505bfd1,百客雅超市(北池子店),骑河楼大街19号,北京市,北京市,东城区,18952299672,unknown,
baidu,e333870e47bbc0f6adb22a80,天泽祥生活超市(北河沿店),北河沿大街143号楼一层,北京市,北京市,东城区,,unknown,
baidu,eb1cb5e739136ea76cc02c1f,华美天润超市(南沿河大街店),南河沿大街15号,北京市,北京市,东城区,13522699952,unknown,
baidu,c0679b2b245f00fe58f6beeb,珠宝馆,北京市东城区景山前街4号故宫博物院宁寿宫内珍宝馆,北京市,北京市,东城区,,unknown,
baidu,da2eafdf2a03d017246e9849,故宫文化产品专卖店,故宫博物馆御花园西侧,北京市,北京市,东城区,,unknown,
baidu,ce765595b875d2bc774ff1b5,好乐家社区生鲜超市,骑河楼街5号,北京市,北京市,东城区,17735974957,unknown,
baidu,41689c6147604b1ff6c59c86,北京特产超市,北京市东城区东华门大街东华门小区西北侧约30米,北京市,北京市,东城区,,unknown,
baidu,0a46dc0f1198d047316212b4,北京王府井阳光菜市场,东安大街53号锡拉胡同14号,北京市,北京市,东城区,,unknown,
baidu,f2d88646e3b7dd33c6effb03,老街坊综合超市,北京市东城区灯市口西街15号,北京市,北京市,东城区,13264306072,unknown,
baidu,852e835e9edef1d2b05c6a6b,北京太华轩(南池子大街店),南池子大街33-1号,北京市,北京市,东城区,,unknown,
baidu,f31336c7d5adf134715e800c,乐高(王府井店),金鱼胡同银泰一层,北京市,北京市,东城区,(010)59785220,unknown,
baidu,79cceb3678735b901e580048,MUJI无印良品(王府井总店),王府井大街北京市百货大楼北馆3层251-253号,北京市,北京市,东城区,(010)65282148,unknown,
baidu,e1b64e44c3c07963f90cad2e,故宫淘宝体验馆,神武门内西侧厢房,北京市,北京市,东城区,,unknown,
baidu,21a9ea0b708874c72dfaa7b9,国营商店,北京市东城区东华门大街东华门小区,北京市,北京市,东城区,,unknown,
baidu,1c64a58de72cb126871541e6,文玉商店,北京市东城区南池子大街东华门小区西侧约150米,北京市,北京市,东城区,,unknown,
baidu,4fe3e688516e1bb702897200,珍宝馆-小卖铺,北京市东城区景山前街4号故宫博物院宁寿宫内珍宝馆,北京市,北京市,东城区,,unknown,
baidu,1ec90ed524ac60ef441a3292,奔富葡萄酒(骑河楼店),北京市东城区骑河楼大街5号楼一层北侧,北京市,北京市,东城区,,unknown,
baidu,212c0793ec228eba8bb988ca,北京特产超市(沙滩后街),北京市东城区沙滩北街甲-2号院西南侧,北京市,北京市,东城区,13521651245,unknown,
baidu,c14c506b5712037cd72ce2ad,宏伟副食店(富强胡同店),富强胡同18号,北京市,北京市,东城区,15810432338,unknown,
baidu,0f2e1edc6d2b232b3586f4c5,富灯烟酒超市(灯市口西街店),灯市口西街11号（老舍纪念馆对面）,北京市,北京市,东城区,13552024008,unknown,
baidu,6d90148e0742c355a10464b6,星海钢琴商城王府井店,北京市东城区王府井西街1-2号,北京市,北京市,东城区,"01065135229,01088865240",unknown,
baidu,c33ad8328ba1e4ed4307c1a2,紫珍堂老物件商贸行,北京市东城区灯市口西街小区,北京市,北京市,东城区,13146279967,unknown,
baidu,c7ad7d7a6d6aa0865810930b,烟酒超市,东华门街道北河沿大街97-2号(近故宫博物院),北京市,北京市,东城区,,unknown,
baidu,97540795dfb1b7e5931fc9f5,东华门器物部,北京东城区东华门街道故宫博物院,北京市,北京市,东城区,,unknown,
baidu,efd17a0e08aefba8b23c813b,中国网特产中国,北京市东城区东四西大街425室,北京市,北京市,东城区,,unknown,
baidu,e5e538aa2f8c157f57bffff1,大益茶(故宫店),北池子大街72号(近故宫东门),北京市,北京市,东城区,4006187572,unknown,
baidu,b6caf62209794e4e6849f338,玉石馆,北京市东城区景山前街4号故宫博物院宁寿宫珍宝馆内,北京市,北京市,东城区,,unknown,
baidu,ade4176ceac677c38c1a8907,慕佳人汉服清宫服体验馆(故宫店),东华门大街7号,北京市,北京市,东城区,13126807059,unknown,
baidu,5e53af1a01b4695e4151c0c0,GIANT捷安特(北河沿专卖店),骑河楼街5-8号骑河楼大街小区5号楼底商,北京市,北京市,东城区,13263320276,unknown,
baidu,f56ed6b09f0d478eb04c4995,老北京艺术品,东华门大街57号(金鱼胡同地铁站C西南口步行480米),北京市,北京市,东城区,,unknown,
baidu,2b0e93015a3d0b2db34c4936,五金建材装修,骑河楼街5号楼西南角底商,北京市,北京市,东城区,13716266678,unknown,
baidu,ad127a3846ad0adff82213c9,故宫邮局,景山前街4号故宫博物院神武门内西侧厢房,北京市,北京市,东城区,,unknown,
baidu,8084c89e6fe477499b68b418,ARC'TERYX始祖鸟(北京王府中环店),王府井大街269号1层114A商铺,北京市,北京市,东城区,,unknown,
baidu,87248d96c5c766aa2806ce1d,涵芬楼书店,北京市东城区东华门街道王府井大街36号,北京市,北京市,东城区,"(010)65219278,(010)65596521",unknown,
baidu,67e477c8e935983ff3193701,新世纪教育书店(骑河楼街店),北京市东城区骑河楼街北京市第六十五中学南侧,北京市,北京市,东城区,,unknown,
baidu,7ae155021483332ad518b7b8,jELLYCAT(王府井百货店),王府井大街255号北京市百货大楼南馆Hamleys1层,北京市,北京市,东城区,,unknown,
baidu,1f6e7c652104d8a83913fd9d,胜铭烟酒行(骑河楼店),骑河楼大街5号楼一层北侧,北京市,北京市,东城区,,unknown,
baidu,b26c882b59068cba84154182,故宫书店,北京市东城区景山前街4号故宫博物院摛藻堂内,北京市,北京市,东城区,15600103757,unknown,
baidu,abf806cb99d7b55da1d230e2,Apple 王府井,北京市东城区王府井大街138号北京apm,北京市,北京市,东城区,4006171205,unknown,
baidu,19c2452d867e873e4bcc4acc,刘姐服装鞋帽店,北京市东城区智德前巷东华门小区北侧约40米,北京市,北京市,东城区,,unknown,
baidu,63dc1d3dd792efc5dc1e5260,福顺祥老北京布鞋帽子直营店,北京市东城区东华门大街翠明庄宾馆北侧约30米,北京市,北京市,东城区,"(010)65251086,18813132087",unknown,
baidu,45091931b24ac21f5a3ac804,玉器馆,北京市东城区景山前街4号故宫博物院内,北京市,北京市,东城区,4009501925,unknown,
baidu,254b981e8bf88c964354d746,老北京民间工艺(南池子大街店),南池子大街63号,北京市,北京市,东城区,,unknown,
baidu,248f560b6a103df401294f1f,檀居缘黄花梨紫檀家具展示厅,北京市东城区东黄城根南街小区(北区)北侧,北京市,北京市,东城区,,unknown,
baidu,5ce2637d7161092fae31e570,公共厕所,北京市智德社区北侧10米,北京市,北京市,东城区,,unknown,
baidu,2af18adee0843f3fd13ce3df,北京盛元昊图文设计中心,北京市东城区骑河楼大街38号,北京市,北京市,东城区,(010)65247070,unknown,
baidu,04e65fc9d3c9274131870a92,珍宝馆-售票处,北京市东城区景山前街4号故宫博物院内,北京市,北京市,东城区,,unknown,
baidu,fa3f87290818a2f2e115f9fa,公共厕所,骑河楼44号旁,北京市,北京市,东城区,,unknown,
baidu,a3ffa7c4c1a2dec129d7ab21,公厕,北京市东城区故宫东门外景山前街4号故宫博物院内,北京市,北京市,东城区,,unknown,
baidu,0f61fbd0ce4b8daad13ce39b,女厕,北京市东城区东华门街道骑河楼街44号,北京市,北京市,东城区,,unknown,
baidu,01f558283251fafcf6c59cb4,公共厕所(神武门外),景山前街与景山东街交叉口西220米,北京市,北京市,东城区,,unknown,
baidu,521ff6ed0b8696f69e82ea5a,宫事国风体验馆(故宫店),北京市东城区东华门大街79号,北京市,北京市,东城区,15611679632,unknown,
baidu,e07e8ed9a89e79a72eb96d53,宫廷内外古装体验馆,北池子大街114号,北京市,北京市,东城区,13366877766,unknown,
baidu,fd12b32b2c4f6997f8221390,九花亭汉服清宫服体验(故宫店),东华门大街77号,北京市,北京市,东城区,18515480211,unknown,
baidu,925818abf9f39174fbf0cb70,公厕,北京市东城区景山前街4号故宫博物院内,北京市,北京市,东城区,,unknown,
baidu,5d92952f2cf3c4b816948e59,公共厕所,万庆巷11号旁,北京市,北京市,东城区,,unknown,
baidu,b55acbbc500f8f00ca1b95bf,钟表馆-售票处,故宫博物馆钟表馆西侧门口处,北京市,北京市,东城区,,unknown,
baidu,5fac91430b7486c07f29bde1,唐韵古装(故宫午门店),东华门大街51号（唐韵古装店）,北京市,北京市,东城区,13521866824,unknown,
baidu,587d2d080a3554dcc61e519b,公共厕所,北京市东皇城根74号楼对面,北京市,北京市,东城区,,unknown,
baidu,94322484a929ddc8cf06a4b9,御照古装摄影(东华门大街小区店),东华门大街20号4栋1层4-2,北京市,北京市,东城区,13241666538,unknown,
baidu,5ece0a5ead10905231169bba,公共厕所(御花园东),北京市东城区景山前街故宫博物院,北京市,北京市,东城区,,unknown,
baidu,1d4a8c0fad303375e60738e5,公厕,北京市东城区故宫博物院,北京市,北京市,东城区,,unknown,
baidu,67a0513917a55c5e7bf796bf,公厕,北京市东城区景山前街4号故宫博物院内,北京市,北京市,东城区,,unknown,
baidu,778ae3203a000582b020a847,公共厕所,北京市东城区康建胡同1号,北京市,北京市,东城区,,unknown,
baidu,4449dcfd5bdea3b2bb17e71b,公共厕所,北河沿大街翠明庄宾馆北侧约40米,北京市,北京市,东城区,,unknown,
baidu,09d5e4266d8b7599f219374e,宫内汉服清宫服体验旅拍摄影馆(故宫店),南池子大街17号,北京市,北京市,东城区,18701664909,unknown,
baidu,b251c4981ec64dfe8c1a89be,公厕,北京市东城区景山前街4号故宫博物院内,北京市,北京市,东城区,,unknown,
baidu,fc75d872fb353b4522f01720,御皇宫·清宫汉服古装旅拍摄影(故宫东门店),东华门大街35号,北京市,北京市,东城区,13693692016,unknown,
baidu,7ec5c355d6f65cb1a2a9345a,公共厕所,北京市东城区南池子39号旁,北京市,北京市,东城区,,unknown,
baidu,cd9d05dd517924c884420eb5,公共厕所,锡拉胡同21号院(最高人民检察院东南),北京市,北京市,东城区,,unknown,
baidu,594c6e260037889732870af9,公厕,北京市东城区景山前街4号故宫博物院御花园内,北京市,北京市,东城区,,unknown,
baidu,5abffc7ac71f6786f603b867,长安澜,北京市东城区王府井大街王府世纪三层308号,北京市,北京市,东城区,"18518506623,18518506685",unknown,
baidu,e5eb6a350b874ae5b11e3682,九思古风摄影(王府世纪店),东安门大街王府世纪负1层B116-2号,北京市,北京市,东城区,17600899909,unknown,
baidu,ec082b03304c63f6b8bd630c,公厕,北京市东城区景山前街4号故宫博物院内,北京市,北京市,东城区,,unknown,
baidu,a45e27023a7592e496ca0727,北京美云赋古风旅拍,东华门大街王府世纪大厦3层307B,北京市,北京市,东城区,18911543070,unknown,
baidu,58756d6089f42ed71e1d118d,纳兰古风摄影,东安门外大街王府世纪大厦B117-3,北京市,北京市,东城区,13552612666,unknown,
baidu,5a378e1034d60903b24c49c7,初茉·汉服清宫服旅拍摄影古装体验店,东安门大街55号王府世纪四层425,北京市,北京市,东城区,,unknown,
baidu,112e968754de05e5b1077dda,故宫博物院-母婴室,北京市东城区景山前街4号故宫博物院,北京市,北京市,东城区,,unknown,
baidu,cdef4edfbe082a4e28d7ab2e,锡拉胡同9号旁公共厕所,北京市东城区东黄城根南街锡拉胡同21号院北门,北京市,北京市,东城区,,unknown,
baidu,adc683f21eeff8d2eddfcac4,三瑟锦古装摄影·故宫旅拍,东安门大街55号王府世纪3层312,北京市,北京市,东城区,18510071464,unknown,
baidu,6485c907d8a92bcdd8eced22,翠明庄宾馆-洗手间,"南河沿大街1号(毗邻邻王府井,故宫)翠明庄宾馆",北京市,北京市,东城区,,unknown,
baidu,110bd7a4f1847625fe0eb02c,公共厕所,贵宾楼饭店斜对面,北京市,北京市,东城区,,unknown,
baidu,64da5349129734440bf5ebc7,第三卫生间,北京市东城区北河沿大街翠明庄宾馆北侧约30米,北京市,北京市,东城区,,unknown,
baidu,2a6fa2411d0fb516b2077d3c,故宫博物院-观众服务中心,北京市东城区景山前街4号故宫博物院内,北京市,北京市,东城区,,unknown,
baidu,519bd006954b2924a8175a9d,天真蓝照相馆(北京王府井银泰店),王府井大街88号银泰in88二层L204,北京市,北京市,东城区,4006158686,unknown,
baidu,4d7cc619150a5be25d17c3b4,景山公园-东门售票处,景山西街44号(故宫后门对面)景山公园内,北京市,北京市,西城区,,unknown,
baidu,326b013ff8a2364ac16c140e,公共厕所,北京市东城区王府井大街138号王府井百货B1,北京市,北京市,东城区,,unknown,
baidu,69886b72a850096b5d17c35a,海马体照相馆(北京王府中環店),王府井大街269号王府中環西座2楼14号,北京市,北京市,东城区,4000685666,unknown,
baidu,7bc462c8e8d60479c07da27e,北京人艺票务中心,北京市东城区王府井大街22号,北京市,北京市,东城区,(010)65249847,unknown,
baidu,b56527d6c2405b58f8221381,北京木棉花酒店-洗手间,东华门大街16号木棉花酒店,北京市,北京市,东城区,,unknown,
baidu,c0217438d9a926532cb96d80,故宫博物院-影像馆,北京市东城区景山前街4号故宫博物院神武门内东侧长房10-12间用房,北京市,北京市,东城区,,unknown,
baidu,178bd0f078b0a748b5f42f97,中国照相馆(王府井店),王府井大街180号,北京市,北京市,东城区,(010)65120623,unknown,
baidu,f41ab3403a13997fc8291518,公共厕所,南京大饭店(百货大楼西北),北京市,北京市,东城区,,unknown,
baidu,e93761f6a69d9672223bf270,公共厕所,北京市东城区飞龙桥胡同南池子招待所西南侧约200米,北京市,北京市,东城区,,unknown,
baidu,b07fc80a80a946799c09f784,广告打印照相复印标书,北京市东城区甘雨胡同53号万博写字楼1层106室,北京市,北京市,东城区,01065599612,unknown,
baidu,67639e9f876acb268c1a895d,景山公园-售票处,北京市西城区景山西街44号,北京市,北京市,西城区,,unknown,
baidu,cbea5ae7d8551ff2260bd0f5,公共厕所,北京市东城区西长安街太庙,北京市,北京市,东城区,,unknown,
baidu,f3a3d39c2ef6e0b721f017d9,怪兽充电(老北京炸酱面家常菜),北京市东城区南池子大街75号劳动人民文化宫东门,北京市,北京市,东城区,4006703303,unknown,
baidu,d000f8ab4524af3fad045786,怪兽充电(河沿肉饼东华门店),北京市东城区东华门大街60号,北京市,北京市,东城区,4006703303,unknown,
baidu,0c1a09339ea975734d5547dc,链家(灯市口新店),北京市东城区灯市口西街34、36、38号临街商业楼5幢1层1号铺,北京市,北京市,东城区,10109666,unknown,
baidu,d091a33a13317cfffbdc8533,摄影妆造租赁,北京市东城区东华门大街东华门小区,北京市,北京市,东城区,,unknown,
baidu,f8735b6de65c9312b2077d5a,故宫博物院-存包处,北京市东城区景山前街4号故宫博物院内,北京市,北京市,东城区,,unknown,
baidu,2e351565102c8d7d95f08c2f,一立方迷你仓小仓库(王府井店),北京市东城区王府井大街99号世纪大厦A座B3,北京市,北京市,东城区,13501150456,unknown,
baidu,936e079e777d68579403193a,木棉花酒店(华京大厦店)-大堂,北京市东城区东华门大街16号,北京市,北京市,东城区,,unknown,
baidu,879d04ca9b9a019bfa0cad15,一立方行李寄存,北京市东城区王府井大街99号世纪大厦A座B3,北京市,北京市,东城区,(010)65220500,unknown,
baidu,a2fe0e02795c2f8c6e20b914,广诚表行(北河沿专卖店),北京市东城区北河沿大街143号308室,北京市,北京市,东城区,,unknown,
baidu,873580a6bd5a99b501897224,小哥聚力岗小哥加油站,北京市东城区东安门大街55号一层,北京市,北京市,东城区,,unknown,
baidu,dd3320fa37e78240ca09f090,Oasis Beauty水磨坊科技美肤中心(王府井店),王府井大街138号新东安写字楼第二座803-805,北京市,北京市,东城区,(010)65228699,unknown,
baidu,fb4ea78644a910c443ab9ac9,贝黎诗SPA(东方广场店),东长安街1号东方广场东方新天地P-W-APT-05号铺（东方君悦酒店西）,北京市,北京市,东城区,(010)85186999,unknown,
baidu,3f8440e8dbb168bb9ee32111,小E古法棉线修眉·美甲美睫·半永久纹绣(王府井银泰in88店),王府井大街88号银泰in88商场南门扶梯下B1层即到,北京市,北京市,东城区,13811349067,unknown,
baidu,ffac21c1faa23f2e704b87dc,水仙之美·精准护肤(东方广场店),长安街1号东方新天地商场平台层东方君悦酒店西100米（尊萃豪庭公寓旁）,北京市,北京市,东城区,,unknown,
baidu,edb7e7fa4bedc126bb17e733,思妍丽(东方广场店),东长安街1号东方广场汇贤豪庭公寓西侧1楼,北京市,北京市,东城区,"(010)85189661,(010)85189662",unknown,
baidu,c21db9e5cd16dc9a00ff2d0e,美丽田园(东方广场店),东长安街1号东方新天地LG层5区BB61&BB61A,北京市,北京市,东城区,,unknown,
baidu,00f1c7fbbd43c706c056acfe,四联美发(王府井店),王府井大街188号,北京市,北京市,东城区,,unknown,
baidu,a670da77677ab252fb2213ce,tenplus时装美甲美睫(王府中环店),王府井大街269号王府中环西座三层扶梯309b（thewoodscafe旁）,北京市,北京市,东城区,15600251792,unknown,
baidu,7ec0efa803d87f68a8f0cd63,木北造型(灯市口店),灯市口大街72号,北京市,北京市,东城区,4008845966,unknown,
baidu,3d60b0f1cca0b69d0189725b,F'ANCNX skin·肌肤管理(王府井店),长安街1号北京东方广场东方新天地商场W1座地铁层DA33-35号喜茶旁,北京市,北京市,东城区,,unknown,
baidu,04bd6e8445b09711cae33c0a,迪薇尔·Skin·SPA(东方广场店),东方新天地LG负一层第三区CC32（大食代旁边）,北京市,北京市,东城区,,unknown,
baidu,b91ee6944ad22787eee4a522,爱睫物语(王府井·apm店),王府井大街138号apm地下一层B131号,北京市,北京市,东城区,"(010)53357322,13269883168",unknown,
baidu,1694a99e8da36f039e82ea99,DL BARBERSHOP男士理发店(东四店),朝阳门内大街288号院一层（广发银行东侧）,北京市,北京市,东城区,13146553380,unknown,
baidu,72aa25130128005e077ce8db,金板寸,景山街道地安门东大街88号(地安门十字路口东南角),北京市,北京市,东城区,13641363938,unknown,
baidu,253cbf0fcd3940472efaa7d7,Jasmine Queen茉莉皇后美甲·美睫·美肤(北京apm店),王府井大街138号北京apm4层421-422号（瑞幸咖啡旁）,北京市,北京市,东城区,(010)65268502,unknown,
baidu,15a93810b677cea415c8f6ee,四联美发(东四店),景山街道东四北大街531号(近隆福寺步行街口肯德基),北京市,北京市,东城区,,unknown,
baidu,d219bb1dc5eab492f40e77e9,TONI&GUY(东方广场店),东长安街1号东方广场平台层汇贤豪庭一层EAPT-06号商铺,北京市,北京市,东城区,,unknown,
baidu,405704eee5d49c333b221c09,Mr·JUDY洗个头发(东方广场店),东长安街1号东方广场1层W4尊萃豪庭公寓底商,北京市,北京市,东城区,,unknown,
baidu,e44d702be339f55fa7c75615,缤纷美典美容美发(骑河楼店),骑河楼大街16-1号,北京市,北京市,东城区,13146860521,unknown,
baidu,c9cc819106147f85e5e96595,丽人理发店,沙滩后街47-2号,北京市,北京市,东城区,18393370082,unknown,
baidu,fe2198f7706929c21c58004d,日置名媛(东方新天地店),东长安街1号东方广场平台层PW2座01-05单元,北京市,北京市,东城区,,unknown,
baidu,6e2d690148430a10ca1b954e,富兰便民理发店,富强胡同与大草厂胡同交叉口北80米,北京市,北京市,东城区,15810942756,unknown,
baidu,30c1e620e69f60c56f476019,欧亚美创(金宝汇店),金宝街88号金宝汇购中心金宝汇购物中心2期F4层,北京市,北京市,东城区,,unknown,
baidu,b98aeaa5faf37d70ca09f0bc,可可公主主题美甲馆(王府井店),王府井喜悦购物中心3层031号商铺（止痒商店和保利剧场旁边）,北京市,北京市,东城区,17180103916,unknown,
baidu,e75f06793e69f5898bb9882a,豪斯塔美发连锁(王府井店),王府井大街200号工美大厦东来顺旁,北京市,北京市,东城区,,unknown,
baidu,f633606af87419570b69d914,艺人造型(美术馆后街店),景山街道美术馆后街63-2号（近世纪家家福超市）,北京市,北京市,东城区,13146624753,unknown,
baidu,217be67ec4f1e823970319f3,丝域养发馆(东方广场店),东长安街1号东方广场东方新天地负1楼1区FF08A（一风堂旁）,北京市,北京市,东城区,,unknown,
baidu,182f2448b5e63a746849f3c3,华诚佳理发店,东四南大街灯草胡同66号(东四地铁站C东南口步行380米),北京市,北京市,东城区,"13241926959,18010131956",unknown,
baidu,9cc1ffee4ded6b904d776ea6,MyStudio形象管理中心,王府井金鱼胡同3号北京诺富特和平宾馆2楼,北京市,北京市,东城区,"(010)65889920,13301297413",unknown,
baidu,b698f5256dfca6b03fe23196,至ACME STUDIOS(金宝汇店),金宝街88号金宝汇购物中心四层418-419,北京市,北京市,东城区,,unknown,
baidu,8d321fefa6226cac1b11d5b1,阿郎志海美容美发,美术馆后街63号以北,北京市,北京市,东城区,(010)64064886,unknown,
baidu,18eb1f7090d47ee5d0ff2331,爱美之约美甲美睫(东四二分店),东四北大街389号,北京市,北京市,东城区,13683086255,unknown,
baidu,943ac31203508d227bf7969a,便民理发(新开路店),北京市东城区新开路胡同92号,北京市,北京市,东城区,13718119091,unknown,
baidu,fe5def887786aaa22e473319,艺贝image日式中短发设计(东四店),东四北大街497号,北京市,北京市,东城区,,unknown,
baidu,7183cc3afed1d1eb8e7727a2,L'atelier莱特发艺(东四店),景山街道东四北大街259号(近张自忠地铁站),北京市,北京市,东城区,17310179920,unknown,
baidu,2c6f9b3e1399dd47c27da297,便民理发部(灯市口店),北京市东城区灯市口大街10-4号,北京市,北京市,东城区,13811569551,unknown,
baidu,907df899b30d6d769ee321e8,斯梦美发,美术馆东街11-1号(中国美术馆地铁站B东北口步行190米),北京市,北京市,东城区,15001029789,unknown,
baidu,c3b187b7bc1c70c63f9a5e3d,FaceQ科技美肌研肤中心(东单店),卓著中心,北京市,北京市,东城区,"15810526289,17701262835",unknown,
baidu,89b6c8a5e3a3d3a5c72ba196,研塑·嫣润堂美肤美体,北京市东城区王府井大街东方广场,北京市,北京市,东城区,,unknown,
baidu,b2d14d390a663982b9df8f9e,萌果妈妈护肤造型(西什库店),西什库大街31号院14号楼,北京市,北京市,西城区,(010)66067291,unknown,
baidu,f631dd4cf043762b51e5c55e,壹品白鹤·美甲美睫(金宝汇店),金宝街金宝汇购物中心一期4层405-406B号,北京市,北京市,东城区,13126587865,unknown,
baidu,7e090cb7a0ba8e58fb2d6181,东方唯尔美发造型(前门店),金庄路西荣阁A座1层,北京市,北京市,东城区,,unknown,
baidu,7e283c28a5cc4a34ff0eb03d,P.STYLE 派斯造型(金宝汇店),金宝街88号金宝汇购物中心一期4层408室,北京市,北京市,东城区,(010)85287399,unknown,
baidu,11f1173f9ee9703d40ab9ac5,F P梵珀巴黎轻奢美发沙龙(全国总店),东方新天地平台层PW-APT03（君悦大酒店平台层西20米）,北京市,北京市,东城区,,unknown,
baidu,6740ecc120c63bef1811d5d1,GDCB BARBERSHOP男士理发店,钱粮胡同17号base佰舍隆福寺服务式公寓,北京市,北京市,东城区,18500297020,unknown,
baidu,58e15041b8d82abb2d4733ca,美约美尚护肤造型,西什库大街26号院10号楼1层(26-12)131,北京市,北京市,西城区,(010)66020791,unknown,
baidu,4b88c15c07f19ccec8213d23,Mr·JUDY洗个头发(民生金融中心店),建国门内大街28号民生金融中心地下一层L25,北京市,北京市,东城区,13683218409,unknown,
baidu,1df0a8858d28bba9adcb6606,爱美之约美甲美睫(隆福寺店),隆福寺街19号,北京市,北京市,东城区,13683086255,unknown,
baidu,3c8b6cc6397440101e580089,MIRI美甲小舍,朝阳门内南小街93号（裕德食府，滨海明珠宾馆对面）,北京市,北京市,东城区,"13601346558,18301236967",unknown,
baidu,0b4c4ba0d2d90c1b626858d2,木北造型(东四店),东四北大街228号,北京市,北京市,东城区,(010)64031458,unknown,
baidu,71a396adbc7e8f6403ff2d75,青春彩云美发中心,北京市东城区东板桥街32号,北京市,北京市,东城区,13120027677,unknown,
baidu,093c8780e486574832870a34,发源丝艺专业美发,东街25号兆军盛菜市场2楼,北京市,北京市,东城区,13693517668,unknown,
baidu,31f9505b9799410f0f0e6b13,诗雅阁清宫服汉服旅拍摄影(故宫东华门店),东华门大街75号,北京市,北京市,东城区,13911667239,unknown,
baidu,cfbdaf9138d1d368ae080fbd,兰亭序清宫汉服古装体验馆(故宫店),东华门大街31号,北京市,北京市,东城区,"15711331262,15811319049",unknown,
baidu,a9fa5f21b2029c0e0a5cb3c7,素人手工制作(金鱼胡同店),金鱼胡同3号那家花园（王府饭店对面）,北京市,北京市,东城区,,unknown,
baidu,06d2dffda107b0ef89f15db6,故宫博物院,北京市东城区景山前街4号,北京市,北京市,东城区,4009501925,unknown,
baidu,c9b5fb91d49345bc5d0d0262,天安门广场,北京市东城区东长安街,北京市,北京市,东城区,(010)63095745,unknown,
baidu,03879b1eed1b399ed6b74e51,紫禁城角楼,北京市东城区景山前街4号北京故宫博物院内,北京市,北京市,东城区,"(010)85007421,(010)85007938",unknown,
baidu,803708f18195747901897240,古华轩,北京市东城区景山前街4号故宫博物院宁寿宫花园内,北京市,北京市,东城区,,unknown,
baidu,d6df91c1b141f36af7b916d2,中国美术馆,北京市东城区五四大街1号,北京市,北京市,东城区,(010)64011816,unknown,
baidu,4b622bba5f9b4d2781a12e0a,景山公园,北京市西城区景山西街44号,北京市,北京市,西城区,(010)64038098,unknown,
baidu,aa8f668c3a3e945e4007c117,东华门城楼,北京市东城区故宫东门外,北京市,北京市,东城区,,unknown,
baidu,65e1ee886c885190f60e77ff,天安门,北京市东城区长安街,北京市,北京市,东城区,010-86409660,unknown,
baidu,db1f39d42752aa6ff5c59cd1,中国国家博物馆,北京市东城区东长安街16号,北京市,北京市,东城区,(010)65116400,unknown,
baidu,fd0d7408a42df6a7882fb593,九龙壁,北京市东城区景山前街4号故宫博物院宁寿宫内,北京市,北京市,东城区,,unknown,
baidu,49d959381b59a043c61e5102,北海公园,北京市西城区文津街1号,北京市,北京市,西城区,(010)64037972,unknown,
baidu,f9c4719c7fc4498d75e5b634,珍宝馆,北京市东城区景山前街4号故宫博物院宁寿宫内,北京市,北京市,东城区,"(010)85007421,(010)85007938",unknown,
baidu,161e24bd7fcc7425f8221307,斋宫,北京市东城区景山前街4号故宫博物院内,北京市,北京市,东城区,,unknown,
baidu,14076deea86d96f402294f7f,永和门,北京市东城区景山前街4号故宫博物院永和宫内,北京市,北京市,东城区,,unknown,
baidu,cc0849a0b9a8e150940319d2,北大红楼,北京市东城区五四大街29号,北京市,北京市,东城区,(010)52208928,unknown,
baidu,09588d88e3dfc45d018972f6,协和门,北京市东城区景山前街4号故宫博物院内,北京市,北京市,东城区,,unknown,
baidu,3810c879129c208a9c09f706,永和宫,北京市东城区景山前街4号故宫博物院,北京市,北京市,东城区,,unknown,
baidu,e85e2527153d842d94f08cb8,午门,北京市东城区景山前街4号,北京市,北京市,东城区,4009501925,unknown,
baidu,9650da9e8e88aa222cb17ee1,南池子美术馆,北京市东城区普渡寺西巷21号,北京市,北京市,东城区,(010)65281891,unknown,
baidu,868ed5fe77eebd8d0f0e6b0e,故宫博物院-军机处,北京市东城区景山前街4号故宫博物院内,北京市,北京市,东城区,,unknown,
baidu,79ab5289361004e59ff7798e,景运门,北京市东城区景山前街4号故宫博物院内,北京市,北京市,东城区,(010)85007422,unknown,
baidu,e2c734e489d8d15d15a190d1,中山公园,北京市东城区中华路4号,北京市,北京市,东城区,(010)66055431,unknown,
baidu,850815e1f8339b9b43e19274,延禧宫,北京市东城区景山前街4号故宫博物院(北门)附近,北京市,北京市,东城区,"(010)85007421,(010)85007938",unknown,
baidu,811084a37a30dd1a4107c107,神武门,北京市东城区景山前街4号,北京市,北京市,东城区,,unknown,
baidu,19152aa5095799d5734b879f,钟表馆,北京市东城区景山前街4号故宫博物院内,北京市,北京市,东城区,"(010)85007421,(010)85007938",unknown,
baidu,5e2b55bc5cf8044f4afc8d5a,珍妃井,北京市东城区景山前街4号故宫博物院宁寿宫内,北京市,北京市,东城区,,unknown,
baidu,4c278aeba5c53fe242d63e2e,陈独秀旧居,北池子大街箭杆胡同20号,北京市,北京市,东城区,(010)65289569,unknown,
baidu,bddea881ff6b09b3902ca337,畅音阁,北京市东城区景山前街4号故宫博物院宁寿宫内,北京市,北京市,东城区,,unknown,
baidu,bb3fd06fc7b47fba86420eac,南锣鼓巷,北京市东城区南锣鼓巷胡同,北京市,北京市,东城区,,unknown,
baidu,e3a031608a722286b2077dfe,乾清宫,北京市东城区景山前街4号故宫博物院,北京市,北京市,东城区,"(010)85007421,(010)85007938",unknown,
baidu,bc2190346d9566252806cec6,史家胡同博物馆,北京市东城区史家胡同24号,北京市,北京市,东城区,(010)85175790,unknown,
baidu,4ae2adcf574bcd2b38221c66,天安门广场-国旗,北京市东城区景山前街4号天安门广场内,北京市,北京市,东城区,,unknown,
baidu,69d6bc5b6f6c5163d92f2882,太和殿,北京市东城区景山前街4号故宫博物院内,北京市,北京市,东城区,"(010)85007421,(010)85007938",unknown,
baidu,982ae45c9aa954a905fef51d,日精门,北京市东城区景山前街4号故宫博物院内,北京市,北京市,东城区,,unknown,
baidu,a7e11ff29d1ac95879dbd26c,中和殿,北京市东城区景山前街4号故宫博物院内,北京市,北京市,东城区,"(010)85007421,(010)85007938",unknown,
baidu,6a653558bf22ad3d4151c0fd,北京火德真君庙,北京市西城区地安门外大街77号,北京市,北京市,西城区,(010)64008882,unknown,
baidu,2527be1ea885d6b34afc8d7b,符望阁,北京市东城区故宫东门外故宫博物院,北京市,北京市,东城区,,unknown,
baidu,010beec53657f87e902ca335,宁寿宫-花园,北京市东城区景山前街4号故宫博物院宁寿宫内,北京市,北京市,东城区,,unknown,
baidu,7999ddc316df0a39be484296,皇极殿,北京市东城区景山前街4号故宫博物院宁寿宫内,北京市,北京市,东城区,"(010)85007422,4009501925",unknown,
baidu,2f9943a97a14162745572647,宁寿宫,北京市东城区景山前街4号故宫博物院内,北京市,北京市,东城区,,unknown,
baidu,c7557c304b75a0b66e20b9cb,颐和轩,北京市东城区故宫东门外景山前街4号故宫博物院内珍宝馆,北京市,北京市,东城区,,unknown,
baidu,dfe7d4e88ccc3f7f4e3a5974,前门,北京市东城区前门大街,北京市,北京市,东城区,,unknown,
baidu,7fd723116d74bb9f5cbe867e,斋宫门,北京市东城区景山前街4号,北京市,北京市,东城区,,unknown,
baidu,295928b2b25191a0c2f1cf2b,石鼓馆,北京市东城区景山前街4号故宫博物院珍宝馆内,北京市,北京市,东城区,,unknown,
baidu,efaaa094c231eeda1b94c614,乐寿堂,北京市东城区景山前街4号故宫博物院宁寿宫内,北京市,北京市,东城区,(010)85007421,unknown,
baidu,f04eb131e954c36e9122e073,后右门,北京市东城区景山前街4号故宫博物院内,北京市,北京市,东城区,,unknown,
baidu,161a0ed2f67d79505cd4fe78,左翼门,北京市东城区景山前街4号故宫博物院内,北京市,北京市,东城区,,unknown,
baidu,556109b14b0ed850c27da298,文华殿,北京市东城区景山前街4号故宫博物院内,北京市,北京市,东城区,,unknown,
baidu,34e48508048a56e2d8d8917a,倦勤斋,北京市东城区景山东街21号,北京市,北京市,东城区,,unknown,
baidu,569206435cf6cec4fbdc8597,日晷,北京市东城区景山前街4号故宫博物院太和殿内,北京市,北京市,东城区,(010)85007938,unknown,
baidu,c5a98d42b84159a16fa3ccfb,钟粹宫,北京市东城区景山前街4号故宫博物院内,北京市,北京市,东城区,,unknown,
baidu,475d99bf0118a2a12811d177,乾隆花园,北京市东城区景山前街4号故宫博物院宁寿宫内,北京市,北京市,东城区,(010)85007938,unknown,
baidu,df9834682186d63d4207c122,乾清门,北京市东城区景山前街4号故宫博物院内,北京市,北京市,东城区,(010)85007938,unknown,
baidu,fbc647faaa2aba976f4760e0,履和门,北京市东城区景山前街4号故宫博物院内,北京市,北京市,东城区,,unknown,
baidu,09185c565ebcf25df119377a,扮戏楼,北京市东城区景山前街4号,北京市,北京市,东城区,,unknown,
baidu,6253e01db489fc409e95de6e,景仁门,北京市东城区景山前街4号故宫博物院景仁宫内,北京市,北京市,东城区,,unknown,
baidu,1d88e9451db2926245e27461,景阳宫,北京市东城区景山前街4号故宫博物院,北京市,北京市,东城区,,unknown,
baidu,98001b558765e4d62fb17ea2,千龙吐水,北京市东城区故宫博物院,北京市,北京市,东城区,,unknown,
baidu,47f2645834d0a44d96031963,文华门,北京市东城区景山前街4号故宫博物院文华殿内,北京市,北京市,东城区,,unknown,
baidu,6ed3083a402ae8b72b3a9fd1,北京警察博物馆,北京市东城区东交民巷36号,北京市,北京市,东城区,(010)85225019,unknown,
baidu,22a8e1bedddb9830f4eafc76,内左门,北京市东城区景山前街4号故宫博物院内,北京市,北京市,东城区,,unknown,
baidu,8056d2c24055929036b06cde,毓庆宫,北京市东城区故宫博物院,北京市,北京市,东城区,,unknown,
baidu,09666cb8b33992a0a4c756c8,蹈和门,北京市东城区景山前街4号故宫博物院内,北京市,北京市,东城区,,unknown,
baidu,fa9345f88797985b8936ee71,中左门,北京市东城区景山前街4号故宫博物院内,北京市,北京市,东城区,,unknown,
baidu,24d05508f62edfaf1288247d,敛禧门,北京市东城区景山前街4号故宫博物院,北京市,北京市,东城区,,unknown,
baidu,1c96e75de759ea0e2b3a9f0b,景仁宫,北京市东城区景山前街4号故宫博物院内,北京市,北京市,东城区,,unknown,
baidu,573afc6937f8efaa4bcc4a1a,后左门,北京市东城区景山前街4号故宫博物院内,北京市,北京市,东城区,,unknown,
baidu,dc77eb87e5fbe84e8bb988a6,东华门-四合院,北京市东城区故宫东华门,北京市,北京市,东城区,,unknown,
baidu,d4328f2e311bf9340482c2f5,内右门,北京市东城区景山前街4号故宫博物院内,北京市,北京市,东城区,,unknown,
baidu,83d59256bd3b07e952e5c5c6,南三所,北京市东城区筒子河附近,北京市,北京市,东城区,,unknown,
baidu,7bfa08fca4b2b37f25d2bb74,皇极门,北京市东城区景山前街4号故宫博物院宁寿宫内,北京市,北京市,东城区,(010)85007938,unknown,
baidu,d5e77db795dca724260bd0fa,阅是楼,北京市东城区景山前街4号故宫博物院宁寿宫内,北京市,北京市,东城区,,unknown,
baidu,e3082848b6bd6abfb34c4975,景祺阁,北京市东城区景山前街4号故宫博物院宁寿宫内,北京市,北京市,东城区,,unknown,
baidu,0d393abe595602a303ff2d56,中国铁道博物馆(正阳门馆),北京市东城区前门大街甲2号,北京市,北京市,东城区,"(010)65253176,(010)67051638",unknown,
baidu,63ed683533bfb54490114cd5,天主教北京教区西什库教堂,北京市西城区西什库大街33号,北京市,北京市,西城区,"(010)66132240,(010)66175198",unknown,
baidu,7ec7ea7d30474b2aa6da39d8,绛雪轩,北京市东城区景山前街4号故宫博物院御花园内,北京市,北京市,东城区,,unknown,
baidu,4e794869f897f49075e5b662,锡庆门,北京市东城区景山前街4号故宫博物院宁寿宫内,北京市,北京市,东城区,,unknown,
baidu,3a32fd32ed300396d22dd682,保和殿,北京市东城区景山前街4号故宫博物院内,北京市,北京市,东城区,"(010)85007062,(010)85007063,(010)85007421,(010)85007938",unknown,
baidu,0a15c7ec5b4714fced74f874,诚肃殿,北京市东城区景山前街4号故宫博物院内,北京市,北京市,东城区,,unknown,
baidu,ae377bc23b5268eb9d9d68b3,铜缸,北京市东城区景山前街4号故宫内,北京市,北京市,东城区,,unknown,
baidu,925c550f1f9882b25a3ac843,延禧门,北京市东城区景山前街4号故宫博物院延禧宫内,北京市,北京市,东城区,,unknown,
baidu,bb94718e927e4d7199005010,嘉量,北京市东城区景山前街4号故宫博物院太和殿内,北京市,北京市,东城区,,unknown,
baidu,93c3efe94739676142d63ef9,钟粹门,北京市东城区景山前街4号故宫博物院钟粹宫内,北京市,北京市,东城区,,unknown,
baidu,88a37880d49ccc27c2f1cfde,御书房,北京市东城区景山前街4号,北京市,北京市,东城区,,unknown,
baidu,2bb693da1af68a269f09f70f,交泰殿,北京市东城区景山前街4号故宫博物院内,北京市,北京市,东城区,,unknown,
baidu,1054be17e7747852a1a93406,体仁阁,北京市东城区景山前街4号故宫博物院内,北京市,北京市,东城区,(010)85007422,unknown,
baidu,f582155c0b232c2ac17da270,盆景馆,北京市东城区景山前街4号故宫博物院宁寿宫珍宝馆内,北京市,北京市,东城区,,unknown,
baidu,509d637b21b8f81c4d554703,箭亭,北京市东城区景山前街4号故宫博物院内,北京市,北京市,东城区,,unknown,
baidu,2d70e2f5a0678bf7bbbd63fc,景曜门,北京市东城区景山前街4号故宫博物院内,北京市,北京市,东城区,,unknown,
baidu,ce67536add7a1f4132870a07,德阳门,北京市东城区景山前街4号故宫博物院内,北京市,北京市,东城区,,unknown,
baidu,e3618d48bddb8b30d518b73c,月华门,北京市东城区景山前街4号故宫博物院内,北京市,北京市,东城区,,unknown,
baidu,2c89eb817c808c8d7ec87665,故宫博物院-东库,北京市东城区故宫博物院内,北京市,北京市,东城区,,unknown,
baidu,52bf83d22636ca86b320a879,集义殿,北京市东城区故宫博物院陶瓷馆,北京市,北京市,东城区,,unknown,
baidu,781aaa810d71fce8afee7a94,奉先殿,北京市东城区景山前街4号故宫博物院内,北京市,北京市,东城区,,unknown,
baidu,382c89d6275c1ad2fbf0cbbe,承乾门,北京市东城区景山前街4号故宫博物院承乾宫内,北京市,北京市,东城区,,unknown,
baidu,b292b3aa0339c456be48427c,遂初堂,北京市东城区北池子大街21号,北京市,北京市,东城区,,unknown,
baidu,161a0ed2fc8a03505cd4fe01,中国钱币博物馆,北京市西城区西交民巷17号,北京市,北京市,西城区,"(010)66024178,(010)66081385",unknown,
baidu,3b3aedb09d8da10142ab9a84,承乾宫,北京市东城区景山前街4号故宫博物院内,北京市,北京市,东城区,,unknown,
baidu,46fb7cadd046b93229fc48f3,毛主席纪念堂,北京市东城区前门东大街,北京市,北京市,东城区,,unknown,
baidu,0efe3a355cdff0f4f60e7752,怀远堂,北京市东城区景山前街4号故宫博物院宁寿宫内,北京市,北京市,东城区,,unknown,
baidu,96b672aace70ca75ce04ef7d,南群房,北京市东城区故宫东门外故宫博物院,北京市,北京市,东城区,,unknown,
baidu,c532236840a70646c9c3db6e,传心殿,北京市东城区故宫东门外故宫博物院,北京市,北京市,东城区,,unknown,
baidu,5e2a28525bb2f2b6c27da2c4,袁励准故居,北京市东城区北池子大街北京王府井西华智德饭店西侧约110米,北京市,北京市,东城区,,unknown,
baidu,8ae5d1f44af964ab1ef74d03,主敬殿,北京市东城区景山前街4号故宫博物院文华殿内,北京市,北京市,东城区,,unknown,
baidu,74b57e3c0de018bd6b49f38a,宁寿门,北京市东城区景山前街4号故宫博物院宁寿宫内,北京市,北京市,东城区,,unknown,
baidu,1269f431e738a9d871210bc8,玄穹宝殿,北京市东城区故宫东门外故宫博物院,北京市,北京市,东城区,,unknown,
baidu,c8e8f633ba0e0e6cab0dd87c,大石雕,北京市东城区景山前街4号故宫博物院内,北京市,北京市,东城区,,unknown,
baidu,aa25ba931e7690f28bdb732e,麟趾门,北京市东城区景山前街4号故宫博物院内,北京市,北京市,东城区,,unknown,
baidu,60ba571539f8b6d90e3ddab2,衍祺门,北京市东城区景山前街4号故宫博物院宁寿宫花园内,北京市,北京市,东城区,,unknown,
baidu,0ca48d81157617245d0d023b,长康左门,北京市东城区景山前街4号故宫博物院内,北京市,北京市,东城区,,unknown,
baidu,7b8a3da0450f2916eaf853eb,昭华门,北京市东城区景山前街4号故宫博物院内,北京市,北京市,东城区,,unknown,
baidu,4fc3161af3bbb4a93a13fd7b,同顺斋,北京市东城区景山前街4号故宫博物院永和宫内,北京市,北京市,东城区,,unknown,
baidu,764672e579bf9dad94ec8479,昭仁殿,北京市东城区景山前街4号,北京市,北京市,东城区,,unknown,
baidu,992a2cfa5b92fe9b8e7727c5,中右门,北京市东城区景山前街4号故宫博物院内,北京市,北京市,东城区,,unknown,
baidu,08fc93df3ba166919b68b443,凝祺门,北京市东城区景山前街4号故宫博物院宁寿宫内,北京市,北京市,东城区,,unknown,
baidu,fa24c8c361d1c235f32d8369,昌祺门,北京市东城区景山前街4号故宫博物院内,北京市,北京市,东城区,,unknown,
baidu,3881353e41e5a96029b97ca6,北五所,北京市东城区,北京市,北京市,东城区,,unknown,
baidu,513aae3d135beda72b201aa9,故宫博物院-古建部,北京市东城区景山前街4号故宫博物院内,北京市,北京市,东城区,,unknown,
baidu,3d316a12f404a576b45f1e8d,昭德门,北京市东城区景山前街4号故宫博物院内,北京市,北京市,东城区,(010)85007422,unknown,
baidu,e7c24cbdec224ebe704b87de,承露台,北京市东城区景山前街4号故宫博物院宁寿宫花园内,北京市,北京市,东城区,,unknown,
baidu,a1f16d19d86d647936b06c04,凝祥门,北京市东城区景山前街4号故宫博物院内,北京市,北京市,东城区,,unknown,
baidu,b220e29d8cd10beaab175a09,近光左门,北京市东城区景山前街4号故宫博物院内,北京市,北京市,东城区,,unknown,
baidu,0c435cd3e40122db9c09f7b7,奉先门,北京市东城区景山前街4号故宫博物院奉先殿内,北京市,北京市,东城区,,unknown,
baidu,6e9dbf24d8229fc031f71d68,大成左门,北京市东城区景山前街4号故宫博物院,北京市,北京市,东城区,,unknown,
baidu,24b4f1291c1c2805eb1e970c,清史馆,北京市东城区景山前街4号东华门附近,北京市,北京市,东城区,,unknown,
baidu,04bdf4a311cab94f354aae42,禊赏亭,北京市东城区景山前街4号故宫博物院宁寿宫花园内,北京市,北京市,东城区,,unknown,
baidu,af1ae56b348402124207c179,昌泽门,北京市东城区景山前街4号故宫博物院宁寿宫内,北京市,北京市,东城区,,unknown,
baidu,9e1c960f81121918ed74f823,广生左门,北京市东城区景山前街4号故宫博物院内,北京市,北京市,东城区,,unknown,
baidu,ce39454965dc572c14c8f6e0,咸和左门,北京市东城区景山前街4号故宫博物院内,北京市,北京市,东城区,(010)85007938,unknown,
baidu,8bc544f333bfff32c3364456,履顺门,北京市东城区景山前街4号故宫博物院内,北京市,北京市,东城区,,unknown,
baidu,298a1326639c6a0f7c29bd0f,贞顺门,北京市东城区景山前街4号故宫博物院内,北京市,北京市,东城区,,unknown,
baidu,7b712800cba4f96d2dfaa7d5,基化门,北京市东城区景山前街4号故宫博物院内,北京市,北京市,东城区,,unknown,
baidu,6d72a9304d56c9a816a1906f,苍震门,北京市东城区景山前街4号故宫博物院内,北京市,北京市,东城区,,unknown,
baidu,9ae48d8cfa9647d08505bf12,养性殿,北京市东城区景山前街4号故宫博物院宁寿宫内,北京市,北京市,东城区,(010)85007938,unknown,
baidu,f62e1a6df5b3d96d223bf28a,太和殿丹陛,北京市东城区故宫博物院,北京市,北京市,东城区,,unknown,
baidu,66e2cc20ef637e8286420e1f,养性门,北京市东城区景山前街4号故宫博物院宁寿宫内,北京市,北京市,东城区,,unknown,
baidu,f696f3c2e25e49eb1b11d542,东暖殿,北京市东城区景山前街4号,北京市,北京市,东城区,,unknown,
baidu,3a8c491f154193a940e1926c,龙光门,北京市东城区景山前街4号故宫博物院内,北京市,北京市,东城区,,unknown,
baidu,3dd2632a63de25412cb17e6a,青铜器馆,北京市东城区景山前街4号故宫博物院内,北京市,北京市,东城区,,unknown,
baidu,4e35627ac22253422fb90872,永祥门,北京市东城区景山前街4号故宫博物院内,北京市,北京市,东城区,,unknown,
baidu,135e829c57138e37c9c3db25,迎瑞门,北京市东城区景山前街4号故宫博物院内,北京市,北京市,东城区,,unknown,
baidu,9fc2b3374c031bf8a1046448,静观斋,北京市东城区景山前街4号故宫内,北京市,北京市,东城区,(010)85007113,unknown,
baidu,0b12611461deb127128824fb,端凝殿,北京市东城区景山前街4号故宫博物院内,北京市,北京市,东城区,,unknown,
baidu,97acc266a6eba8420f0e6b13,景和门,北京市东城区景山前街4号故宫博物院内,北京市,北京市,东城区,,unknown,
baidu,fa7da3e888778b6242d63e75,弘德殿,北京市东城区景山前街4号,北京市,北京市,东城区,,unknown,
baidu,8568eab585f02bedf13cbab2,古鉴斋,北京市东城区景山前街4号故宫内,北京市,北京市,东城区,(010)85007113,unknown,
baidu,0906612cd6563a29bda240b4,云南汇,北池子大街49号（云南汇）,北京市,北京市,东城区,,unknown,
baidu,d09aa7a8022ff665028972df,皇城富乔·影院足道(王府井店),北京市东城区灯市口西街34、36、38号5栋-1层2-2,北京市,北京市,东城区,18210489525,unknown,
baidu,7b952f33a577bba1b2077d94,魅KTV·AI辅唱(王府井店),王府井大街253号王府井百货大楼五层001,北京市,北京市,东城区,,unknown,
baidu,367d8105d9090bbcf33cba90,良子足浴(王府井店),灯市口大街75号,北京市,北京市,东城区,13718630390,unknown,
baidu,aa78b55eaf1ba84a9cec2b43,猎人桌游吧(王府井店),王府井大街88号北京王府井银泰in88商场地下一层B1-1010号,北京市,北京市,东城区,17001288880,unknown,
baidu,7e4ebe3f2d9f9e6d83a00c7e,文华东方水疗中心(王府中环店),王府井大街269号王府井文华东方酒店六层,北京市,北京市,东城区,,unknown,
baidu,1cf613c7614e0bdf4151c0b8,普瑞轩·茶空间(王府井店),北京市东城区王府井西街9号,北京市,北京市,东城区,13911509003,unknown,
baidu,8a53efa4e37786f74107c158,遥水疗UR SPA(璞瑄酒店),王府井大街1号璞瑄酒店五层,北京市,北京市,东城区,(010)53932678,unknown,
baidu,dac3bf33692d8fbc5d17c309,战神电竞馆(东四王府井店),景山街道东四北大街485号(同仁堂门诊北侧),北京市,北京市,东城区,,unknown,
baidu,a16ef7400d6c1c41e6e96592,王子向上心理密室(王府井百货店),北京市东城区王府井大街255号王府井百货F9,北京市,北京市,东城区,,unknown,
baidu,bc7da0f2ebef664b9e82ea8e,隆德堂青瓷艺术·茶馆(故宫店),南池子大街63号（近故宫东华门、近天安门）,北京市,北京市,东城区,13269233997,unknown,
baidu,4a0a645eb7bf11369cec2b9f,网聚电竞网咖(王府井东四店),东四北大街449号,北京市,北京市,东城区,18612515786,unknown,
baidu,b2e63c796fc6a849ae31e527,Bar-Lu麓,王府井大街2号北京华侨大厦睿世酒店1层,北京市,北京市,东城区,(010)65136666,unknown,
baidu,09bb4cf5c9f60231b6f42f69,贡苑茗品(王府井店),王府井大街27号学者公寓一层（社科博源宾馆1楼）,北京市,北京市,东城区,"(010)65279686,13701099985",unknown,
baidu,ee4d3afdf52e84deb42655fc,中国儿童艺术剧院,东安门大街64号,北京市,北京市,东城区,4001016161,unknown,
baidu,3d498342b4bd91295d17c36d,哈姆雷斯儿童乐园(王府井百货大楼店),王府井大街255号北京市百货大楼4-6幢1-2层,北京市,北京市,东城区,,unknown,
baidu,7fd7231171bfafe25cbe8630,神武门广场,北京市东城区景山前街4号,北京市,北京市,东城区,,unknown,
baidu,f9fd6062f256e4620f0e6b30,北京市公安局老干部活动中心(银闸胡同),北京市东城区银闸胡同25号,北京市,北京市,东城区,,unknown,
baidu,42139841d9ee218f83a12e0c,横店电影城(王府井店),王府井大街255号北京市百货大楼F8,北京市,北京市,东城区,,unknown,
baidu,2e8958e628e9e9403b221c33,雁门山,北京市东城区王府井大街99号,北京市,北京市,东城区,13111111192,unknown,
baidu,2542321af23ed95ddaeced0c,华清池修脚艾灸(王府井东华门店),骑河楼大街5号楼5-1一层1号,北京市,北京市,东城区,(010)65211363,unknown,
baidu,2223242af5a3ba88611c674a,北平机器Peiping Machine(纳福店),纳福胡同13号,北京市,北京市,东城区,17600515202,unknown,
baidu,8affc02e33b9aebe0b69d99a,中山公园音乐堂,西长安街中山公园内,北京市,北京市,东城区,(010)65598285,unknown,
baidu,e85e2527b6cf615395f08cd0,首都剧场,王府井大街22号,北京市,北京市,东城区,"(010)65249847,(010)65250996",unknown,
baidu,9e23c35e7981483c8e772720,愈舍YUSPA(金宝店),北京市东城区金宝街82号3-4层,北京市,北京市,东城区,4008010150,unknown,
baidu,93e497156b0f0486b05c6a60,王府井世纪广场,北京市东城区王府井大街99号,北京市,北京市,东城区,,unknown,
baidu,f60a15ed3cf98ff5ba17e781,北京香港马会会所(金宝街店),王府井金宝街地段,北京市,北京市,东城区,(010)59118888,unknown,
baidu,9069a8a46abede8eca2915f2,回HUI Temple,沙滩北街嵩祝寺23号,北京市,北京市,东城区,13263368210,unknown,
baidu,f26d38778b9944ac9a0050d8,Blue Note Beijing,前门东大街23号BlueNoteBeijing,北京市,北京市,东城区,13910902913,unknown,
baidu,f144bfe87f3be804a2acc4ec,西門町(东安市场店),王府井大街138号,北京市,北京市,东城区,15158761775,unknown,
baidu,c3a06ccf17038a9a76e5b678,北京人民艺术剧院-人艺实验剧场,王府井大街22号首都剧场4楼,北京市,北京市,东城区,4006228228,unknown,
baidu,3a4f1aadf907fc238f1a89fd,北京人民艺术剧院,北京市东城区王府井大街22号,北京市,北京市,东城区,(010)65249847,unknown,
baidu,3885f46c84cd0fb7220220a6,北京人民艺术剧院-北京国际戏剧中心(曹禺剧场),王府井大街22号院内东南角,北京市,北京市,东城区,,unknown,
baidu,49a02a7a07b05d592b201a5c,百老汇影城(apm购物中心店),王府井大街138号北京apm6层,北京市,北京市,东城区,,unknown,
baidu,3ec52cd60bad3a5fb320a807,假日经典小剧场,东安门大街64号中国儿童艺术剧院4层,北京市,北京市,东城区,,unknown,
baidu,69fcd6df8eab0b36ca291552,江湖酒吧(东棉花胡同店),东棉花胡同7号(近南罗鼓巷),北京市,北京市,东城区,18001361915,unknown,
baidu,7b3e74980081bff51811d53f,77剧场,美术馆后街77号,北京市,北京市,东城区,13716534560,unknown,
baidu,6353c4c3d23c8bd343ab9a8d,友唱M-Bar(北京王府井银泰in88店),北京市东城区王府井大街88号北京王府井银泰in88F2,北京市,北京市,东城区,,unknown,
baidu,f498d661a1454ee2f6c59c68,南阳共享际剧场,南阳胡同6号,北京市,北京市,东城区,,unknown,
baidu,e6ee2fd275341f482b11d101,北京音乐厅,西长安街街道北新华街1号(近西长安街),北京市,北京市,西城区,(010)66513145,unknown,
baidu,369848223c003c493ce23101,西华苑茶寮,北京市西城区北长街92号,北京市,北京市,西城区,,unknown,
baidu,1a6dfc0631eed8960b69d933,北京国话先锋剧场,东华门街道东单三条8-2号(东方广场东侧),北京市,北京市,东城区,,unknown,
baidu,c5c06f1bc673b723b020a8b9,王府井休闲广场,北京市东城区王府井大街301号院,北京市,北京市,东城区,,unknown,
baidu,4ea3f2f1af822ab3aecb6642,蓬蒿剧场,东棉花胡同35号(中央戏剧学院正门向东100米),北京市,北京市,东城区,,unknown,
baidu,25ec69fcf681a564c26c145e,唐人茶道(前海南沿店),什刹海街道前海南沿甲15号,北京市,北京市,西城区,(010)64070426,unknown,
baidu,bff3a05797c13d87c61e5113,王府小巷轰趴·桌游·棋牌,柏树胡同30、32号,北京市,北京市,东城区,13910577273,unknown,
baidu,6a413df9250435536849f34f,王朝广场,北京市东城区王府井大街50号天伦王朝酒店,北京市,北京市,东城区,,unknown,
baidu,369e72d1220c3e67ca09f0d8,277 Rooftop Bar(王府井步行街店),王府井大街277号B-P-07室,北京市,北京市,东城区,13810456951,unknown,
baidu,a55ca14cf31af6505bf6bec8,景山街道景山东街社区文化活动室,北京市东城区三眼井胡同33号,北京市,北京市,东城区,,unknown,
baidu,52d98f5c93472f1083a00c36,北京劳动人民文化宫大型活动部,北京市东城区天安门东侧劳动人民文化宫内(近天安门东地铁站),北京市,北京市,东城区,,unknown,
baidu,b7021bf818ecc6e3f4e73b33,剧人之家休闲俱乐部(王府井店),北京市东城区报房胡同101号,北京市,北京市,东城区,13671271330,unknown,
baidu,3de38153e4e1f6613be4a67d,长安茶社(新闻大厦店),建国门内大街26号新闻大厦二楼西侧,北京市,北京市,东城区,"(010)66118551,13301121957",unknown,
baidu,55f9d871babaa4794d2fdf2d,081(北京apm),北京市东城区王府井大街138号北京apmB3层,北京市,北京市,东城区,,unknown,
baidu,b533ea4af3a08a584f6d4652,百丽宫影城(金宝汇购物中心店),金宝街88号金宝汇购物中心F7,北京市,北京市,东城区,(010)85221506,unknown,
baidu,5c34ac1f0ef94a15ad0457d1,南新会,北京市东城区王府井大街255号王府井百货B2,北京市,北京市,东城区,,unknown,
baidu,cb3c14fd489cd536bea240ff,嘉德艺术中心,王府井大街1号,北京市,北京市,东城区,(010)85928266,unknown,
baidu,e96b4420e424464082288a5a,寻常巷陌小酒馆,景山街道沙滩后街61号(近景山东街),北京市,北京市,东城区,13521913327,unknown,
baidu,746162cde208b15b03294fc0,Chapel Shisha Bar·水烟·酒,北京市东城区王府井大街74号,北京市,北京市,东城区,,unknown,
baidu,d41d641265d6dced6c3e1b9f,东华门街道安全科普体验厅,北京市东城区北河沿大街智德北巷-1号院,北京市,北京市,东城区,,unknown,
baidu,0ba8ab61a51b4a425d0d0253,HERE,东四南大街68号,北京市,北京市,东城区,13269836070,unknown,
baidu,31ccb01ffc98d51307fef592,北京金茂万丽酒店-行政酒廊,王府井大街57号北京金茂万丽酒店17层,北京市,北京市,东城区,,unknown,
baidu,31f9101b60d1e9a026e0a032,1901 Cafe(西四店),什刹海街道西安门大街101号（近西什库大街）,北京市,北京市,西城区,(010)66160335,unknown,
baidu,126a8f87a4ef5412c16c145b,录像厅,北京市东城区王府井大街255号王府井百货B2,北京市,北京市,东城区,,unknown,
baidu,25464f43a639f241eaf853ae,北京东华庭院四合院,北京市东城区北池子大街50号,北京市,北京市,东城区,13911275105,unknown,
baidu,28e700f152d45c02085cb3b3,北京东华门宾馆,王府井北河沿大街141号,北京市,北京市,东城区,(010)65234977,unknown,
baidu,a6c48f115e772d61c9e33cba,锦江之星(北京王府井步行街店),北京市东城区灯市口大街75号,北京市,北京市,东城区,(010)85111100,unknown,
baidu,7c5489ac90e719fe5ebe864f,布丁酒店(北京灯市口地铁站店),东四南大街80号,北京市,北京市,东城区,(010)59477988,unknown,
baidu,a103f3c7330dcc1342e192e7,全季酒店(北京王府井店),北京市东城区王府井西街9号东方文化大厦1楼,北京市,北京市,东城区,(010)87529696,unknown,
baidu,e40260792e21907411882445,速8精选酒店(北京天安门王府井步行街店),东安门大街45号,北京市,北京市,东城区,(010)85183900,unknown,
baidu,083a55fa8945e560256e98ae,王府半岛酒店The Peninsula Beijing(金鱼胡同店),东华门街道王府井金鱼胡同8号(近地铁5号线/1号线/王府井步行街),北京市,北京市,东城区,(010)85162888,unknown,
baidu,7aea43b75f0ee3e17c29bd71,北京王府井希尔顿酒店,王府井东街8号北京王府井希尔顿酒店1层大堂,北京市,北京市,东城区,(010)58128888,unknown,
baidu,a9731ab5c8e85d68fb2d619e,麗枫酒店(北京天安门广场王府井大街店),王府井大街201号北京利生体育商厦F1,北京市,北京市,东城区,(010)65286511,unknown,
baidu,73d24c703df3f62d5cbe8608,北京璞瑄酒店,北京市东城区王府井大街1号,北京市,北京市,东城区,(010)53936688,unknown,
baidu,8ab0dfc4ee04410fd8eced0a,北京励骏酒店,北京市东城区金宝街92号,北京市,北京市,东城区,(010)85113388,unknown,
baidu,669775d035a11b42fd0eb03d,北京东方君悦大酒店,东长安街1号东方君悦大酒店1层,北京市,北京市,东城区,(010)65109000,unknown,
baidu,e6144a35da83f5c02202204c,北京万豪行政公寓,北京市东城区霞公府街1号北京饭店正后面1楼,北京市,北京市,东城区,(010)65649999,unknown,
baidu,970e1ad7d024c485b320a89b,桔子水晶北京王府井大街酒店,北京市东城区东华门街道东安门大街18号,北京市,北京市,东城区,(010)65281101,unknown,
baidu,96b672aa53a1476cce04ef0a,北京丽晶酒店,北京市东城区金宝街99号,北京市,北京市,东城区,(010)85221888,unknown,
baidu,befdb2927f1f70f887154106,北京好苑建国酒店,北京市东城区建国门内大街17号,北京市,北京市,东城区,(010)65286666,unknown,
baidu,3a7cc9a64de836bfdeee8bef,汉庭酒店(北京王府井店),北京市东城区甘雨胡同31号,北京市,北京市,东城区,(010)52828008,unknown,
baidu,be54cde97d70074178f79601,春豪宾馆(北京王府井协和医院店),王府井大街大鹁鸽胡同17号,北京市,北京市,东城区,(010)65259950,unknown,
baidu,4ce10ce66096f0b8441a323d,北京贵宾楼饭店,东长安街35号,北京市,北京市,东城区,(010)65137788,unknown,
baidu,130418825625d04c3b221c0a,美程青居酒店(王府井协和医院店),灯市口大街57号,北京市,北京市,东城区,(010)53688288,unknown,
baidu,39d43f82c6103b9fa8059d35,北京华尔道夫酒店,金鱼胡同5-15号华尔道夫酒店1层,北京市,北京市,东城区,(010)85208989,unknown,
baidu,8de7f80b94f9abd9b45f1eef,汉庭酒店(北京王府井步行街店),王府井大街20号,北京市,北京市,东城区,(010)85188669,unknown,
baidu,e22e738a3612703c8b2fb578,桔子酒店(北京王府井店),北京市东城区灯市口大街57-1号,北京市,北京市,东城区,(010)65218600,unknown,
baidu,52cf440aaa547422c909f0a4,北京时尚港湾快捷酒店,东四北大街486号,北京市,北京市,东城区,(010)84039789,unknown,
baidu,beabdbf48c5cb4817069d30a,北京诺富特和平宾馆,北京市东城区金鱼胡同3号,北京市,北京市,东城区,(010)65128833,unknown,
baidu,850815e173eb168243e19207,北京同力旅馆(北京中医院店),山老胡同3号,北京市,北京市,东城区,(010)64029976,unknown,
baidu,af1ae56bb9518f0b4207c10a,建国·璞隐酒店(北京天安门王府井店),金鱼胡同19号,北京市,北京市,东城区,(010)51671666,unknown,
baidu,373cf757b85c1c774354d70a,北京南京大饭店,北京市东城区王府井西街5号,北京市,北京市,东城区,(010)65262188,unknown,
baidu,f696f3c257f9c4f21b11d537,国际艺苑大酒店,北京市东城区王府井大街48号,北京市,北京市,东城区,(010)59119999,unknown,
baidu,606289fdbf1ec154a204643e,北京北平国际青年旅舍,北京市东城区南锣鼓巷113-2号,北京市,北京市,东城区,(010)84039098,unknown,
baidu,2848ffd607b47d1648cc4a00,北京福禄久四合院,北京市东城区福禄巷9号,北京市,北京市,东城区,(010)65247660,unknown,
baidu,64c1ca66248f8135a1046472,汉庭酒店(北京东四地铁站店),东四北大街537号,北京市,北京市,东城区,(010)64051122,unknown,
baidu,c7fb04bd5652740cfa0cadcb,格林豪泰(北京中医医院南锣鼓巷后海店),北京市东城区地安门东大街41号,北京市,北京市,东城区,"(010)51491777,17611532667",unknown,
baidu,477cb6213346a3fb5d0d0203,汉庭酒店(北京东四路口店),朝阳门内大街271号,北京市,北京市,东城区,"(010)84050380,(010)84050887",unknown,
baidu,b7021bf81990c7e3f4e73b07,北京华育宾馆,沙滩后街55号,北京市,北京市,东城区,"(010)58757741,(010)58757888",unknown,
baidu,00f1c7fbbd07c706c056ac02,海友良品酒店(北京东四地铁站店),东四南大街33号,北京市,北京市,东城区,(010)65231018,unknown,
baidu,d23ef7f7cab43530cae33c1c,北京都市之星精品酒店,朝阳门内大街216号,北京市,北京市,东城区,(010)65284568,unknown,
baidu,d0b8923fcbb54ffbb5f42f07,北京香江意舍(天安门王府井店),北京市东城区南河沿大街南湾子胡同1号,北京市,北京市,东城区,(010)65127788,unknown,
baidu,d991e1161f90fe4c1f389434,北京王府井东华饭店,灯市口西街32号,北京市,北京市,东城区,"(010)65257531,18519753589",unknown,
baidu,435d7aeaf57aae2c5abbbc2f,北京天伦松鹤大饭店,北京市东城区灯市口大街88号,北京市,北京市,东城区,(010)58168999,unknown,
baidu,905adacf8b136c3f734b878a,逸扉酒店(北京天安门店),南河沿大街华龙街天安大厦A座,北京市,北京市,东城区,(010)85110088,unknown,
baidu,e9baa7720bc49d6f4f6d463c,99优选酒店(北京天安门广场前门地铁站店),前门东大街甲12号,北京市,北京市,东城区,(010)88118688,unknown,
baidu,3f826ed3affb665fd1f49e3b,北京紫金宫饭店,南河沿大街86号,北京市,北京市,东城区,(010)85935266,unknown,
baidu,6ee0102056b56df652e5c502,北京丽亭酒店,北京市金宝街97号,北京市,北京市,东城区,(010)85221999,unknown,
baidu,15ed53ced0e2754d9222e00a,北京东方之家酒店(王府井协和医院店),东华门街道东单三条8-16号,北京市,北京市,东城区,(010)65269488,unknown,
baidu,81d6a509bf4f3b596e20b907,北京内蒙古大厦,北京市东城区崇文门内大街2号,北京市,北京市,东城区,(010)65186666,unknown,
baidu,c5ddcc0840f265dfd91318aa,北京大华路宾馆,大华路4号,北京市,北京市,东城区,"(010)65264853,(010)65268753",unknown,
baidu,aa40108b9e59260cc5effb05,宽街宾馆(北京中医院店),老山胡同九号,北京市,北京市,东城区,"(010)84039456,13683161789",unknown,
baidu,35b076ac8951acc42eb17e84,王府井永光酒店,北京市东城区东安门大街46号,北京市,北京市,东城区,(010)65265558,unknown,
baidu,a05a49cfe372a024f4e73b14,北京快乐怡家商务酒店(王府井协和医院店),东四南大街本司胡同,北京市,北京市,东城区,(010)65281448,unknown,
baidu,7524cb4f2780802d04026f31,北京沅川招待所,外交部街甲46号,北京市,北京市,东城区,(010)65142566,unknown,
baidu,2fd2beab8046e54b7adbd20a,北京翠明庄宾馆,南河沿大街1号,北京市,北京市,东城区,(010)58580909,unknown,
baidu,3a0fbba85f3bec589ee32105,北京府右街宾馆(西单店),北京市西城区太仆寺街21号(近西单商场后面),北京市,北京市,西城区,(010)66052277,unknown,
baidu,5e2438dce9bdc5e48a36ee07,非繁城品酒店(北京王府井南锣鼓巷店),北京市东城区东四北大街320-1号,北京市,北京市,东城区,(010)64042944,unknown,
baidu,33fbfa83086432d80bf5eb76,北京景山花园酒店,景山东街三眼井胡同丙68号院,北京市,北京市,东城区,"(010)84042179,(010)84047979",unknown,
baidu,68303ccea3a5820cd23ce37e,映向城酒店(北京故宫店),人民市场西巷28号,北京市,北京市,东城区,(010)84015584,unknown,
baidu,c10f934dc87adc7fb45f1e99,COFFIZZ高富诗酒店(北京天安门王府井教堂店),王府井大街74号东侧附属配楼4层,北京市,北京市,东城区,(010)65285850,unknown,
baidu,a3e8341c736b8c8c4afd3f07,北京兴林宾馆,地安门内大街东板桥街32号,北京市,北京市,东城区,(010)64045868,unknown,
baidu,4a4157946b005676b9df8f36,北京华信宾馆,朝阳门内南小街51号,北京市,北京市,东城区,(010)65274369,unknown,
baidu,0adce3e2d42e367880a00c05,欣燕都连锁酒店(北京西安门店),大红罗厂街2-2号（北大医院第二住院部斜对面）,北京市,北京市,西城区,"(010)66110158,(010)66158605",unknown,
baidu,09185c56d3637f44f1193707,北京蜀都宾馆(故宫店),沙滩后街30号,北京市,北京市,东城区,(010)64031743,unknown,
baidu,2b47374a48a203732b201aa8,观旗宾馆(北京天安门广场店),北京市西城区前门西大街1号,北京市,北京市,西城区,(010)63038489,unknown,
baidu,3f826ed3af82665fd1f49e00,北京来德宾馆,西总布胡同58号,北京市,北京市,东城区,010-65592848,unknown,
baidu,e11defbcbef38d3f4bcc4a60,途179迷你酒店(北京西单地铁站店),太仆寺街48号,北京市,北京市,西城区,(010)66010505,unknown,
baidu,3bf61db72dddf973ac0457f9,北京明宇丽雅饭店,北极阁路7号,北京市,北京市,东城区,(010)58037777,unknown,
baidu,0adce3e2d42b367880a00c06,北京京安宾馆,前门东大街14号,北京市,北京市,东城区,"(010)67012668,(010)67012698",unknown,
baidu,5109cb9c916633e79f09f76b,北京知还国风四合院酒店,东四二条1号,北京市,北京市,东城区,18800065989,unknown,
baidu,cd9d05dd6ae909af85420e06,前门佳合宾馆(北京天安门广场店),前门东大街16号,北京市,北京市,东城区,(010)67011926,unknown,
baidu,637df60a6500616b40afe6cf,北京鑫海锦江大酒店(朝阳门店),北京市东城区金宝街61号,北京市,北京市,东城区,(010)58163388,unknown,
baidu,26a2fc140f89ffee82a12ec5,北京景山酒店,北京市东城区沙滩北街31号,北京市,北京市,东城区,(010)51098888,unknown,
baidu,96027701b90f39aee607388d,胡同里青年公寓,北京市东城区故宫东门北池子大街东华门甲1号,北京市,北京市,东城区,,unknown,
baidu,6eb3899309ff41ca2fb90858,华雅酒店(天安门王府井步行街店),东安门大街43号,北京市,北京市,东城区,(010)65126383,unknown,
baidu,1bf85b25b5f33abda1a93407,沙滩宾馆,北京市东城区沙滩后街28号,北京市,北京市,东城区,(010)84026688,unknown,
baidu,6fddd7fd43681f663517dc3d,学者公寓,北京市东城区王府井大街27号(首都剧院斜对面),北京市,北京市,东城区,(010)65591155,unknown,
baidu,72270f7d530b278e43e19297,诗诗小管家公寓(甘雨胡同分店),北京市东城区东华门街道甘雨胡同53号正邦楼,北京市,北京市,东城区,(010)56320606-28599682,unknown,
baidu,cb2f09084068c6d04207c1fe,黑豆Family特色民宿(北京2号店),北京市东城区东华门街道翠花胡同33号,北京市,北京市,东城区,,unknown,
baidu,a95a3a1972721caf4e776ecc,小院儿民宿,北京市东城区东华门街道磁器库南巷8号,北京市,北京市,东城区,,unknown,
baidu,60c1f2b670649eb17adbd27d,城盈家园服务式公寓(天安门协和医院店),北京市南河沿大街天安大厦D座大厅,北京市,北京市,东城区,13167560683,unknown,
baidu,7ad060a04acf9391d4851f1a,拾院,北京市东城区沙滩北街3号,北京市,北京市,东城区,,unknown,
baidu,c82194b5086a16b6283a9f92,安泰宾馆(大鹁鸽胡同),北京市东城区大鹁鸽胡同17号,北京市,北京市,东城区,,unknown,
baidu,6deee308fd88cc7329fc483b,北京顺捷短租公寓,北京市东城区张自忠路10号,北京市,北京市,东城区,,unknown,
baidu,0830ec534a93526279dbd293,漫心酒店(北京王府井店)-大堂,北京市东城区东安门大街53号,北京市,北京市,东城区,,unknown,
baidu,ecdd6351dd1e71167ab55c7d,途虎养车工场店(北京张自忠路店),北京市东城区张自忠路10号华人一品大厦1层,北京市,北京市,东城区,15901450256,unknown,
baidu,d6ee8724856c119da8f0cde6,北京长安保时捷中心(长安店),北京市东城区东长安街10号长安俱乐部首层,北京市,北京市,东城区,4008726087,unknown,
baidu,f32608d9ad109c3a100daa43,蔚来中心(北京东方广场店),北京市东城区长安街1号东方新天地商场一层/二层,北京市,北京市,东城区,18611385903,unknown,
baidu,7d417de7645848b1b7f42f47,美车堂(王府井in88店),王府井大街88号B3,北京市,北京市,东城区,13522767474,unknown,
baidu,44836f68b5d352d6ca09f035,车迟国,北京市东城区王府井大街74号王府井天主教堂副楼高富诗酒店一楼,北京市,北京市,东城区,,unknown,
baidu,04d3d931e6144b0f3c9a5e5f,北京长安街仰望体验展厅,北京市东城区东长安街1号东方新天地,北京市,北京市,东城区,,unknown,
baidu,5779f8b0dea859ae095cb31b,北京骏东汽车销售服务有限公司,北京市东城区金宝街金宝大厦1层,北京市,北京市,东城区,,unknown,
baidu,a41e82ea8f348cd0ae080f7b,远航汽车北京王府井喜悦零售中心,北京市东城区王府井大街301号北京王府井喜悦购物中心1层G1F-03~04号,北京市,北京市,东城区,19726933488,unknown,
baidu,1cc94e5463e0550225d2bb81,维勒仕汽车养护中心STEK隐形车衣,大纱帽胡同北京万豪行政公寓B3停车场,北京市,北京市,东城区,18518411809,unknown,
baidu,e423b9278be30d9f14b54b4a,TRIPALS汽车养护体验中心(北京王府井喜悦购物中心店),王府井喜悦购物中心b3层,北京市,北京市,东城区,18518411809,unknown,
baidu,679c98bfdc5763013517dc97,海鸥配件中心,北京市东城区王府井大街218号东方广场西3楼第6层,北京市,北京市,东城区,,unknown,
baidu,0527657f60ae459d01294f70,鹏伟汽车修理厂,北京市东城区地安门东大街68号,北京市,北京市,东城区,17150195644,unknown,
baidu,229e39fb5460e65fe8e582d0,JEEP(工美大厦王府井店),北京市东城区王府井大街255号东安市场4层,北京市,北京市,东城区,,unknown,
baidu,1f98701cf6b69c7552e5c5c8,平安德泰汽车服务中心(地安门店),地安门西大街丙28号东侧,北京市,北京市,西城区,15242769912,unknown,
baidu,c9e15f847c79b22ab9df8f08,U2·车衣改色养护中心(金宝街励骏店),金宝街92号励骏酒店停车场B3层,北京市,北京市,东城区,13520289219,unknown,
baidu,7157663a1df5c3dd4e2fdfb8,Auto Garage车酷洗车保养·隐形车衣,东长安街1号东方广场P3停车场C1区,北京市,北京市,东城区,,unknown,
baidu,f6cbc834b4534d3a430245d0,Rolls Royce Motor Cars,北京市东城区金宝街励骏酒店,北京市,北京市,东城区,,unknown,
baidu,e1e6b8df783533e99e9d6848,华盟汽车服务,北京市西城区大桥街道盐城大道绵绣江南,北京市,北京市,西城区,15976333725,unknown,
baidu,20eb1589e1625b795f17c392,运通超豪华中心(金宝汇购物中心店),金宝街88号金宝汇购物中心F1,北京市,北京市,东城区,18600074000,unknown,
baidu,1d49e59441384aad950319a7,中联桂政国际汽车贸易有限公司,北京市东城区东长安街702~703号,北京市,北京市,东城区,(010)65252288,unknown,
baidu,a9b0c96a5e25713d2b201af1,兴万和配件大全(图样山胡同店),北京市西城区图样山胡同32号,北京市,北京市,西城区,,unknown,
baidu,8514c750a9fadb4bc7f0253d,嘎嘎租车(中国美术馆店),北京市东城区美术馆东街24-1号,北京市,北京市,东城区,,unknown,
baidu,155d6f9338484a3cc929157a,嘎嘎租车(南锣鼓巷店),北京市东城区织染局胡同5号,北京市,北京市,东城区,,unknown,
baidu,0adce3e2da97307881a00cf2,首都医科大学附属北京妇产医院(西院区),北京市东城区骑河楼大街17号,北京市,北京市,东城区,(010)52276699,unknown,
baidu,a2413e239c3a958d1f389485,北京市公安局民警门诊部,"北京市东城区银闸胡同25号(一层,二层和三层东侧)",北京市,北京市,东城区,(010)65256369,unknown,
baidu,91c13f932bdc3fe320f017f2,首都医科大学附属北京口腔医院王府井院区,北京市东城区王府井步行街锡拉胡同11号,北京市,北京市,东城区,,unknown,
baidu,20d14687a5faf446f942b2a9,首都医科大学附属北京妇产医院(西院区)-门诊,北京市东城区骑河楼街17号,北京市,北京市,东城区,,unknown,
baidu,e46d40f95e5028edbfa82288,故宫急救站,北京市东城区故宫内,北京市,北京市,东城区,,unknown,
baidu,29ef12d5b48ed7010ab93a64,北京协和医院-外科楼,北京市东城区东华门街道帅府园1号,北京市,北京市,东城区,(010)69151001,unknown,
baidu,66734cca3ec13b42744ff106,北京妇产医院-急诊,北京市东城区骑河楼大街17号,北京市,北京市,东城区,,unknown,
baidu,6dd7b4ed05dbc3000bf5eb0c,乐氏同仁老药铺有限公司中医诊所,北京市东城区东华门大街76号1幢1-2层东侧,北京市,北京市,东城区,4009009011,unknown,
baidu,b388f9fd1cc9233cb35c6a30,北京市东城区东华门街道韶九社区卫生服务站,北京市东城区东华门街道韶九胡同22号,北京市,北京市,东城区,(010)65245200,unknown,
baidu,aa150f32a89351f24c3a592d,北京港澳国际医务诊所,北京市东城区东长安街1号东方广场W3座平台层,北京市,北京市,东城区,(010)85412788,unknown,
baidu,d4034eb365c8deefc03644fc,北京市隆福医院,北京市东城区美术馆东街18号院,北京市,北京市,东城区,4000601129,unknown,
baidu,4ea3f2f1274db2d7aecb6625,北京市东城区东华门街道东华门社区卫生服务站,北京市东城区南河沿大街磁器库南巷1号,北京市,北京市,东城区,(010)65597833,unknown,
baidu,5ffb1816bf2aaa466e476099,北京紫洁俪方医疗美容,北京市东城区灯市口大街25号,北京市,北京市,东城区,15801664266,unknown,
baidu,39a73d911a5fd26a283a9f7b,孑民堂,北京市东城区沙滩北街甲2号,北京市,北京市,东城区,,unknown,
baidu,be54cde97fc1014179f796f6,北京医院,北京市东城区东单大华路1号,北京市,北京市,东城区,"(010)65282171,(010)85132266",unknown,
baidu,593850fb004c9120df1e5228,中国医学科学院北京协和医院-门诊楼,北京市东城区帅府园1号,北京市,北京市,东城区,"(010)69151188,(010)69156114",unknown,
baidu,15ed53ce4be8ec299222e027,北京协和医院(东单院区)-急诊,北京市东城区帅府园1号,北京市,北京市,东城区,(010)69151188,unknown,
baidu,fa83a2038c39cc00d8131823,北京正本上工中医诊所,北京市东城区王府井大街57号1等2幢,北京市,北京市,东城区,,unknown,
baidu,9d008416a02d4c7b2cb96d39,献血点(王府井丹耀大厦),北京市东城区王府井丹耀大厦,北京市,北京市,东城区,4006012320,unknown,
baidu,06d2dffd379a2e8b88f15dc7,北京协和医院(东单院区)-老楼,北京市东城区东单北大街53号,北京市,北京市,东城区,,unknown,
baidu,af0e42565a9abd123c9a5ea8,北京王府井医院-口腔中心,北京市东城区柏树胡同23号,北京市,北京市,东城区,,unknown,
baidu,210827b26e32b09b167643ca,北京协和医院(东单院区),北京市东城区帅府园1号,北京市,北京市,东城区,(010)69156114,unknown,
baidu,e56bf5e39a9ce7470682c2ac,东城区东华门街道多福巷社区卫生服务站,北京市东城区王府井大街报房胡同45号,北京市,北京市,东城区,(010)65127470,unknown,
baidu,0cfc6fc71891da5152e5c5f9,北京协和医院(东单院区)-门诊,北京市东城区帅府园1号,北京市,北京市,东城区,,unknown,
baidu,09034de066a97f151d58002d,首都医科大学附属北京中医医院-明医馆,北京市东城区景山街道美术馆后街61号,北京市,北京市,东城区,,unknown,
baidu,e0e0425411e084d52a06ce43,北京天成医疗美容诊所,"北京市东城区灯市口大街00号202,203,206-210,220房间",北京市,北京市,东城区,,unknown,
baidu,36b0ca000e0956d3593ac897,北京西美斯医疗美容诊所,北京市东城区东华门街道金鱼胡同18号丽苑公寓2层209,北京市,北京市,东城区,,unknown,
baidu,ae188ffef2faeb5e88b98879,达嘉维康正济堂大药房(北河沿大街店),北京市东城区骑河楼街首都医科大学附属北京妇产医院(西院区),北京市,北京市,东城区,,unknown,
baidu,cac5fc7682dbffea2cb96df8,北京市东城区朝阳门社区卫生服务中心(灯草胡同店),北京市东城区东城区东四南大街灯草胡同31号1层,北京市,北京市,东城区,(010)65138019,unknown,
baidu,29ff4ca97b3d3c7b2fe67bf8,平心堂中医门诊部(金宝汇购物中心店),金宝街88号金宝汇购物中心F2,北京市,北京市,东城区,(010)65879199,unknown,
baidu,3fd50e2107e2af186fc02c80,北京中医药大学东直门医院(国际部),北京市东城区东四北大街279号,北京市,北京市,东城区,(010)84012662,unknown,
baidu,b68c0a8c66df5cd1abf72969,北京华尔医院,北京市东城区西总布胡同59号1-5层和61号1-5层,北京市,北京市,东城区,(010)65596668,unknown,
baidu,637df60aed55f90f40afe627,北京协和医院(东单院区)-住院楼,北京市东城区帅府园东院8层,北京市,北京市,东城区,(010)69156114,unknown,
baidu,373cf757bb191b774354d7c1,北京大学第一医院(妇产儿童医院),北京市西城区西安门大街1号院,北京市,北京市,西城区,(010)83572211,unknown,
baidu,b9e5d0b89ec7a3bd81a12ee8,北京医院-门诊部,北京市东城区大华路1号,北京市,北京市,东城区,(010)85133211,unknown,
baidu,88aecac5d6ca76dc095cb34d,北京东方传统医学诊所,北京市东城区东长安街33号北京饭店C座二层,北京市,北京市,东城区,(010)65137766,unknown,
baidu,8c12d61c816ee1e382a12e92,首都医科大学附属北京中医医院,北京市东城区美术馆后街23号,北京市,北京市,东城区,(010)84712345,unknown,
baidu,01e8cc90ef0dfbd314b54b2c,北京和润诊所,北京市东城区东单北大街3号青年会大厦3层,北京市,北京市,东城区,(010)65598872,unknown,
baidu,d1469ee7dc87bb7b843304f9,中国人民解放军第三〇五医院,北京市西城区文津街甲13号,北京市,北京市,西城区,(010)63096032,unknown,
baidu,ad26e8acd2726c8322026223,北京富江裕新医疗器械有限公司,北京市东城区灯市口大街50号,北京市,北京市,东城区,,unknown,
baidu,97721443f8f53e79c8213d16,北京市隆福医院-狂犬疫苗接种门诊,北京市东城区景山街道美术馆东街18号,北京市,北京市,东城区,(010)58918384,unknown,
baidu,6ee01020480c6bf653e5c5f5,北京市东城区妇幼保健计划生育服务中心(北院区),北京市东城区交道口南大街136号,北京市,北京市,东城区,(010)64043259,unknown,
baidu,209e488a0dbaab9d3517dcdf,同仁堂药店(王府井百货店),东安门大街23号银泰in88店,北京市,北京市,东城区,15201006279,unknown,
baidu,d24e48eb015f54adaeee7af1,朝阳门街道内务社区卫生服务站,北京市东城区内务部街73号,北京市,北京市,东城区,(010)65136054,unknown,
baidu,fd007c5e983cb311a9f729a4,北京医院-急诊部,北京市东城区东单大华路1号,北京市,北京市,东城区,,unknown,
baidu,d57f4fbc8181d3ed16764320,北京协和医院(东单院区)-妇产科,北京市东城区东华门街道帅府园1号,北京市,北京市,东城区,(010)69156114,unknown,
baidu,49fa28a7682fed1496f08c0c,北京和睦家医院(东城院区),北京市东城区西总布胡同46号明阳国际中心A座,北京市,北京市,东城区,4008919191,unknown,
baidu,606ab0d037fbc3330f3ddaf3,北京大学口腔医院(第一门诊部),北京市西城区西黄城根北街10号,北京市,北京市,西城区,"(010)53295000,(010)53295001",unknown,
baidu,cced94a324583d09a21de9ca,北京中医医院教育处,北京市东城区小取灯胡同-8号院北侧,北京市,北京市,东城区,,unknown,
baidu,cfdc2a89614955e8fb221314,北京市隆福医院-体检中心,北京市东城区美术馆东街18号体检楼一楼,北京市,北京市,东城区,,unknown,
baidu,5ffb18168628d5466e47609f,北京美兆健康体检中心,北京市东城区东长安街1号东方广场东方经贸城东二办公楼5层1-2单元,北京市,北京市,东城区,(010)85157766,unknown,
baidu,de2efa6624436b7b430245f2,北京市中山公园管理处卫生站,北京市东城区中华路4号,北京市,北京市,东城区,(010)66052702,unknown,
baidu,ecdc17d4bcc6105f2dfaa71e,求是杂志社医务室,北京市东城区北河沿大街甲83号,北京市,北京市,东城区,(010)64037100,unknown,
baidu,1cea15a94610fddc06fef5f8,北京永康弘鹭科技发展有限公司东单口腔诊所,北京市东城区东四南大街243号地铁5号线灯市口C口对面,北京市,北京市,东城区,(010)65255267,unknown,
baidu,b40f63fa30ce4132eedfca95,中国民主同盟中央委员会医务室,北京市东城区东厂北巷1号,北京市,北京市,东城区,(010)65590190,unknown,
baidu,321df760f13fa4a85abbbc29,永安堂大药房(百草药店),北京市东城区王府井大街50号天伦王朝酒店1层,北京市,北京市,东城区,,unknown,
baidu,977e6cbb2976d88008ccdd55,北京协和医院(东单院区)-风湿免疫科实验室,北京市东城区市东城区帅府园1号北京协和医院东院7楼,北京市,北京市,东城区,,unknown,
baidu,750ec1659110ed2a4d3a598e,北京医院-体检中心,北京市东城区东单大华路1号北京医院体检楼,北京市,北京市,东城区,(010)58115125,unknown,
baidu,6193209ffa19c0212fb90881,北京尤迈医学诊所,北京市东城区东单北大街1号1号楼三层A区,北京市,北京市,东城区,(010)65255388,unknown,
baidu,b0278bf39304a2e8b65f1e43,北京同仁堂(王府井百货店),王府井大街255号北京市百货大楼B1食品区西南侧,北京市,北京市,东城区,15201006279,unknown,
baidu,9b6024c8e44680e129fc48cb,北京协和医院(东单院区)-口腔科,北京市东城区协和医院门诊楼7层,北京市,北京市,东城区,,unknown,
baidu,9cbc93dc39affebfa4c7561c,北京凯士通诊所,北京市东城区东单北大街1号国旅大厦1号楼四层A区,北京市,北京市,东城区,(010)65127757,unknown,
baidu,9007bcbfe4ab641532f71d24,中华医学会卫生室,北京市东城区东四西大街42号,北京市,北京市,东城区,,unknown,
baidu,0523a14104b9ba04b33c81ef,永安堂大药房(沙滩后街店),北京市东城区沙滩后街19号,北京市,北京市,东城区,,unknown,
baidu,b6aa467f526a889baa0dd887,北京华侨大厦医务室,北京市东城区王府井大街2号北京华侨大厦,北京市,北京市,东城区,(010)65136666,unknown,
baidu,13df1919fe79454695ca0736,北京协和医院(东单院区)-放疗科,北京市东城区帅府园1号,北京市,北京市,东城区,,unknown,
baidu,6a39ae7bf5b3623f83a00cd2,同仁堂(博塔金街店),北京市东城区王府井大街176号丹耀大厦B1,北京市,北京市,东城区,15201006279,unknown,
baidu,121ec5d9cdb7fd2e80288a71,门急诊楼,北京市东城区东单北大街53号,北京市,北京市,东城区,,unknown,
baidu,ababb8da922f260007026f4a,北京协和医院-发热门诊,北京市东城区煤渣胡同北京协和医院(东单院区),北京市,北京市,东城区,,unknown,
baidu,fa835ce20c70c3afe912e4ef,永安堂大药房24小时售药(东单店),北京市东城区灯市口大街72号,北京市,北京市,东城区,,unknown,
baidu,e91f64b14efaa847af080fc1,北京永安堂大药房(东四药店),北京市东城区-东四南大街118号,北京市,北京市,东城区,(010)65253248,unknown,
baidu,f153ca2011fcc94bb15c6a50,康阳堂大药房(北京)有限公司,北京市东城区北河沿大街81号院1楼,北京市,北京市,东城区,(010)64088060,unknown,
baidu,fe1afcabf8a77288ede4a5a3,利君堂大药房(北河沿店),北京市东城区北河沿大街81-1号,北京市,北京市,东城区,(010)64073340,unknown,
baidu,e06b1c02f3765e2208f5eb5b,和颜一美医疗美容(东方广场院区),北京市东城区东长安街1号东方新天地F2,北京市,北京市,东城区,,unknown,
baidu,d9a564f0d0d5ede41d1d1160,北京普丽特口腔诊所,北京市东城区东长安街1号东方广场W2座2层206-207号,北京市,北京市,东城区,(010)85150687,unknown,
baidu,e063c7f1cbb119c4d13ce346,孔子学堂,北京市东城区北池子大街北京市第二十七中学西侧约90米,北京市,北京市,东城区,,unknown,
baidu,1cbe9a8c4e6b01cbc72ba122,北京第166中学附属校尉胡同小学,北京市东城区校尉胡同8号(金鱼胡同地铁站B东口步行300米),北京市,北京市,东城区,,unknown,
baidu,5c2dc21d110214046fc02cf9,北京书法学校,北京市东城区东华门街道北池子大街38号,北京市,北京市,东城区,,unknown,
baidu,f5216cc32b417a59ca09f01d,灯市口小学优质资源带北池子校区,北池子大街46号灯市口小学北,北京市,北京市,东城区,,unknown,
baidu,581879728271143ea5da3906,四合书院,北京市东城区中老胡同28号,北京市,北京市,东城区,13691474408,unknown,
baidu,ffd6d4030f6b718f17b54bc8,北京女青年会培训学校,北京市东城区甘雨胡同36号,北京市,北京市,东城区,,unknown,
baidu,420f50e7efc8546cf119372e,门墩文化艺术中心,五四大街甲18-1号,北京市,北京市,东城区,,unknown,
baidu,7474139912803477a0acc41e,帆阔美育,北京市东城区东华门街道王府井大街99号世纪大厦A座310-311号,北京市,北京市,东城区,18611685018,unknown,
baidu,065d61328a3e8f239de321df,北京市第二十七中学,北京市东城区东华门大街智德前巷11号,北京市,北京市,东城区,(010)65255586,unknown,
baidu,08f1f1f5a32238ca88db73f9,北京市第六十五中学,北河沿大街115号,北京市,北京市,东城区,(010)65251745,unknown,
baidu,ef6f054b911265b6364aaee1,空政电视剧艺术中心,北京市东城区灯市口大街东口同福夹道四号,北京市,北京市,东城区,,unknown,
baidu,7f24fd23a4df84f13be4a6af,美克教育(灯市口校区),北京市东城区东四南大街128号,北京市,北京市,东城区,15801315802,unknown,
baidu,e52f6d2fd56e926940afe6fe,北京市文教体育用品研究所,北京市东城区北池子大街27号,北京市,北京市,东城区,,unknown,
baidu,3959c87be427d5ee2fb17ee4,厚朴书房(王府井校区),北京市东城区王府井大街99号世纪大厦A座3楼313室,北京市,北京市,东城区,18518262662,unknown,
baidu,881a28e72a160347f942b2fe,东华门幼儿园,北京市东城区北河沿大街149号,北京市,北京市,东城区,(010)65254467,unknown,
baidu,d947993f9218a6ea40ab9a91,高科国教(北京)教育科技研究院,北京市东城区北池子大街33号,北京市,北京市,东城区,,unknown,
baidu,c818c43f46e595b6e856fa20,古代库典藏馆(中北文库),北京市东城区北池子大街78号院,北京市,北京市,东城区,13501399976,unknown,
baidu,bf6fbd0d4b901c07d23ce3c7,北京市民政教育管理学院,北京市东城区东四西大街36号院(东四地铁站G西南口步行120米),北京市,北京市,东城区,(010)58163810,unknown,
baidu,ab91ec19a70b18beddee8b34,丹尧国际艺术中心,北京市东城区王府井大街99号世纪大厦A座316号,北京市,北京市,东城区,13683119951,unknown,
baidu,0d40958509c15e89ae080f2a,方志自习室(灯市口店),东华门街道灯市口大街国中商业大厦721,北京市,北京市,东城区,,unknown,
baidu,5e8f914c29389a4508ccdde7,中国儿童艺术剧院马兰花艺术培训学校,北京市东城区甘雨胡同31号汉庭酒店4楼409室,北京市,北京市,东城区,,unknown,
baidu,a73d13664085a757b72655f3,北京市东城区东岸BEAM音乐实验学校,北京市东城区南河沿大街19号,北京市,北京市,东城区,4000581587,unknown,
baidu,381f8ef9db72a5824e55477b,学而思(张自忠路校区),北京市东城区东四北大街210号（张自忠路地铁站C出口旁边D出口正对面）,北京市,北京市,东城区,18519933590,unknown,
baidu,632b03250017abd86f3e1b50,东华门幼儿园分园,北京市东城区南河沿大街19号,北京市,北京市,东城区,,unknown,
baidu,4b013fcc73557c303310af6e,东城区东华门街道图书馆,北京市东城区北河沿大街甲143号,北京市,北京市,东城区,(010)65261517,unknown,
baidu,54bcaca5e84145676240a998,金婴音乐教室,北京市东城区东华门街道王府井大街168号新中国儿童用品商店负二楼,北京市,北京市,东城区,15210732523,unknown,
baidu,86972a4f5c8c68bdf50e7789,北京市劳动人民文化宫教育培训中心,北京市东城区故宫内,北京市,北京市,东城区,,unknown,
baidu,a59bf57446edd28b2b3a9f72,北京林木珠宝培训中心,北京市东城区王府井大街99号世纪大厦-A座AF7-713C,北京市,北京市,东城区,,unknown,
baidu,056cf64330aee7c903ff2d78,红羽美术,北京市东城区五四大街18号,北京市,北京市,东城区,,unknown,
baidu,e6ab687829fe86d243024568,中国社会科学院国际法研究所,北京市东城区景山街道沙滩北街15号,北京市,北京市,东城区,,unknown,
baidu,cc788fde072b2f8a88fc06f9,北京景山学校,东城区灯市口大街53号,北京市,北京市,东城区,(010)65223416,unknown,
baidu,38e1466869ef79c5d5b74e63,北京市第二十五中学,北京市东城区灯市口大街55号,北京市,北京市,东城区,(010)65257525,unknown,
baidu,b943d87ff12b5856b1077de9,中国社会科学院财经战略研究院,北京市东城区东厂胡同1号,北京市,北京市,东城区,,unknown,
baidu,61fae623828d3c133310af54,中国社会科学院工业经济研究所,北京市东城区东厂胡同1号,北京市,北京市,东城区,,unknown,
baidu,5e8cf85d9d7d7cac0869d95f,中国民族画院,北京市东城区北河沿大街81-2号,北京市,北京市,东城区,,unknown,
baidu,08fc93df3d1b1c919b68b4c9,东城区锡拉胡同托儿所,北京市东城区锡拉胡同19号,北京市,北京市,东城区,(010)65251975,unknown,
baidu,e56bf5e3f70f8c5d0782c21b,青年会高尔夫球练习场,东单北大街3号青年会大楼10层,北京市,北京市,东城区,,unknown,
baidu,b5cdbbe239e1eeb60c0a70a8,教育信息中心,北京市东城区内环到三环里东公街9号,北京市,北京市,东城区,,unknown,
baidu,ef64a3f88715d7353913fd2f,中国社会科学院金融研究所,北京市东城区王府井大街27号,北京市,北京市,东城区,,unknown,
baidu,aa0b8a62cf7f79848b36ee4d,英孚教育(东方广场培训中心),北京市东城区东长安街1号东方广场W1座6层604A,北京市,北京市,东城区,,unknown,
baidu,20e9934f7874fd35c7f025d0,北京市第一六一中学附属小学,北京市西城区北长街71号,北京市,北京市,西城区,,unknown,
baidu,2fcc56aa6ab93eee902ca305,中国徐悲鸿画院,北京市东城区北河沿大街83号国家文物局院红楼6层,北京市,北京市,东城区,(010)64021108,unknown,
baidu,fc5dbb4bb1f8ad60ab175ac6,中国社会科学院生态文明研究所,北京市东城区王府井大街27号,北京市,北京市,东城区,,unknown,
baidu,2a5b16678f885761a80dd8c0,北京市第一六五中学,北京市东城区育群胡同45号,北京市,北京市,东城区,(010)64043902,unknown,
baidu,b292b3aa7893b957be4842d1,北京教育学院(黄化门校区),北京市东城区黄化门街5-1号,北京市,北京市,东城区,,unknown,
baidu,4e8053b67105a8140d3dda97,北京市第一六六中学(西校区),北京市东城区同福夹道3号,北京市,北京市,东城区,(010)65253226,unknown,
baidu,b3aa435d430d870b157643f9,北京市东城区灯市口小学东高房小学校区,北京市东城区东高房胡同13号（近景山东门）,北京市,北京市,东城区,"(010)64032063,(010)64032310",unknown,
baidu,fa01e9378a11f04a774ff1f9,冶金工业信息标准研究院,北京市东城区灯市口大街74号,北京市,北京市,东城区,,unknown,
baidu,7a579fcba3546e1cb1077dce,北京市东城区兆如职业培训学校,北京市东城区黄化门街8号,北京市,北京市,东城区,,unknown,
baidu,af637d88ac88c32e0c0e6bd6,北京市第二中学,北京市东城区内务部街15号,北京市,北京市,东城区,(010)65252231,unknown,
baidu,7ea2d5a64712ef709ff77939,中国社会科学院人口与劳动经济研究所,北京市东城区东华门街道王府井大街27号,北京市,北京市,东城区,,unknown,
baidu,d0d25dd842444280725e80aa,北京市第五中学分校,北京市东城区地安门东大街127号,北京市,北京市,东城区,(010)64039667,unknown,
baidu,6446fed4cec8413f8f55ecf7,府学胡同小学(美术馆后街校区),北京市东城区后街57号,北京市,北京市,东城区,(010)84034452,unknown,
baidu,15e1e85e2c9e7aa258109328,北京市北海幼儿园(地安门西大街),北京市西城区地安门西大街22号,北京市,北京市,西城区,(010)64070491,unknown,
baidu,f0b286733a1683197ec8764a,近代史研究所科研楼,北京市东城区东厂胡同1号,北京市,北京市,东城区,,unknown,
baidu,2d9ec857c0092e070c0e6b6f,北京市第三幼儿园,北京市东城区中华路4号中山公园内,北京市,北京市,东城区,,unknown,
baidu,435d7aea7b502c355abbbcfe,灯市口小学,北京市东城区灯市口北巷14号,北京市,北京市,东城区,(010)65235708,unknown,
baidu,895e9c0d772c60028936eeb1,东城区体育运动学校分校,北京市东城区东华门街道灯市口大街53号,北京市,北京市,东城区,,unknown,
baidu,ff33e685db28935b2bb97ce7,中央戏剧学院(东城校区),北京市东城区东棉花胡同39号,北京市,北京市,东城区,"(010)56620314,(010)64071253",unknown,
baidu,d6df59e8d80980080969d91f,北京四中(初中部),北京市西城区教场胡同4号,北京市,北京市,西城区,(010)66175061,unknown,
baidu,afba48c70280e5448605bf07,北京财贸职业学院(东城校区),北京市东城区礼士胡同41号,北京市,北京市,东城区,(010)65231250,unknown,
baidu,2c1082b01028556ca8175ac8,北京市第二十四中学,北京市东城区外交部街31号,北京市,北京市,东城区,(010)65254402,unknown,
baidu,8ca69c70e393be618bfc061e,北京市自忠小学,北京市西城区西长安街街道府右街27号,北京市,北京市,西城区,(010)66030179,unknown,
baidu,d6df91c1973f9d17f7b91633,中央文史研究馆,北京市东城区东大街11号,北京市,北京市,东城区,,unknown,
baidu,3aa426a5e007f3b11e5800d8,北京市第一六六中学,北京市东城区东四六条44号166室,北京市,北京市,东城区,(010)64042204,unknown,
baidu,2e5257ec0e4b59f78a36eeea,北京东城文化发展研究院,北京市东城区东黄城根北街临19号,北京市,北京市,东城区,13261581920,unknown,
baidu,dffd4642d2adb1b23c9a5ef9,北京市府学胡同小学,北京市东城区府学胡同65号,北京市,北京市,东城区,(010)64045995,unknown,
baidu,74afc4ad2b73c753213bf201,大教室,五四大街29号北京大学红楼内F2,北京市,北京市,东城区,,unknown,
baidu,ffd6d40371bb738f16b54b98,北京市前门外国语学校,北京市东城区前门东大街甲14号,北京市,北京市,东城区,(010)67023169,unknown,
baidu,67ea55102fefb56e471a326a,中国社会科学院法学研究所-图书馆,北京市东城区沙滩北街15号,北京市,北京市,东城区,,unknown,
baidu,81cdcfda2c999e2694ec840c,史家小学一年级部,北京市东城区金宝街65,北京市,北京市,东城区,(010)64065588,unknown,
baidu,c34dc2d95648ad718bb988cf,藤门国际教育(北京东方分公司),北京市东城区东长安街东方广场西办公楼W1座8层,北京市,北京市,东城区,15901409455,unknown,
baidu,0129ff18e519777f6d20b92a,北京市东城区职业大学(美术馆校区),北京市东城区东四西大街48号（中国美术馆地铁站B东北口步行220米）,北京市,北京市,东城区,,unknown,
baidu,c7dda8b0a9d89c1b3a04b1bc,北京教育学院体育艺术学院,北京市东城区黄化门街5号北京教育学院黄化门校区,北京市,北京市,东城区,,unknown,
baidu,edee42456509e92bafee7a9e,北京市自忠小学(长安校区),北京市西城区东绒线胡同41号,北京市,北京市,西城区,(010)66004202,unknown,
baidu,dec34b8bc8ef0960e01103ef,亨青艺术(新燕莎金街购物广场店),王府井大街301号新燕莎金街购物广场地下二层MB228,北京市,北京市,东城区,,unknown,
baidu,08fc93df23cb1e919a68b499,前门小学,北京市东城区崇文门西河沿甲211号,北京市,北京市,东城区,(010)67016684,unknown,
baidu,d481c59aac578b1bdbeced7f,育才宝贝幼儿园,北京市东城区前厂胡同21号,北京市,北京市,东城区,13910658226,unknown,
baidu,4ea3f2f10142dcaaaecb662b,中国佛教文化研究所,北长街27号,北京市,北京市,西城区,,unknown,
baidu,ccf220ee1ae411022cb96d83,中国社会科学院考古研究所文化遗产保护研究中心,北京市东城区东华门街道(中国美术馆地铁站D2西南口步行170米),北京市,北京市,东城区,,unknown,
baidu,667732fcc51b54d2a2a934cd,中外合作北京二十五中英文高中,北京市东城区东华门街道灯市口大街55号,北京市,北京市,东城区,,unknown,
baidu,56e88cba05578d65a4c756f9,北京市东城区什锦花园小学,北京市东城区后街48号,北京市,北京市,东城区,,unknown,
baidu,f630e71abcb649c60e3ddae7,当代社会服务研究院,北京市东城区东安门大街55号王府世纪4楼418室,北京市,北京市,东城区,13601218515,unknown,
baidu,7e34d9a5370513b0ad31e546,陶氏私立两等小学堂,北京市东城区大鹁鸽胡同13号,北京市,北京市,东城区,,unknown,
baidu,2b9040aca4797df82d473324,中国社会科学院旅游研究中心,北京市东城区东厂胡同1号院中国社会科学院财经战略研究院6层608室,北京市,北京市,东城区,,unknown,
baidu,71de019a588cad3f0482c244,北京市劳动人民文化宫图书馆,北京市东城区东长安街太庙,北京市,北京市,东城区,,unknown,
baidu,9dcde438f97f5edff7e73bd9,第二阅览室,五四大街29号北京大学红楼内F1,北京市,北京市,东城区,,unknown,
baidu,316763cb7e5daba8d6851f81,文科学长室,五四大街29号北京大学红楼内F2,北京市,北京市,东城区,,unknown,
baidu,d0109b983fb4114430169bcc,北京市电子科技情报研究所(北河沿大街),北京市东城区北河沿大街79号,北京市,北京市,东城区,(010)64034890,unknown,
baidu,e5cfe2502e3b7375b13c813f,中国航空工业集团公司总部老年大学,北京市东城区亮果厂5号,北京市,北京市,东城区,,unknown,
baidu,e22cbe8e89eeb377fb2d618f,清华大学(医学部),北京市东城区东单三条9号,北京市,北京市,东城区,,unknown,
baidu,5a0cfbdb4fd277b2adb22a82,易读宝(apm店),北京市东城区王府井大街138号apmB1,北京市,北京市,东城区,13801256610,unknown,
baidu,e68da15310726a1452e5c5f8,中国语言资源开发应用中心,北京市东城区王府井大街36号商务印书馆内,北京市,北京市,东城区,,unknown,
baidu,15ed53ce618182549222e0d3,国家工程技术图书馆(第二分馆),北京市东城区灯市口大街74号,北京市,北京市,东城区,,unknown,
baidu,7dc135b0a30202b707026f34,家辉培优初中(浦东浦建路教学中心),北京市东城区东华门街道王府井大街301号东华金街购物中心F3层,北京市,北京市,东城区,(010)50920501,unknown,
baidu,4be7a7555800e64db75f1e75,阅读北京·爱上书香主题阅读空间,北京市东城区中华路4号来今雨轩茶社,北京市,北京市,东城区,,unknown,
baidu,72e57fd73abdc3d2f8dc8530,北京市燃气集团燃气学院(南院),北京市东城区北池子大街38号(近南院),北京市,北京市,东城区,,unknown,
baidu,191758811612a47eeb1e97ec,北京市东城区教育技术装备中心,北京市东城区王府半岛酒店西侧50米,北京市,北京市,东城区,,unknown,
baidu,30f19e7b0c40f7af2dfaa736,北京市东城区卫生健康委员会第一幼儿园,北京市东城区锡拉胡同19号,北京市,北京市,东城区,,unknown,
baidu,cf94fef2dc2b16f3fda77807,泳乐游泳健身(王府井店),金鱼胡同3号北京诺富特和平宾馆二楼（近灯市口地铁站A出口）,北京市,北京市,东城区,18201025252,unknown,
baidu,22c3d474de4787c8081cc7a9,漪莲轩,北京市西城区文津街1号(故宫北)北海公园内,北京市,北京市,西城区,,unknown,
baidu,ee3c099eb91ae98fa2d23044,北京卫生职业学院(第二院区妇产医院分校),北京市东城区骑河楼北巷首都医科大学附属北京妇产医院(西院区),北京市,北京市,东城区,,unknown,
baidu,1155626aaf763e05cae33cda,东华门,观光2线,北京市,北京市,东城区,,unknown,
baidu,5f9054a0420f7705250bd0ff,骑河楼,2路;60路;82路;103路;141路;夜2路,北京市,北京市,东城区,,unknown,
baidu,434b13769419a7fbf4b91659,王府世纪-地下停车场,北京市东城区东安门大街55号,北京市,北京市,东城区,,unknown,
baidu,59eb1be3a39cf978095cb316,普度寺-地下停车场,北京市东城区普渡寺西巷普度寺,北京市,北京市,东城区,,unknown,
baidu,d4d13bb398712197dc1e526a,东安门,2路;82路;夜2路,北京市,北京市,东城区,,unknown,
baidu,7512383e7f6bf160f5b91621,沙滩路口南,2路;141路,北京市,北京市,东城区,,unknown,
baidu,c5d58e53e5f41d811df74d16,沙滩路口西,58路;101路;103路;109路;111路;128路;夜13路;夜2路,北京市,北京市,东城区,,unknown,
baidu,5d57ec8dd723eb5f95ca0760,景山东门,58路;111路;124路;观光3线;夜2路,北京市,北京市,东城区,,unknown,
baidu,9104c6ef154af9f1aaf0cd62,神武门,58路;101路;103路;109路;124路;128路;观光2线;观光3线;观光3线区间;夜13路,北京市,北京市,西城区,,unknown,
baidu,d433cf8de308c0bc0ab93a69,北京华娱环球文化传媒有限公司第三频道-停车场,北京市东城区北池子大街北京华娱环球文化传媒有限公司第三频道,北京市,北京市,东城区,,unknown,
baidu,851e681678d7ace457bfff87,沙滩北街甲2号院-停车场,北京市东城区五四大街33号,北京市,北京市,东城区,,unknown,
baidu,12aa5266e7b1730403ec0177,金鱼胡同,地铁8号线,北京市,北京市,东城区,,unknown,
baidu,712c89bf156a175462180984,北京王府井银泰in88-地下停车场,北京市东城区王府井大街88号,北京市,北京市,东城区,,unknown,
baidu,08e20112eefd90defa42b242,王府井百货-地下停车场,北京市东城区王府井大街255号,北京市,北京市,东城区,,unknown,
baidu,25bcf8abe263a3b90d3dda4f,apm-地下停车场,北京市东城区王府井大街138号apmB2,北京市,北京市,东城区,,unknown,
baidu,2135e1b33df2dd22fbdc8514,共享单车停放点,金鱼胡同北京市东城区校尉胡同小学西北侧约110米,北京市,北京市,东城区,,unknown,
baidu,aedafb2683b10d3552e5c53b,中国美术馆,地铁8号线,北京市,北京市,东城区,,unknown,
baidu,940aeb3c98d5a0218a2fb5de,天安门东,地铁1号线八通线,北京市,北京市,东城区,,unknown,
baidu,e00e966a79926335bb17e710,景山公园-西侧地上停车场,北京市西城区景山西街44号景山公园,北京市,北京市,西城区,,unknown,
baidu,e21034271941f3ca100daadc,锡拉胡同,60路,北京市,北京市,东城区,,unknown,
baidu,b1599ebbc16e3c0d77e5b65a,中国中丝集团公司-接送点,中国中丝集团公司附近,北京市,北京市,东城区,,unknown,
baidu,44dae61997b1534316a1902b,王府井,地铁1号线八通线;地铁8号线,北京市,北京市,东城区,,unknown,
baidu,5db11715374475423ce23130,东安门大街,103路;141路;观光2线,北京市,北京市,东城区,,unknown,
baidu,43aec313290410696e3e1bde,灯市口,地铁5号线,北京市,北京市,东城区,,unknown,
baidu,75e43bc605b720dd3586f4db,中国联合国协会-停车场,北京市东城区南池子大街71号,北京市,北京市,东城区,,unknown,
baidu,60f2151b5e456d10dd1e520b,世纪大厦-地下停车场,北京市东城区王府井大街99号,北京市,北京市,东城区,,unknown,
baidu,002975204d3b1e9b9968b4de,天安门西,地铁1号线八通线,北京市,北京市,西城区,,unknown,
baidu,4d388f0396275777c06c14de,东四,地铁5号线;地铁6号线,北京市,北京市,东城区,,unknown,
baidu,e39da9161c1b111ead080f62,银闸社区服务站-地上停车场,北京市东城区北河沿大街141号,北京市,北京市,东城区,,unknown,
baidu,1e1a4adabf642226aecb66e8,沙滩路口西,58路;101路;103路;109路;111路;128路;夜13路;夜2路,北京市,北京市,东城区,,unknown,
baidu,66f415a9c25a31d7128824fc,智德北巷1号院甲145号院-地上停车场,北京市东城区智德北巷北河沿大街甲145号院,北京市,北京市,东城区,,unknown,
baidu,988e3c64c4db7399d13ce3cd,北池子北口,观光2线,北京市,北京市,东城区,,unknown,
baidu,cfaef99f6672f32dad31e535,南锣鼓巷,地铁6号线;地铁8号线,北京市,北京市,东城区,,unknown,
baidu,c4a6d25edfcd36b6d42ce254,东华门幼儿园西北侧-停车场,北京市东城区北河沿大街东华门幼儿园西北侧,北京市,北京市,东城区,,unknown,
baidu,283ad5fa47495d17e8e582db,中国中丝集团公司-地上停车场,北京市东城区北沿河大街95号,北京市,北京市,东城区,,unknown,
baidu,71698ff92cc007ff6240a96b,北京银行(沙滩支行)-地上停车场,北京市东城区北河沿大街97号,北京市,北京市,东城区,,unknown,
baidu,9e3c1ebba1e2976e4354d7eb,灯市西口,104路;108路;111路;夜18路;夜21路,北京市,北京市,东城区,,unknown,
baidu,ddf8806835284eacd718b7de,东单,地铁1号线八通线;地铁5号线,北京市,北京市,东城区,,unknown,
baidu,035b64541a3eb4aa1fe9996a,南锣鼓巷-立体停车场,北京市东城区炒豆胡同南锣鼓巷,北京市,北京市,东城区,,unknown,
baidu,1c14f62b19cf1f305cbe86b0,星星充电充电站(王府井百货大楼地下站),北京市东城区王府井大街255号王府井百货大楼B3停车场,北京市,北京市,东城区,4008280768,unknown,
baidu,fa01e93734876e4b774ff173,国际艺苑大酒店-地上停车场,北京市东城区王府井大街48-1号,北京市,北京市,东城区,,unknown,
baidu,ef1af2dc3108a214441a3238,中国工商杂志社-停车场,东城区北河沿大街北京市第六十五中学北侧约180米,北京市,北京市,东城区,,unknown,
baidu,faa65285a6f0588cb6f42fc6,北京天伦王朝酒店-立体停车场,北京市东城区王府井大街二十号,北京市,北京市,东城区,,unknown,
baidu,4286a323a31a0b2bfa221365,沙滩路口北,60路;82路,北京市,北京市,东城区,,unknown,
baidu,6999c2f77e8446c6e81e9792,涵芬楼书店-地上停车场,北京市东城区王府井大街36号商务印书馆,北京市,北京市,东城区,,unknown,
baidu,bfa2369f6aef3661132935cd,01065自行车租赁点(东皇城根南街),北京市东城区东黄城根南街中国船级社皇城根小区,北京市,北京市,东城区,,unknown,
baidu,2627c0076d2218bc14c8f6e2,公共自行车大甜水井胡同西口站,北京市东城区南河沿大街与大甜水井胡同交叉口东南20米（红霞公寓）,北京市,北京市,东城区,,unknown,
baidu,8d0658549b0c105878dbd2de,前门,地铁2号线内环;地铁2号线外环;地铁8号线,北京市,北京市,东城区,,unknown,
baidu,a4e10fcaa35f3ba55c0d02cc,北海北,地铁6号线,北京市,北京市,西城区,,unknown,
baidu,0e283020d139f925c82915de,张自忠路,地铁5号线,北京市,北京市,东城区,,unknown,
baidu,0aa5496fd83fbaa12b06ced0,沙滩后街55号院-停车场,北京市东城区沙滩后街55-1号,北京市,北京市,东城区,,unknown,
baidu,02a6130ee20c796972210bca,汉庭酒店(北京王府井步行街店)西侧停车场,北京市东城区王府井大街20号,北京市,北京市,东城区,,unknown,
baidu,0b66b423114ccd2202897298,前门西,9路;22路;44路内环;67路;137路;142路;332路;夜5路,北京市,北京市,西城区,,unknown,
baidu,6ad694888b7b190a7adbd2c6,中国船级社皇城根小区-停车场,北京市东城区东皇城根南街34号,北京市,北京市,东城区,,unknown,
baidu,7768693dd524b9b8fb2d6112,漫心酒店(北京王府井店)东南侧-停车场,北京市东城区东安门大街华雅快捷连锁酒店南门西侧约40米,北京市,北京市,东城区,,unknown,
baidu,988b20ecb1a76ec517c8f69c,王府世纪-接送点,北京市东城区王府世纪附近,北京市,北京市,东城区,,unknown,
baidu,03da405e6f0fc20e203bf210,北京市百货大楼-接送点,北京市东城区百货大楼附近,北京市,北京市,东城区,,unknown,
baidu,c6257645690f6122b2077d69,世纪大厦-接送点,北京市东城区世纪大厦附近,北京市,北京市,东城区,,unknown,
baidu,0b093a2b90f33b4bc92915a9,中国船级社认证公司业务楼-停车场,北京市东城区东黄城根南街中国船级社皇城根小区,北京市,北京市,东城区,,unknown,
baidu,b7817b35fe0344b026d2bbc9,沙滩宾馆北侧停车场,北京市东城区沙滩后街28号沙滩宾馆,北京市,北京市,东城区,,unknown,
baidu,6ce16d4367635035dbeced13,锡拉胡同小区-地上停车场,北京市东城区锡拉胡同10号,北京市,北京市,东城区,,unknown,
baidu,9912cc7b67299e5ba7c75685,中国国民党革命委员会中央委员会-停车场,北京市东城区东黄城根南街84号,北京市,北京市,东城区,,unknown,
baidu,eda345d28a9dfe98fbf0cba1,灯市西口,104路;夜18路;夜21路,北京市,北京市,东城区,,unknown,
baidu,7f24adeee9dab198f7e73b46,灯市口大街西口,北京市东城区灯市口大街北京国际艺苑皇冠假日酒店,北京市,北京市,东城区,,unknown,
baidu,8ea616c018d2babfb75f1e24,学者公寓-停车场,北京市东城区东厂胡同社科博源宾馆,北京市,北京市,东城区,,unknown,
baidu,fde5143fc78508773be4a64a,王府井西街口,北京市东城区大阮府胡同北京市百货大楼西南侧,北京市,北京市,东城区,,unknown,
baidu,6831d68f4fc29cd96ca3cc01,南门站自行车租赁点,北京市西城区景山前街景山公园,北京市,北京市,西城区,,unknown,
baidu,072f7417eff3b1300f0a70f1,商务印书馆(王府井店)-地上停车场,北京市东城区王府井大街34号,北京市,北京市,东城区,,unknown,
baidu,848399d438a8b030ca1b9513,北京市公共自行车,北京市东城区五四大街中国美术馆,北京市,北京市,东城区,,unknown,
baidu,d2d7cb5a8e0d199c03ff2dbf,中国银行(东安门支行)-内部地上停车场,北京市东城区东安门大街19号中国银行(东安门支行),北京市,北京市,东城区,,unknown,
baidu,abb59d3577eb036a8936eef3,王府中环-接送点,北京市东城区王府中环西座附近,北京市,北京市,东城区,,unknown,
baidu,7ee6fa8c2cdc7463babd63ba,中国社会科学院国际法研究所-停车场,北京市东城区沙滩北街15号,北京市,北京市,东城区,,unknown,
baidu,665490ae0f17d5d9f7eafc21,长安杂志社-内部专用地下停车场,北京市东城区银闸胡同22号,北京市,北京市,东城区,,unknown,
baidu,e88edf80e3e40399d0ff2317,沙滩北街甲-2号院-接送点,北京市东城区沙滩北街甲-2号院附近,北京市,北京市,东城区,,unknown,
baidu,db15875cf4ac09292cb908cc,东方文化大厦-接送点,北京市东城区东方文化大厦附近,北京市,北京市,东城区,,unknown,
baidu,61633c34918dd7d09122e0c3,宝马充电站(宝马站王府井银泰百货地下站),北京市东城区王府井大街88号(地下),北京市,北京市,东城区,,unknown,
baidu,4a88b94081d66932d8d89105,韶九胡同-15号院-停车场,北京市东城区韶九胡同15号,北京市,北京市,东城区,,unknown,
baidu,87b32bfc5e7eae572fe67be7,北京利生体育商厦-内部专用地下停车场,北京市东城区王府井大街201号,北京市,北京市,东城区,,unknown,
baidu,cebbabccc8762fbe4207c1b3,北京APM-接送点,北京APM附近,北京市,北京市,东城区,,unknown,
baidu,19fb3e6699be5052cae33c2f,求是杂志社(沙滩北街)南侧-停车场,北京市东城区五四大街沙滩北街甲-2号院东侧,北京市,北京市,东城区,,unknown,
baidu,9af2cba9a721a6e94c6d46fc,润诚达充电站(北京升级专属站点),北京市东城区王府井大街139号,北京市,北京市,东城区,17671736679,unknown,
baidu,9b620e9c5a7fc1e400ec01dc,学者公寓-立体停车楼,北京市东城区王府井大街27号(首都剧院斜对面),北京市,北京市,东城区,,unknown,
baidu,471e2b74a82a99566849f3cb,菜厂胡同-路侧停车场,北京市东城区菜厂胡同王府井步行街,北京市,北京市,东城区,,unknown,
baidu,992d3c186f9b1c5c100daaea,红霞公寓-停车场,北京市东城区王府井晨光街10号,北京市,北京市,东城区,,unknown,
baidu,5b30051e5ff89c501894c64b,中华人民共和国最高人民检察院-地下停车场,北京市东城区北河沿大街147号,北京市,北京市,东城区,,unknown,
baidu,8beba30447132c14c336447d,中华人民共和国最高人民检察院南侧临时停车点,北京市东城区箭杆胡同北京市第二十七中学北侧约70米,北京市,北京市,东城区,,unknown,
baidu,974db3097b6a42668bfc065e,中华人民共和国最高人民检察院-停车场,北京市东城区北河沿大街147号,北京市,北京市,东城区,,unknown,
baidu,963eb9ebaf481f6390114c87,戟门桥,北京市东城区东华门街道飞龙桥胡同劳动人民文化宫,北京市,北京市,东城区,,unknown,
