source,bd_uid,name,address,province,city,area,tel,poi_type,tag
baidu,38bb4770be4d6491e8e582a0,神龙品鸽店(杏花苑店),健康路52号,新疆维吾尔自治区,阿克苏地区,库车市,13565162542,unknown,
baidu,56abf228ff238e161df74d6f,嘉悦北京烤鸭,杏花苑48号楼119号商铺,新疆维吾尔自治区,阿克苏地区,库车市,,unknown,
baidu,fbd1cbb82b79ca3185420e49,太古里美食广场,新疆维吾尔自治区阿克苏地区库车市五一路与文化路交汇处友好时尚购物中心4楼,新疆维吾尔自治区,阿克苏地区,库车市,,unknown,
baidu,ad1bfa10ca950ee30782c2e7,尚品海之宴,文化东路太古里美食广场9号楼2层,新疆维吾尔自治区,阿克苏地区,库车市,(0997)7990099,unknown,
baidu,a121fc31b155a379e856fab0,蜀南小镇(时尚小区店),五一中路川渝大酒店三楼,新疆维吾尔自治区,阿克苏地区,库车市,(0997)7799777,unknown,
baidu,991b813d9790f8f13010afa9,金柱大盘鸡(幸福城店),阿克苏地区库车市幸福城商住小区5幢1层111号、112号商铺,新疆维吾尔自治区,阿克苏地区,库车市,18009971402,unknown,
baidu,0587a85796c91a3456bfff81,悦晟餐厅,阿克苏地区库车市光明路库车县第八小学西侧约40米,新疆维吾尔自治区,阿克苏地区,库车市,,unknown,
baidu,7a8f084f6dbcb0396849f361,肯德基(库车店),文化中路160号,新疆维吾尔自治区,阿克苏地区,库车市,"(0997)7126699,15569162505",unknown,
baidu,b1a0defa86ddfd70bbbd637f,宣德火锅(库车店),幸福社区万华酒店2幢2层B201号商铺,新疆维吾尔自治区,阿克苏地区,库车市,(0997)6686000,unknown,
baidu,1cd2ed28e45f438141d63e4e,小红帽烧烤(文化东路店),文化东路108号杏花苑小区48幢108号商铺,新疆维吾尔自治区,阿克苏地区,库车市,18083914078,unknown,
baidu,724e72cac24aa691b13c817a,好厨匠辣椒炒肉,时尚小区东北,新疆维吾尔自治区,阿克苏地区,库车市,19999739888,unknown,
baidu,e9c54529041210e0593ac8c4,蓉城老火锅(金桥太古里店),太古里商业广场1栋2层204商铺,新疆维吾尔自治区,阿克苏地区,库车市,(0997)7770111,unknown,
baidu,55199bb0f8d898bbb45f1eea,老机场新疆菜(胜利城小区店),胜利路胜利城小区西南侧,新疆维吾尔自治区,阿克苏地区,库车市,"(0997)7770888,15899322399",unknown,
baidu,7565a4cb1b6dd5eeb04c49c7,新川苑饭店,天山中路金都景苑小区底商二楼,新疆维吾尔自治区,阿克苏地区,库车市,(0997)7123178,unknown,
baidu,24886d688de84bfe0782c2e1,姥家大锅台(库车幸福城店),健康北路幸福城小区西门106商铺底商（宜尚酒店对面）,新疆维吾尔自治区,阿克苏地区,库车市,19390578955,unknown,
baidu,e36c4382c76a4f34ed74f8c3,古莱莱草湖果木炭馕坑肉,新城街道文化东路128号(五一中路与文化东路交汇处东南角),新疆维吾尔自治区,阿克苏地区,库车市,18109978188,unknown,
baidu,e46c6b67e34881f01ef74dde,龟兹火爆辣子鸡,阿克苏地区库车市文化东路时尚小区东侧约110米,新疆维吾尔自治区,阿克苏地区,库车市,15999412389,unknown,
baidu,e6cc4f2e536514529868b415,吃虾趣(幸福城店),银河路库车丽橙装饰对面,新疆维吾尔自治区,阿克苏地区,库车市,15886828111,unknown,
baidu,2e4085bc63172bea8415413c,育英餐厅,阿克苏地区库车市光明路库车县第八小学西侧约40米,新疆维吾尔自治区,阿克苏地区,库车市,19809978358,unknown,
baidu,d2eee09158618ae39b68b48c,纳再把格美食城,阿克苏地区库车市健康北路库车完美宾馆东北侧约100米,新疆维吾尔自治区,阿克苏地区,库车市,"13201174535,18096970412",unknown,
baidu,ba45d3c252c3aa3a715e8014,和合冷饮,文化东路杏花苑小区48号楼1层133号商铺,新疆维吾尔自治区,阿克苏地区,库车市,"18997676776,18997876565",unknown,
baidu,3fcb73a3f58d131443ab9a18,百富烤霸烤鸡汉堡(库车友好店),五一路与文化路交汇处友好时尚购物中心一楼,新疆维吾尔自治区,阿克苏地区,库车市,(0997)7133189,unknown,
baidu,c1d72248f6218eb70869d960,渔夫纸包鱼芋儿鸡,杏花苑社区金天大厦一层106号商铺,新疆维吾尔自治区,阿克苏地区,库车市,18399573358,unknown,
baidu,ad690fc07216d1a6b04c4912,润酷RK·火锅串串香(库车店),伊西哈拉镇银河路幸福城小区二号商铺,新疆维吾尔自治区,阿克苏地区,库车市,13279078866,unknown,
baidu,bda78cbe5d552d962b201aad,德克士(库车时运店),新城街道幸福社区文化路与五一路交叉口东北侧库车中源汇城市生活广场B幢,新疆维吾尔自治区,阿克苏地区,库车市,(0997)7131166,unknown,
baidu,bea6ba871117906d72455b51,锦祥羊肉汤,新城街道杏花苑社区文化中路金天大厦1栋1层110号,新疆维吾尔自治区,阿克苏地区,库车市,15393669203,unknown,
baidu,5f1adcdf42dca55d38e4a616,槐月伊犁手工冰淇淋,文化东路17-15号,新疆维吾尔自治区,阿克苏地区,库车市,,unknown,
baidu,35c24ab60bb584e935b06c60,邻里香豆花饭,新城街道杏花苑社区文化路以南、五一路以东时尚小区9幢1层106号商铺,新疆维吾尔自治区,阿克苏地区,库车市,,unknown,
baidu,fba766d7f16413cf9ff7797d,曼立客中西餐原料,阿克苏地区库车市银河路库车县第八小学东南侧约90米,新疆维吾尔自治区,阿克苏地区,库车市,,unknown,
baidu,858230e0ac93e42202294fc7,南湖夜市,天山中路100号,新疆维吾尔自治区,阿克苏地区,库车市,,unknown,
baidu,37e8e0300737652bc42ba1d8,北木南烤肉和酒(库车店),健康路御景湾水岸天街206,新疆维吾尔自治区,阿克苏地区,库车市,18609970731,unknown,
baidu,e12e182b66dc072f4afd3f5b,N多寿司(幸福城店),幸福社区幸福城商住小区第4幢一层125号商铺,新疆维吾尔自治区,阿克苏地区,库车市,"(0997)7231666,18299998191",unknown,
baidu,657ed83b09e5651fd5851f4c,大河宴·椒麻鱼火锅(库车胜利路店),瑞嘉华府1号楼一层10号商铺,新疆维吾尔自治区,阿克苏地区,库车市,(0997)7306111,unknown,
baidu,6bbfb404c58635ee57bffff3,虾工坊(杏花苑店),健康路杏花苑,新疆维吾尔自治区,阿克苏地区,库车市,15999212297,unknown,
baidu,27bd1a61078c763603ec0164,溢香阁大盘鸡(健康路店),健康路杏花苑东门南行50米,新疆维吾尔自治区,阿克苏地区,库车市,18299996509,unknown,
baidu,cc302cc60a2d14ccdeee8b29,康家大盘鸡(健康路店),健康路丝路明珠2号楼二楼,新疆维吾尔自治区,阿克苏地区,库车市,13779435536,unknown,
baidu,7b4edbd91e93bb720189729c,乌孜古风味凉皮旗舰店(库车店),天山路北侧餐饮娱乐商业街A座1层136-137号商铺,新疆维吾尔自治区,阿克苏地区,库车市,(0997)7772324,unknown,
baidu,96a77a762c49cc1f601809cd,牛赛宫丸子汤店(幸福城店),幸福社区幸福城商住小区4幢1层123号商铺,新疆维吾尔自治区,阿克苏地区,库车市,15999220209,unknown,
baidu,2cae849b2a3f236aacee7a46,陈红早餐店·新疆特色菜,五一北路凯旋早市1幢2层203号,新疆维吾尔自治区,阿克苏地区,库车市,,unknown,
baidu,712bfb8dbe2ee6468a36ee58,水岸天街星光夜市,阿克苏地区库车市健康路丝珞明珠西南侧约50米,新疆维吾尔自治区,阿克苏地区,库车市,18999068567,unknown,
baidu,42ccf18b22e9ec8aa20464b7,牛鲜生自助火锅生活馆(幸福城店),幸福城南门3-2-201商铺,新疆维吾尔自治区,阿克苏地区,库车市,,unknown,
baidu,cb4f467fe557b22b6018094b,蜜雪冰城(五一大厦店),新城街道天山中路团结步行街二期A座1层121号商铺,新疆维吾尔自治区,阿克苏地区,库车市,13569671131,unknown,
baidu,674b6c3592e289c772210ba9,慕巴夫鲜花主题蛋糕(新城街道店),健康北路金桥太古里商业街5号楼1层106商铺,新疆维吾尔自治区,阿克苏地区,库车市,17399164568,unknown,
baidu,17df32b7d758d4993a04b1b8,康佳麦利来蛋糕,五一中路与步行街交叉口南行15米路西,新疆维吾尔自治区,阿克苏地区,库车市,13279800909,unknown,
baidu,a945377a8f3e7d2b2fe67b1f,蜀风楼(幸福城店),幸福城商业街3栋202室,新疆维吾尔自治区,阿克苏地区,库车市,17780623627,unknown,
baidu,97a2dfc453d783e74f6d4605,滚烫火锅店,健康路与文化东路交叉口南320米,新疆维吾尔自治区,阿克苏地区,库车市,,unknown,
baidu,d08a767cd4e6f1200289721e,漫刻烘焙工坊(幸福城店),银河路幸福城小区,新疆维吾尔自治区,阿克苏地区,库车市,18909975355,unknown,
baidu,d75277acaccb6de831870ab5,久吉鸭脖(幸福城店),幸福城小区4栋一层107号商铺,新疆维吾尔自治区,阿克苏地区,库车市,15003005222,unknown,
baidu,59ea49f30830734331169b8d,香妙儿烘焙·蛋糕甜品(五一路店),新城街道团结路社区餐饮娱乐商业步行街A座1层114号商铺,新疆维吾尔自治区,阿克苏地区,库车市,,unknown,
baidu,827336fa2f31021e9900508b,书亦烧仙草(亿家超市店),天河社区天山中路225号亿家超市内,新疆维吾尔自治区,阿克苏地区,库车市,18399566639,unknown,
baidu,c8aa99ebc63173f7583ac8c1,馋嘴烤面筋(健康路店),杏花苑社区杏花苑小区45幢012号商铺,新疆维吾尔自治区,阿克苏地区,库车市,19882978559,unknown,
baidu,8adef64d9941b184a8f729cc,大熊抄手库车亿家店,天河社区亿家汇好超市一楼,新疆维吾尔自治区,阿克苏地区,库车市,18096915229,unknown,
baidu,15eefafbbed65f7133f71d7f,龟兹贡品纯冻干驴奶粉体验店,新疆维吾尔自治区阿克苏地区库车市龟兹医院,新疆维吾尔自治区,阿克苏地区,库车市,,unknown,
baidu,008ff25dc0da91cc1d5800df,状元甲鱼馆(杏花苑店),健康路42-43号（杏花苑东门往南200米）,新疆维吾尔自治区,阿克苏地区,库车市,18599277358,unknown,
baidu,a008723e990432135fd4fe4d,海港一号·自助火锅,新疆维吾尔自治区阿克苏地区库车市柏悦精品酒店二楼,新疆维吾尔自治区,阿克苏地区,库车市,(0997)7726000,unknown,
baidu,77a6b623d3fe8109970319c0,索诺醺餐吧,新疆维吾尔自治区阿克苏地区库车市银河路瑞嘉华府西侧约230米,新疆维吾尔自治区,阿克苏地区,库车市,18196313652,unknown,
baidu,fefb3a537eca00eab45f1ea7,醇得香面馆,清风苑社区健康路3号丝路明珠小区1幢1层07商铺,新疆维吾尔自治区,阿克苏地区,库车市,,unknown,
baidu,54e6252a2e77744fafee7abd,大卤坊鸭脖(杏花苑店),健康西路杏花苑44号楼024号,新疆维吾尔自治区,阿克苏地区,库车市,15292326333,unknown,
baidu,bbea9df5ce719787f21937f9,焉耆小吃,五一路菜市场里面,新疆维吾尔自治区,阿克苏地区,库车市,(0997)6160019,unknown,
baidu,7750135777715019a21de95b,锦鳆淳兰州牛肉面,天山中路174号,新疆维吾尔自治区,阿克苏地区,库车市,,unknown,
baidu,0dc56532d411c75b4151c0ac,艾山江烤包子葱花饼,天山中路174号正东方向160米丝路明珠,新疆维吾尔自治区,阿克苏地区,库车市,,unknown,
baidu,a67a6da0aa44ccd052e5c5b7,小王椒麻鸡,步行街二期D114号,新疆维吾尔自治区,阿克苏地区,库车市,15109973568,unknown,
baidu,09136e59e6c9ff7e260bd0b0,糖半甜(亿家超市店),天山中路亿家超市一楼Kc1-46号,新疆维吾尔自治区,阿克苏地区,库车市,15709973837,unknown,
baidu,1bfe7c22b0a89cb63586f4b8,胖子抓饭(欧洲花园店),英阿瓦提路欧洲世纪花园东门,新疆维吾尔自治区,阿克苏地区,库车市,18083913858,unknown,
baidu,26e44943e7a960f72fb17e9f,鲜汤豆花鱼,新疆维吾尔自治区阿克苏地区库车市幸福城南门商3-204,新疆维吾尔自治区,阿克苏地区,库车市,,unknown,
baidu,e3040f035e2b54b8128824ac,御香胡辣汤,库车市幸福社区御园小区S2商业楼1层03号商铺,新疆维吾尔自治区,阿克苏地区,库车市,,unknown,
baidu,bf975a90ee86aac4c61b75c4,口口香凉皮(祥天地下街店),天山中路495号附近,新疆维吾尔自治区,阿克苏地区,库车市,13345360389,unknown,
baidu,ac9c7bc66ee09be4d9eced89,自家人牛肉面,阿克苏地区库车市健康路杏花苑,新疆维吾尔自治区,阿克苏地区,库车市,,unknown,
baidu,54827b8cb8db022f871541df,以牌会友茶馆,阿克苏地区库车市健康北路胜利城小区,新疆维吾尔自治区,阿克苏地区,库车市,,unknown,
baidu,7c0cfbcacf7bc2b2b64f541a,曼立多汉堡炸鸡(幸福城店),幸福社区幸福城商住第3幢1层110号商铺,新疆维吾尔自治区,阿克苏地区,库车市,18095874698,unknown,
baidu,f4627f30a9d8264dc5effba9,波代可妈咪快餐厅,天山中路与五一中路交叉口西北80米,新疆维吾尔自治区,阿克苏地区,库车市,,unknown,
baidu,46c5821bbcff7508c51b7589,LF茶饮吧,五一南路与天山中路交叉口南80米(阿克苏地区库车市天山中路库车县石油大院),新疆维吾尔自治区,阿克苏地区,库车市,15099509950,unknown,
baidu,8127638d6d39a065aeb22a0a,库车疆美红石榴汤面店,阿克苏地区库车市健康北路库车县第八小学东侧约130米,新疆维吾尔自治区,阿克苏地区,库车市,,unknown,
baidu,f95f35e6611b29ed3ce23113,金桥时尚购物广场,新疆维吾尔自治区阿克苏地区库车市文化东路214号,新疆维吾尔自治区,阿克苏地区,库车市,,unknown,
baidu,c73bdf7a40f8532c8a2fb573,小赵商行,新疆阿克苏地区库车市文化东路73号杏花园,新疆维吾尔自治区,阿克苏地区,库车市,(0997)7150152,unknown,
baidu,fca1098d5297e86206026f59,金赫超市,新疆维吾尔自治区阿克苏地区库车市金天花园北门旁,新疆维吾尔自治区,阿克苏地区,库车市,,unknown,
baidu,b6dfa5d88c125754283a9f6a,金桥超市(文化中路店),文化中路18-1号,新疆维吾尔自治区,阿克苏地区,库车市,,unknown,
baidu,7affb74d25c019f104026f83,中源汇城市生活广场,新疆维吾尔自治区阿克苏地区库车市文化东路160号,新疆维吾尔自治区,阿克苏地区,库车市,15009082555,unknown,
baidu,6aaa1b5f067511af79dbd26d,亿家汇好购物中心,新疆维吾尔自治区阿克苏地区库车市文化东路与五一北路交叉口东南120米,新疆维吾尔自治区,阿克苏地区,库车市,(0997)7998055,unknown,
baidu,ef9cbc1bca5c64d0eb56fa79,时尚超市,新疆维吾尔自治区阿克苏地区库车市文化东路128号,新疆维吾尔自治区,阿克苏地区,库车市,,unknown,
baidu,bf2a99ef90c320b3b23c811c,老凤祥(库车专卖店),阿克苏地区库车市新城街道五一中路南建转盘时尚小区一号楼,新疆维吾尔自治区,阿克苏地区,库车市,(0997)6690990,unknown,
baidu,af4e50f0158f773f5e17c39b,库车中源汇·城市生活广场,新疆维吾尔自治区阿克苏地区库车市文化中路160号,新疆维吾尔自治区,阿克苏地区,库车市,15299592249,unknown,
baidu,fe8961714b6b10f500ec01bf,工友商行,新疆维吾尔自治区阿克苏地区库车市杏花苑天府小区2号傍,新疆维吾尔自治区,阿克苏地区,库车市,18997866315,unknown,
baidu,78a096ae4872cab6b13c810d,海澜之家(新疆库车五一北路店),库车市五一北路农贸市场,新疆维吾尔自治区,阿克苏地区,库车市,"(0997)7774320,13649323980",unknown,
baidu,5ea3b95f2d16e09bbe4842b9,明视达眼视光中心,阿克苏地区库车市文化东路库车完美宾馆,新疆维吾尔自治区,阿克苏地区,库车市,,unknown,
baidu,f4d98b445880aa8228b97ce8,库车步行街,新疆维吾尔自治区阿克苏地区库车市天山中路与繁荣路交叉口北100米,新疆维吾尔自治区,阿克苏地区,库车市,,unknown,
baidu,59d4a8be598ca5cda8059dce,丰华便利店,阿克苏地区库车市文化东路金天花园西侧约150米,新疆维吾尔自治区,阿克苏地区,库车市,18205296205,unknown,
baidu,d2ab7b0235f30d2be50738c5,佳福商行,阿克苏地区库车市光明路金天花园北侧约60米,新疆维吾尔自治区,阿克苏地区,库车市,13579380630,unknown,
baidu,77fad1b53a6af31f5e17c374,名创优品(库车五一大厦店),新疆阿克苏库车五一大厦1座1单元20号,新疆维吾尔自治区,阿克苏地区,库车市,18860274580,unknown,
baidu,b949755fcb29856a09b93a82,首信通讯荣耀专卖店,阿克苏地区库车市文化东路时尚小区北侧约90米,新疆维吾尔自治区,阿克苏地区,库车市,,unknown,
baidu,3f770563bea3667ebb17e7f5,远达商行,阿克苏地区库车市文化东路时尚小区东侧约140米,新疆维吾尔自治区,阿克苏地区,库车市,,unknown,
baidu,cd45ccccac8cf608581093a5,楚乡商行,阿克苏地区库车市文化东路金天花园东侧,新疆维吾尔自治区,阿克苏地区,库车市,,unknown,
baidu,555160cc639a68090a5cb354,华旺商行,阿克苏地区库车市光明路库车县第八小学西北侧约30米,新疆维吾尔自治区,阿克苏地区,库车市,,unknown,
baidu,d7aec48baa86008d4bcc4a55,建萍商店,阿克苏地区库车市文化东路金天花园西侧约120米,新疆维吾尔自治区,阿克苏地区,库车市,15099282122,unknown,
baidu,33ac19acc95fcbc52eb17eaa,火狐狸服装批发城(五一南路店),新疆维吾尔自治区阿克苏地区库车市新天地城市广场,新疆维吾尔自治区,阿克苏地区,库车市,"18149978699,19399715677",unknown,
baidu,886729a304e23effadcb6647,彩虹商场,友谊路与天山中路交叉口西南50米,新疆维吾尔自治区,阿克苏地区,库车市,,unknown,
baidu,27c075570afec8d94557266f,文松商行(杏花苑店),新疆维吾尔自治区阿克苏地区库车市天山中路174号杏花苑,新疆维吾尔自治区,阿克苏地区,库车市,19199488666,unknown,
baidu,89b44927f3d6df192cb17edc,鑫贵和酒水商行,阿克苏地区库车市健康北路库车县第八小学东北侧约110米,新疆维吾尔自治区,阿克苏地区,库车市,15299582619,unknown,
baidu,de794992943948af9d82ea7c,博顺商行,阿克苏地区库车市银河路库车县第八小学东侧约190米,新疆维吾尔自治区,阿克苏地区,库车市,,unknown,
baidu,d19c63ca45d6216502ec0144,珂尔时尚男装(西域乐都店),新疆维吾尔自治区阿克苏地区库车市五一南路西域乐都108号,新疆维吾尔自治区,阿克苏地区,库车市,,unknown,
baidu,004eebc2cb35c5f52bb97cc3,便民农贸综合市场,阿克苏地区库车市五一北路库车市第七小学东北侧约300米,新疆维吾尔自治区,阿克苏地区,库车市,,unknown,
baidu,c670573fee880bc3f8f0cb98,杏花苑便利店,阿克苏地区库车市健康路杏花苑,新疆维吾尔自治区,阿克苏地区,库车市,18199460688,unknown,
baidu,0d97da66279b642577026933,惠美诚品,阿克苏地区库车市五一路库车县石油大院东南侧约50米,新疆维吾尔自治区,阿克苏地区,库车市,18299629988,unknown,
baidu,ceb5d457848fda989de3217a,亚迪卡尔便利店,阿克苏地区库车市胜利路东库车市第七小学,新疆维吾尔自治区,阿克苏地区,库车市,,unknown,
baidu,193269fec1588d2abe4842e1,衣世界服装批发城(彩虹商场店),阿克苏地区库车市巴扎彩虹商场负一层,新疆维吾尔自治区,阿克苏地区,库车市,,unknown,
baidu,bd4b35c478e1bcdb8505bf11,库车自由机车俱乐部,阿克苏地区库车市五一北路库车市第七小学东侧约40米,新疆维吾尔自治区,阿克苏地区,库车市,15999218395,unknown,
baidu,835c3c6d8d6d53e504026f68,百盛书店(太古里店),新疆维吾尔自治区阿克苏地区库车市金桥太古里9幢1层3号,新疆维吾尔自治区,阿克苏地区,库车市,(0997)7799355,unknown,
baidu,bd461d576941326af4b916e3,八斗文具社,阿克苏地区库车市文化东路金天花园,新疆维吾尔自治区,阿克苏地区,库车市,"15276413225,18399549607",unknown,
baidu,a36c685cad0aa6973617dcdc,果府新疆特产,阿克苏地区库车市文化东路时尚小区东侧约140米,新疆维吾尔自治区,阿克苏地区,库车市,18095919977,unknown,
baidu,00162932944d732e9de32110,果多美水果仓储店,阿克苏地区库车市五一北路时尚小区北侧约140米,新疆维吾尔自治区,阿克苏地区,库车市,,unknown,
baidu,38885979475fe7dac26c14d8,HONO(中源汇城市生活广场店),新疆维吾尔自治区阿克苏地区库车市文化东路160号中源汇城市生活广场F2,新疆维吾尔自治区,阿克苏地区,库车市,,unknown,
baidu,d1a054c4e9ce26eadb131815,鸿泰陈年老酒行,库车市新城街道文化中路金天大厦106号商铺,新疆维吾尔自治区,阿克苏地区,库车市,15174077611,unknown,
baidu,85b254fbe4c16887f7b91611,视康眼镜(五一路精品店),新疆维吾尔自治区阿克苏地区库车市五一中路01-8号,新疆维吾尔自治区,阿克苏地区,库车市,13779441312,unknown,
baidu,693964a870c3f4c2ad31e5f4,徐记干果店,新城街道杏花苑社区杏花苑天府小区S1幢1层110号商铺,新疆维吾尔自治区,阿克苏地区,库车市,15886808739,unknown,
baidu,19ae672dcbe741cfca09f050,柒月花艺,阿克苏地区库车市光明路金天花园北侧约80米,新疆维吾尔自治区,阿克苏地区,库车市,,unknown,
baidu,2ef2914fadf461c4e5e9651c,库车蓝天劳保用品店,阿克苏地区库车市五一路时尚小区西南侧约50米,新疆维吾尔自治区,阿克苏地区,库车市,,unknown,
baidu,a1cecc0fdf8c417e7bf79638,金博士文具店,阿克苏地区库车市银河路库车县第八小学东南侧约100米,新疆维吾尔自治区,阿克苏地区,库车市,,unknown,
baidu,80cb86bb3217bb085e17c3ff,大西北国际眼镜(文化路中路店),杏花苑社区五一中路时尚小区2幢101号商铺,新疆维吾尔自治区,阿克苏地区,库车市,18196376076,unknown,
baidu,7367da306a001ccb46e27401,闪亮柚近视防控(总店),阿克苏地区库车市光明路库车县第八小学西侧约30米,新疆维吾尔自治区,阿克苏地区,库车市,,unknown,
baidu,c01737362665551f2b3a9fd9,甜甜家团购,阿克苏地区库车市光明路库车县第八小学西侧约30米,新疆维吾尔自治区,阿克苏地区,库车市,18197529649,unknown,
baidu,f84ddba1d04194f1f90cad50,维纳斯美发店,文化路杏花苑48号楼117号,新疆维吾尔自治区,阿克苏地区,库车市,,unknown,
baidu,8eea64257e042e2d0a5cb32c,明悦眼镜(文化东路店),新疆维吾尔自治区阿克苏地区库车市文化东路17-15号正西方向80米,新疆维吾尔自治区,阿克苏地区,库车市,13565146698,unknown,
baidu,0079da5526e4ea62260bd0b4,果色果香(时尚小区店),阿克苏地区库车市时尚小区8号楼一楼104号门面房,新疆维吾尔自治区,阿克苏地区,库车市,15701929066,unknown,
baidu,34053e9c9a2ae0f7f8f0cb5a,精益眼镜(天山中路店),五一中路2号,新疆维吾尔自治区,阿克苏地区,库车市,(0997)7128558,unknown,
baidu,f678a039fb897d2d4afd3f4f,波司登(文化中路店),阿克苏地区库车市五一路库车县石油大院,新疆维吾尔自治区,阿克苏地区,库车市,4008035888,unknown,
baidu,7ef84bb11626d0031b94c678,西琳食品,新疆维吾尔自治区阿克苏地区库车市胜利路早市137号,新疆维吾尔自治区,阿克苏地区,库车市,,unknown,
baidu,e7e25038b19785b0e4073808,圆子家居,阿克苏地区库车市银河路库车县第八小学东南侧约80米,新疆维吾尔自治区,阿克苏地区,库车市,13209929666,unknown,
baidu,135515201b2631d779dbd242,张家酒行,阿克苏地区库车市胜利路便民市场,新疆维吾尔自治区,阿克苏地区,库车市,19996721776,unknown,
baidu,bf87b15b211134b8dbd891d0,干果店,阿克苏地区库车市五一路库车县石油大院东南侧约60米,新疆维吾尔自治区,阿克苏地区,库车市,,unknown,
baidu,5f5d5fe4baf835b8ae080f6e,天佑德青稞酒铭轩烟酒商行,新疆维吾尔自治区阿克苏地区库车市新城街道幸福社区御园小区S2幢1层07号商铺,新疆维吾尔自治区,阿克苏地区,库车市,18299989623,unknown,
baidu,809d088e37354498cafa5f80,新华书店(库车市分店),文化中路11号,新疆维吾尔自治区,阿克苏地区,库车市,,unknown,
baidu,d9304bf5a4ec9956902ca371,旺源驼奶(库车店),新疆阿克苏地区库车新城街道幸福社区幸福城6号商业楼105号商铺,新疆维吾尔自治区,阿克苏地区,库车市,18099331061,unknown,
baidu,554966607654b37e3a13fdab,养墨堂(金桥太古里店),阿克苏地区库车市健康北路库车完美宾馆东北侧约180米,新疆维吾尔自治区,阿克苏地区,库车市,,unknown,
baidu,bf448d40d3307db9fbdc8558,鼎尚商行(健康北路店),健康北路与银河路交口幸福城小区4号楼104商铺,新疆维吾尔自治区,阿克苏地区,库车市,18526331014,unknown,
baidu,de59939919c375418f55ec85,伟丰烟酒行,阿克苏地区库车市健康北路库车县第八小学东侧约140米,新疆维吾尔自治区,阿克苏地区,库车市,,unknown,
baidu,de1d872478560791c7f025f6,国窖1573烟雨商行,阿克苏地区库车市五一路库车县石油大院东侧约30米,新疆维吾尔自治区,阿克苏地区,库车市,(0997)7790880,unknown,
baidu,670f73a04699e1812202203e,库车玉石市场,阿克苏地区库车市天山中路库车县石油大院,新疆维吾尔自治区,阿克苏地区,库车市,,unknown,
baidu,5cc83987b17b41d7e5073808,富牛烟酒商行,阿克苏地区库车市健康北路库车县第八小学东侧约140米,新疆维吾尔自治区,阿克苏地区,库车市,18742628808,unknown,
baidu,15eefafbbed65f7133f71d7f,龟兹贡品纯冻干驴奶粉体验店,新疆维吾尔自治区阿克苏地区库车市龟兹医院,新疆维吾尔自治区,阿克苏地区,库车市,,unknown,
baidu,51fbc9d018b016b087330471,金典配货中心,阿克苏地区库车市光明路金天花园北侧约60米,新疆维吾尔自治区,阿克苏地区,库车市,,unknown,
baidu,7034fd587c4608f2ab175ae4,库车奥斯卡国际摄影宫殿,文化东路128号(五一中路川渝大酒店二楼),新疆维吾尔自治区,阿克苏地区,库车市,(0997)7799678,unknown,
baidu,11cf4979b173730ef60e7750,公共厕所,阿克苏地区库车市胜利路库车县第八小学北侧约70米,新疆维吾尔自治区,阿克苏地区,库车市,,unknown,
baidu,db74e9d667ae28c9246e9870,朝童摄亲子儿童摄影馆,文化东路114号金桥太古里美食广场9幢1层7号商铺,新疆维吾尔自治区,阿克苏地区,库车市,15886828302,unknown,
baidu,82587eb371af959394ec8432,派多格宠物(库车店),伊西哈拉镇银河路幸福城商4楼206商铺,新疆维吾尔自治区,阿克苏地区,库车市,(0997)7797282,unknown,
baidu,71e9e3646647919af6c59ceb,中国体育彩票(文化路太古里店),阿克苏地区库车市文化东路金色家园(文化东路)西北侧约160米,新疆维吾尔自治区,阿克苏地区,库车市,13565164498,unknown,
baidu,1dc6ef5f4c91ba31c6effb32,便民驾驶员业务办理点,阿克苏地区库车市五一路库车县石油大院东南侧约70米,新疆维吾尔自治区,阿克苏地区,库车市,,unknown,
baidu,34990a2a9300392df4eafc66,金桥·幸福里营销中心,新疆维吾尔自治区阿克苏地区库车市新城街道天山东路87号,新疆维吾尔自治区,阿克苏地区,库车市,,unknown,
baidu,a0bd8ea9e8333b431894c6a3,二手机交易中心,阿克苏地区库车市天山中路天五广场,新疆维吾尔自治区,阿克苏地区,库车市,,unknown,
baidu,f76f211980d70ebcd518b723,利民家电修理,新疆维吾尔自治区阿克苏地区库车市天山中路与健康路交叉口西200米,新疆维吾尔自治区,阿克苏地区,库车市,,unknown,
baidu,8aecda8604e6048d9fec2bb0,兄弟印务,新疆维吾尔自治区阿克苏地区库车市天五广场负1层a9,新疆维吾尔自治区,阿克苏地区,库车市,(0997)7135271,unknown,
baidu,4923521f0183851bf4b916e4,中国邮政(天山路邮政支局),天山中路与繁荣路交叉口东120米,新疆维吾尔自治区,阿克苏地区,库车市,11185,unknown,
baidu,c6287e1e9b1aa17cf4231009,公共厕所,阿克苏地区库车市天山中路库车县石油大院西侧约90米,新疆维吾尔自治区,阿克苏地区,库车市,,unknown,
baidu,888ad596d562b42a4107c1cf,骄阳兰多产后恢复中心(胜利路店),阿克苏地区库车市胜利路幸福城北门15号商铺103号、104号,新疆维吾尔自治区,阿克苏地区,库车市,,unknown,
baidu,2d8f1340118022d4c056acb3,中国福利彩票(天五广场店),文化中路18-5号,新疆维吾尔自治区,阿克苏地区,库车市,13999667112,unknown,
baidu,bd471c90d8bf02973586f4b9,贝拉婚纱摄影,阿克苏地区库车市胜利路胜利城小区,新疆维吾尔自治区,阿克苏地区,库车市,,unknown,
baidu,cae0fa703594cb4ba4c756d7,仁海数码图文,新疆维吾尔自治区阿克苏地区库车市新城街道金色家园北门,新疆维吾尔自治区,阿克苏地区,库车市,,unknown,
baidu,f167b89e547803f5e9f853f1,复印刻章,阿克苏地区库车市五一南路航天小区东北侧,新疆维吾尔自治区,阿克苏地区,库车市,,unknown,
baidu,a2c15ba842cffda7ddee8b37,十月馨(胜利路店),新疆维吾尔自治区阿克苏地区库车市新城街道幸福城社区幸福城小区5号楼1层113号商铺,新疆维吾尔自治区,阿克苏地区,库车市,13899241931,unknown,
baidu,412096065cedcc727dc87685,农情暖域工会驿站(农行库车天山路支行),新疆维吾尔自治区阿克苏地区库车市天山路步行街二期B座18号,新疆维吾尔自治区,阿克苏地区,库车市,,unknown,
baidu,bc11376b13ed7a2a43ab9adf,银冠裁缝店,阿克苏地区库车市天山中路东方花园北侧约40米,新疆维吾尔自治区,阿克苏地区,库车市,,unknown,
baidu,e0425e4e6798acacb05c6a94,快客手机维修店,阿克苏地区库车市五一南路航天小区南侧约30米,新疆维吾尔自治区,阿克苏地区,库车市,18197558876,unknown,
baidu,5e53af1a950ee55e4151c07f,中国邮政(文化路西邮政支局),新疆维吾尔自治区阿克苏地区库车市文化路7号,新疆维吾尔自治区,阿克苏地区,库车市,11185,unknown,
baidu,970fe21ba59e3627cbe33c6a,申通快递(友谊路店),金桥超市后巷,新疆维吾尔自治区,阿克苏地区,库车市,"4008895543,95543",unknown,
baidu,a0039860e27353259c82ea40,拾盟·贵夫人婚纱摄影,新疆维吾尔自治区阿克苏地区库车市文化中心蛋糕店旁边,新疆维吾尔自治区,阿克苏地区,库车市,(0997)7136808,unknown,
baidu,e2155d081d6b65d2d42ce256,中国福利彩票(库车步行街店),阿克苏地区库车市天山中路温州大酒店(天山中路店)西侧,新疆维吾尔自治区,阿克苏地区,库车市,954168,unknown,
baidu,ae5c46ab57f3070bf4e73b88,飞鸿影楼,新疆维吾尔自治区阿克苏地区库车市文化中路10-1,新疆维吾尔自治区,阿克苏地区,库车市,"(0997)7122798,18096962581",unknown,
baidu,3d6146b123e1e4973f9a5e88,叶子婚庆摄影店,阿克苏地区库车市团结路矿化医院东北侧约180米,新疆维吾尔自治区,阿克苏地区,库车市,,unknown,
baidu,adaf5af805d22a0f4e5547b9,春恒图文广告,新疆维吾尔自治区阿克苏地区库车市健康路,新疆维吾尔自治区,阿克苏地区,库车市,15899188028,unknown,
baidu,b58e48694ded4936f90cad6a,美娃洗衣,新疆维吾尔自治区阿克苏地区库车市五一南路天元阳光丽景85号,新疆维吾尔自治区,阿克苏地区,库车市,13579394285,unknown,
baidu,e4448742bbb46fb7a2046419,克热斯塔丽婚纱摄影,阿克苏地区库车市天山中路东方花园北侧约50米,新疆维吾尔自治区,阿克苏地区,库车市,,unknown,
baidu,6b759c29d66480a9c16c14cf,诚意手机维修服务部,新疆维吾尔自治区阿克苏地区库车市天山中路,新疆维吾尔自治区,阿克苏地区,库车市,"(0997)6781747,15003005774",unknown,
baidu,3e2b695b3e70fe2d04026f5d,库车超威售后服务,阿克苏地区库车市天山中路东方花园北侧约40米,新疆维吾尔自治区,阿克苏地区,库车市,,unknown,
baidu,9ea7f51faa68cd40631809ab,库车市艳丽通讯,阿克苏地区库车市天山中路东方花园北侧约60米,新疆维吾尔自治区,阿克苏地区,库车市,"16699770099,18129174095",unknown,
baidu,3a70b06557dfb6dd316212be,库车市巴热婚纱店,新疆维吾尔自治区阿克苏地区库车市新城街道团结路社区龟滋国际大巴扎D1-55号,新疆维吾尔自治区,阿克苏地区,库车市,18699704830,unknown,
baidu,95a78158630332d6631c67af,农情暖域工会驿站(农行库车文化路支行),新疆维吾尔自治区阿克苏地区库车市新城街道文化中路10-1,新疆维吾尔自治区,阿克苏地区,库车市,,unknown,
baidu,5cb4971742e4be943686f453,浩宸图文广告,新疆维吾尔自治区阿克苏地区库车市金桥名苑小区小区1幢1层商铺7室,新疆维吾尔自治区,阿克苏地区,库车市,18139123444,unknown,
baidu,1fbc74c98c5032a2c26c1425,公共厕所,阿克苏地区库车市英阿瓦提北路财富中心西侧约220米,新疆维吾尔自治区,阿克苏地区,库车市,,unknown,
baidu,9d24322177a3679e08f5ebfb,菲菲缝纫店,阿克苏地区库车市五一南路金桥翡翠苑,新疆维吾尔自治区,阿克苏地区,库车市,,unknown,
baidu,61273a324fa15064b45f1ed6,库车市天河路电信营业厅,新疆维吾尔自治区阿克苏地区库车市乌恰镇僖源路,新疆维吾尔自治区,阿克苏地区,库车市,,unknown,
baidu,cc05d394cd9a76456d20b9d7,湘彩图文广告,天山中路东221号江南御小区B区南门42-1-5号,新疆维吾尔自治区,阿克苏地区,库车市,15292305594,unknown,
baidu,1f1ba9cb9bcb4c406cc02c6e,中国邮政(乌恰镇邮政所),阿克苏地区库车市天山中路244号,新疆维吾尔自治区,阿克苏地区,库车市,11185,unknown,
baidu,d7b3900fa1e8a0ddb9df8fa3,公共厕所,阿克苏地区库车市文化西路中国石油文化路加油站(文化西路),新疆维吾尔自治区,阿克苏地区,库车市,,unknown,
baidu,35201633dab26d764afd3f99,金金电动车维修,阿克苏地区库车市文化东路金天花园西侧约170米,新疆维吾尔自治区,阿克苏地区,库车市,13579399159,unknown,
baidu,aa579a1d572537b3cae33ccf,Box Office,新疆维吾尔自治区阿克苏地区库车市文化东路160号中源汇城市生活广场F4,新疆维吾尔自治区,阿克苏地区,库车市,,unknown,
baidu,f5473152f4899314601c677d,安居房产,新疆维吾尔自治区阿克苏地区库车市文化东路150号,新疆维吾尔自治区,阿克苏地区,库车市,15899315933,unknown,
baidu,1c7ddb850afbd2893062120a,文佳图文,阿克苏地区库车市文化东路金天花园西侧约90米,新疆维吾尔自治区,阿克苏地区,库车市,,unknown,
baidu,3fa330b505c8892d1df74d74,天五广场,天山中路与五一中路交叉口东120米,新疆维吾尔自治区,阿克苏地区,库车市,,unknown,
baidu,e6d33cf4b355b5e8354aae83,振邦房产(金桥太古里店),阿克苏地区库车市银河路库车县第八小学东南侧约210米,新疆维吾尔自治区,阿克苏地区,库车市,,unknown,
baidu,8f969fcd5c8cb082d1f49e3f,鑫和胜电动车修理,阿克苏地区库车市胜利路胜利城小区南侧约120米,新疆维吾尔自治区,阿克苏地区,库车市,15701975985,unknown,
baidu,8bf31df536fb3d5db35c6ae3,御园房产,阿克苏地区库车市健康北路胜利城小区西侧约50米,新疆维吾尔自治区,阿克苏地区,库车市,,unknown,
baidu,642fcac9854e575007fef5f3,顺兴摩配电器修理,新疆维吾尔自治区阿克苏地区库车市天山中路156号,新疆维吾尔自治区,阿克苏地区,库车市,(0997)7795115,unknown,
baidu,b3ab119917940558343a714c,中国电信(胜利城社区店),新疆维吾尔自治区阿克苏地区库车市文化路7号,新疆维吾尔自治区,阿克苏地区,库车市,18909971169,unknown,
baidu,08d7ca25ab8bdf33d4b74ea7,中国移动,阿克苏地区库车市银河路瑞嘉华府,新疆维吾尔自治区,阿克苏地区,库车市,,unknown,
baidu,09ed3c8ff7c39fd92a11d1ab,库车市天缘图文广告店,阿克苏地区库车市天山中路东方花园,新疆维吾尔自治区,阿克苏地区,库车市,,unknown,
baidu,c5d25680666137e045572665,工会户外劳动者驿站,阿克苏地区库车市天山中路杏花苑西南门南侧约90米,新疆维吾尔自治区,阿克苏地区,库车市,,unknown,
baidu,8e8b8e0af114fde38e772720,中国广电(库车市营业厅),新疆维吾尔自治区阿克苏地区库车市矿化医院综合楼(天山中路北),新疆维吾尔自治区,阿克苏地区,库车市,19990397989,unknown,
baidu,3186acabff0e93e75e17c3a6,中亚·御景湾营销中心,新疆维吾尔自治区阿克苏地区库车市Y222与规划路交叉口北150米,新疆维吾尔自治区,阿克苏地区,库车市,18999071030,unknown,
baidu,3a37095a880cacc0c356ac21,宏景图文(五一南路店),新疆维吾尔自治区阿克苏地区库车市五一南路金桥翡翠苑,新疆维吾尔自治区,阿克苏地区,库车市,13779429872,unknown,
baidu,34ec7602bc0df8fcddee8b79,库车电力公司,阿克苏地区库车市人民路金鹿客运站东南侧约60米,新疆维吾尔自治区,阿克苏地区,库车市,,unknown,
baidu,b135534ac803428043ab9aab,花容月貌(五一南路店),乌恰镇五一南路新华公寓楼下padd,新疆维吾尔自治区,阿克苏地区,库车市,18742622185,unknown,
baidu,6527a5ab581723861c38947a,一品芳颜(皮肤管理)养生馆,太古里商业街8-111商铺,新疆维吾尔自治区,阿克苏地区,库车市,13899251933,unknown,
baidu,cb6650c14bce0925ad31e590,肌遇美肤,幸福城北门.15102室,新疆维吾尔自治区,阿克苏地区,库车市,18299576680,unknown,
baidu,03bbaa44c4538bd2bda24038,汐梵美肤(杏花苑店),杏花苑小区东门42栋一楼38号商铺,新疆维吾尔自治区,阿克苏地区,库车市,15003039982,unknown,
baidu,ef81d5a993bba88a6fc02cac,指点江山美甲(库车市店),健康路御景湾水岸天街8幢113室,新疆维吾尔自治区,阿克苏地区,库车市,17767535685,unknown,
baidu,51b1e2ef2645a250c51e51f3,浪波湾专业发型会所,乌恰镇五一南路航天小区2号楼(天元阳光丽景小区大门对面),新疆维吾尔自治区,阿克苏地区,库车市,18399212102,unknown,
baidu,90b48750e1dd0a38cc06a4c7,江南造型,新城街道幸福社区博斯坦路以东胜利路以南(唐风街)1幢1层,新疆维吾尔自治区,阿克苏地区,库车市,"15569097775,19909976970",unknown,
baidu,79ef5273d4b194a87ab55c6d,赫美美甲美睫工作室,胜利路东3号天华金座小区内,新疆维吾尔自治区,阿克苏地区,库车市,,unknown,
baidu,88e1c3c1dcef036c9c95dec1,派森造型,江南御22_1,新疆维吾尔自治区,阿克苏地区,库车市,13006183031,unknown,
baidu,e40cc4de5aba4439b6f42fea,库车芭曲美发会所,步行街A座23室,新疆维吾尔自治区,阿克苏地区,库车市,18096987528,unknown,
baidu,f8b57b1ae00ff47231870a89,巴拉那美发工作室,天华金座小区A幢一层A_08号商铺,新疆维吾尔自治区,阿克苏地区,库车市,,unknown,
baidu,27048f37379bcd4f873304d5,艺手遮天烫染造型(健康路店),新疆维吾尔自治区阿克苏地区库车市健康路公务员小区1号楼,新疆维吾尔自治区,阿克苏地区,库车市,,unknown,
baidu,534ca3d361777db44354d7a9,新美禾源美容美体,幸福城商住小区商业5号楼三单元301号商铺,新疆维吾尔自治区,阿克苏地区,库车市,18699738988,unknown,
baidu,b91993793fa553988733047f,清水芙蓉美容馆,阿克苏地区库车市健康北路库车完美宾馆东北侧约180米,新疆维吾尔自治区,阿克苏地区,库车市,19990393511,unknown,
baidu,ddea133e45afc83614c8f622,雨花石靓肤美容会馆,阿克苏地区库车市胜利路库车县第八小学北侧约140米,新疆维吾尔自治区,阿克苏地区,库车市,13779431520,unknown,
baidu,5f3bd8e6fcf4c507047ce89c,纯美美容养生馆,新疆维吾尔自治区阿克苏地区库车市杏花商业步行街二期D座114号,新疆维吾尔自治区,阿克苏地区,库车市,,unknown,
baidu,bd23dd9993e39d3bfaf0cbf4,欧雅顿美容店,新疆维吾尔自治区阿克苏地区库车市金桥太古里商业广场6号楼115铺,新疆维吾尔自治区,阿克苏地区,库车市,13779818325,unknown,
baidu,9633d11f4bfe8e7cf7e73b73,紫丁香(五一路店),阿克苏地区库车市五一南路航天小区东北侧约40米,新疆维吾尔自治区,阿克苏地区,库车市,(0997)7150833,unknown,
baidu,57c3a58e092eb4bc725e80a8,独品美发会所,天山中路与五一南路交叉路口西南侧（库车县石油大院）,新疆维吾尔自治区,阿克苏地区,库车市,13736525488,unknown,
baidu,d94e21311142066c4f776edb,初见美发工作室(金桥太古里店),新疆维吾尔自治区阿克苏地区库车市新城街道幸福城金桥太古里商业广场11号楼1层121号商铺,新疆维吾尔自治区,阿克苏地区,库车市,15899376363,unknown,
baidu,f5470cab7935cdba725e8002,元素形象设计,新疆维吾尔自治区阿克苏地区库车市五一南路航天小区元素形象设计,新疆维吾尔自治区,阿克苏地区,库车市,15899306147,unknown,
baidu,8b7522b9c409cf67eaf85318,天新发艺,阿克苏地区库车市五一路时尚小区南侧约70米,新疆维吾尔自治区,阿克苏地区,库车市,,unknown,
baidu,82bfceb4f8f9c0379b68b45e,丽减美瘦吧(库车丝路明珠店),阿克苏地区库车市健康路丝珞明珠,新疆维吾尔自治区,阿克苏地区,库车市,,unknown,
baidu,60d6b1b56c0e5f90ad0457af,唇丽美妆,阿克苏地区库车市繁荣路金桥名苑小区东南侧约40米,新疆维吾尔自治区,阿克苏地区,库车市,,unknown,
baidu,974d0f46eff5c000e856fa8b,觅丝美发设计室(金桥太古里店),幸福社区金桥太古里商业广场6栋1层122号商铺,新疆维吾尔自治区,阿克苏地区,库车市,18699737671,unknown,
baidu,0ea07da6f450d4c2c61b75d5,库车高尔理发馆,天山中路535号名爵苑小区8号商业楼1层12号商铺,新疆维吾尔自治区,阿克苏地区,库车市,,unknown,
baidu,5fc565dca54ef68ce812e463,库车市优恩美发店,新疆维吾尔自治区阿克苏地区库车市新城街道新华社区华鑫雅居商住小区7栋楼1层101号商铺,新疆维吾尔自治区,阿克苏地区,库车市,15701978459,unknown,
baidu,5e0ab506394af4ee4c3a596d,玉兰美发沙龙(友谊路店),新疆维吾尔自治区阿克苏地区库车市友谊北路3号,新疆维吾尔自治区,阿克苏地区,库车市,,unknown,
baidu,5bcab86bad53ca8336b06ce6,今喜护肤造型,市水岸天街1-4-109,新疆维吾尔自治区,阿克苏地区,库车市,15899318663,unknown,
baidu,ffe3d23e7476e8901e58000f,爱木美发店,阿克苏地区库车市僖源路库车市第五幼儿园北侧约190米,新疆维吾尔自治区,阿克苏地区,库车市,,unknown,
baidu,83e66db3d84b51c81b94c633,红都美发,新疆维吾尔自治区阿克苏地区库车市新城街道友谊路北23,新疆维吾尔自治区,阿克苏地区,库车市,,unknown,
baidu,fcbd5abc2a31dfa7d22dd6f2,新派美发沙龙,阿克苏地区库车市团结路库车实验中学西南侧约200米,新疆维吾尔自治区,阿克苏地区,库车市,13999071415,unknown,
baidu,8ab405c94ced8b4df8dc8596,斯塔尔美发沙龙,繁荣路与天山中路交叉口东南方向66米,新疆维吾尔自治区,阿克苏地区,库车市,,unknown,
baidu,45b57e3e3a961f4aabf72910,兄弟美丽理发店,阿克苏地区库车市天山中路东方花园东北侧约40米,新疆维吾尔自治区,阿克苏地区,库车市,,unknown,
baidu,84a58c75d70630d280a00ce6,梵森造型,库车市新城街道新华社区航天小区一幢一层A8号商铺,新疆维吾尔自治区,阿克苏地区,库车市,,unknown,
baidu,0cd861846772f089f7e73b20,艾克之梦美发店,阿克苏地区库车市繁荣路东方花园东南侧约40米,新疆维吾尔自治区,阿克苏地区,库车市,,unknown,
baidu,a59e83653d6afc85aeb22a2a,丽英美发,阿克苏地区库车市五一南路金桥翡翠苑,新疆维吾尔自治区,阿克苏地区,库车市,,unknown,
baidu,09425fde705242502902e13f,库车乃再尔美发店,新疆阿克苏地区库车市乌恰镇二乌恰社区3号棚户区改造安置小区26、27号楼1层119号商铺,新疆维吾尔自治区,阿克苏地区,库车市,15003030915,unknown,
baidu,6677a7df0a402557b54f54cc,库车市热诺美发店,新疆维吾尔自治区阿克苏地区库车市乌恰镇X314(友谊南路),新疆维吾尔自治区,阿克苏地区,库车市,17699288251,unknown,
baidu,098c70cd3e5897a9c8e33ce2,ID-hair安迪美发沙龙,天山中路与友谊路交汇处东南侧,新疆维吾尔自治区,阿克苏地区,库车市,17699945697,unknown,
baidu,fe3f5ad75d2c3dcc9868b4c0,丝丝不凡理发店,五一南路187号金桥翡翠苑,新疆维吾尔自治区,阿克苏地区,库车市,18809974288,unknown,
baidu,3305a80b926d9ee0b34c49ad,百客理发店,阿克苏地区库车市繁荣路东方花园南侧约90米,新疆维吾尔自治区,阿克苏地区,库车市,,unknown,
baidu,ad44a05ded36d0869de32127,做客纳孜美发店,阿克苏地区库车市繁荣路金桥名苑小区东南侧约40米,新疆维吾尔自治区,阿克苏地区,库车市,,unknown,
baidu,6ceb475d9de2bc9f901fc992,文派美发造型,新疆维吾尔自治区阿克苏地区库车市东城街道天山东路330号,新疆维吾尔自治区,阿克苏地区,库车市,"15599966906,18399700761",unknown,
baidu,60e9e708afe9c8913fe231a8,精灵理发店,阿克苏地区库车市天山中路库车饭店(三星楼店)东南侧约80米,新疆维吾尔自治区,阿克苏地区,库车市,,unknown,
baidu,5d44c666ae5ad16a4c3a59f7,库车大馕城,长福宫酒店50米下面,新疆维吾尔自治区,阿克苏地区,库车市,13201346310,unknown,
baidu,23675198d70052b25b10937c,龟兹之眼·摩天轮,阿克苏地区库车市天山中路库车汽车站西南侧约120米,新疆维吾尔自治区,阿克苏地区,库车市,,unknown,
baidu,9b122ec73a8f10fbb34c49a1,天境,阿克苏地区库车市塔河路瑞嘉华府东北侧约70米,新疆维吾尔自治区,阿克苏地区,库车市,,unknown,
baidu,b78cddc68e64ef77336212bc,沙卡乌烽火台,阿克苏地区库车市博斯坦路库车饭店(三星楼店)西南侧约240米,新疆维吾尔自治区,阿克苏地区,库车市,,unknown,
baidu,5201da9d572ff77009a8d465,民航站小游园,阿克苏地区库车市文化东路库车第十小学北侧约60米,新疆维吾尔自治区,阿克苏地区,库车市,,unknown,
baidu,61a078362c662c359d82eaae,环游嘉年华(库车店),文化东路库车中源汇城市生活广场四楼,新疆维吾尔自治区,阿克苏地区,库车市,13899250296,unknown,
baidu,6f76f1f32e972bd9e215f9c1,水韵江南影院式沐足生活馆,新城街道幸福社区健康北路第38号万华酒店四楼,新疆维吾尔自治区,阿克苏地区,库车市,,unknown,
baidu,2cb62c45c8dd667c8a36ee10,清水湾养生会所,天山中路266号库车饭店后院库车饭店五星楼左侧上下三层,新疆维吾尔自治区,阿克苏地区,库车市,,unknown,
baidu,0ed63c0080be74b54f3a5940,水云轩足道(江南御店),鸿迪江南御小区35号商业楼2层16号商铺,新疆维吾尔自治区,阿克苏地区,库车市,,unknown,
baidu,bc9b0afd649e1b4b0f0a705e,随境·Swing微醺酒馆,健康路御景湾水岸天街4号楼2层204号商铺,新疆维吾尔自治区,阿克苏地区,库车市,13579368877,unknown,
baidu,6b7ae88e48fd5f4f9ee3219e,库车壹号影院式足道,伊西哈拉镇博斯坦路迎宾馆商业楼1栋2层211/212商铺,新疆维吾尔自治区,阿克苏地区,库车市,,unknown,
baidu,2d4a9db38e55cbf75b1093a9,云尚水疗会所,天福社区锦绣江南小区26号楼5层501商铺,新疆维吾尔自治区,阿克苏地区,库车市,,unknown,
baidu,289833bd0c7b497f6d20b95a,玖合足道(凯丰·东湖印象店),光明社区塔河路31号东湖印象小区12-2号楼301-302商铺,新疆维吾尔自治区,阿克苏地区,库车市,,unknown,
baidu,5465ce8c4cd61d640782c2ce,友好国际影城(中源汇城市生活广场店),新疆维吾尔自治区阿克苏地区库车市文化东路160号中源汇城市生活广场F4,新疆维吾尔自治区,阿克苏地区,库车市,13779763169,unknown,
baidu,caa346f0d3b4a5f28bf15d73,九号足道会馆,太古里美食广场1号楼2层1号商铺,新疆维吾尔自治区,阿克苏地区,库车市,,unknown,
baidu,a33b13657e404dcb601c67e3,郑远元专业修脚房(幸福城店),阿克苏地区库车市银河路库车县第八小学东侧约170米,新疆维吾尔自治区,阿克苏地区,库车市,"13038929777,15701905390",unknown,
baidu,e8db8ad955a6c83021022017,足之语养生馆,阿克苏地区库车市天山中路库车县石油大院,新疆维吾尔自治区,阿克苏地区,库车市,19999729297,unknown,
baidu,0b61dcf605cbcc2a2902e12d,库车川渝名茶棋牌馆,新疆维吾尔自治区阿克苏地区库车市文化东路128号川渝大酒店16楼,新疆维吾尔自治区,阿克苏地区,库车市,15660333335,unknown,
baidu,87d36ddfea1fd4519c09f7b3,龟兹文化广场,新疆维吾尔自治区阿克苏地区库车市文化中路10号附近,新疆维吾尔自治区,阿克苏地区,库车市,,unknown,
baidu,ccd5a775190a28194d554782,梦茹足浴,阿克苏地区库车市天山中路库车县石油大院,新疆维吾尔自治区,阿克苏地区,库车市,,unknown,
baidu,2d60d0e57b290a61ec74f8ff,T90国潮跳舞俱乐部,新疆阿克苏地区库车市新城街道清风苑社区御景湾.水岸天街2号楼1楼,新疆维吾尔自治区,阿克苏地区,库车市,,unknown,
baidu,59cae7e816f74135b34c49e1,永华经络按摩,阿克苏地区库车市僖源路公务员小区南侧约240米,新疆维吾尔自治区,阿克苏地区,库车市,,unknown,
baidu,547c571ff3ffcc24fbdc85da,扬子足浴城,天山中路步行街一期东方花园对面,新疆维吾尔自治区,阿克苏地区,库车市,,unknown,
baidu,b0fd88a2c8bda4e803ec0118,郑远元专业修脚房(五一南路),五一南路阳光紫荆花园,新疆维吾尔自治区,阿克苏地区,库车市,,unknown,
baidu,f20ad1b3adaf92e4f50e77bd,轩润棋牌馆,阿克苏地区库车市胜利路胜利城小区,新疆维吾尔自治区,阿克苏地区,库车市,,unknown,
baidu,14178c198f78c8ea9222e0a1,欧克娱乐会所,阿克苏地区库车市友谊路飞越帝都汇小区东南侧约70米,新疆维吾尔自治区,阿克苏地区,库车市,,unknown,
baidu,71bc2e39e9ebbaea77026916,双夜清吧,金桥太古里商业广场11号楼1层17号商铺,新疆维吾尔自治区,阿克苏地区,库车市,18963882292,unknown,
baidu,93d148a733758627cd06a4e3,库车市卡布奇诺歌舞俱乐部,新疆维吾尔自治区阿克苏地区库车市新城街道幸福社区博斯坦路以东胜利路以南迎宾馆建设项目商业街1幢3层308号-2号商铺,新疆维吾尔自治区,阿克苏地区,库车市,18899244998,unknown,
baidu,3db0e2e134e907e8babd63a3,康之蓝养生堂,阿克苏地区库车市天山中路库车县石油大院,新疆维吾尔自治区,阿克苏地区,库车市,,unknown,
baidu,1ef2dd8a022fa6ebf2193796,和气棋牌馆,阿克苏地区库车市健康路杏花苑,新疆维吾尔自治区,阿克苏地区,库车市,,unknown,
baidu,ba3e90899be685a0bbbd63fd,酷玩娱乐会所,阿克苏地区库车市天山中路库车县石油大院,新疆维吾尔自治区,阿克苏地区,库车市,,unknown,
baidu,0b033869f7c17e432a02e193,库车激情酒吧,新城街道友谊社区友谊路北3号(中国工商银行股份有限公司库车支行)一层4号店铺,新疆维吾尔自治区,阿克苏地区,库车市,,unknown,
baidu,1bb355f40b343dea2d47333a,乐潮唱吧,五一南路与天山中路交叉口西南460米,新疆维吾尔自治区,阿克苏地区,库车市,,unknown,
baidu,140da3762087bbc5f50e7788,沐道泉足浴,新疆维吾尔自治区阿克苏地区库车市文化路11号五洲大酒店4楼,新疆维吾尔自治区,阿克苏地区,库车市,,unknown,
baidu,78bac568922cc597eedfca56,万佳国际影城,新疆维吾尔自治区阿克苏地区库车市健康路丝珞明珠水岸天街8栋2楼,新疆维吾尔自治区,阿克苏地区,库车市,17699361188,unknown,
baidu,cb8234f5c799e1a2a3acc499,柠檬7℃KTV,新疆维吾尔自治区阿克苏地区库车市天河路绿景家园3号楼,新疆维吾尔自治区,阿克苏地区,库车市,,unknown,
baidu,daf973170242ccadf2193759,国色添香美容SPA,新疆维吾尔自治区阿克苏地区库车市天山中路金都景苑2号商铺25号,新疆维吾尔自治区,阿克苏地区,库车市,,unknown,
baidu,42ed1004bb379cb1990050c8,库车好身姿养身馆(瑞嘉华府店),新疆维吾尔自治区阿克苏地区库车市新城街道幸福社区瑞嘉华府博斯坦路60号瑞嘉华府小区8幢2层4号商铺,新疆维吾尔自治区,阿克苏地区,库车市,15199208628,unknown,
baidu,ff62224ee466947684154129,佰纳洗浴养生会所(欧洲世纪花园店),欧洲世家花园大门,新疆维吾尔自治区,阿克苏地区,库车市,,unknown,
baidu,d925186f59e83217c9291565,杠上花茶社,胜利路瑞嘉华府小区西门北50米路东,新疆维吾尔自治区,阿克苏地区,库车市,17799524613,unknown,
baidu,c7c6752eb1d4ac2b704b872b,慕本MOOBOO(金桥时尚购物广场店),文化东路214号金桥时尚购物广场六号楼三层,新疆维吾尔自治区,阿克苏地区,库车市,,unknown,
baidu,ae789df051ebec9594ec8448,哈工元气空间,阿克苏地区库车市胜利路瑞嘉华府,新疆维吾尔自治区,阿克苏地区,库车市,18997867777,unknown,
baidu,15ed6b1f969367f341e192d8,益耳采耳,凯丰东湖印象小区12-2幢1层商铺110室商铺,新疆维吾尔自治区,阿克苏地区,库车市,,unknown,
baidu,867e5895e133e316cae33cd7,罗国强推拿馆(江南御A区店),新疆维吾尔自治区阿克苏地区库车市江南御A区8-1-6,新疆维吾尔自治区,阿克苏地区,库车市,,unknown,
baidu,f0d588f37958909d78f796e9,摩趣推拿,五一南路阳光紫荆花园商业楼101商铺2层,新疆维吾尔自治区,阿克苏地区,库车市,,unknown,
baidu,93c0cd58010f74883686f461,正和推拿(江南御B区店),天福社区天山中路江南御小区39-40商业楼2层5-6-7号商铺,新疆维吾尔自治区,阿克苏地区,库车市,,unknown,
baidu,62d9ea12643d6b2856bfffb5,卡洛足浴养生馆,新疆维吾尔自治区阿克苏地区库车市僖源路,新疆维吾尔自治区,阿克苏地区,库车市,,unknown,
baidu,a7321e7db579a8de46572693,六六顺棋牌室,新疆维吾尔自治区阿克苏地区库车市欧洲世纪花园西侧约80米,新疆维吾尔自治区,阿克苏地区,库车市,"18629430908,18742614276",unknown,
baidu,3765757cbd80520696ca077a,坤坤棋牌室,阿克苏地区库车市胜利路胜利城小区,新疆维吾尔自治区,阿克苏地区,库车市,,unknown,
baidu,c54ebc3e53026fd9102935d0,周周棋牌馆,阿克苏地区库车市胜利路瑞嘉华府,新疆维吾尔自治区,阿克苏地区,库车市,,unknown,
baidu,6ae7f15115af91cb9222e090,印阁养生足道(库车天河新城店),僖源路与天山中路交叉口南460米,新疆维吾尔自治区,阿克苏地区,库车市,,unknown,
baidu,5545e35968215e95b11e365d,巴娜娜酒吧,新疆维吾尔自治区阿克苏地区库车市五一南路华瑞商务宾馆南侧约90米,新疆维吾尔自治区,阿克苏地区,库车市,15739272577,unknown,
baidu,f81558beee23cd7cc4f50d60,仁康使者养生会所,阿克苏地区库车市胜利路瑞嘉华府,新疆维吾尔自治区,阿克苏地区,库车市,,unknown,
baidu,f0865bff73e8b02dcd04ef38,亿时代网络(金桥购物广场店),新疆维吾尔自治区阿克苏地区库车市文化路1号金桥3层,新疆维吾尔自治区,阿克苏地区,库车市,,unknown,
baidu,e8a2c99e53d8f9be0482c25e,亮点桌球,阿克苏地区库车市健康路丝珞明珠,新疆维吾尔自治区,阿克苏地区,库车市,,unknown,
baidu,54827b8cb8db022f871541df,以牌会友茶馆,阿克苏地区库车市健康北路胜利城小区,新疆维吾尔自治区,阿克苏地区,库车市,,unknown,
baidu,e305b9531fb63efe5cd4fe0a,达尔优网吧,阿克苏地区库车市-新城街道新华社区五一南路阳光紫荆花园二期7号楼2层,新疆维吾尔自治区,阿克苏地区,库车市,(0997)7778111,unknown,
baidu,26a8af6e7d3444a338e4a67b,半日闲茶社,阿克苏地区库车市博斯坦路瑞嘉华府,新疆维吾尔自治区,阿克苏地区,库车市,,unknown,
baidu,82e9f5b5b9d6a8ad223bf202,云水间茶社,江南御42号楼2层2-25,新疆维吾尔自治区,阿克苏地区,库车市,15599755555,unknown,
baidu,232587fe672533a9d1f49e1a,逍遥茶室,新疆维吾尔自治区阿克苏地区库车市江南御39-40幢1层6号7号商铺,新疆维吾尔自治区,阿克苏地区,库车市,15699356622,unknown,
baidu,0bf9bdec12003e1ff4e73bd2,鸿兴茗扬茶庄,阿克苏地区库车市天山中路新华公寓楼下,新疆维吾尔自治区,阿克苏地区,库车市,13289984270,unknown,
baidu,f64d840e380314b04e5547ad,澜沧古茶(胜利城小区店),伊西哈拉镇中润胜利城4-10号商铺,新疆维吾尔自治区,阿克苏地区,库车市,17349994666,unknown,
baidu,02ccbf681c05034c770269cf,茶一道茶社(凯丰·东湖印象店),新疆维吾尔自治区阿克苏地区库车市东城街道光明社区塔河路东湖印象小区12-2幢2层202号商铺,新疆维吾尔自治区,阿克苏地区,库车市,13239088132,unknown,
baidu,5fe86f06b0b289379d82ea78,库车金豪大酒店,文化中路160号,新疆维吾尔自治区,阿克苏地区,库车市,"(0997)6697777,(0997)6718999",unknown,
baidu,9e7124f08904ad2c4107c12d,麗枫酒店(库车西域乐都店),五一中路西域乐都B栋20-27层,新疆维吾尔自治区,阿克苏地区,库车市,(0997)7235999,unknown,
baidu,503bc1dbde36d9ac81a12eaa,金天酒店,文化东路201号金天大厦小区1号楼1单元四楼,新疆维吾尔自治区,阿克苏地区,库车市,(0997)7889222,unknown,
baidu,9c1d4b2888aa41f849fd3f2d,库车川渝大酒店,文化东路128号,新疆维吾尔自治区,阿克苏地区,库车市,"(0997)6691111,(0997)6691234",unknown,
baidu,5f493e900599eb56306212f5,库车飞天商务宾馆,文化东路1号,新疆维吾尔自治区,阿克苏地区,库车市,(0997)6776333,unknown,
baidu,5ffb181643518e5e6f47607f,库车宾馆,解放路04-1号,新疆维吾尔自治区,阿克苏地区,库车市,(0997)7122901,unknown,
baidu,a32cd61b0d76803db2077d61,库车尚客优连锁酒店,五一路东侧二期（天五广场）C室二层,新疆维吾尔自治区,阿克苏地区,库车市,(0997)6722989,unknown,
baidu,0877a54b0f770068ae045795,库车如家人宾馆,天山路天五广场二楼,新疆维吾尔自治区,阿克苏地区,库车市,13399043566,unknown,
baidu,7ca6a13b5a5f9a71734b87d1,英朗主题酒店(库车龟兹店),金都景苑小区二期2幢3层1-2号，2幢4层1-2号,新疆维吾尔自治区,阿克苏地区,库车市,"(0997)6792345,(0997)6792999",unknown,
baidu,cdf41b802a6709640b1cc701,兰欧·尚品酒店(库车市太古里夜市店),文化中路118号金桥太古里美食广场10幢一层4号,新疆维吾尔自治区,阿克苏地区,库车市,(0997)6699666,unknown,
baidu,41d98560590a2e9831870a95,库车金巷宾馆,天山中路7号,新疆维吾尔自治区,阿克苏地区,库车市,(0997)7151988,unknown,
baidu,a82d3f3c9e5f572487330434,库车柏悦精品酒店,五一南路国际社区17号楼,新疆维吾尔自治区,阿克苏地区,库车市,"(0997)7797111,(0997)7797777",unknown,
baidu,5f0b05ab5fa489b92de67b75,库车华龙宾馆,五一中路05–4号,新疆维吾尔自治区,阿克苏地区,库车市,(0997)6782850,unknown,
baidu,04d22e0cd3e0dcf3c056ac95,库车华瑞酒店,五一南路华能商贸城7号501,新疆维吾尔自治区,阿克苏地区,库车市,"(0997)6722588,15569005056",unknown,
baidu,bf1d114aecca73f70189720a,库车银杏宾馆,解放路文化西路路口处西北角,新疆维吾尔自治区,阿克苏地区,库车市,(0997)7133959,unknown,
baidu,b58206791f85491c8c55ec77,星程酒店(库车天山中路店),天山路新华公寓商住楼A幢,新疆维吾尔自治区,阿克苏地区,库车市,19109970577,unknown,
baidu,ea0193d3e4de7066871541b0,华驿酒店(库车天五广场店),新城街道杏花苑社区五一路东侧（天五广场）二期D区二层,新疆维吾尔自治区,阿克苏地区,库车市,(0997)6690888,unknown,
baidu,5d280a3e4ad2c384b6147f6e,宜尚酒店(库车健康路店),新城街道幸福社区健康北路38号C幢,新疆维吾尔自治区,阿克苏地区,库车市,(0997)6722222,unknown,
baidu,09185c568cb35c5cf119377f,库车金都宾馆,五一南路天山中路路口处西北角,新疆维吾尔自治区,阿克苏地区,库车市,(0997)7137152,unknown,
baidu,041d56744a1bf1876140a9a1,库车华府精品酒店,新城街道博斯坦路60号瑞嘉华府小区3幢1层,新疆维吾尔自治区,阿克苏地区,库车市,"(0997)7880666,13399972333",unknown,
baidu,cef88fd27c24f71d9de321a3,库车华鑫宾馆,新城街道新华社区天山中路531号华鑫雅居小区1幢3层302号,新疆维吾尔自治区,阿克苏地区,库车市,"(0997)6719888,15292309721",unknown,
baidu,b4af2caf1f9d7c3585420efb,库车新界电竞酒店,新城街道幸福社区健康北路38号宜尚酒店三楼,新疆维吾尔自治区,阿克苏地区,库车市,"(0997)7696000,13319788722",unknown,
baidu,e9b2360896c1145df90cad09,库车朝昱万华国际酒店,健康北路与胜利路交叉口西南140米,新疆维吾尔自治区,阿克苏地区,库车市,"(0997)6755555,(0997)6822888",unknown,
baidu,12f10b19bc2367f7ce04ef34,大河休闲酒店,天山中路新城街道天福社区锦绣江南小区26号1层,新疆维吾尔自治区,阿克苏地区,库车市,(0997)6860000,unknown,
baidu,d3d512482eb07d12373a7187,兰都酒店(库车天山中路店),新城街道新华社区华鑫雅居2幢401号商铺,新疆维吾尔自治区,阿克苏地区,库车市,(0997)7987888,unknown,
baidu,53349ee39cdd166f2202627f,库车饭店,天山中路266号,新疆维吾尔自治区,阿克苏地区,库车市,0997-7999999,unknown,
baidu,066585c3b164efab1ef74d0d,库车丽晶酒店,天山中路欧洲世纪花园3号楼,新疆维吾尔自治区,阿克苏地区,库车市,(0997)7700555,unknown,
baidu,6081e178709ee930b8bd6360,库车天元宾馆,五一南路77号,新疆维吾尔自治区,阿克苏地区,库车市,(0997)7778900,unknown,
baidu,ecc06f21e4d3248aa8059d35,库车华能假日酒店,乌恰镇喀拉玉吉买社区华能商贸城餐饮市场2-3层,新疆维吾尔自治区,阿克苏地区,库车市,(0997)7798000,unknown,
baidu,8d7143a30f518bc3c2f1cf22,库车恒远商务宾馆,天山中路（亿家超市对面）天五广场二楼,新疆维吾尔自治区,阿克苏地区,库车市,"(0997)6691116,15099289228",unknown,
baidu,f2d7b2624a407e6115a19002,库车丽都大酒店,天山中路65号,新疆维吾尔自治区,阿克苏地区,库车市,"(0997)7233222,(0997)7233777",unknown,
baidu,5684c610086058da22f01741,库车强鑫招待所,新疆维吾尔自治区阿克苏地区库车市天山中路182号,新疆维吾尔自治区,阿克苏地区,库车市,(0997)7122268,unknown,
baidu,3f689cb72effeac090114c89,库车星界电竞酒店,阿克苏地区东城街道光明社区塔河路31号凯丰东湖印象12-1号楼202号商铺,新疆维吾尔自治区,阿克苏地区,库车市,"(0997)7772555,19199477739",unknown,
baidu,daae38d4a182015c8936ee19,库车千玺酒店,文化东路金桥时尚广场8号楼一层9号和4-6层商铺,新疆维吾尔自治区,阿克苏地区,库车市,(0997)7999995,unknown,
baidu,4a5d2417f66d06d7364aae20,库车金色阳光宾馆,五一南路62号,新疆维吾尔自治区,阿克苏地区,库车市,13525181833,unknown,
baidu,f5393a423a552c5e14b54bd8,库车龟兹云尚精品酒店,金桥时尚广场9号楼,新疆维吾尔自治区,阿克苏地区,库车市,(0997)7901888,unknown,
baidu,e34955dd7539db6ff8dc8506,怡程酒店(库车天山中路店),天山中路272号,新疆维吾尔自治区,阿克苏地区,库车市,"(0997)7315555,(0997)7317777",unknown,
baidu,5f757fc2b50c6652a21de967,库车大宇商务宾馆,五一南路国际社区1号商铺,新疆维吾尔自治区,阿克苏地区,库车市,"(0997)6785556,15770000255",unknown,
baidu,62087f02a68c6c44276e986e,库车石油宾馆,新疆维吾尔自治区阿克苏地区库车市天山中路70号欧洲世纪花园3号楼,新疆维吾尔自治区,阿克苏地区,库车市,,unknown,
baidu,252c12d3797d284494ec84c2,银丰宾馆,五一南路鸿雁水景苑小区1号楼,新疆维吾尔自治区,阿克苏地区,库车市,(0997)7990190,unknown,
baidu,5486c709a2485034c16c14b0,库车天福宾馆,文化东路5号,新疆维吾尔自治区,阿克苏地区,库车市,(0997)6691888,unknown,
baidu,1816533491868205fb2d617f,库车温州大酒店,商业步行街一期A座,新疆维吾尔自治区,阿克苏地区,库车市,(0997)6782233,unknown,
baidu,dd180d284c61ced29d9d6882,库车乐居民宿(健康路分店),新疆维吾尔自治区阿克苏地区库车市健康路杏花苑小区25号楼-2单元,新疆维吾尔自治区,阿克苏地区,库车市,,unknown,
baidu,d648bb299c3772412811d1ae,旺达招待所,阿克苏地区库车市五一路天五广场西北侧约40米,新疆维吾尔自治区,阿克苏地区,库车市,,unknown,
baidu,8197a06d9897a90416a19003,皇朝快捷宾馆,阿克苏地区库车市文化东路库车完美宾馆,新疆维吾尔自治区,阿克苏地区,库车市,,unknown,
baidu,f817f99523bfcb99e856fae4,精英群体不一样的体验公寓(博斯坦路1号分店),新疆维吾尔自治区阿克苏地区库车市博斯坦路公务员小区20号楼,新疆维吾尔自治区,阿克苏地区,库车市,,unknown,
baidu,b535fc567ccd9114f7e73b7d,途虎养车工场店(库车太古里店),幸福社区金桥太古里美食广场1号楼1层2-4号,新疆维吾尔自治区,阿克苏地区,库车市,0997-7310000,unknown,
baidu,7cbe38418eecf257e9f85395,另一城汽车修理厂,阿克苏地区库车市体育馆红绿灯往北500米,新疆维吾尔自治区,阿克苏地区,库车市,15569335533,unknown,
baidu,7b09e0c08af976d3c81b9585,天猫养车(库车上海城店),新疆维吾尔自治区阿克苏地区库车市上海城1期1-1层08室,新疆维吾尔自治区,阿克苏地区,库车市,,unknown,
baidu,b3feeae5c4d369282fb17e20,无界汽车服务,金桥时尚购物广场东北门旁,新疆维吾尔自治区,阿克苏地区,库车市,18095885966,unknown,
baidu,1558031a774649914e5547fb,歌鸽洗车店,阿克苏地区库车市繁荣路金桥名苑小区东北侧约30米,新疆维吾尔自治区,阿克苏地区,库车市,,unknown,
baidu,880f9ae355c34705cd04efc2,佳帕凯西汽车养护中心,新疆维吾尔自治区阿克苏地区库车市胜利路8号,新疆维吾尔自治区,阿克苏地区,库车市,13309977707,unknown,
baidu,d21d895415ab3be2990050b5,库车市车洁魅族洗车店,阿克苏地区库车市五一南路鸿雁水景苑,新疆维吾尔自治区,阿克苏地区,库车市,13999815139,unknown,
baidu,dba579f303cccd789f09f700,车夫人洗车行,阿克苏地区库车市五一南路金桥翡翠苑东侧约30米,新疆维吾尔自治区,阿克苏地区,库车市,,unknown,
baidu,ec8924a86affd857077ce89c,八轮起汽车养护服务,新疆维吾尔自治区阿克苏地区库车市新城街道友谊北路,新疆维吾尔自治区,阿克苏地区,库车市,,unknown,
baidu,686bd3ccd6ae4a1daecb663b,海鸟洗车店,新疆维吾尔自治区阿克苏地区库车市乌恰镇X314(友谊南路),新疆维吾尔自治区,阿克苏地区,库车市,,unknown,
baidu,c8ac088863c8c907b45f1ef5,库车福顺汽车租赁部,阿克苏地区库车市天缘国际大酒店写字楼3楼307号,新疆维吾尔自治区,阿克苏地区,库车市,15003053655,unknown,
baidu,a9b3b5ece3ec740b2bb97c4a,库车奇翼汽车租赁有限责任公司,库车县文化中路天缘国际酒店写字楼307号商铺,新疆维吾尔自治区,阿克苏地区,库车市,15003053655,unknown,
baidu,0d4b8e0f0d9928e7eee4a59c,库车奥众汽配商行,新疆维吾尔自治区阿克苏地区库车市天山中路金都景苑小区2幢1层11号商铺,新疆维吾尔自治区,阿克苏地区,库车市,,unknown,
baidu,18dec0ab7e46fcea6e20b920,阿卜力提普汽车电工,新疆维吾尔自治区阿克苏地区库车市乌恰镇五一南路社区鸿雁水景苑3号楼一单元103商铺,新疆维吾尔自治区,阿克苏地区,库车市,13201364288,unknown,
baidu,773a24416d1a7c9ab11e3633,朝阳轮胎(五一南路店),新疆维吾尔自治区阿克苏地区库车市金桥翡翠园16-118,新疆维吾尔自治区,阿克苏地区,库车市,"15701901665,15770167413",unknown,
baidu,1a9437053cdedefcc61b7507,调皮孩子洗车服务部,库车市禧源社区河路66号A区星天新城小区8一层08商铺,新疆维吾尔自治区,阿克苏地区,库车市,15292380832,unknown,
baidu,2848a6a321e5142617c8f604,美创优车(江南御B区店),阿克苏地区库车市博斯坦路公务员小区东侧约130米,新疆维吾尔自治区,阿克苏地区,库车市,,unknown,
baidu,c50564438118b0860e3ddaa3,乔艺装饰装潢,阿克苏地区库车市五一南路华瑞商务宾馆东侧约100米,新疆维吾尔自治区,阿克苏地区,库车市,13779446808,unknown,
baidu,b3967404286073d0c9e33cd6,霸道汽车装潢俱乐部,新疆维吾尔自治区阿克苏地区库车市乌恰镇禧源社区天河路66号A区天河新城小区8号楼一层12号商铺-1,新疆维吾尔自治区,阿克苏地区,库车市,19999726072,unknown,
baidu,b06a201e0000f48dfb2d619d,龟兹医院,新疆维吾尔自治区阿克苏地区库车市胜利路8号,新疆维吾尔自治区,阿克苏地区,库车市,,unknown,
baidu,bdaafb585a98842df4eafc75,新城街道社区卫生服务中心,新疆维吾尔自治区阿克苏地区库车市团结路南7号,新疆维吾尔自治区,阿克苏地区,库车市,,unknown,
baidu,764e2876bf54a36a2fe67bf1,罗医生诊所,阿克苏地区库车市文化东路时尚小区北侧,新疆维吾尔自治区,阿克苏地区,库车市,,unknown,
baidu,ae17998fad0514999ee3216f,惠仁医院,阿克苏地区库车市天山中路北100米,新疆维吾尔自治区,阿克苏地区,库车市,(0997)7131862,unknown,
baidu,178ed2d43502d89df62310ab,牛忠富中西医个体诊所,新疆维吾尔自治区阿克苏地区库车市五一中路海澜之家对面,新疆维吾尔自治区,阿克苏地区,库车市,,unknown,
baidu,d1469ee7f81d9f638433047f,矿化医院,团结路与天山中路交叉口西北50米,新疆维吾尔自治区,阿克苏地区,库车县,(0997)7151120,unknown,
baidu,df8dc8f51fa9a20c97f08c1d,吴氏中西医个体诊所,阿克苏地区库车市健康路杏花苑,新疆维吾尔自治区,阿克苏地区,库车市,,unknown,
baidu,4fc732ebef29de499cec2b70,库车市人民医院,新疆维吾尔自治区阿克苏地区库车市解放路12号,新疆维吾尔自治区,阿克苏地区,库车市,(0997)6864068,unknown,
baidu,1bbde021ba71a583bca822b6,小蜗牛口腔门诊,阿克苏地区库车市胜利路胜利城小区西南侧约50米,新疆维吾尔自治区,阿克苏地区,库车市,,unknown,
baidu,56c4f42f13df75336c476068,斯麦尔口腔医院,阿克苏地区库车市博斯坦路五洲大酒店(文化东路店),新疆维吾尔自治区,阿克苏地区,库车市,,unknown,
baidu,85c73cabc1918616130daaf3,普安堂大药房(库车六十六分店),阿克苏地区库车市新城街道杏花苑小区S1号楼11号商铺,新疆维吾尔自治区,阿克苏地区,库车市,,unknown,
baidu,b9e11656cd93e942da2f2811,献血车(金桥超市),阿克苏地区库车市文化中路金桥超市门口,新疆维吾尔自治区,阿克苏地区,库车市,,unknown,
baidu,be5fb7336d17c49eb817e786,易春西医内科个体诊所,新疆维吾尔自治区阿克苏地区库车市五一南路94号,新疆维吾尔自治区,阿克苏地区,库车市,,unknown,
baidu,1cd80029b3f12f9b3fe231f8,老百姓大药房(文化东路店),阿克苏地区库车市文化东路时尚小区8栋103号,新疆维吾尔自治区,阿克苏地区,库车市,(0997)7796761,unknown,
baidu,4a4ef117d5b9d300acb22ac2,吴琼中医个体诊所,阿克苏地区库车市繁荣路阳光紫荆花园,新疆维吾尔自治区,阿克苏地区,库车市,,unknown,
baidu,1dbccb1f9198ada175e5b66f,库车市人民医院-住院部,阿克苏地区库车市绿洲宾馆对面,新疆维吾尔自治区,阿克苏地区,库车市,,unknown,
baidu,11558ee9f2a7802580a00c9a,惠心医院,阿克苏地区库车市五一南路鸿雁水景苑东南侧约140米,新疆维吾尔自治区,阿克苏地区,库车市,,unknown,
baidu,12926a1f93389b3c601809d9,孙家华综合门诊部,阿克苏地区库车市天山中路公务员小区南侧约190米,新疆维吾尔自治区,阿克苏地区,库车市,,unknown,
baidu,eabc0648a3801f4f59bbbcdf,天河社区卫生服务站,阿克苏地区库车市僖源路库车市第五幼儿园西北侧约160米,新疆维吾尔自治区,阿克苏地区,库车市,,unknown,
baidu,704775aa983d0f8025e0a046,神州大药房(66分店),阿克苏地区库车市健康北路库车县第八小学东侧约70米,新疆维吾尔自治区,阿克苏地区,库车市,13899213172,unknown,
baidu,eb653afcf357da4888b98853,罗国强诊所,阿克苏地区库车市欧洲世纪花园西侧约170米,新疆维吾尔自治区,阿克苏地区,库车市,,unknown,
baidu,fa835ce20232b5afe912e4a9,博爱医院,新疆维吾尔自治区阿克苏地区库车市友谊路地税局南侧,新疆维吾尔自治区,阿克苏地区,库车市,,unknown,
baidu,fd7f503e2f9c46ded6b74e7c,库车五运医院,新疆维吾尔自治区阿克苏地区库车市路欧洲世纪花园左侧,新疆维吾尔自治区,阿克苏地区,库车市,(0997)7312189,unknown,
baidu,4d19df9c84900f02aecb66fa,吕林霞内科个体诊所,阿克苏地区库车市繁荣路东方花园南侧约80米,新疆维吾尔自治区,阿克苏地区,库车市,,unknown,
baidu,915163a80df28cb5b04c4948,申宏中医,阿克苏地区库车市僖源路库车市第五幼儿园西北侧约130米,新疆维吾尔自治区,阿克苏地区,库车市,,unknown,
baidu,353dd3de9ed2997178f79616,库车丽人妇科医院,新疆维吾尔自治区阿克苏地区库车市天山路西42号,新疆维吾尔自治区,阿克苏地区,库车市,,unknown,
baidu,6de0b19a812e9647b35c6a8a,老百姓大药房(胜利城小区店),胜利路胜利城2-1-03号商铺,新疆维吾尔自治区,阿克苏地区,库车市,,unknown,
baidu,788bce7c7a25e97a9703190b,开心大药房(天山中路店),库车市天山路天五广场亿家对面,新疆维吾尔自治区,阿克苏地区,库车市,15999421928,unknown,
baidu,465568437b61f340b9df8fc9,镶牙店,新疆维吾尔自治区阿克苏地区库车市天山中路附近,新疆维吾尔自治区,阿克苏地区,库车市,,unknown,
baidu,215be662e3c4885abda24025,范书平儿科诊所,阿克苏地区库车市僖源路库车市第五幼儿园北侧约80米,新疆维吾尔自治区,阿克苏地区,库车市,,unknown,
baidu,53c240b690b53226f21937b8,普安堂大药房(库车二分店),阿克苏地区库车市御景湾水岸天街5幢一层101号商铺,新疆维吾尔自治区,阿克苏地区,库车市,,unknown,
baidu,e8ce64ce5e9354be0accddaa,扶明堂眼病护理中心,五一南路109号附近,新疆维吾尔自治区,阿克苏地区,库车县,,unknown,
baidu,6d7b50858f0c4de08415415f,王雄中医个体诊所,阿克苏地区库车市五一南路金桥翡翠苑,新疆维吾尔自治区,阿克苏地区,库车市,,unknown,
baidu,71bd4fa758a70a41fbf0cbe3,周胜内科个体诊所,新疆维吾尔自治区阿克苏地区库车市金桥名苑1号楼1-110号门面房,新疆维吾尔自治区,阿克苏地区,库车市,,unknown,
baidu,11fccedf3191fc4196f08c84,益民诊所,新疆维吾尔自治区阿克苏地区库车市僖源路,新疆维吾尔自治区,阿克苏地区,库车市,(0997)7799500,unknown,
baidu,20615782556cc1883686f4ed,姜老太修肤堂(解放路店),阿克苏地区库车市解放路8号5号,新疆维吾尔自治区,阿克苏地区,库车市,,unknown,
baidu,710a645bbf7a6f1fab059ddb,神州大药房(健康路店),新疆维吾尔自治区阿克苏地区库车市天山中路175号,新疆维吾尔自治区,阿克苏地区,库车市,13899213172,unknown,
baidu,7665158bdc1688b0f82213be,老百姓大药房(亿家超市店),阿克苏地区库车市天山中路亿家超市1层,新疆维吾尔自治区,阿克苏地区,库车市,(0997)6782666,unknown,
baidu,8a4c4420db71abd4c92915f5,老百姓大药房(库车十四分店),健康路丝路明珠小区2-1-111号商铺,新疆维吾尔自治区,阿克苏地区,库车市,4006252888,unknown,
baidu,73e89f5384813d5a28b97cea,健康路社区卫生服务站,新疆维吾尔自治区阿克苏地区库车市英阿瓦提路205号,新疆维吾尔自治区,阿克苏地区,库车市,,unknown,
baidu,a07e5a3b6f37c9928adb7368,解放路社区卫生服务站,新疆维吾尔自治区阿克苏地区库车市建设路9号,新疆维吾尔自治区,阿克苏地区,库车市,18909975626,unknown,
baidu,d8f09e79ffb8d33cca291581,汪晓琳中医个体诊所,阿克苏地区库车市文化东路财富中心,新疆维吾尔自治区,阿克苏地区,库车市,,unknown,
baidu,ad06e91fe9e85fed83a12e12,普安堂大药房(四分店),阿克苏地区库车市老金桥超市西侧1号门面房,新疆维吾尔自治区,阿克苏地区,库车市,(0997)7128999,unknown,
baidu,76155e491bf29f39bda240d8,深州大药房,阿克苏地区库车市银河路瑞嘉华府,新疆维吾尔自治区,阿克苏地区,库车市,,unknown,
baidu,bba11e477d336fe67bf796c7,老百姓大药房(博斯坦路店),瑞嘉华府小区1102号商铺,新疆维吾尔自治区,阿克苏地区,库车市,4006252888,unknown,
baidu,6494640600ecfd7a306212f9,兴安筋骨复元堂,新疆维吾尔自治区阿克苏地区库车市五一南路77号,新疆维吾尔自治区,阿克苏地区,库车市,,unknown,
baidu,7be3a63b46eaa4ce8b2fb50b,哈工元气空间(胜利路店),新疆维吾尔自治区阿克苏地区库车市瑞嘉华府北门1幢1层商铺15-5室,新疆维吾尔自治区,阿克苏地区,库车市,,unknown,
baidu,6ebe0cf055528e3321026237,老百姓大药房(一分店),新疆维吾尔自治区阿克苏地区库车市华能商贸城住楼7幢1单元107号商铺,新疆维吾尔自治区,阿克苏地区,库车市,(0997)7770003,unknown,
baidu,a761584c001e28c428d7aba4,老百姓大药房(库车八分店),阿克苏地区库车市解放路库车市人民医院东侧约30米,新疆维吾尔自治区,阿克苏地区,库车市,13094087500,unknown,
baidu,ea97574ddbb88709d23ce372,龙大药房(解放路总店),阿克苏地区库车市解放路库车市人民医院东侧约40米,新疆维吾尔自治区,阿克苏地区,库车市,(0997)7131898,unknown,
baidu,637f12a736a95c5b0869d961,普安堂大药房(天河路店),新疆维吾尔自治区阿克苏地区库车市五一路59号,新疆维吾尔自治区,阿克苏地区,库车市,,unknown,
baidu,20c1c6c5911a59e7ae0457c9,普安堂大药房(NO.061分店),阿克苏地区库车市天山中路公务员小区南侧约160米,新疆维吾尔自治区,阿克苏地区,库车市,(0997)7232567,unknown,
baidu,a3aedcf03cf9b9f240ab9a7a,普安堂大药房(库车三十八分店),新疆维吾尔自治区阿克苏地区库车市解放路(库车市人民医院对面),新疆维吾尔自治区,阿克苏地区,库车市,(0997)7128578,unknown,
baidu,54e454d3f18c686d31870a8f,幸福使者健康咨询服务部,阿克苏地区库车市解放路10-12号附近,新疆维吾尔自治区,阿克苏地区,库车市,,unknown,
baidu,4b38e4c3b72aefa57dc87621,神州大药房(六十七分店),新疆维吾尔自治区阿克苏地区库车市新城街道天福社区博斯坦路以东天山路以北江南御小区第15栋1层5号商铺,新疆维吾尔自治区,阿克苏地区,库车市,(0997)7306296,unknown,
baidu,f549a9b1bfaf8ef3f03cba56,神州大药房(四十三分店),新疆维吾尔自治区阿克苏地区库车市饭店五菱楼二号楼门面,新疆维吾尔自治区,阿克苏地区,库车市,18196316518,unknown,
baidu,c64e7048e9c98e08400245e3,神州大药房(三十四分店),新疆维吾尔自治区阿克苏地区库车市乌恰镇荷花苑社区白金国际城二期b栋大门左侧第二间107号门面房,新疆维吾尔自治区,阿克苏地区,库车市,15569084557,unknown,
baidu,585ebb0cf1d08a8895f08c3c,圣博口腔,新疆维吾尔自治区阿克苏地区库车市银河路幸福城小区5号楼谭鸭血楼下,新疆维吾尔自治区,阿克苏地区,库车市,"(0997)7795688,19990397799",unknown,
baidu,bbde7f5c4518b664d22dd60b,儿童口腔,阿克苏地区库车市银河路库车县第八小学东侧约160米,新疆维吾尔自治区,阿克苏地区,库车市,,unknown,
baidu,829a324830be524500ff2deb,李兴友口腔诊所,新疆维吾尔自治区阿克苏地区库车市英巴扎街道健康路二小对面,新疆维吾尔自治区,阿克苏地区,库车市,,unknown,
baidu,546a526c0373f9ad8bb98826,中梁镶牙,阿克苏地区库车市文化中路库车市第七小学,新疆维吾尔自治区,阿克苏地区,库车市,15909971263,unknown,
baidu,dd4a245cee0b09dd08ccdd19,亿美口腔(库车门诊),新疆阿克苏地区库车市香林华府小区59号楼A101商铺,新疆维吾尔自治区,阿克苏地区,库车市,,unknown,
baidu,16cf014f4903c972081cc752,锐珂口腔,新疆维吾尔自治区阿克苏地区库车市新金桥时尚广场4幢3层301号,新疆维吾尔自治区,阿克苏地区,库车市,(0997)7125999,unknown,
baidu,117e8b2131df34bf7dc87698,金钰口腔,阿克苏地区库车市健康路杏花苑东侧约50米,新疆维吾尔自治区,阿克苏地区,库车市,,unknown,
baidu,e1a610b482dbd2d7fd0eb0da,洁宝口腔门诊,新疆维吾尔自治区阿克苏地区库车市乌恰镇鸿迪名爵苑,新疆维吾尔自治区,阿克苏地区,库车市,,unknown,
baidu,3ac5945939fc4afda8f0cde8,库车市名爵院护眼中心,阿克苏地区库车市Y656金桥名苑小区,新疆维吾尔自治区,阿克苏地区,库车市,15886826261,unknown,
baidu,2fc9586fb8f2be0e5ed4fe07,萌牙伞口腔诊所,新疆维吾尔自治区阿克苏地区库车市乌恰镇乌恰二社区3号棚户改造安置小区26-27号楼1层101号商铺,新疆维吾尔自治区,阿克苏地区,库车市,,unknown,
baidu,01ca3c5d1199e3d2a21de97d,哈亚提牙齿养护馆,阿克苏地区库车市友谊路库车市第二小学东南侧约40米,新疆维吾尔自治区,阿克苏地区,库车市,,unknown,
baidu,2fd0da2506a6122587154137,钻石镶牙店,阿克苏地区库车市天山中路绿洲花园东南侧约80米,新疆维吾尔自治区,阿克苏地区,库车市,,unknown,
baidu,001e868355078b043913fd00,库车菲梵舞蹈学校,阿克苏地区库车市银河路库车县第八小学东南侧约110米,新疆维吾尔自治区,阿克苏地区,库车市,15292519871,unknown,
baidu,0d235dc80756abeb5abbbcbe,功成职业学校,步行街2期,新疆维吾尔自治区,阿克苏地区,库车市,,unknown,
baidu,00a9098151ddecc30accddad,顺达驾校报名点,阿克苏地区库车市天山中路库车县石油大院南门西南侧约90米,新疆维吾尔自治区,阿克苏地区,库车市,(0997)7776699,unknown,
baidu,846a0e881aa8025c2e4733fc,领航文化艺术培训中心,文化路17号,新疆维吾尔自治区,阿克苏地区,库车市,,unknown,
baidu,a1d2543833101bb8882fb528,库车市山河机动车驾驶员培训有限公司,阿克苏地区库车市天山中路步行街二期202号,新疆维吾尔自治区,阿克苏地区,库车市,,unknown,
baidu,76b5254d4447260a5fd4feda,明星艺术培训学校,阿克苏地区库车市健康路丝珞明珠西南侧约50米,新疆维吾尔自治区,阿克苏地区,库车市,18299999161,unknown,
baidu,a47097bdfd59f245100daac5,奥鹏学历报考中心,新疆维吾尔自治区阿克苏地区库车市步行街入口,新疆维吾尔自治区,阿克苏地区,库车市,13579375721,unknown,
baidu,0ebb7eae46ecb7db59f6beb4,新睿教育培训中心,新疆维吾尔自治区阿克苏地区库车市幸福城小区1号楼3层304号,新疆维吾尔自治区,阿克苏地区,库车市,"(0997)6795787,15292335070",unknown,
baidu,ba855b5a8ba2250680288a6d,库车县第八小学,新疆维吾尔自治区阿克苏地区库车市新城街道幸福社区正合嘉园小区14号楼08号商铺东南方向110米,新疆维吾尔自治区,阿克苏地区,库车市,,unknown,
baidu,655721a7dd26aa20a8175a36,商运驾校(天五广场店),阿克苏地区库车市五一南路天五广场一楼,新疆维吾尔自治区,阿克苏地区,库车市,,unknown,
baidu,127403727bc109ed704b8708,库车译德心立发展中心,阿克苏地区库车市银河路瑞嘉华府西南侧约140米,新疆维吾尔自治区,阿克苏地区,库车市,,unknown,
baidu,c6783f20be7e518edeee8bee,酷学未来教育培训学校,幸福城北侧商铺2楼,新疆维吾尔自治区,阿克苏地区,库车市,17792710602,unknown,
baidu,a5f4c4b8f2a44c79a21de9ee,库车金鑫摩托车驾驶员培训有限公司,新疆阿克苏地区库车市新城街道清风苑社区丝路明珠小区2幢2层205号商铺,新疆维吾尔自治区,阿克苏地区,库车市,,unknown,
baidu,1ab9f5e353c20c01db131870,库车市应麟幼儿园,新疆维吾尔自治区阿克苏地区库车市银河路42号,新疆维吾尔自治区,阿克苏地区,库车市,,unknown,
baidu,78662540697c6db1774ff1ed,会计学堂(库车校区),新疆维吾尔自治区阿克苏地区库车市文化东路11号五洲大酒店12楼,新疆维吾尔自治区,阿克苏地区,库车市,18167532326,unknown,
baidu,2666dadfca4eac8bf7eafccf,库车市第七小学,新疆维吾尔自治区阿克苏地区库车市新城街道文化路东39号,新疆维吾尔自治区,阿克苏地区,库车市,,unknown,
baidu,db226325e536e3b7dc1e5244,金东方驾校报名处,新疆维吾尔自治区阿克苏地区库车市新城街道禧源社区天河路66号A区天河新城小区1号楼一层02,新疆维吾尔自治区,阿克苏地区,库车市,,unknown,
baidu,2075df7e57532bf02811d11b,金东方驾校,僖源路,新疆维吾尔自治区,阿克苏地区,库车市,(0997)7798111,unknown,
baidu,2bb13eb80da0aa608936ee5f,库车实验中学,新疆维吾尔自治区阿克苏地区库车市文化中路06号,新疆维吾尔自治区,阿克苏地区,库车市,,unknown,
baidu,9a310aced65d47a0c056ac87,雄狮幼儿园,新疆维吾尔自治区阿克苏地区库车市胜利路4号,新疆维吾尔自治区,阿克苏地区,库车市,,unknown,
baidu,47f89b4bc40e7f4fd3ff230c,库车市阳明小学,新疆维吾尔自治区阿克苏地区库车市绿景家园商业1号楼1层4号商铺正东方向40米,新疆维吾尔自治区,阿克苏地区,库车市,,unknown,
baidu,252837d1741538e6bb17e7ad,库车高斯教育文化艺术培训学校,阿克苏地区库车市五一南路华能锦绣华庭7号楼三层高斯教育,新疆维吾尔自治区,阿克苏地区,库车市,15009975674,unknown,
baidu,021f50964b061823ca213d5c,库车市第二幼儿园,新疆维吾尔自治区阿克苏地区库车市健康路29号,新疆维吾尔自治区,阿克苏地区,库车市,,unknown,
baidu,d6d716466e4de2bce9f853ad,好多多幼儿园,阿克苏地区库车市五一北路与拥军路交叉路口往南约210米,新疆维吾尔自治区,阿克苏地区,库车市,,unknown,
baidu,2db4460d9eda6b87354aaec2,库车县成祥机动车驾驶员培训有限公司,阿克苏地区库车市华能投资有限公司餐饮市场3楼301-1号商铺,新疆维吾尔自治区,阿克苏地区,库车市,,unknown,
baidu,1ac307d38c88f1913fe2312e,库车市第二小学,新疆维吾尔自治区阿克苏地区库车市第二小学(友谊路西),新疆维吾尔自治区,阿克苏地区,库车市,,unknown,
baidu,93bfb45ad0dfe4e90482c24d,艺星艺术培训,阿克苏地区库车市建设路库车市林基路小学汉语学校西侧,新疆维吾尔自治区,阿克苏地区,库车市,18139106668,unknown,
baidu,dbaa5a85af9990e338e4a603,库车市第六中学,新疆维吾尔自治区阿克苏地区库车市解放路10-12号,新疆维吾尔自治区,阿克苏地区,库车市,,unknown,
baidu,81d4211e15731a80eb56fae2,启智幼儿园,阿克苏地区库车市新城街道杏花苑东大门,新疆维吾尔自治区,阿克苏地区,库车市,,unknown,
baidu,3af466cd319624ecb35c6aee,库车特殊教育学校,新疆维吾尔自治区阿克苏地区库车市五一南路200号,新疆维吾尔自治区,阿克苏地区,库车市,,unknown,
baidu,765d923e247857da774ff17d,库车第十小学,新疆维吾尔自治区阿克苏地区库车市英阿瓦提路15号,新疆维吾尔自治区,阿克苏地区,库车市,,unknown,
baidu,a796c4ac2a300ae45d0d02e2,研博教育,阿克苏地区库车市文化中路中兴快捷宾馆(文化西路店)东侧约80米,新疆维吾尔自治区,阿克苏地区,库车市,,unknown,
baidu,842bb59622e84c0c400245fb,红黄蓝一诺幼儿园,阿克苏地区库车市胜利路瑞嘉华府北侧约90米,新疆维吾尔自治区,阿克苏地区,库车市,,unknown,
baidu,aa9690f9fa59b09fca09f0e2,阳光宝贝幼儿园(天山中路店),新疆维吾尔自治区阿克苏地区库车市天山中路惠仁医院东南侧约190米,新疆维吾尔自治区,阿克苏地区,库车市,,unknown,
baidu,68a33daf18212c7781288a0c,库车市第一幼儿园,阿克苏地区库车市民族风味美食一条街矿化医院北侧约170米,新疆维吾尔自治区,阿克苏地区,库车市,"15899337825,18099339878",unknown,
baidu,576b885a26aeb6372efaa795,库车市第四小学,新疆维吾尔自治区阿克苏地区库车市建设路16号,新疆维吾尔自治区,阿克苏地区,库车市,,unknown,
baidu,367843cba87c458ded74f8e4,红黄蓝幼儿园,新疆维吾尔自治区阿克苏地区库车市英阿瓦提路235号,新疆维吾尔自治区,阿克苏地区,库车市,15899355599,unknown,
baidu,7a8c93bbeaeb2c7778b55cb7,昌华画艺,新疆维吾尔自治区阿克苏地区库车市黄河路华能商贸城家具城一层门面区36,新疆维吾尔自治区,阿克苏地区,库车市,15292339209,unknown,
baidu,2d7101c49f1e7221ad31e570,库车市第五幼儿园,新疆维吾尔自治区阿克苏地区库车市县城内僖源小区对面,新疆维吾尔自治区,阿克苏地区,库车市,,unknown,
baidu,ff13119ba381f88a4e2fdf8a,库车金色摇篮潜能开发幼儿园有限责任公司,新疆阿克苏地区库车市乌恰镇五一南路社区五一路华能锦绣华庭7号楼2层,新疆维吾尔自治区,阿克苏地区,库车市,,unknown,
baidu,2dcb69009823efe4f2193779,库车市第三幼儿园,阿克苏地区库车市解放路库车市第二小学西北侧,新疆维吾尔自治区,阿克苏地区,库车市,,unknown,
baidu,783dbd8f5c3c5a0aafee7a62,天智缘幼儿园,阿克苏地区库车市友谊路经贸宾馆(友谊路店)东南侧约50米,新疆维吾尔自治区,阿克苏地区,库车市,,unknown,
baidu,e7fbf1e3cc1c1575a2d2302e,优佳亲子成长中心,新疆维吾尔自治区阿克苏地区库车市幸福城商铺1-306室,新疆维吾尔自治区,阿克苏地区,库车市,,unknown,
baidu,0c3f85b76a89d21f6fc02c8d,迪恩捷幼儿园,新疆维吾尔自治区阿克苏地区库车市天山中路与博斯坦路十字路口交汇处南200米东侧,新疆维吾尔自治区,阿克苏地区,库车市,,unknown,
baidu,5709417ceb82c8844002457d,库车格瑞思幼儿园有限公司,新疆阿克苏地区库车市新城街道幸福社区瑞嘉华府16号楼与17号楼中间,新疆维吾尔自治区,阿克苏地区,库车市,,unknown,
baidu,b7bd0a8aa24d382f95ca070c,育才幼儿园,阿克苏地区库车市五一南路香林华府,新疆维吾尔自治区,阿克苏地区,库车市,,unknown,
baidu,3e2d3704a54c3e338bdb73c0,可爱的小博士幼儿园,阿克苏地区库车市建设路与胜利路西交叉路口往西南约110米,新疆维吾尔自治区,阿克苏地区,库车市,,unknown,
baidu,e895e7ba6050a07ec0364465,启蒙幼儿园,阿克苏地区库车市建设路库车市林基路小学汉语学校西南侧,新疆维吾尔自治区,阿克苏地区,库车市,,unknown,
baidu,ef423845275a2b6af02d83b9,比芭努幼儿园,新疆维吾尔自治区阿克苏地区库车市解放路8号,新疆维吾尔自治区,阿克苏地区,库车市,,unknown,
baidu,3695b33fe5b948e261685888,依西哈拉镇托万比加克小学,新疆维吾尔自治区阿克苏地区库车市伊西哈拉镇托万比加克社区居委会对面,新疆维吾尔自治区,阿克苏地区,库车市,,unknown,
baidu,9f5b90ec2c845fb904fef516,劲博武馆,阿克苏地区库车市步行街二期新川饭店三楼,新疆维吾尔自治区,阿克苏地区,库车市,,unknown,
baidu,703652045867bb536949f37c,中源汇生活广场,库车16路;库车2路;库车3路;库车6路;库车8路;库车9路,新疆维吾尔自治区,阿克苏地区,库车市,,unknown,
baidu,b087a051638879698633047d,停车场(杏花苑社区卫生服务站东),阿克苏地区库车市文化东路金天花园西侧约130米,新疆维吾尔自治区,阿克苏地区,库车市,,unknown,
baidu,1ce74cdf7821547a9b68b408,时尚小区东北侧-停车场,阿克苏地区库车市文化东路时尚小区东北侧,新疆维吾尔自治区,阿克苏地区,库车市,,unknown,
baidu,0a6b80876bc3b3c73517dc18,时尚小区,库车16路;库车2路;库车3路;库车6路;库车8路;库车9路,新疆维吾尔自治区,阿克苏地区,库车市,,unknown,
baidu,ee9c7e457dcb24485e17c389,中源汇城市生活广场-地上停车场,新疆维吾尔自治区阿克苏地区库车市文化东路160号,新疆维吾尔自治区,阿克苏地区,库车市,,unknown,
baidu,e8c43345c6f6457f6018095f,时尚小区-停车场,阿克苏地区库车市文化东路时尚小区,新疆维吾尔自治区,阿克苏地区,库车市,,unknown,
baidu,d4abfccebf3d57929cec2b89,金天花园,库车16路;库车2路;库车3路;库车6路;库车8路;库车9路,新疆维吾尔自治区,阿克苏地区,库车市,,unknown,
baidu,5a08ba0278281dfcd92f28fa,体育馆(第七小学),库车10路;库车8路,新疆维吾尔自治区,阿克苏地区,库车市,,unknown,
baidu,ebabe0a5ec037fb91b11d58f,正合嘉园小区-停车场,阿克苏地区库车市光明路库车县第八小学西南侧约120米,新疆维吾尔自治区,阿克苏地区,库车市,,unknown,
baidu,75fe46cbb63594755cd4feea,正合嘉园北,库车10路,新疆维吾尔自治区,阿克苏地区,库车市,,unknown,
baidu,794c73ccb029e3ea2202622f,太古里,库车16路;库车2路;库车3路;库车6路;库车8路;库车9路,新疆维吾尔自治区,阿克苏地区,库车市,,unknown,
baidu,ca0022b3cce161ee48cc4ab3,凯旋新世界,库车10路,新疆维吾尔自治区,阿克苏地区,库车市,,unknown,
baidu,0977a692dafe08ceeb12e4f3,停车场,阿克苏地区库车市五一北路库车市第七小学东北侧约210米,新疆维吾尔自治区,阿克苏地区,库车市,,unknown,
baidu,07e61b188e903eee363a71f2,第八小学,库车10路,新疆维吾尔自治区,阿克苏地区,库车市,,unknown,
baidu,94b0c22659713786be48421a,特来电充电站(库车万华酒店充电站),新疆维吾尔自治区阿克苏地区库车市新城街道健康北路朝昱万华国际酒店,新疆维吾尔自治区,阿克苏地区,库车市,19399715896,unknown,
baidu,1bbe862b98964ce017b54bd6,万华国际酒店,库车10路;库车19路,新疆维吾尔自治区,阿克苏地区,库车市,,unknown,
baidu,91408f72fb4b779dbea82247,天山小区-1区-停车场,阿克苏地区库车市五一路时尚小区南侧约60米,新疆维吾尔自治区,阿克苏地区,库车市,,unknown,
baidu,dd8d991512e1d0f29d9d68d3,第七小学,库车16路;库车1路;库车2路;库车3路;库车6路;库车9路,新疆维吾尔自治区,阿克苏地区,库车市,,unknown,
baidu,4bd98df3708c5b1888fc0660,驴充充充电站(御园),阿克苏地区库车市健康北路胜利城小区西侧约30米,新疆维吾尔自治区,阿克苏地区,库车市,(0797)966999,unknown,
baidu,640676eded9d2ff644572671,幸福城(西),库车10路;库车19路,新疆维吾尔自治区,阿克苏地区,库车市,,unknown,
baidu,bc3c603bd6992f2eb020a816,亿家生活馆,库车15路;库车17路;库车20路;库车机场专线,新疆维吾尔自治区,阿克苏地区,库车市,,unknown,
baidu,18e29388ba8a423b7bf79619,御园,库车10路,新疆维吾尔自治区,阿克苏地区,库车市,,unknown,
baidu,c2501cd82cf9b9faad31e53e,西域乐都,库车10路;库车1路,新疆维吾尔自治区,阿克苏地区,库车市,,unknown,
baidu,d30bfb08a77c76d44e2fdfeb,停车场,阿克苏地区库车市胜利路库车县第八小学东北侧约50米,新疆维吾尔自治区,阿克苏地区,库车市,,unknown,
baidu,350b7536cc61c802c829154e,天五广场,库车15路;库车17路;库车19路;库车20路;库车机场专线,新疆维吾尔自治区,阿克苏地区,库车市,,unknown,
baidu,d9086744ed156bf8be4842b9,丝路明珠,库车10路;库车19路;库车6路,新疆维吾尔自治区,阿克苏地区,库车市,,unknown,
baidu,93ce0f44010f6535593ac852,停车场,阿克苏地区库车市健康北路库车县第八小学东北侧约60米,新疆维吾尔自治区,阿克苏地区,库车市,,unknown,
baidu,d1140a04402e8642724b8770,杏花苑东,库车10路;库车19路;库车6路,新疆维吾尔自治区,阿克苏地区,库车市,,unknown,
baidu,22500085b6d603d70b1cc7e3,库车市西域乐都-停车场,阿克苏地区库车市五一路库车县石油大院东南侧约30米,新疆维吾尔自治区,阿克苏地区,库车市,,unknown,
baidu,7d7fe52f5bafaea230621250,便民综合市场,库车13路,新疆维吾尔自治区,阿克苏地区,库车市,,unknown,
baidu,dbe2affcfd3409d2bea24011,天五广场-停车场,阿克苏地区库车市天山中路天五广场,新疆维吾尔自治区,阿克苏地区,库车市,,unknown,
baidu,28af1a22b3850a46a2d230ae,天资宾馆(天山中路店)西北侧-停车场,阿克苏地区库车市天山中路天五广场东南侧约90米,新疆维吾尔自治区,阿克苏地区,库车市,,unknown,
baidu,a3e7e58854ed0aee4557269f,华府汇都,库车15路;库车17路;库车20路;库车6路,新疆维吾尔自治区,阿克苏地区,库车市,,unknown,
baidu,a96ed1cf0cb1a733abf0cd5f,库车步行街-地上停车场,阿克苏地区库车市天山中路库车县石油大院,新疆维吾尔自治区,阿克苏地区,库车市,,unknown,
baidu,2294c0f08b6af7f89f09f71a,丝路明珠-停车场,阿克苏地区库车市健康路丝珞明珠,新疆维吾尔自治区,阿克苏地区,库车市,,unknown,
baidu,2832b3e95aba13a925d2bbf0,步行街(一期),库车10路;库车15路;库车17路;库车20路,新疆维吾尔自治区,阿克苏地区,库车市,,unknown,
baidu,4e9775c198307ece715e800f,电动汽车充电站(健康路),新疆维吾尔自治区阿克苏地区库车市健康路美连美超市(健康路店)西南122米,新疆维吾尔自治区,阿克苏地区,库车市,4008288517,unknown,
baidu,b1c8fc292fb41bc7220262b4,杏花苑-停车场,阿克苏地区库车市天山中路174号,新疆维吾尔自治区,阿克苏地区,库车市,,unknown,
baidu,e6b1976f49a8becc22f0172b,库车天缘国际酒店蔚来超充站,新疆维吾尔自治区阿克苏地区库车市文化中路9号,新疆维吾尔自治区,阿克苏地区,库车市,(021)67099903,unknown,
baidu,cc5fa70c022dc3191e1d11e0,胜利城南,库车19路,新疆维吾尔自治区,阿克苏地区,库车市,,unknown,
baidu,ab227ccc2f3e839c7f29bd8e,杏花苑(南),库车15路;库车17路;库车19路;库车20路,新疆维吾尔自治区,阿克苏地区,库车市,,unknown,
baidu,7415161dc1ca844840afe673,财政局家属院,库车13路;库车8路,新疆维吾尔自治区,阿克苏地区,库车市,,unknown,
baidu,640ca044a6cc04832a02e104,实验中学,库车16路;库车1路;库车2路;库车3路;库车6路;库车9路,新疆维吾尔自治区,阿克苏地区,库车市,,unknown,
baidu,e788b21bb31dc249be4842ed,步行街(二期),库车10路;库车15路;库车17路;库车20路,新疆维吾尔自治区,阿克苏地区,库车市,,unknown,
baidu,6d892091c57704775cbe86cb,金桥太古里南,库车16路;库车2路;库车3路;库车8路;库车9路,新疆维吾尔自治区,阿克苏地区,库车市,,unknown,
baidu,c57a06ede358fecc130daa91,特来电充电站(库车新金桥时尚广场停车场充电站),新疆维吾尔自治区阿克苏地区库车市新城街道文化东路214号金桥时尚购物广场,新疆维吾尔自治区,阿克苏地区,库车市,18167528999,unknown,
baidu,eed848fd24777aacd6b74e2f,胜利城小区-停车场,阿克苏地区库车市胜利路胜利城小区,新疆维吾尔自治区,阿克苏地区,库车市,,unknown,
baidu,49a7c8843cd9acef132935e2,大巴扎,库车10路;库车15路;库车17路;库车1路;库车20路;库车6路,新疆维吾尔自治区,阿克苏地区,库车市,,unknown,
baidu,b234789598897680db1318f6,龟兹文化广场东,库车8路,新疆维吾尔自治区,阿克苏地区,库车市,,unknown,
baidu,62627e5c7da4bc8d6fa3ccb8,幸福城(北),库车19路,新疆维吾尔自治区,阿克苏地区,库车市,,unknown,
baidu,b687d749bd01b4fc59bbbcf7,停车场,阿克苏地区库车市健康路杏花苑东侧约50米,新疆维吾尔自治区,阿克苏地区,库车市,,unknown,
baidu,f763fcdd4bf351932efaa7bd,唐风街(西),库车2路,新疆维吾尔自治区,阿克苏地区,库车市,,unknown,
baidu,4f8379cd9906e851ca1b95e9,丝路明珠西南侧-停车场,阿克苏地区库车市健康路丝珞明珠西南侧约30米,新疆维吾尔自治区,阿克苏地区,库车市,,unknown,
baidu,a0f6e366ba47bb6097ec846b,金色家园,库车16路;库车2路;库车3路;库车8路;库车9路,新疆维吾尔自治区,阿克苏地区,库车市,,unknown,
baidu,de2dad621fa3473e734b87f3,水利局家属院,库车17路;库车18路;库车6路,新疆维吾尔自治区,阿克苏地区,库车市,,unknown,
baidu,f25cb59820a76728ed74f8ee,中亚御景湾,库车12号线;库车19路;库车1路;库车7路,新疆维吾尔自治区,阿克苏地区,库车市,,unknown,
baidu,3af27f2cafb432a7fb2d612e,华鑫雅居小区,库车10路;库车15路;库车17路;库车20路,新疆维吾尔自治区,阿克苏地区,库车市,,unknown,
baidu,ac84b206985260b5c7f02580,金色家园(文化东路)-停车场,阿克苏地区库车市文化东路金色家园(文化东路),新疆维吾尔自治区,阿克苏地区,库车市,,unknown,
baidu,7504c08a1a93e31287330435,华鑫雅居西北侧临时停车点,阿克苏地区库车市繁荣路东方花园东侧约30米,新疆维吾尔自治区,阿克苏地区,库车市,,unknown,
baidu,5d99d2bef2a28a9ed13ce3dc,天河花园,库车1路;库车6路;库车7路,新疆维吾尔自治区,阿克苏地区,库车市,,unknown,
baidu,ab8b8de173ddb38ead045763,瑞家华府(东),库车2路,新疆维吾尔自治区,阿克苏地区,库车市,,unknown,
baidu,ea6d23286f86a0654d554726,国土局家属院,库车1路;库车6路;库车7路,新疆维吾尔自治区,阿克苏地区,库车市,,unknown,
baidu,7d20188d22bed354931fc9b8,金桥超市(文化中路店)-地上停车场,新疆维吾尔自治区阿克苏地区库车市文化中路10-1,新疆维吾尔自治区,阿克苏地区,库车市,,unknown,
baidu,02587a9f44a7475e220220fb,天元阳光丽景,库车19路;库车1路,新疆维吾尔自治区,阿克苏地区,库车市,,unknown,
baidu,43c352b086cf0f707adbd25a,鑫泰燃气CNG加气站,库车市五一南路鸿雁水景苑小区1号楼(加气站旁)正南方向100米,新疆维吾尔自治区,阿克苏地区,库车市,,unknown,
baidu,35b93ab8f83fb0afe8e5824d,香林华府-停车场,阿克苏地区库车市五一南路香林华府,新疆维吾尔自治区,阿克苏地区,库车市,,unknown,
baidu,da8fd6af9ddda3669f09f7fe,金都景苑,库车15路;库车17路;库车20路;库车6路,新疆维吾尔自治区,阿克苏地区,库车市,,unknown,
baidu,e82cb4bde0f21d4b6ca3cc82,人民银行,库车16路;库车18路;库车2路;库车3路;库车7路;库车8路;库车9路,新疆维吾尔自治区,阿克苏地区,库车市,,unknown,
baidu,acbfbf2dc416035ebca822b7,公务员小区-D区-停车场,阿克苏地区库车市博斯坦路金色家园(文化东路)东侧约70米,新疆维吾尔自治区,阿克苏地区,库车市,,unknown,
baidu,7dde7f6300911bee990050ba,新天地城市广场停车场,阿克苏地区库车市五一南路阳光紫荆花园东北侧约30米,新疆维吾尔自治区,阿克苏地区,库车市,,unknown,
baidu,b1df14a85063a93bb5f42f95,华鑫雅居-停车场,阿克苏地区库车市天山中路航天小区西北侧约120米,新疆维吾尔自治区,阿克苏地区,库车市,,unknown,
baidu,81d653225a70f6334d5547ea,小游园,库车16路;库车3路,新疆维吾尔自治区,阿克苏地区,库车市,,unknown,
baidu,bef538c684b8347325e0a05e,天元阳光丽景-停车场,新疆维吾尔自治区阿克苏地区库车市五一南路61号,新疆维吾尔自治区,阿克苏地区,库车市,,unknown,
baidu,df7472dc1c0f27e5f82d61c8,顺风客运站(塔里木客运站),新疆维吾尔自治区阿克苏地区库车市乌恰路东50米,新疆维吾尔自治区,阿克苏地区,库车市,,unknown,
baidu,577458fea830c634081cc7ec,金桥超市,库车16路;库车2路;库车3路;库车7路;库车8路;库车9路;库车机场专线,新疆维吾尔自治区,阿克苏地区,库车市,,unknown,
baidu,89374a2ceab49ebb1df74df3,全季酒店,库车7路,新疆维吾尔自治区,阿克苏地区,库车市,,unknown,
baidu,b17c0d6f3d0d603a246e98bc,瑞家华府(北),库车19路,新疆维吾尔自治区,阿克苏地区,库车市,,unknown,
baidu,a63d3f44dbefaa62b1077d56,五洲大厦,库车8路;库车9路,新疆维吾尔自治区,阿克苏地区,库车市,,unknown,
baidu,a89870843946d35afbf0cba4,江南御西,库车8路;库车9路,新疆维吾尔自治区,阿克苏地区,库车市,,unknown,
baidu,edb55576f110fc1ed92f2838,中国铁塔充电站(新疆阿克苏库车市金都景苑交流电站),新疆阿克苏地区库车市金都景苑地下停车场,新疆维吾尔自治区,阿克苏地区,库车市,10096,unknown,
baidu,06acdd00bc6e7df175e5b6eb,南湖东,库车10路,新疆维吾尔自治区,阿克苏地区,库车市,,unknown,
baidu,ced5cde848ca53e23417dc05,天福社区,库车8路;库车9路,新疆维吾尔自治区,阿克苏地区,库车市,,unknown,
baidu,7a7ca9cfb6b9f7f3cf06a464,中国石油加油站(阿克苏库车文化路站),新疆维吾尔自治区阿克苏地区库车市文化西路南侧邮政家属院以西,新疆维吾尔自治区,阿克苏地区,库车市,,unknown,
baidu,af370ab9b10ca44a0ab93a63,天山中路CNG加气站,阿克苏地区库车市天山中路库车饭店(三星楼店)东侧约70米,新疆维吾尔自治区,阿克苏地区,库车市,,unknown,
baidu,f8d941ab10c7cc456240a951,上海城南,库车19路,新疆维吾尔自治区,阿克苏地区,库车市,,unknown,
baidu,c64208d41d24332d4c6d4693,库车大馕城-北门地上停车场,阿克苏地区库车市胜利路西可爱的小博士幼儿园北侧约200米,新疆维吾尔自治区,阿克苏地区,库车市,,unknown,
baidu,324534ae12f1a3d7774ff15a,双拥村二组,库车13路,新疆维吾尔自治区,阿克苏地区,库车市,,unknown,
baidu,5b34cdacd653cbfe5d0d02ef,天华金座,库车13路;库车15路;库车17路;库车18路;库车6路,新疆维吾尔自治区,阿克苏地区,库车市,,unknown,
baidu,eb8a82f34cbc64601d58007d,中兴快捷酒店(文化西路店)-停车场,文化西路01-4号附近,新疆维吾尔自治区,阿克苏地区,库车市,,unknown,
baidu,77c1be6cebe10dada1a93482,天河新城小区(东),库车20路;库车6路,新疆维吾尔自治区,阿克苏地区,库车市,,unknown,
baidu,f1e5f81894b0d7c3b23c81db,邮政局,库车10路;库车15路;库车16路;库车18路;库车2路;库车3路;库车7路;库车8路;库车9路,新疆维吾尔自治区,阿克苏地区,库车市,,unknown,
baidu,8a8f585d1d406c7ca8175a89,飞越帝都汇小区,库车13路;库车17路;库车18路;库车6路,新疆维吾尔自治区,阿克苏地区,库车市,,unknown,
baidu,0a57c7dd209cac813b221ce4,香林华府(南),库车12号线;库车1路;库车7路,新疆维吾尔自治区,阿克苏地区,库车市,,unknown,
baidu,00da834908b42d30eddfcaf0,天缘国际酒店,库车16路;库车2路;库车3路;库车7路;库车8路;库车9路;库车机场专线,新疆维吾尔自治区,阿克苏地区,库车市,,unknown,
baidu,1cba7bc0e2099d00be48428e,杏花西路农信社,库车7路,新疆维吾尔自治区,阿克苏地区,库车市,,unknown,
baidu,de618d1742a334e22b06ceee,库车宾馆-停车场,阿克苏地区库车市解放路北17号库车宾馆,新疆维吾尔自治区,阿克苏地区,库车市,,unknown,
baidu,8311c760f643b9edf02d8383,东方花园,库车10路;库车15路;库车17路;库车20路,新疆维吾尔自治区,阿克苏地区,库车市,,unknown,
baidu,c7b7db95053a607bfa42b236,金桥翡翠苑,库车1路,新疆维吾尔自治区,阿克苏地区,库车市,,unknown,
baidu,167645c9ed1d5e28cd04ef4e,阳光紫荆花园,库车12号线;库车7路,新疆维吾尔自治区,阿克苏地区,库车市,,unknown,
baidu,d30026a89100f3706ca3cc18,市民服务中心,库车19路;库车2路,新疆维吾尔自治区,阿克苏地区,库车市,,unknown,
baidu,cedf543897c212d3ebe582c3,南湖(东),库车10路;库车19路,新疆维吾尔自治区,阿克苏地区,库车市,,unknown,
baidu,bde8cb780e86347a9de32113,东盛源国际小区(北),库车12号线;库车7路,新疆维吾尔自治区,阿克苏地区,库车市,,unknown,
baidu,d027d991633fc9ddf2193770,鸿迪名爵苑北,库车10路;库车15路;库车17路;库车1路;库车20路;库车6路,新疆维吾尔自治区,阿克苏地区,库车市,,unknown,
baidu,e41c7f237896666415c90515,电力公司,库车15路,新疆维吾尔自治区,阿克苏地区,库车市,,unknown,
baidu,120db67b9730a93d0a5cb39d,东盛源国际小区东,库车1路,新疆维吾尔自治区,阿克苏地区,库车市,,unknown,
baidu,908d6df50c5975c1157643a4,唐风街(北),库车19路;库车2路,新疆维吾尔自治区,阿克苏地区,库车市,,unknown,
baidu,6c628378421bd0c86cc02c7e,市人民医院(东),库车15路;库车16路;库车3路,新疆维吾尔自治区,阿克苏地区,库车市,,unknown,
baidu,efc08801232bb4497702694f,金桥翡翠苑东,库车1路,新疆维吾尔自治区,阿克苏地区,库车市,,unknown,
baidu,d8e3d71a043eb27d2002625a,龟兹博物馆,库车10路;库车15路;库车1路;库车20路,新疆维吾尔自治区,阿克苏地区,库车市,,unknown,
baidu,5dba9dd171ee12eb6b49f35f,健康名苑(北),库车12号线;库车1路;库车7路,新疆维吾尔自治区,阿克苏地区,库车市,,unknown,
baidu,efa27934657793f5c4f02557,鸿迪名爵苑(南),库车7路,新疆维吾尔自治区,阿克苏地区,库车市,,unknown,
baidu,f30e3310676d9b47e011037a,中亚御景湾西,库车1路,新疆维吾尔自治区,阿克苏地区,库车市,,unknown,
baidu,9165037a7e04a7a452e5c5be,彩虹大厦,库车15路;库车1路;库车20路,新疆维吾尔自治区,阿克苏地区,库车市,,unknown,
baidu,7ca9f7537e08ec4ba8f0cd28,新华书店,库车10路;库车13路;库车17路;库车6路,新疆维吾尔自治区,阿克苏地区,库车市,,unknown,
baidu,25e6c9db57235d54e9f853e7,市信访局,库车8路,新疆维吾尔自治区,阿克苏地区,库车市,,unknown,
baidu,7d2932b89eccdc9f4d776e05,星光丽城(西),库车10路;库车1路;库车20路;库车7路,新疆维吾尔自治区,阿克苏地区,库车市,,unknown,
baidu,ef80e89a9eeb47bcb75f1e00,金桥时尚广场,库车16路;库车3路,新疆维吾尔自治区,阿克苏地区,库车市,,unknown,
baidu,7adba1a2cbce351ab020a869,瑞峰小区,库车13路;库车17路;库车6路,新疆维吾尔自治区,阿克苏地区,库车市,,unknown,
baidu,a61a23819f5390d6f7eafc16,新城派出所,库车15路;库车8路,新疆维吾尔自治区,阿克苏地区,库车市,,unknown,
baidu,ea65cd19e6a905934c3a59c4,鸿迪名爵苑西,库车13路,新疆维吾尔自治区,阿克苏地区,库车市,,unknown,
baidu,e56bb29cabd8006716a19027,雲湖壹号(南),库车12号线;库车1路;库车7路,新疆维吾尔自治区,阿克苏地区,库车市,,unknown,
baidu,a49534229f02259b2b3a9fba,天缘嘉福,库车16路;库车3路,新疆维吾尔自治区,阿克苏地区,库车市,,unknown,
baidu,bb32e076f85f7ba7b11e3603,财富中心,库车19路;库车3路;库车9路,新疆维吾尔自治区,阿克苏地区,库车市,,unknown,
baidu,fe8ac5a633f35fc3cb213d15,德福苑,库车8路;库车9路,新疆维吾尔自治区,阿克苏地区,库车市,,unknown,
baidu,f6fc308b776514c24302451e,金鹿客运站,阿克苏地区库车市建设路与天山西路交叉路口往西约210米,新疆维吾尔自治区,阿克苏地区,库车市,,unknown,
baidu,59c30ee5659acdbfaecb66dd,库车丽都大酒店-地上停车场,阿克苏地区库车市天山中路328号丽都大酒店,新疆维吾尔自治区,阿克苏地区,库车市,,unknown,
baidu,c2478cf252d26089b23c81fa,云快充充电站(库车智源华能充电站),五一南路73号,新疆维吾尔自治区,阿克苏地区,库车市,4008288517,unknown,
baidu,419253738fe42bdcb1077df4,丽人妇科医院,库车20路,新疆维吾尔自治区,阿克苏地区,库车市,,unknown,
