source,bd_uid,name,address,province,city,area,tel,poi_type,tag
baidu,e93761f648d0b815233bf296,东四民芳餐厅(朝阳门总店),北京市东城区朝阳门内大街79号-2,北京市,北京市,东城区,(010)64068868,unknown,
baidu,7dc65edde61dbcadf21937dc,宝瑞门钉肉饼店,朝阳门北小街61-1号,北京市,北京市,东城区,13661183873,unknown,
baidu,37d60a46c19f38791e1d1168,旺春阁烤鸭店,朝阳门北小街甲113号,北京市,北京市,东城区,(010)64052901,unknown,
baidu,e843788a616011c6364aae7b,前海沿儿,东四六条甲15号,北京市,北京市,东城区,18610060019,unknown,
baidu,1ca0db9f7427949fe115f920,福园涮肉,北京1+1艺术中心西门,北京市,北京市,东城区,13260395919,unknown,
baidu,f6f563bc5a40b8ea4151c0df,牛街老爆肚满(朝阳门北小街店),朝阳门北小街105号,北京市,北京市,东城区,13521430790,unknown,
baidu,ace2e9c0e80b07ae40ab9a1c,醉香苑老北京涮羊肉(东四十条店),北京市东城区东四十条22号A23-80幢,北京市,北京市,东城区,(010)64096322,unknown,
baidu,41deec9969ff247cac0457a4,两路口面庄·重庆小馆(东四十条店),东四十条南门仓胡同7号,北京市,北京市,东城区,13381144629,unknown,
baidu,8824ed84b8c275a25a3ac8b6,南门牛肉板面刀削面,东四十条南门仓胡同5号,北京市,北京市,东城区,13520983318,unknown,
baidu,89c13348eadc3b29e8e582b9,粤小馆(朝阳门南小街店),朝阳门南小街143号-1,北京市,北京市,东城区,"(010)65289755,18519596436",unknown,
baidu,0be5b9d56a5860e8b11e36e3,白魁小馆,朝阳门北小街107号（朝阳门北小街与东四五条交口）,北京市,北京市,东城区,13810896217,unknown,
baidu,bcaebff8b367904dc8e33ce2,新月斋(豆瓣胡同店),门内豆瓣胡同4号清真寺傍边,北京市,北京市,东城区,,unknown,
baidu,0760717724d2ddce9cf779ff,宝香潮汕鲜牛肉火锅(朝阳门店),朝阳门内大街75号（佳龙酒店F座一层）,北京市,北京市,东城区,"(010)64005588,18911067355",unknown,
baidu,7eb0026cc55c1dd9c9e33c5b,豆瓣社区老年餐厅,东门仓胡同罗家大院1号,北京市,北京市,东城区,,unknown,
baidu,cc0849a00f2d1749950319a1,徽商故里(朝内店),朝阳门南小街2号,北京市,北京市,东城区,(010)58642222,unknown,
baidu,2803094ea295f713b9bd6350,珑湘荟·臭鳜鱼(南新仓店),东四十条22号A16,北京市,北京市,东城区,18519889522,unknown,
baidu,d4da8ae7a736f2c516c90593,紫菩提素食餐厅(南新仓店),东四十条甲22号1层东侧,北京市,北京市,东城区,13161880910,unknown,
baidu,00ec99136d349e4f441a3233,冯记豆花店(东四十条店),东四十条北门仓胡同6号楼底商,北京市,北京市,东城区,15600867850,unknown,
baidu,0ce65c2df92b8b402c473386,煲煲好(朝阳门店),朝阳门北大街小区甲12号楼1层,北京市,北京市,朝阳区,(010)65523712,unknown,
baidu,b9d5f2f3ff82fa633a13fd95,马氏德盛斋清真食品(朝阳门北小街店),朝阳门北小街6号楼一层6-10,北京市,北京市,东城区,(010)62592562,unknown,
baidu,750ec165ff5cd3324d3a59a2,巫山烤全鱼川湘菜(北小街店),朝阳门北小街35号—1号,北京市,北京市,东城区,15210901780,unknown,
baidu,db432006d5fde5817ab55cce,晨阳北新桥和牛烧肉(南新仓店),东四街道东四十条22号南新仓古仓群A13,北京市,北京市,东城区,"(010)64078788,13011292866",unknown,
baidu,21e6a24fd07491ea3c9a5e10,实成吉烧饼铺,东四六条40号-2,北京市,北京市,东城区,18601295038,unknown,
baidu,146e76fbbbfd1dd642d63e4c,门框胡同百年卤煮(朝内店),朝阳门内大街115号,北京市,北京市,东城区,13569266122,unknown,
baidu,fd007c5e7d471675a9f729ac,花家怡园(东直门店),北京市东城区东直门内大街5号,北京市,北京市,东城区,(010)84079868,unknown,
baidu,dc0f0adcf86dff38f8221369,弯弯月亮(东四六条店),东四六条16号,北京市,北京市,东城区,13520321563,unknown,
baidu,c3c634d842cd4e1eb05c6a5a,满姐饺子(平安大街店),东四十条乙34-3号,北京市,北京市,东城区,15313221167,unknown,
baidu,0a15c7ec27a498e5ed74f869,万龙洲海鲜(南新仓店),东四十条南新仓商务大厦（公交东四十条桥西站）,北京市,北京市,东城区,(010)84078888,unknown,
baidu,82cd9630eb65289f04026ff9,北京君来江南酒店·锦苑中餐厅,东四十条34号,北京市,北京市,东城区,(010)51018888,unknown,
baidu,72509ce79bd8dcd8a2a93497,luckincoffee瑞幸咖啡(中国人保办公楼店),朝阳门北大街17号中国人保办公大楼一层大堂,北京市,北京市,东城区,4000100100,unknown,
baidu,c6de2c7974070c6cf8dc8522,星巴克(北京五矿广场NOW店),朝阳门北大街5号五矿广场1层101-03单元,北京市,北京市,东城区,(010)52598196,unknown,
baidu,a286491abb61d128c16c14a5,汉堡王(青蓝大厦店),北京市东城区东四十条24号青蓝大厦西侧1、2层,北京市,北京市,东城区,"(010)64553963,13810645634",unknown,
baidu,b3d80df57fa66d104d6d4655,胡大饭馆(簋街二店),东直门内大街190号,北京市,北京市,东城区,"(010)64008897,18301541165",unknown,
baidu,e12598bb88ba6f4694ec84da,百年小院,北京市东城区朝内竹杆胡同9号楼-1号,北京市,北京市,东城区,13910133635,unknown,
baidu,be1f843b8239ebd6c9fa5fe7,御·本泽和牛烧肉(东四十条泓晟国际店),朝阳门北大街泓晟国际中心一层101室,北京市,北京市,东城区,19910327789,unknown,
baidu,2e3ca18be0d7f5752cb17e0e,甘肃面皮肉夹馍(东直门店),东四十条北门仓胡同6号楼-29一层17号,北京市,北京市,东城区,13910417065,unknown,
baidu,12871cdb6d73787b84420ee3,三元梅园(东四店),北门仓胡同6号-29一层6号,北京市,北京市,东城区,15116926602,unknown,
baidu,892dcfefb75774be774ff1b3,京天红炸糕(东四十条店),东四十条北门仓胡同6号楼，天泽祥鲜汇生活超市一层,北京市,北京市,东城区,15810499251,unknown,
baidu,881a28e7a7ae805ef942b259,永和大王(小厨·东四十条店),东四十条乙34-2号,北京市,北京市,东城区,4000979797,unknown,
baidu,dc5e34b6a50fbfed25e0a00c,Blueglass酸奶(泓晟国际店),朝阳门北大街9号泓晟国际中心1层104-1号（LAVAZZA拉瓦萨咖啡隔壁）,北京市,北京市,东城区,16600059782,unknown,
baidu,ae3530caebd884ee1329354a,Greet Caffee Bar打招呼的人,朝阳门内大街195号（朝内头条小区门口）,北京市,北京市,东城区,18813160916,unknown,
baidu,a136f329fbcb8a3a51e5c552,阡陌小院,北京市东城区东四街道石桥胡同甲13号,北京市,北京市,东城区,"13701102011,13911255006",unknown,
baidu,ad0bca761d15938e6849f333,朝花夕拾文创咖啡供销社(朝阳门店),朝内大街166号,北京市,北京市,东城区,18548930983,unknown,
baidu,02269f95479442f1c9e33ca4,饺子川湘家常菜烤鱼(北小街店),朝阳门北小街55-3号,北京市,北京市,东城区,"13522964821,13717670727",unknown,
baidu,69fcd6df9b5b7636ca291562,星巴克(北京凯恒店),朝阳门内大街2号B座一层04单元,北京市,北京市,东城区,(010)85197361,unknown,
baidu,0c2a7c4943dc9392bb17e7c4,左家庄香盟炸鸡(天泽祥美食城店),北京市东城区北门仓6号-29鲜汇超市地下一层,北京市,北京市,东城区,13522291455,unknown,
baidu,5e53af1aab3ec7464051c0a7,花家怡园(四合院总店),"东直门内大街235号（如遇停车问题,可致电门店）",北京市,北京市,东城区,(010)51283315,unknown,
baidu,0dc3d82da6be477574e5b693,胡大饭馆(簋街三店),东直门内大街284号、288号2幢1层31号商铺,北京市,北京市,东城区,"(010)64003188,(010)64066628",unknown,
baidu,7967afd0f1ef5a2a1d389466,鼓楼馒头店(东四店),北门仓胡同6号-29一层3号,北京市,北京市,东城区,13910399333,unknown,
baidu,ec1c898e515ab803f723104c,三0四蛋糕坊(海运仓店),海运仓精品公寓,北京市,北京市,东城区,"13146499952,13381000732",unknown,
baidu,162442a41c4ca8eabadf8f1a,LAVAZZA拉瓦萨咖啡(泓晟国际店),朝阳门北大街9号一层103,北京市,北京市,东城区,15726648038,unknown,
baidu,1d5217daa88dbb6c2cb908f7,赛百味SUBWAY(五矿大厦店),朝阳门北大街7号五矿广场C座1层,北京市,北京市,东城区,18201632833,unknown,
baidu,80d14f99074457a6704b87c4,CAFE BAR,北京市东城区豆瓣胡同-1、3号楼,北京市,北京市,东城区,,unknown,
baidu,9d6e14d3582e08aa8415410c,红石文化主题餐厅,朝阳门北大街1号新保利大厦B1层,北京市,北京市,东城区,(010)64082877,unknown,
baidu,e8473601b566b37117948e7e,沪江香满楼·宴会厅,东四十条甲34号,北京市,北京市,东城区,"(010)64031367,(010)64031368",unknown,
baidu,50f7d1468d9afedd72210b7f,青蓝鲁菜餐厅(东四十条店),东四十条24号青蓝大厦2层,北京市,北京市,东城区,(010)84020364,unknown,
baidu,46415763980cd8c89ff77902,沙县小吃(东四十条地铁站店),东四十条27号-2,北京市,北京市,东城区,18210884805,unknown,
baidu,4616925cfc9b63692cb96db9,赛百味SUBWAY(凯恒店),朝阳门街道朝阳门内大街2号B座1层03单元(凯恒中心星巴克西侧),北京市,北京市,东城区,(010)85197227,unknown,
baidu,c0d8b234e0b612f535b06ced,鸿宾楼(朝阳门店),朝外南街20号联合大厦2层203号,北京市,北京市,朝阳区,(010)65887008,unknown,
baidu,beb34a44ab3e7fca4f6d46e3,李子煎饼(朝阳门店),朝阳门内大街136-1,北京市,北京市,东城区,18511857201,unknown,
baidu,210d8d7d184acd0c14b54bce,新新湘菜馆(新中街二条店),新中街二条8号,北京市,北京市,东城区,13611318705,unknown,
baidu,dffd631c4a6f7fa539221c80,德州扒鸡(东四店),北门仓胡同6号-29,北京市,北京市,东城区,"13810812553,13911902879",unknown,
baidu,154d31fd009bd173b05c6a13,颐馨茶艺馆(豆瓣胡同小区东区店),豆瓣胡同2单元2号楼,北京市,北京市,东城区,,unknown,
baidu,98cf59895d64a96aa8059d73,延吉特色小吃·冷面·石锅拌饭(东直门店),北门仓胡同6号楼南侧底商（天泽祥匠心美食铺内）,北京市,北京市,东城区,17115713618,unknown,
baidu,04bdf4a3856b3556354aae3a,护国寺小吃(东四店),东四北大街214号,北京市,北京市,东城区,"(010)64021798,13641090975",unknown,
baidu,516035f6ade8fcd988fc0608,老张拉面(朝阳门店),朝阳门内大街凯恒中心B座B1层A109号商铺（近朝阳门地铁G口）,北京市,北京市,东城区,13691505312,unknown,
baidu,f3f23e53d320f1ef9cf779f1,北京大董一见如初餐饮服务有限公司,北京市东城区东四十条甲22号南新仓商务大厦2层6号,北京市,北京市,东城区,,unknown,
baidu,d4ba7a5e4e9734c7ca29152e,卤煮炸酱面,东四十条与朝阳门北小街交叉路口东南侧（东四十条甲34号院),北京市,北京市,东城区,18310827668,unknown,
baidu,09409014310630a9ddee8b49,FreshPark鲜榨果汁(五矿广场店),朝阳门北大街5号五矿广场1楼,北京市,北京市,东城区,15300166406,unknown,
baidu,819abfebe423d02fd6b74e00,电信食堂,朝阳门北大街21号(近朝阳门桥),北京市,北京市,东城区,,unknown,
baidu,79b2523bf9680a41ad0457e2,爱情麻辣烫,朝阳门内大街朝阳门SOHO地下一层（中国银行旁）,北京市,北京市,东城区,15511459268,unknown,
baidu,90f35fb0661ef4ed6cc02c80,广东啫啫煲专门店,北京市朝阳区环二环绿道朝阳门北大街小区西南侧,北京市,北京市,朝阳区,,unknown,
baidu,e2dad64512bc60a3b64f5461,碗农小碗菜(朝阳门店),朝阳门内大街2号ABCE座地下一层A125-14号,北京市,北京市,东城区,15116996647,unknown,
baidu,6525820538403a8515c90575,海底捞火锅(王府井银泰in88店),王府井大街88号王府井银泰in88商场3层（近王府井教堂）,北京市,北京市,东城区,"(010)59785688,(010)59785689",unknown,
baidu,d11212f70b6cac0a128824a0,Minism Coffee(凯恒中心店),北京市朝阳门内大街2号凯恒中心(朝阳门地铁站G东南口步行80米),北京市,北京市,东城区,,unknown,
baidu,15e1e85ebe4a8cbb5810934f,利苑酒家(金宝店),金宝街89号金宝大厦3层,北京市,北京市,东城区,"(010)85221212,(010)85221250",unknown,
baidu,1020060f0e609dbf1994c685,安妮意大利餐厅(日坛店),神路街39号日坛上街3-108号（朝阳区人民政府南门斜对面）,北京市,北京市,朝阳区,(010)85693031,unknown,
baidu,f30f00b5598b2efb4207c1ef,胖妹面庄(香饵胡同店),北京市东城区东四北大街69号,北京市,北京市,东城区,15801504172,unknown,
baidu,e098928f32bb710f7bf796c7,东四面馆,北京市东城区朝阳门北小街东四十条甲34号院西门,北京市,北京市,东城区,,unknown,
baidu,e5714cc9261b5b594e5547b3,京三饺(朝阳门店),北京市东城区朝阳门内大街2号凯恒中心B1层,北京市,北京市,东城区,15611811593,unknown,
baidu,7321df9f94f08334f4b916fe,老北京锅贴,朝阳门内大街2号金百玉美食城,北京市,北京市,东城区,15611811593,unknown,
baidu,51ec39e8f622a1d02a11d1b7,DesMix,工人体育场西路7号北侧一层,北京市,北京市,朝阳区,15201210027,unknown,
baidu,0c9c3d179bace9b329fc4881,益大,北京市东城区东门仓胡同南新仓商务大厦北2门南侧约30米,北京市,北京市,东城区,,unknown,
baidu,a6a0d2c0a48d8a360e3ddaa6,一口力熟食(东直门店),北京市东城区北门仓胡同6-8号天泽祥超市6号楼1楼,北京市,北京市,东城区,13641280011,unknown,
baidu,fc3bc7f5e88268ba6fa3cce0,银河SOHO购物中心,北京市东城区南竹杆胡同2号,北京市,北京市,东城区,(010)59576688,unknown,
baidu,48eb0058638d61b42fe67b77,东环广场,北京市东城区东中街29号,北京市,北京市,东城区,(010)84431515,unknown,
baidu,553e208aefc69c7294ec8401,平价超市(南门仓社区店),北京市东城区南门仓胡同朝内2号楼2-2室,北京市,北京市,东城区,17319076329,unknown,
baidu,bc5fd2bb69da2c8094031922,天彩宜客便民超市(第八分店),朝阳门北小街小区东1门西北100米,北京市,北京市,东城区,18513096996,unknown,
baidu,f4c0581121684d6b4c6d46da,物美(朝阳门店),朝阳门内大街8号朝阳首府B1层,北京市,北京市,东城区,13146554697,unknown,
baidu,53754c6cfaebc3c474026988,鲜汇生活超市(海运仓店),北门仓胡同北门仓6号楼,北京市,北京市,东城区,,unknown,
baidu,6fddd7fd43561f663517dc77,物美(朝菜店),东四北大街528号(朝阳门内大街),北京市,北京市,东城区,(010)64018828,unknown,
baidu,0aa68983db62b3ced42ce208,悠唐购物中心,朝阳区朝阳门外大街三丰北里2号,北京市,北京市,朝阳区,(010)59775858,unknown,
baidu,90541e0907ac36e617b54bdf,便利蜂(南门仓胡同店),南门仓胡同2号楼2-5首层底商,北京市,北京市,东城区,4000001234,unknown,
baidu,7d2ecdce904084b38bb988f0,便民生鲜超市,朝阳门北小街8号楼底商,北京市,北京市,东城区,,unknown,
baidu,b87c779a6abe5304cd04ef29,总院北门超市,北门仓胡同6号楼,北京市,北京市,东城区,,unknown,
baidu,96b672aa5387476cce04ef64,奥士凯物美综合超市(新兴里店),东四十条新中西里26号,北京市,北京市,东城区,"(010)64175592,4006831818",unknown,
baidu,8fa14fc39f9f3d77f7eafc77,红都一商华表商场,东四南大街48号,北京市,北京市,东城区,(010)85115561,unknown,
baidu,0aa9804c7862eb4f6ca3cc7d,幸福荣耀生活超市(朝阳门店),华普大厦（朝阳门外大街北),北京市,北京市,朝阳区,18514547717,unknown,
baidu,60cae830c785a6074afc8dd3,7-11便利店(第五广场店),朝阳门北大街5号五矿广场1层（近新保利剧院）,北京市,北京市,东城区,18513075711,unknown,
baidu,b2a3fd2a52bf695e3f9a5e50,7-11便利店(东四十条一号店),东四十条甲22号1幢一层A2号,北京市,北京市,东城区,,unknown,
baidu,66af0ae5a237d4fff6eafccd,丰联广场,北京市朝阳区朝阳门外大街18号,北京市,北京市,朝阳区,(010)65881483,unknown,
baidu,37212e414fd6497d9122e02a,罗森便利店(北京泓晟国际中心店),朝阳门北大街9号泓晟国际中心B1层,北京市,北京市,东城区,,unknown,
baidu,5937e5a3bc1e23644251c047,北京紫蓝烟酒经营,北京市东城区朝阳门内大街97-5号,北京市,北京市,东城区,,unknown,
baidu,75d0881a94af33543b04b1b0,天泽祥菜市场,北京市东城区北门仓胡同6-29号,北京市,北京市,东城区,,unknown,
baidu,75036835e890ceb65f0d0281,朝内南小街菜市场,朝阳门南小街121号,北京市,北京市,东城区,13910768894,unknown,
baidu,d6713d5c2b23fd17c52ba1bc,佳龙酒店-便利店,朝阳门内大街75号（朝阳门地铁站H西南口步行240米）,北京市,北京市,东城区,(010)57398888,unknown,
baidu,b9a8a5d7bf0322effc0eb035,便利蜂(天辰大厦店),朝阳门北大街乙12号,北京市,北京市,朝阳区,4000001234,unknown,
baidu,a32c1de27dd0ed91ca29157e,便利蜂(凯恒中心A座店),朝阳门内大街2号B1层A120室,北京市,北京市,东城区,4000001234,unknown,
baidu,c504193782afcda1f4b916db,尚林阁,北京市东城区朝阳门内大街朝阳首府,北京市,北京市,东城区,,unknown,
baidu,21b97f519384f610f7b9168b,鲜花水果超市,北京市东城区东四街道朝阳门北小街2号,北京市,北京市,东城区,,unknown,
baidu,4c678d516cc1a4eeebe582c7,MOBE(朝阳门内大街店),北京市东城区朝阳门街道朝阳门内大街150号-2,北京市,北京市,东城区,,unknown,
baidu,1a3bccf4138f3393deee8b21,小牛电动(北小街店),北京市东城区东四街道朝阳门北小街6号楼7号(翠清酒家斜对面),北京市,北京市,东城区,13552395623,unknown,
baidu,2b5ec548b861baa840ab9acd,九号电动车(朝阳门北小街店),朝阳门北小街10-5号,北京市,北京市,东城区,15811062126,unknown,
baidu,7fd72311e69636865cbe8677,GIANT捷安特(北小街店),朝内北小街105号,北京市,北京市,东城区,(010)64041924,unknown,
baidu,5c73ae14b9f01593471a32ac,小李奶站,朝阳门北小街6-7号,北京市,北京市,东城区,,unknown,
baidu,5f66b904e7d843c0f50e7790,台铃电动车(朝内小街店),北京市东城区东四街道朝阳门北小街10-5号10号楼底商,北京市,北京市,东城区,13269262107,unknown,
baidu,d5f93c0ef5f35a45ecdfca86,吴裕泰(朝阳门北小街店),朝阳门北小街97号,北京市,北京市,东城区,(010)58214173,unknown,
baidu,c2f52e7307158b94213bf213,锅圈食汇火锅烧烤食材超市(朝阳门北小街店),北京市东城区朝阳门北小街8号楼一层8-12号,北京市,北京市,东城区,13071169312,unknown,
baidu,6835e3a70c03ef57e21103eb,军嫂烟店(总店),朝阳门北小街31号（东四七条东口）,北京市,北京市,东城区,"(010)64064378,18612223611",unknown,
baidu,73a6b6bc663776f5f03cbab1,晨光文具(豆瓣胡同店),豆瓣胡同5号楼,北京市,北京市,东城区,13552787408,unknown,
baidu,3936dbe29057c5b44151c0ac,东四七条口烟酒食品百货,朝阳门北小街27-3号,北京市,北京市,东城区,(010)64050812,unknown,
baidu,d24e48eb04c253adafee7a62,小街栗子(朝内大街店),朝内大街137号,北京市,北京市,东城区,18611135255,unknown,
baidu,8bec6fe3296027ef8a36ee19,雅迪电动车(朝阳门店),朝阳门内大街150-1号,北京市,北京市,东城区,18611543397,unknown,
baidu,d6931397667af0d73010af04,美利达自行车(朝阳门店),北京市东城区朝阳门内大街135-1号,北京市,北京市,东城区,18210867290,unknown,
baidu,378437cbb0efb17031870aeb,79号服装店,朝阳门内大街79号(朝阳门地铁站H西南口步行180米),北京市,北京市,东城区,,unknown,
baidu,e8966e9cb031d77285420e69,富润烟酒城,北京市东城区东四街道朝阳门北小街4号楼底商一层,北京市,北京市,东城区,13601290157,unknown,
baidu,860e73c299d73ac0354aae9b,心贴心书店,朝内大街91号(朝阳门地铁站H西南口步行350米),北京市,北京市,东城区,,unknown,
baidu,b23a7098916390e7a11de92a,七鲜花(朝阳门店),朝阳门内大街91号,北京市,北京市,东城区,13370177912,unknown,
baidu,d3e75834ee63f24afb42b249,海文烟店,北京市东城区南门仓胡同南新仓文化休闲街,北京市,北京市,东城区,,unknown,
baidu,8ec63bd23aaca8e74c776e71,翔联纺织(孚王府店),北京市东城区朝阳门内大街135-2号,北京市,北京市,东城区,(010)64052661,unknown,
baidu,672d2eb4b633b3f5167643d3,悠惠万家(东四六条店),东四六条四十号,北京市,北京市,东城区,13439916616,unknown,
baidu,63d52c6c154688dc8433043d,博远五金建材卫浴电动工具,北京市东城区朝阳门北小街35号,北京市,北京市,东城区,16619743458,unknown,
baidu,c15f080124d5b9986018094e,山海四合by Jetlag Books,东四北大街303-2（张自忠路地铁站D西南口步行320米）,北京市,北京市,东城区,,unknown,
baidu,ee423d77e4394e84220262be,可能有书,前炒面胡同49号,北京市,北京市,东城区,13811377434,unknown,
baidu,98e6345e420a803a0a5cb374,酷乐唱片,东四北大街499-1号,北京市,北京市,东城区,13701128659,unknown,
baidu,0a132500e7304ca0b33c81aa,贵州茅台自营店(东四十一条店),东四北大街168号1层001室,北京市,北京市,东城区,18089678000,unknown,
baidu,ccd90b3e43f91babb05c6a5a,贵州茅台(豆瓣胡同店),豆瓣胡同5号楼-3室,北京市,北京市,东城区,13521111450,unknown,
baidu,f05213468610560dd92f2854,东城区图书馆语文书店分馆,北京市东城区南小街51号,北京市,北京市,东城区,(010)65243130,unknown,
baidu,e4c522ef3e99f8cad81318b7,八马茶业(朝阳门店),南小街57号Inn8号楼B栋一层底商（徽商故里隔壁）,北京市,北京市,东城区,13810196868,unknown,
baidu,048c42534fe821a8eddfca14,园艺驿站,东四六条43号,北京市,北京市,东城区,13651364900,unknown,
baidu,76ba6849f0f86416b45f1e27,朝阳门全能店,北京市东城区朝阳门街道北竹杆胡同96号,北京市,北京市,东城区,,unknown,
baidu,891a4e9629c80d50fe0eb000,军嫂烟店(朝阳门内大街店),朝阳门内大街79号(朝阳门地铁站H西南口步行150米),北京市,北京市,东城区,(010)64064378,unknown,
baidu,55692f1afa2d3f5c28201ad6,爱和五金建材,北京市东城区北小街55-1号,北京市,北京市,东城区,,unknown,
baidu,089aff8decc32e0a744ff1da,雅戈尔(朝阳门南小街店),朝阳门南小街2号1层110室,北京市,北京市,东城区,13683518236,unknown,
baidu,d56dbf7a17af9520c9c3db3f,正元名饮(朝阳门店),朝阳门南小街2号,北京市,北京市,东城区,(010)58646619,unknown,
baidu,a68918ed961d7b0a2afc48dd,名烟名酒商行,北京市东城区豆瓣胡同3号楼7号,北京市,北京市,东城区,18311064386,unknown,
baidu,a940e8fcee3c69c9593ac8c1,粒上皇(东四十条店),北门仓胡同6号楼1层-10-4,北京市,北京市,东城区,4000205177,unknown,
baidu,b2492253701cbef4b817e72a,五金建材店,北京市东城区朝阳门北小街271号,北京市,北京市,东城区,13301179781,unknown,
baidu,cdef4edf2d2add5728d7ab67,大新纺织品(东四布店),朝阳门内大街金梦家苑宾馆旁（东四路口东北角）,北京市,北京市,东城区,(010)84023919,unknown,
baidu,60e1e8a7ee12da84eddfcaa3,NEED市集,北京市东城区隆福寺二期室外广场,北京市,北京市,东城区,,unknown,
baidu,ee8de097f512135f96f08c1d,华创堂红木,北京市东城区东四街道东四九条2号,北京市,北京市,东城区,13521203270,unknown,
baidu,c67c3caacba1a579a80dd8ff,德艺馨钢琴行(朝阳首府店),朝内大街8号朝阳首府d座5单元底商（车库出口）,北京市,北京市,东城区,18511337603,unknown,
baidu,d397ab54b86ac3b95d17c399,百货被褥,北京市东城区朝阳门北小街中国人民解放军总医院第七医学中心西门西北侧,北京市,北京市,东城区,,unknown,
baidu,de71d6763dae1f34d5b74edd,青蓝碧水烟酒茶(东四十条甲34号院店),东四十条乙34号(东四十条地铁站D西南口步行480米),北京市,北京市,东城区,,unknown,
baidu,a19c79231353e4512dfaa77d,墨轩书苑(朝阳首府店),朝内大街8号朝阳首府地下1层1012号,北京市,北京市,东城区,,unknown,
baidu,4f37e6b1ffbe1bf2d12dd6d4,瑞福春丽服装,北京市东城区东四十条北京青蓝大厦北侧约40米,北京市,北京市,东城区,,unknown,
baidu,85f6584c232f68baf7eafcde,烟酒食品店,东四街道东四六条7天酒店(南锣鼓巷店)东南侧约30米,北京市,北京市,东城区,,unknown,
baidu,269c9d255c4737f60ab93a32,北京阅微庄四合院文化特色酒店-礼品廊,北京市东城区东四四条北京阅微庄四合院文化特色酒店东侧,北京市,北京市,东城区,,unknown,
baidu,5247af5e9af531b76e20b91e,东四十条23,北京市东城区东四十条四季民福(东四十条店),北京市,北京市,东城区,,unknown,
baidu,b53b283ebf2215d7b7265589,大佳永利,北京市东城区南新仓文化休闲街南新仓商务大厦,北京市,北京市,东城区,,unknown,
baidu,8cb45019015c0d16dbecedd5,仙余粮食养堂,北京市东城区朝阳门街道北竹杆胡同96号,北京市,北京市,东城区,13801181742,unknown,
baidu,7ca3075ae8e02050430245e0,FPPS美妆精选(工体店),北京市朝阳区朝阳门北大街甲12号,北京市,北京市,朝阳区,,unknown,
baidu,12817bc997649e54dc1e5260,仓南胡同便民服务站(修鞋自行车电动车配钥匙),北京市东城区仓南胡同南新仓文化休闲街,北京市,北京市,东城区,17710186586,unknown,
baidu,e0a5c993d117dda671455b9b,顺丰速运(南门仓胡同店),南门仓胡同2-2号,北京市,北京市,东城区,95338,unknown,
baidu,06b0d05617f4f0d4932ca328,北京市居家养老服务综合示范中心,北京市东城区南门仓胡同豆瓣胡同-1、3号楼,北京市,北京市,东城区,,unknown,
baidu,b0547cc1262f5dc8ebe58279,总院社区,北京市东城区东四街道,北京市,北京市,东城区,,unknown,
baidu,73153d62b8644380b35c6a9f,中国邮政(朝内邮政所),朝内大街91-9号(朝阳门地铁站H西南口步行310米),北京市,北京市,东城区,11185,unknown,
baidu,c7bb7c3135a414fa59bbbc15,暖心驿站(北京友邻堂商贸有限公司),北京市豆瓣胡同3号楼1层,北京市,北京市,东城区,,unknown,
baidu,3dc9befd56f9af68bea24073,公共厕所,北京市东城区朝阳门北小街中国人民解放军总医院第七医学中心西门西北侧约30米,北京市,北京市,东城区,,unknown,
baidu,c394fdcc913ce3a5441a3237,东城朝内头条社区养老服务驿站,北京市东城区朝阳门内大街97-1号,北京市,北京市,东城区,(010)64028599,unknown,
baidu,46e86fdd0e1bee6fd13ce3fe,中国邮政(东四十条邮政所),北京市东城区东四十条甲28号,北京市,北京市,东城区,,unknown,
baidu,762bcdc406b3d13c36b06ce3,北京市自来水集团禹通公司东四维修所,北京市东城区东四三条31号,北京市,北京市,东城区,,unknown,
baidu,eb2dc73c0863609f9968b45a,宠来宝猫狗销售寄养(东四小区店),仓南胡同2-1号（史家小学附近）,北京市,北京市,东城区,"(010)84067716,13699223132",unknown,
baidu,1565d3f4f4d5fa2ccae33c19,韵达(北京市东城区灯市口服务站),北京市东城区东四街道朝阳门北小街4号楼,北京市,北京市,东城区,,unknown,
baidu,6b8eafc6d231b2e9583ac811,东四街道工会服务站,北京市东四六条17号南楼一层,北京市,北京市,东城区,,unknown,
baidu,55bcd133a041d3de2b201a6b,农情暖域工会驿站(农行北京分行营业部),北京市东城区朝阳门北大街13号,北京市,北京市,东城区,,unknown,
baidu,801228447448c500f80cad2a,北京绣饰迷电脑刺绣加工,朝内大街203号服务楼,北京市,北京市,东城区,13810528897,unknown,
baidu,1b8aae09599f7d5b5fd4fef0,北京市东城区朝阳门街道总工会服务站,北京市鸿安大厦旁,北京市,北京市,东城区,,unknown,
baidu,13c81039109b46029a0050a8,北京市居家养老综合服务中心(东四七条店),北京市东城区东四七条史家七条小学东侧约60米,北京市,北京市,东城区,,unknown,
baidu,dcc66bc407b4299f0f0e6b3a,六条社区,北京市东城区东四街道,北京市,北京市,东城区,(010)64040802,unknown,
baidu,f3f0e3360c256c0aab0dd81a,农情暖域工会驿站(农行北京朝阳门支行),北京市东城区朝阳门内大街124号-510房间,北京市,北京市,东城区,,unknown,
baidu,bf29b702f400dce509b93ae4,中国邮政(东四邮政支局),朝阳门内大街300号(东四地铁站C东南口旁),北京市,北京市,东城区,11185,unknown,
baidu,5cb7b07ac1c9a0f9f5c59c90,洁客泉,北京市东城区东四街道东四三条33号,北京市,北京市,东城区,,unknown,
baidu,5e9ebaf9ab376219912ca35d,工会暖心驿站(中国建设银行北京市东四支行保利支行),北京市东城区东四街道北京市东城区朝阳门北大街1号新保利大厦一层,北京市,北京市,东城区,,unknown,
baidu,fab047ac897b4b61d8d8918e,北京市华侨服务中心,魏家胡同9号(张自忠路地铁站D西南口步行250米),北京市,北京市,东城区,,unknown,
baidu,b6e6b147bf4c8d6dc72ba148,智化寺-售票处,北京市东城区禄米仓胡同5号智化寺内,北京市,北京市,东城区,,unknown,
baidu,65412807d174dfdfd0ff23e8,海马体照相馆(北京悠唐购物中心店),三丰北里2号楼悠唐购物中心一期二层2F-15-16（一层优衣库上扶梯）,北京市,北京市,朝阳区,(010)85631134,unknown,
baidu,24cb0b30ae22aaf796ca0746,柯达(南门仓胡同店),南门仓胡同2号,北京市,北京市,东城区,13522072515,unknown,
baidu,e40ae2f39e913ce1badf8fa3,修车钥匙鞋,北京市东城区东四街道仓南胡同14号院,北京市,北京市,东城区,,unknown,
baidu,a11bf41597e788ce6318090e,明眸视力调理(朝阳门店),朝阳门北小街8-2号,北京市,北京市,东城区,,unknown,
baidu,2952fe635ea77a9a0b69d916,京瑞地产(东四小区店),朝阳门北小街8-4号,北京市,北京市,东城区,(010)84065507,unknown,
baidu,cbc3618c693e28300389726e,鑫源祥寿衣寿盒,北京市东城区东内南小街69号2号楼1层2~3号,北京市,北京市,东城区,,unknown,
baidu,8403d92cd77237c98c55ec9a,福瑞祥寿衣寿盒,南门仓胡同6-5号,北京市,北京市,东城区,,unknown,
baidu,f2fb14e1f3468d22eedfca6a,德仁祥寿衣,北京市东城区南门仓胡同6号楼6-3西3门,北京市,北京市,东城区,13581604865,unknown,
baidu,39d43f82af7d12f8a8059d2d,公共厕所,北京市东城区东四三条东四小区西侧约30米,北京市,北京市,东城区,,unknown,
baidu,a9f79c0f786afd8e04fef568,素彩图文,朝阳门北小街8号楼8-14室,北京市,北京市,东城区,(010)84065106,unknown,
baidu,bf29b702424046e709b93a27,公共厕所,仓南胡同豆瓣小区-西区,北京市,北京市,东城区,,unknown,
baidu,b533ea4ad567a43f4f6d462c,公共厕所,北京市东城区朝阳门北小街东四小区西北侧约30米,北京市,北京市,东城区,,unknown,
baidu,05ea14b22379e6b8ad045729,工会户外劳动者爱心驿站(北京链家置地房地产经纪有限公司工会委员会史家一店),北京市东城区东四街道锅圈食汇火锅烧烤食材超市(朝阳门北小街店)西北36米,北京市,北京市,东城区,,unknown,
baidu,56f2f69689822dfe0aa8d45f,公共厕所,北京市朝内北小街57号,北京市,北京市,东城区,,unknown,
baidu,daa59d6180d1345ba5da3967,小刘摩托车维修销售救援,东四三条东四小区西侧约30米,北京市,北京市,东城区,13611093381,unknown,
baidu,097fa94a7da60db22e473349,链家(豆瓣胡同新店),北京市东城区豆瓣胡同3号楼3-10号,北京市,北京市,东城区,13671260208,unknown,
baidu,0384060694c3310488db73bf,街电(豆瓣咖啡),北京市东城区豆瓣胡同3-5号(近朝阳门),北京市,北京市,东城区,4006868588,unknown,
baidu,0eb7e475cfd19671a8175a63,小电(木子护肤造型朝阳门店),北京市东城区朝阳门内大街豆瓣胡同3号楼1楼3-3号,北京市,北京市,东城区,,unknown,
baidu,108b1cea838f26d23486f4b5,公共厕所,北京市东城区育芳胡同东四五条幼儿园东侧约70米,北京市,北京市,东城区,,unknown,
baidu,742de395581a250a2e473326,中天置地(朝阳门店),豆瓣胡同1号楼16底商,北京市,北京市,东城区,(010)84077789,unknown,
baidu,1ef54b1e421ae3c40a5cb301,朝内大街81号-公共厕所,北京市东城区朝阳门内大街91-1号,北京市,北京市,东城区,,unknown,
baidu,3f0006c9b4fb129188fc062d,公厕,南新仓文化休闲街中国人民解放军总医院第七医学中心东侧约60米,北京市,北京市,东城区,,unknown,
baidu,0f42853e738b26d1fa0cad80,梓雅轩快印(朝阳门店),朝阳门内大街97-3号,北京市,北京市,东城区,18501258999,unknown,
baidu,a6f5369597e51f26b64f5400,工会户外劳动者爱心驿站(北京链家置地房地产经纪有限公司工会委员会豆瓣胡同新店),北京市东城区豆瓣胡同3号楼3/10,北京市,北京市,东城区,,unknown,
baidu,2f1a001689711be0e115f98d,中国福利彩票(朝阳门内大街店),北京市东城区朝阳门内大街91-7号,北京市,北京市,东城区,954168,unknown,
baidu,9c4b40421aedcc83843304fb,公共厕所,北京市东城区朝阳门北小街孚王府,北京市,北京市,东城区,,unknown,
baidu,81b5d6cad86213964c6d4643,海龙数码快印(朝阳门店),朝阳门内大街79-4号(朝阳门地铁站H西南口步行140米),北京市,北京市,东城区,18511320968,unknown,
baidu,d0f04ec516ac35a6ca1b9542,开锁大王,北京市东城区朝阳门内大街97号,北京市,北京市,东城区,"010-87170000,18611044010",unknown,
baidu,84a2213d905ef672631c67f4,标书王(朝阳门内大街79号院店),北京市东城区东四街道朝内大街79号,北京市,北京市,东城区,,unknown,
baidu,8b75dc19a66dd51703ff2d3f,东四三条23号公共厕所,北京市东城区东四三条23号对,北京市,北京市,东城区,,unknown,
baidu,d9e6cb4fc69f2f73c72ba105,公共厕所,北京市东城区东四四条东四五条幼儿园东南侧约80米,北京市,北京市,东城区,,unknown,
baidu,b388f9fd6bef923fb35c6a12,公共厕所,朝内北顺城街111号对面,北京市,北京市,东城区,,unknown,
baidu,713b0789a0dd26774f3a5986,公共厕所,北京市东城区东四六条甲15号,北京市,北京市,东城区,,unknown,
baidu,08599a63906dcec4cf06a4b0,链家(朝阳首府店),朝内大街8号楼朝阳首府底商,北京市,北京市,东城区,10109666,unknown,
baidu,96fc60e16a3349136140a951,公共厕所,北京市东城区朝阳门内大街与后拐棒胡同交叉口西北方向100米,北京市,北京市,东城区,,unknown,
baidu,93328ea3b8cd4dc26c4760c6,公共厕所,北京市东城区东四十条甲22号,北京市,北京市,东城区,,unknown,
baidu,077d21bee2aa27c1d72ce265,北京易印得广告有限公司,泓晟国际中心B1层109室,北京市,北京市,东城区,18500971579,unknown,
baidu,b533ea4ada35a53f4f6d46e2,公共厕所,北京市东城区东四八条4号旁,北京市,北京市,东城区,,unknown,
baidu,8adc3239be9f270d96031969,石桥胡同再生资源回收点,北京市东城区东四街道石桥胡同35号,北京市,北京市,东城区,,unknown,
baidu,bd30b8dc439d56dab1077d3c,公厕,北京市东城区东四十条甲22号南新仓商务大厦B座前,北京市,北京市,东城区,,unknown,
baidu,d4034eb35f9df088c036442c,公共厕所,流水巷19号旁,北京市,北京市,东城区,,unknown,
baidu,af874d8a796484a69ff7798f,公共厕所,北京市东城区流水巷7天酒店(南锣鼓巷店)南侧约40米,北京市,北京市,东城区,,unknown,
baidu,c02381f29ba5f12b902ca373,火车票汽车票国际(国内)机票,北京市东城区朝阳门内大街8号1层,北京市,北京市,东城区,13811095102,unknown,
baidu,f49623e64f9ed9bfe81e978f,北京宅浩哲房地产经纪中心,北京市东城区东四四条45号,北京市,北京市,东城区,13910730968,unknown,
baidu,47904c22e181c8b85abbbca1,工会暖心驿站(史家社区小街卤煮),北京市东城区朝阳门街道朝阳门内南小233号,北京市,北京市,东城区,,unknown,
baidu,6069cdbd1a11ce712ab97c5d,公共厕所,北京市东城区石桥东巷23号,北京市,北京市,东城区,,unknown,
baidu,7ab307aafd5133c949fc8d90,我爱我家(海运仓店),北京市东城区北门仓胡同6号楼623号,北京市,北京市,东城区,18211175091,unknown,
baidu,6ed3083a7a3486ca2b3a9fd2,中国移动(美惠大厦营业厅),北京市东城区东中街58号美惠大厦A座1楼西门,北京市,北京市,东城区,13810913825,unknown,
baidu,dc3d728a9c9d26c616a19079,街电(真优美医疗美容),北京市东城区朝阳门内大街130号,北京市,北京市,东城区,4006868588,unknown,
baidu,cc57772726101b6194f08cfb,街电(北京我爱我家房地产经纪有限公司),北京市东城区东四十条甲22号南新仓商务大厦A308室,北京市,北京市,东城区,4006868588,unknown,
baidu,bbd96d665627065e26d2bb0e,公共厕所,北京市东城区东四五条幼儿园西侧约60米,北京市,北京市,东城区,,unknown,
baidu,a5cdde8cf9fee53ae91e97e1,五矿广场速递中心,北京市东城区朝阳门北大街3号,北京市,北京市,东城区,,unknown,
baidu,456685c28036999b0869d913,北京诚诚开锁有限公司,北京市东城区朝阳门街道朝内大街2号凯恒中心B座,北京市,北京市,东城区,18510115115,unknown,
baidu,4baa89057beb0e05a21de940,公共厕所,北京市东城区北门仓胡同海运仓社区,北京市,北京市,东城区,,unknown,
baidu,2fd2beabfb3eb8537adbd2da,公共厕所,北京市东城区东中街王家园社区-35号院西侧,北京市,北京市,东城区,,unknown,
baidu,c78270b17a184c6e715e8005,艺达酒行回收老酒名酒白酒洋酒虫草礼品回收,北京市东城区朝阳门内大街136号(上门回收),北京市,北京市,东城区,13439093057,unknown,
baidu,46fe4ef4d76a23bf25d2bb60,永胜棉门帘安装(五矿广场C座店),北京市东城区朝阳门北大街7号五矿广场C座F4层,北京市,北京市,东城区,13623301209,unknown,
baidu,d07200aa9e455c9840ab9a11,公共厕所,北京市东城区石桥胡同7天酒店(南锣鼓巷店)东侧约60米,北京市,北京市,东城区,,unknown,
baidu,271238e8a0c4ec77c72ba17b,公共厕所,北京市东城区东四七条15号旁,北京市,北京市,东城区,,unknown,
baidu,422880dd03d772cf2806cefe,公共卫生间,东直门工人体育场北路保利大厦,北京市,北京市,东城区,,unknown,
baidu,4eb3b53302b6260b430245e2,公共厕所,北京市东城区东四八条平安发展大厦西南侧约90米,北京市,北京市,东城区,,unknown,
baidu,4eb3b5330c03200b43024551,公共厕所,北京市东城区东四街道东四四条45号,北京市,北京市,东城区,,unknown,
baidu,9dc8dd13dbaef8e04151c030,广诚表行(东四六条店),北京市东城区东四六条45号,北京市,北京市,东城区,,unknown,
baidu,036fa242d07e0e8b306212de,北京阅微庄四合院文化特色酒店-大堂,北京市东城区东四四条37号,北京市,北京市,东城区,,unknown,
baidu,4cf8d24e53301c9a9cf779c0,公共厕所,北京市东城区潘家坡胡同吉庆里小区-西区北侧,北京市,北京市,东城区,,unknown,
baidu,62f8759bd19c247320f0179f,劳动者港湾(中国建设银行北京保利支行),北京市东城区朝阳门北大街1号,北京市,北京市,东城区,,unknown,
baidu,b840b01dfc68ac094757261f,公共厕所,北京市东城区大方家胡同银河SOHO,北京市,北京市,东城区,,unknown,
baidu,33e88d8750fb8dc9e115f9f2,万博宣伟公関顾问,北京市朝阳区朝阳门外大街16号中国人寿大厦17层,北京市,北京市,朝阳区,,unknown,
baidu,e83811d2ef5928a51d1d110f,国粹艺苑动物医院,景山街道钱粮胡同甲36号-1,北京市,北京市,东城区,15711019567,unknown,
baidu,7524cb4fdc9daf4a04026fc0,公共厕所,北京市东城区北新仓胡同北新仓社区,北京市,北京市,东城区,,unknown,
baidu,3d9b7df65a4311e0b320a860,文君豪美发(南门仓社区店),朝阳门内北小街4号楼底商,北京市,北京市,东城区,13521653634,unknown,
baidu,62e5c1610aeaee96e5e96538,圣梦亲体美肤生活馆(东四十条店),东四十条北门仓胡同6号楼6-7一层,北京市,北京市,东城区,17600218591,unknown,
baidu,083f310d38d087f9f4eafc3f,尚美造型(东四店),朝阳门内北小街8号楼,北京市,北京市,东城区,13522677234,unknown,
baidu,e6ee2fd2f87392512b11d120,木北造型(朝阳门店),豆瓣胡同1-7号楼,北京市,北京市,东城区,,unknown,
baidu,d5fb67a19980184a3010af8e,美妍集·诗婷皮肤管理中心(凯德华玺店),朝阳门内大街288号凯德华玺1号楼1-2号112,北京市,北京市,东城区,,unknown,
baidu,ebf0c14ad7353eb35d0d02fb,美骆护肤造型(朝阳门店),朝阳门内大街136号（全季酒店西侧）,北京市,北京市,东城区,,unknown,
baidu,6d700bca1ae1891195ca07fd,木北造型(朝内大街店),朝内大街136号,北京市,北京市,东城区,,unknown,
baidu,d07b61e58d2cce2726d2bb2f,美肌工坊皮肤管理(东城INN店),北京INN2号楼B座D101(大明眼镜旁边儿)（方圆公证处北公寓大堂内）,北京市,北京市,东城区,,unknown,
baidu,e97be23ffa708f07c8c3db79,嫣然美姿专业祛斑机构(东四店),东直门南大街9号华普花园C座601室,北京市,北京市,东城区,"(010)64072944,13811667378",unknown,
baidu,a7f7642f6991329e9868b45f,华子发型工作室,朝内大街8号朝阳首府B1层,北京市,北京市,东城区,13241427634,unknown,
baidu,30b374b06e0fceab2fb17e60,Mr·JUDY洗个头发(泓晟国际店),朝阳门北大街9号泓晟国际中心B1层-B101号,北京市,北京市,东城区,18837672033,unknown,
baidu,8651979d842e7342b13c8191,纯睫·不办卡的美睫专门店(工体东门店),"工体东路甲六号辉宿酒店一层底商,工体东门正对面（近三里屯太古里、中国红街）",北京市,北京市,朝阳区,17701336825,unknown,
baidu,3c963b3488471ef193114c86,艾美A·M HAIR SALON(昆泰国际大厦店),朝阳门外大街昆泰国际公寓底商22号（链家地产旁）,北京市,北京市,朝阳区,13810059045,unknown,
baidu,6c0b4f50c2e16af978f79601,美容减肥养生室,富华大厦-E座负一层,北京市,北京市,东城区,18210130869,unknown,
baidu,be43bcedc7909a100b1cc74c,查克拉造型(东四十条店),东四十条北门仓胡同6-1号,北京市,北京市,东城区,13811922952,unknown,
baidu,15a93810b677cea415c8f6ee,四联美发(东四店),景山街道东四北大街531号(近隆福寺步行街口肯德基),北京市,北京市,东城区,,unknown,
baidu,14076dee35e81bed02294fdb,永琪美容美发(聚龙商务楼店),新中街68号聚龙花园7号楼1层,北京市,北京市,东城区,"(010)65531218,4006789197",unknown,
baidu,677c96a805ea816c82288a8b,鲩然理发店(东四二条店),东四二条甲23号,北京市,北京市,东城区,"15510097008,15910880397",unknown,
baidu,906bf1397e83a816ff0eb02c,简法造型·品牌形象店(保利剧院店),东直门街道东四十条保利剧院一楼东侧底商(2号线东四十条B口保利剧院),北京市,北京市,东城区,4006187987,unknown,
baidu,a25e98cff2e3a3336c3e1b09,谦亨PLUS护肤造型(工体店),北京市朝阳区吉庆里6号楼佳汇中心B座底商,北京市,北京市,朝阳区,010-65510221,unknown,
baidu,fc5d5b8685233bc1990050fe,小城佳丽兄弟理发店,南门仓胡同6-7号6号楼6-8号,北京市,北京市,东城区,13520884128,unknown,
baidu,468a97138298951896f08cdb,西贝凯森(朝阳门店),东四街道豆瓣胡同大街5-3号(近中海油西门),北京市,北京市,东城区,,unknown,
baidu,c54c2d16dd8a917f88db73a7,护肤头皮养生(豆瓣胡同小区西区店),北京市东城区豆瓣胡同-1、3号楼,北京市,北京市,东城区,,unknown,
baidu,c6434834fea6e07eb1077dc5,北京紫京美容有限责任公司,北京市东城区朝阳门北大街8号d座11层b室,北京市,北京市,东城区,,unknown,
baidu,d19da2fad787c4702e4733de,润丰逸精准护肤·胸部养护(三里屯店),北京市东城区工人体育场北路66号新中街瑞士公寓商业街B1楼8105,北京市,北京市,东城区,,unknown,
baidu,ea39a5e99157e303b72655c2,木子元素美肤造型(银河SOHO店),南水关胡同东水井胡同5号楼1-110室,北京市,北京市,东城区,,unknown,
baidu,9d63f06dfd648d599a0050d5,老北京理发店,北京市东城区东四六条19号,北京市,北京市,东城区,15010980467,unknown,
baidu,793eb23085ba62d477026973,优剪(朝阳门SOHO店),朝阳门SOHO写字楼B1层-B123,北京市,北京市,东城区,4006056035,unknown,
baidu,a7c56ee0d0c4c2b3a3acc4fc,纯剪一代造型,东直门南小街海运仓胡同北门仓6楼16号,北京市,北京市,东城区,15211590970,unknown,
baidu,0b4c4ba0d2d90c1b626858d2,木北造型(东四店),东四北大街228号,北京市,北京市,东城区,(010)64031458,unknown,
baidu,42450053b86a887f8a36eec9,伊美汇美容美体,北京朝阳门南小街朝内南小街菜市场,北京市,北京市,东城区,13146713848,unknown,
baidu,c1add05890403395ede4a5cd,花山院日式脱毛美肤沙龙(三里屯店),工人体育场北路三里屯永利国际公寓1单元1601,北京市,北京市,朝阳区,18501164911,unknown,
baidu,179a1f0a6a74cf77c9fa5ff8,Y hair salon(富华大厦店),朝阳门北大街8号富华大厦E座B1-4,北京市,北京市,东城区,17600340567,unknown,
baidu,f3532c3b9ba9c71e86420e9d,纹名秀美·意境半永久纹绣机器纹眉纹眼线纹唇(银河SOHO店),东二环银河SOHOB座1楼20108号,北京市,北京市,东城区,13051765023,unknown,
baidu,d532de3acb8370bf6e20b989,小梨专业脱毛连锁机构(三里屯店),工体北路21号永利国际公寓1单元1125,北京市,北京市,朝阳区,15811062010,unknown,
baidu,3c8b6cc6397440101e580089,MIRI美甲小舍,朝阳门内南小街93号（裕德食府，滨海明珠宾馆对面）,北京市,北京市,东城区,"13601346558,18301236967",unknown,
baidu,1694a99e8da36f039e82ea99,DL BARBERSHOP男士理发店(东四店),朝阳门内大街288号院一层（广发银行东侧）,北京市,北京市,东城区,13146553380,unknown,
baidu,0adce3e2cfc74f7881a00ca2,晶奕空间专业脱毛连锁机构(东直门店),东直门南大街东方银座B公寓21层F室,北京市,北京市,东城区,(010)58196080,unknown,
baidu,886b0f9e7e92855cb9df8f83,可可公主主题美甲馆(银河SOHO店),银河SOHO下沉广场临街底商A座B1层1-130,北京市,北京市,东城区,(010)53329712,unknown,
baidu,6be039f0555cff6abe484212,逸丝风尚(银河店),东二环银河sohoA座b1层6-103底商,北京市,北京市,东城区,15201687048,unknown,
baidu,18eb1f7090d47ee5d0ff2331,爱美之约美甲美睫(东四二分店),东四北大街389号,北京市,北京市,东城区,13683086255,unknown,
baidu,f3f3d5b52d88384b80a00c6e,造型才子团队(海运仓店),北京市东城区北新桥街道东直门内南小街18-4号,北京市,北京市,东城区,"15135799353,15601308327,18201514243",unknown,
baidu,75036835e868ceb65e0d0229,蓝田丽彤(东四十条店),东直门南大街9号华普花园B1002,北京市,北京市,东城区,,unknown,
baidu,1d6001c75793c13e047ce8e3,ONLY造型(银河SOHO店),朝阳门银河SOHO商场B座B1层2-132周大福旁边进商场里,北京市,北京市,东城区,"(010)65178201,(010)89944052",unknown,
baidu,82746db99348f66117764361,小壳美睫·KOKARA Eyelash(东直门店),东直门外大街东方银座C座C层（正对电梯）,北京市,北京市,东城区,"(010)64662332,13910009726",unknown,
baidu,2a7a25ec48e1e27a6d3e1b9f,四联美发(北新桥店),雍和宫大街197号,北京市,北京市,东城区,,unknown,
baidu,ed2683381672f2e022f01783,艺术年华美发(东城店),东四十条82号,北京市,北京市,东城区,(010)64029445,unknown,
baidu,7ec0efa803d87f68a8f0cd63,木北造型(灯市口店),灯市口大街72号,北京市,北京市,东城区,4008845966,unknown,
baidu,597a1a3d08df0bcd157643bc,寇氏减肥(东四十条地铁站店),东中街58号美惠大厦B座二单元203A,北京市,北京市,东城区,"13381218609,13466303409",unknown,
baidu,aa9a8de0380408b2c27da2b5,木北造型(工体世茂工三店),工体北路13号世茂商场工三店一楼（商场南门内）,北京市,北京市,朝阳区,,unknown,
baidu,5a2b15a882affcdbc91b95c1,艺人范斯造型烫染(朝阳门银河SOHO店),银河SOHO下沉广场6-103,北京市,北京市,东城区,,unknown,
baidu,174751e7e5bdb8528f1a89de,永琪护肤造型(东大街店),交道口东大街8-2号(近东城文化馆),北京市,北京市,东城区,4006789197,unknown,
baidu,1ed70bcbc59d188ac5effb2f,寇氏减肥(朝阳门店),南水关胡同11号北京INN4号楼D区三层B0311号,北京市,北京市,东城区,15901522519,unknown,
baidu,f78f736f2672f7db5cd4feac,燃TATTOO纹身原创定制,北京市东城区南水关胡同inn4号楼D区2层A211号,北京市,北京市,东城区,13260376765,unknown,
baidu,8f719c1e6dd3c98fe856fa2b,创作造型,工体北路瑞士公寓102号（低调造型内）,北京市,北京市,东城区,,unknown,
baidu,97a733875c54f3be43afe6cf,凡芮FairyTales·美甲美睫皮肤管理,东二环银河Soho商场A座负一层1-153,北京市,北京市,东城区,"15652370617,18166863742",unknown,
baidu,fb051dd942e04da2d12dd6ed,小样美吧美甲美睫(东四总店),北京市东城区东四北大街375号,北京市,北京市,东城区,,unknown,
baidu,e93cc5c17e95c3ce256e98b6,aili爱丽(银河soho店),朝阳门银河SOHOB座1层20110室,北京市,北京市,东城区,(010)84068689,unknown,
baidu,293b74d2b1661e31283a9ffa,熹斯形象设计(银河SOHO购物中心店),北京市东城区南竹杆胡同2号银河SOHO购物中心B1,北京市,北京市,东城区,17611000981,unknown,
baidu,8af1b12efebab0581df74d08,六悦美甲(美惠大厦店),北京市美惠大厦2单元1002,北京市,北京市,东城区,,unknown,
baidu,b1b59966f3c7e3cfc9e33cc7,时尚星光,北京市东城区朝阳门北大街8号富华大厦d座16楼,北京市,北京市,东城区,,unknown,
baidu,6d9ebcd899d389ad2b201a2f,三维视康,朝阳门北小街8号13,北京市,北京市,东城区,13911707813,unknown,
baidu,cd9f55756c8ab80b901fc932,pd,北京市东城区朝阳门内大街朝阳首府西门北侧约80米,北京市,北京市,东城区,,unknown,
baidu,af1ae56b4e2c78124207c1d1,皇城根遗址公园,北京市东城区北河沿大街与地安门东大街交叉口南,北京市,北京市,东城区,,unknown,
baidu,d6df91c1b141f36af7b916d2,中国美术馆,北京市东城区五四大街1号,北京市,北京市,东城区,(010)64011816,unknown,
baidu,2fb8210a577e7ab6028972d7,南豆芽清真寺(豆瓣胡同),北京市东城区东四街道豆瓣胡同4号,北京市,北京市,东城区,(010)84068225,unknown,
baidu,0bdbe60074fa408deb56fa54,东四胡同博物馆,北京市东城区东四四条77号,北京市,北京市,东城区,(010)64027581,unknown,
baidu,c350486924e6c111223bf2ea,好园,北京市东城区朝阳门街道史家胡同53号,北京市,北京市,东城区,,unknown,
baidu,6cf65ab2595b9c4580a00c87,东岳庙,北京市朝阳区朝阳门外大街141号,北京市,北京市,朝阳区,"(010)65513883,010-65510151",unknown,
baidu,e09a2c63472ef908b75f1e79,孚王府,北京市东城区朝阳门内大街路北137号,北京市,北京市,东城区,,unknown,
baidu,05ffe57ce36641c031f71dce,北京工体富国海底世界,北京市朝阳区工人体育场南门,北京市,北京市,朝阳区,(010)65913398,unknown,
baidu,2881b77a29f942db41d63e24,东四三条77号四合院,北京市东城区东四三条6号,北京市,北京市,东城区,,unknown,
baidu,a8e715993bc4b6c69fec2bd3,六公主府,北京市东城区内务部街11号,北京市,北京市,东城区,,unknown,
baidu,fb0f2103ded31e2400ff2d22,段祺瑞宅,北京市东城区东四街道仓南胡同5号院18号楼4单元3层302室,北京市,北京市,东城区,,unknown,
baidu,bc2190346d9566252806cec6,史家胡同博物馆,北京市东城区史家胡同24号,北京市,北京市,东城区,(010)85175790,unknown,
baidu,25ec69fc460d557dc26c14d2,保利艺术博物馆,北京市东城区朝阳门北大街1号新保利大厦云楼9-10层,北京市,北京市,东城区,(010)65008117,unknown,
baidu,3dc9befd7c6f810fbea240fe,日坛公园,北京市朝阳区朝阳门外日坛北路6号,北京市,北京市,朝阳区,(010)85616301,unknown,
baidu,e52e33781ed9d6ee0bccddc3,中国华侨历史博物馆,北京市东城区北新桥三条东口,北京市,北京市,东城区,"(010)64070942,(010)64093039",unknown,
baidu,a3f21eeea39488442fb17ed2,清陆军部和海军部旧址,北京市东城区张自忠路3号,北京市,北京市,东城区,"(010)64039419,(010)64039426",unknown,
baidu,5e15505ad5a716bbc33644db,北京文博交流馆,北京市东城区禄米仓胡同5号,北京市,北京市,东城区,65135206,unknown,
baidu,53349ee3c85cc26e220262fc,北京王府井天主教堂,北京市东城区王府井大街路东74号,北京市,北京市,东城区,(010)65240634,unknown,
baidu,2a1f1cb484fd19665cd4fe83,永延帝祚,北京市朝阳区朝外南街28附近,北京市,北京市,朝阳区,,unknown,
baidu,724d7a6d0c12715e7f29bd6a,礼士胡同四合院,北京市东城区礼士胡同129号,北京市,北京市,东城区,,unknown,
baidu,eb36750313e7271b00ec01d2,和敬公主府,张自忠路7号(原铁狮子胡同),北京市,北京市,东城区,,unknown,
baidu,34e485081e332ce2d8d891d3,东四奥林匹克社区公园,"北京市东城区仓南胡同北侧,豆瓣胡同2号楼东南侧",北京市,北京市,东城区,,unknown,
baidu,cc0849a0b9a8e150940319d2,北大红楼,北京市东城区五四大街29号,北京市,北京市,东城区,(010)52208928,unknown,
baidu,a49f88ac90d3147f2fb17e91,北京民俗博物馆,北京市朝阳区朝阳门外大街141号,北京市,北京市,朝阳区,(010)65510151,unknown,
baidu,606a2751c6dbda5ef4b91645,史家胡同23号四合院,北京市东城区史家胡同23号,北京市,北京市,东城区,,unknown,
baidu,e6c44739bc82acc0970319d7,三洞七楼琉璃牌坊,北京市朝阳区神路街昆泰嘉华酒店东侧约60米,北京市,北京市,朝阳区,,unknown,
baidu,477648d16ede683148cc4afb,鼓楼,禄米仓胡同5号智化寺,北京市,北京市,东城区,,unknown,
baidu,b72f164ecb724fe48f1a891b,新中街城市森林公园,北京市东城区新中街东巷6号,北京市,北京市,东城区,,unknown,
baidu,815240af773320323fe2319a,东四清真寺,北京市东城区东四南大街13号,北京市,北京市,东城区,(010)65257824,unknown,
baidu,e597d16951bfe141cac3dbd2,智化寺,北京市东城区禄米仓胡同5号,北京市,北京市,东城区,(010)65286691,unknown,
baidu,78bd50f753945a5b31870ad2,老舍纪念馆,北京市东城区丰富胡同19号,北京市,北京市,东城区,"(010)65142612,(010)65599218",unknown,
baidu,1db234c2d09b6b31f60e774f,法兴寺,北京市东城区金宝街51号,北京市,北京市,东城区,,unknown,
baidu,323b44330cbb5fdcadee7a58,东四八条61号四合院,北京市东城区东四八条史家七条小学西北侧,北京市,北京市,东城区,,unknown,
baidu,ff11705d80d801eaf50e773e,清满蒙汉正蓝旗都统衙门建筑遗存,北京市东城区本司胡同73号,北京市,北京市,东城区,,unknown,
baidu,06d2dffd11a640f688f15dfc,通教寺,北京市东城区东直门内北小街针线胡同19号,北京市,北京市,东城区,(010)64055918,unknown,
baidu,06fe4e7eba78c114c9213dfe,北京人艺戏剧博物馆,北京市东城区王府井大街22号首都剧场4楼,北京市,北京市,东城区,(010)85120006,unknown,
baidu,610852115baa11dcc51b7528,中国妇女儿童博物馆,北京市东城区北极阁路9号,北京市,北京市,东城区,"(010)65126655,(010)65269678,(010)88828000",unknown,
baidu,49fcfadf4b94056dfea7781e,朝阳大学旧址,北京市东城区海运仓胡同3号,北京市,北京市,东城区,,unknown,
baidu,374ebc3d5c15ba2dae31e590,隆福美术馆,隆福寺街95号钱粮胡同38号15号楼,北京市,北京市,东城区,,unknown,
baidu,351bfc34e3f82cc67adbd2c0,悬铃木,北京市朝阳区日坛北路日坛公园,北京市,北京市,朝阳区,(010)85616301,unknown,
baidu,03185e09990550b5bfa8228e,贝子奕谟府遗存,北京市东城区东四十条小区东四九条小学北门,北京市,北京市,东城区,,unknown,
baidu,cd9d05ddfb8dfeb685420ed2,孙中山行馆,北京市东城区张自忠路23号,北京市,北京市,东城区,,unknown,
baidu,25416dde195dac590c0a70f7,东城区北总布胡同2号宅院,北京市东城区北总布胡同2号,北京市,北京市,东城区,,unknown,
baidu,0ed20a15c83f0bea57bfffc9,五四运动火烧赵家楼遗址,北京市东城区前赵家楼胡同1号,北京市,北京市,东城区,,unknown,
baidu,b82c20e9d193514c0e3ddae1,中国医史博物馆,北京市东城区东直门内南小街16号,北京市,北京市,东城区,(010)64089133,unknown,
baidu,d4ccdf98552acee92fb17e6e,东药王庙遗存,北京市东城区东直门内大街5号,北京市,北京市,东城区,,unknown,
baidu,cb999b4402c738a5b817e766,南新仓画廊,北京市东城区东四十条22号,北京市,北京市,东城区,(010)64096616,unknown,
baidu,3f1dedd5ff5260a3d92f28f1,北京巧娘博物馆,北京市东城区朝阳门北小街南新仓文化休闲街,北京市,北京市,东城区,,unknown,
baidu,23de604fe63abc979e82eaa7,东护城河绿道,北京市东城区环二环绿道天恒大厦西北侧约220米,北京市,北京市,东城区,,unknown,
baidu,8f5400081a3615daa4c756a4,中国律师博物馆,北京市东城区建国门内大街9号北京国际饭店3层,北京市,北京市,东城区,(010)87777508,unknown,
baidu,5211d2191893b7597dc87611,中法大学旧址,北京市东城区东皇城根北街甲20号,北京市,北京市,东城区,(010)84024558,unknown,
baidu,00586108fcb154d946e2743c,东岳美术馆,北京市朝阳区朝阳门外大街99号,北京市,北京市,朝阳区,(010)65514147,unknown,
baidu,1f7aed2d56abaca52d4733ce,千年九龙柏,北京市朝阳区朝阳门外日坛北路6号日坛公园内,北京市,北京市,朝阳区,(010)85616301,unknown,
baidu,86c3a44348d8f0e9e011039f,东四奥林匹克社区博物馆,北京市东城区朝阳门北顺城街甲73号,北京市,北京市,东城区,,unknown,
baidu,d1e48ae0e2ce0ebfd72ce24e,北京市东城区文物保护单位四合院,北京市东城区礼士胡同64号,北京市,北京市,东城区,,unknown,
baidu,a5097bfa38d65563f13cbabb,南下坡清真寺,北京市朝阳区朝外西街万邦商贸大厦东50米(雅宝里旁),北京市,北京市,朝阳区,(010)85626316,unknown,
baidu,5ffb18160fd05a5f6f4760fc,东直门外清真寺,东直门外察慈住宅小区6号院,北京市,北京市,东城区,(010)64685890,unknown,
baidu,5d15bc7f5dadf5851d5800dc,明瑞府,北京市东城区内务部街11号院,北京市,北京市,东城区,,unknown,
baidu,ce496180aa9955a72902e119,东城区内务部街十一号四合院,北京市东城区内务部街十一号,北京市,北京市,东城区,,unknown,
baidu,b0cb8292ab25fbfbece4a5b9,梁启超故居,北京市东城区北沟沿胡同23号,北京市,北京市,东城区,,unknown,
baidu,44bb40f45d44c277c7f50dd8,恒亲王府,北京市东城区朝阳门内大街55号(新闻出版大厦附近),北京市,北京市,东城区,,unknown,
baidu,cfcd0c60bb50bd7c1f5800ab,南新仓宝鼎,北京市东城区南新仓文化休闲街南新仓商务大厦东门西侧约30米,北京市,北京市,东城区,,unknown,
baidu,4d383cae4f443724c42ba10b,梁实秋旧居,北京市东城区内务部街胡同39号,北京市,北京市,东城区,,unknown,
baidu,7d5f3a0afc6f944b2cb908d2,欧阳予倩故居,北京市张自忠路甲5号(张自忠路地铁站A西北口步行240米),北京市,北京市,东城区,010-59789610,unknown,
baidu,55fa2c0bc5151d2d1ce999d1,朱启钤故宅,赵堂子胡同3号(近朝南小街),北京市,北京市,东城区,,unknown,
baidu,6578680ff3fc45522bd7ab16,南馆公园,北京市东城区东直门大街西羊管胡同甲1号,北京市,北京市,东城区,(010)84012558,unknown,
baidu,6ea508ac7b5269b2ab0dd8d5,东城区前永康胡同7号四合院,北京市东城区东直门前永康胡同28号,北京市,北京市,东城区,,unknown,
baidu,16f7ce4fccc38c36ee74f8be,大慈延福宫,北京市东城区东四街道朝内大街225号院,北京市,北京市,东城区,,unknown,
baidu,7343f3477d058b85b23c8161,都城巴士慕田峪长城直通车集合点,北京市朝阳区吉市口路中国石化大厦,北京市,北京市,朝阳区,,unknown,
baidu,fdea68bd678d25a880a00c41,章士钊故居,史家胡同51号,北京市,北京市,东城区,,unknown,
baidu,192db36aae26b839c6effbf1,刘墉故居,北京市东城区礼士胡同瀚海科技大厦南侧约90米,北京市,北京市,东城区,,unknown,
baidu,f67323e330af0d22b6147f55,北京市东城区普查登记文物东四十三条77号四合院,北京市东城区东四十三条77号,北京市,北京市,东城区,,unknown,
baidu,90bd35db3ceef4066cc02c7c,大学士耆英宅,北京市东城区景山街道东四钱粮胡同21号,北京市,北京市,东城区,,unknown,
baidu,9b56d96cce88bc14d518b780,基督教公理会旧址,北京市东城区灯市口北巷15号基督教,北京市,北京市,东城区,,unknown,
baidu,7c221552ba9b04827dc87636,人民美术馆,北京市东城区板桥南巷7号1层,北京市,北京市,东城区,,unknown,
baidu,c569d17378b251e25cd4fe96,王府井天主教堂东堂,北京市东城区东华门街道王府井大街74号教堂(教堂附属楼),北京市,北京市,东城区,,unknown,
baidu,a355319edba8c1b8cc06a4cb,曲达岚亭,北京市东城区张自忠路华人一品大厦东北侧约40米,北京市,北京市,东城区,,unknown,
baidu,a5a7b0763e156b6d0ab93a6a,轿黄府,北京市东城区轿子胡同8号,北京市,北京市,东城区,,unknown,
baidu,4e958605411bc01b7af796d7,北京市东城区普查登记文物宝泉局东作厂旧址,北京市东城区东四四条83号,北京市,北京市,东城区,,unknown,
baidu,e3e2cd9d820fb9e3c7f50dd2,文丞相祠,北京市东城区府学胡同63号,北京市,北京市,东城区,(010)64014968,unknown,
baidu,5c38e0f32a93901b95ec84be,77文创美术馆,北京市东城区美术馆后街园区1号楼,北京市,北京市,东城区,,unknown,
baidu,3effd42ecea41ded9e82ea1f,东四法治公园,北京市东城区东四北大街北京东四九条小学西侧约40米,北京市,北京市,东城区,,unknown,
baidu,233bf7ac5575e5c74354d7ee,当代美术馆,东大桥路9号D座10层,北京市,北京市,朝阳区,(010)56628568,unknown,
baidu,29c8dd1dfd5ca36103ec0110,神库神厨,北京市朝阳区日坛北路6号,北京市,北京市,朝阳区,(010)85616301,unknown,
baidu,5e118c8b4a2dd78deb1e97ce,旧宅院,北京市东城区北总布胡同2号,北京市,北京市,东城区,,unknown,
baidu,7100e1d66c84fa16047ce8f7,基督教救世军中央堂,北京市-东城区-王府井大街与黄图岗胡同交叉口东50米,北京市,北京市,东城区,,unknown,
baidu,5eb33baa0460beebe4e965a6,车郡王府建筑遗存,北京市东城区东四三条35号,北京市,北京市,东城区,,unknown,
baidu,c27359be50c9001bd92f28ef,宋洋美术馆-金宝汇,王府井金宝汇三层宋洋美术馆,北京市,北京市,东城区,,unknown,
baidu,1dbba3ac5b08455a36b06ce8,建国门社区博物馆,北京市东城区建国门街道朝阳门南小街18号楼负一层,北京市,北京市,东城区,(010)65231891,unknown,
baidu,08d739006ebdcf29250bd03c,侯宝林故居,北京市东城区东四头条19号,北京市,北京市,东城区,,unknown,
baidu,19cb11ab5336de4ab320a8bf,叶圣陶故居,北京市东城区东四八条71号,北京市,北京市,东城区,,unknown,
baidu,6a0b3ed9f7955c1a4351c04e,大悲堂,禄米仓胡同5号智化寺,北京市,北京市,东城区,(010)65286691,unknown,
baidu,235d6acbe65a598909a8d407,梁启超书斋,北京市东城区北沟沿胡同52號,北京市,北京市,东城区,,unknown,
baidu,bddf7980ca6bf8503be4a6e9,蔡元培故居,北京市东城区东堂子胡同75号,北京市,北京市,东城区,,unknown,
baidu,53d7cac83eaad0a30bf5ebc3,僧格林沁祠,北京市东城区东大街47号,北京市,北京市,东城区,(010)84038088,unknown,
baidu,1173256a4617041381a12efb,智化殿,禄米仓胡同5号智化寺,北京市,北京市,东城区,,unknown,
baidu,05114fe0005b81d185420ef7,钟楼,北京市朝阳区朝阳门外大街东岳庙,北京市,北京市,朝阳区,,unknown,
baidu,1cbac6d5de545b7a1ef74d25,北京工体荣誉殿堂,北京市朝阳区工人体育场北路1号北京国安足球俱乐部附近,北京市,北京市,朝阳区,,unknown,
baidu,577a0cc64c45eb5125d2bbba,中华圣经会旧址,北京市东城区东单北大街21号,北京市,北京市,东城区,,unknown,
baidu,15a9fa1af69d141d40e192c7,北京市东城区文物保护单位,北京市东城区魏家胡同18号,北京市,北京市,东城区,,unknown,
baidu,6ea5d8010c645e78f50e77f4,祭日拜台,北京市朝阳区日坛北路6号,北京市,北京市,朝阳区,,unknown,
baidu,ebfa499cc21507f2b42655f8,史家胡同33号四合院门墩,北京市东城区史家胡同小区-20号院北侧,北京市,北京市,东城区,,unknown,
baidu,6f2da3353b5a0ba9f503b8ae,冰心故居,北京市东城区交道口街道中剪子巷33号,北京市,北京市,东城区,,unknown,
baidu,4afcb87647a1ef6b26e0a0c6,保利茅台博物馆(保利大厦店),北京市东城区东直门南大街14,北京市,北京市,东城区,,unknown,
baidu,482a0cc200539231e31103d4,如来殿,禄米仓胡同5号智化寺,北京市,北京市,东城区,,unknown,
baidu,ef5c916898c0f4833a13fde6,智化门,禄米仓胡同5号智化寺,北京市,北京市,东城区,(010)65286691,unknown,
baidu,16898842f44401a03686f415,城隍庙旧址,北京市东城区大兴胡同18号,北京市,北京市,东城区,,unknown,
baidu,0757e36ecebd1a8ed2f49ed3,吴佩孚故居,北京市东城区什锦花园胡同19号,北京市,北京市,东城区,,unknown,
baidu,3ac7a4b7723d1026bbbd63a2,清晖亭,北京市朝阳区朝阳门外日坛北路6号日坛公园内,北京市,北京市,朝阳区,(010)85616301,unknown,
baidu,89990e96390877cc1e5800a6,总理各国事务衙门建筑遗存,北京市东城区建国门街道东堂子胡同491号,北京市,北京市,东城区,,unknown,
baidu,e3e2cd9deac521e2c6f50d8b,田汉故居,北京市东城区东四北大街细管胡同12号,北京市,北京市,东城区,,unknown,
baidu,c89d113db3376f257069d386,隆福寺南坊,北京市东城区隆福寺街,北京市,北京市,东城区,,unknown,
baidu,9cd46581e59cd043ca09f0d3,古刹永宁禅林,北京市东城区板桥胡同人民美术大厦东北侧约30米,北京市,北京市,东城区,,unknown,
baidu,b30bd671c58a2639223bf297,中医文化长廊,北京市东城区东四十条143号,北京市,北京市,东城区,,unknown,
baidu,5a45330dea0b6ad9d72ce2ab,唐人艺仓博物馆,北京市东城区东四十条南新仓,北京市,北京市,东城区,,unknown,
baidu,796e52bfc9ac27742b11d12b,北新桥街心花园,北京市东城区交道口东大街4-16,北京市,北京市,东城区,,unknown,
baidu,f8d7b1a88032100a2fb908e5,祭日壁画,北京市朝阳区玉簪路日坛公园,北京市,北京市,朝阳区,(010)85616301,unknown,
baidu,84107f9e6fff60495fbe86f0,三一八惨案发生地,北京市东城区张自忠路3号,北京市,北京市,东城区,,unknown,
baidu,82f58fca85656effee74f849,墙美术馆,北京市朝阳区朝阳门外大街18号,北京市,北京市,朝阳区,,unknown,
baidu,6cc2ede9064b96de1f3894f4,杜聿明故居,北京市东城区美术馆东街民航信息大厦西北侧约70米,北京市,北京市,东城区,,unknown,
baidu,42f89ef7f07983f045e274af,南馆低碳生活示范园,西羊管胡同甲1号,北京市,北京市,东城区,(010)84012558,unknown,
baidu,d15b353c74fc8cedf5eafc42,马骏烈士墓,北京市朝阳区日坛北路6号日坛公园内,北京市,北京市,朝阳区,(010)85616301,unknown,
baidu,e412d7e2adf2083549fd3f1f,清末将军凤山宅,北京市东城区东棉花胡同15号,北京市,北京市,东城区,,unknown,
baidu,3d746f1c6430a0a716a19076,光语美术馆,北京市东城区朝阳门内大街8号朝阳首府116号,北京市,北京市,东城区,(010)57929305,unknown,
baidu,657c5b33de0cef2aafee7adf,水榭,北京市朝阳区朝阳门外日坛北路6号日坛公园内,北京市,北京市,朝阳区,,unknown,
baidu,09d5834fbb49ffe66118096c,马骏烈士纪念室,北京市朝阳区日坛路日坛公园内(近儿研所),北京市,北京市,朝阳区,,unknown,
baidu,13d5f552e29538954c3a59fb,东四四条3号四合院,北京市东城区东四街道东四四条3号,北京市,北京市,东城区,,unknown,
baidu,581702f6608a83c02cb908ee,四合坊,北京市东城区东四十二条43号,北京市,北京市,东城区,,unknown,
baidu,9cc87a378a7ab99c276e98d7,魏家胡同18号宅院,北京市东城区魏家胡同北京市第一幼儿园(吉祥分园)北侧约40米,北京市,北京市,东城区,,unknown,
baidu,63b6f8b30c6249bf6e20b9ab,南豆芽清真寺(豆瓣胡同)-西1门,豆瓣胡同4号,北京市,北京市,东城区,,unknown,
baidu,b6762913f17238324f3a5950,前拐棒胡同17号院,北京市东城区前拐棒胡同北京财贸职业学院(东城校区)西北侧约110米,北京市,北京市,东城区,,unknown,
baidu,ebd38cbdc0f7adfb3f9a5ebc,广和成粮店旧址,北京市东城区东四十一条31号院西南侧约80米,北京市,北京市,东城区,,unknown,
baidu,6953826986c81b173904b156,魏家胡同,北京市东城区魏家胡同北平小院设计酒店东南侧约50米,北京市,北京市,东城区,,unknown,
baidu,f987a1687f2fec07b35c6ab1,北京市文物保护单位东城区史家胡同51号宅院53号宅院55号宅院,北京市东城区东花厅胡同好园(北京丽晶酒店东北),北京市,北京市,东城区,,unknown,
baidu,93080da548b9aa7da80dd8aa,云鼎茗汇·掼蛋棋牌·茶艺商务(朝阳门店),朝阳门南小街2号楼（北京INN8号楼底商）,北京市,北京市,东城区,13716265511,unknown,
baidu,e517caa1d521c929afee7a62,唱吧麦颂KTV(朝阳门地铁站店),朝阳门外大街19号华普大厦三层CY-301号,北京市,北京市,朝阳区,,unknown,
baidu,8a692319c880741d72455b6b,菩丽养身·SPA·足道(朝阳门店),"朝内大街,75号,菩丽花样小楼（朝阳门桥往西300米路北，新闻出版社大楼右侧。）",北京市,北京市,东城区,(010)84013056,unknown,
baidu,c2df83b2c56cbb55336212e2,胭脂瀑沉浸推理剧场,东直门南小街18号楼-1层18-14（王子向上密室旁）,北京市,北京市,东城区,,unknown,
baidu,cb6ab0233838e0d96140a953,观味茶香·商务·会议·鼎白(朝阳门店),仓南胡同豆瓣胡同三号楼底商（近电信大楼、中海油、五矿大厦）,北京市,北京市,东城区,18518117134,unknown,
baidu,3456af32f4834af3a1acc45b,莲花宫商务茶艺馆(朝阳门店),"朝阳门内大街底商91-3号（全季酒店对面,近佳龙酒店,近中国海油大厦,电信大楼）",北京市,北京市,东城区,13522001083,unknown,
baidu,dac3bf33692d8fbc5d17c309,战神电竞馆(东四王府井店),景山街道东四北大街485号(同仁堂门诊北侧),北京市,北京市,东城区,,unknown,
baidu,cdab9efd319ef34f80288a7d,大宇宙Great Cosmos Brewpub,东四四条82-2号,北京市,北京市,东城区,"18201288756,18601277785",unknown,
baidu,4a0a645eb7bf11369cec2b9f,网聚电竞网咖(王府井东四店),东四北大街449号,北京市,北京市,东城区,18612515786,unknown,
baidu,6b33c2aa2dbe5fab8415414f,无问西东·咖啡·精酿·鸡尾酒bistro·bar,东四街道东四北大街472号,北京市,北京市,东城区,13810380179,unknown,
baidu,efa5fc81f9fec7bf3110af1b,汤悦温泉汗蒸馆(建国门雅宝路店),雅宝路12号（华声国际大厦内）,北京市,北京市,朝阳区,(010)61006399,unknown,
baidu,ce81cce549a47de6d618b7d2,百觉轩·茶馆·商务会议(朝阳门店),朝阳门南小街2号北京inn8号楼B317室,北京市,北京市,东城区,"13641279059,18600558486",unknown,
baidu,b1fe6b1a8f22875b9e95de64,Destination目的地酒吧(工人体育场西路店),工人体育场西路7号,北京市,北京市,朝阳区,"(010)65515138,(010)65528180,13811200786",unknown,
baidu,2127ae2d937afc5d35b06c1c,唯愈健康管理中心,朝阳门内大街288号凯德华玺大厦一层底商,北京市,北京市,东城区,,unknown,
baidu,35b7ca3d3f4bcf2acafa5f5c,洞穴盐疗·深滤空间SaltSpace(银河SOHO店),东二环银河SOHOA座二层10207号（从店面侧门进入）,北京市,北京市,东城区,(010)65206009,unknown,
baidu,ad200bb011b5637641d63e5a,熳乐岛游戏馆(朝阳门店),北京市东城区北京inn2号楼B单元101号(便利蜂左侧大堂进入),北京市,北京市,东城区,,unknown,
baidu,4a6cbca696b2da5b2902e124,地儿bar(东四店),东四头条7-11号（东四地铁站B东北口旁）,北京市,北京市,东城区,13811824121,unknown,
baidu,c5daf752ef08a59b931fc9b8,屋有岛深度体验密室(三里屯店),工人体育场北路13号世茂广场三楼,北京市,北京市,朝阳区,13051976960,unknown,
baidu,99ef1cbac854303bf319371d,和院·来云茶室,东四南大街灯草胡同5号,北京市,北京市,东城区,15601395002,unknown,
baidu,e1466b5528e815d741afe6e4,天堂超市(北京总店),工人体育场北路13号院世贸工三广场1层（近南门）,北京市,北京市,朝阳区,13552830326,unknown,
baidu,ee748e5841f8ec80abf0cd3c,GALLERY WHERE(东四空间),东四街道铁营南巷6号,北京市,北京市,东城区,18610729116,unknown,
baidu,b5558040561cf38bd618b7f0,北京1+1艺术中心,朝阳门北大街11号1层1+1舞蹈,北京市,北京市,东城区,,unknown,
baidu,e892cf8d89f74621eddfcabf,立轻松盲人按摩,东水井胡同北京INN2号楼B区大明眼镜与国酒专卖之间大堂A单元103室,北京市,北京市,东城区,17610262505,unknown,
baidu,fee52a4841beeced22026299,国艾堂·艾灸养生会馆(东四十条店),北门仓胡同6号楼底商一层10-1（东四十条地铁A口）,北京市,北京市,东城区,(010)64027188,unknown,
baidu,e9142e526d249b6043afe667,您好修脚盲人按摩(豆瓣胡同店),豆瓣胡同1号楼1层1-4,北京市,北京市,东城区,17610865981,unknown,
baidu,ab9002e1437d05164d776e72,东四奥林匹克社区公园-下沉广场,北京市东城区朝阳门北大街银河sohod座b1层,北京市,北京市,东城区,,unknown,
baidu,d588452b447ab1f67ab55c3b,北京喜剧院,朝阳门北大街11号（朝阳门桥）,北京市,北京市,东城区,,unknown,
baidu,f9e7e3352afb4b524251c07b,市民活动中心,北京市东城区北新桥街道南颂年胡同3号,北京市,北京市,东城区,,unknown,
baidu,5211d219d5f9fc587dc876fc,中央歌剧院,东中街115号,北京市,北京市,东城区,(010)65535582,unknown,
baidu,cca0b76b4bf0afe32a201a13,Leon's Bistro&Bar里昂酒馆,东四十一条64号,北京市,北京市,东城区,,unknown,
baidu,436be437c6a29246e215f90e,第五广场,朝阳门北大街3号,北京市,北京市,东城区,,unknown,
baidu,65e7a76ed8cbd4ed471a3238,纯K(工体店),工人体育场西路6号（工人体育场西门南侧200米）,北京市,北京市,朝阳区,(010)52279777,unknown,
baidu,9e23c35e7981483c8e772720,愈舍YUSPA(金宝店),北京市东城区金宝街82号3-4层,北京市,北京市,东城区,4008010150,unknown,
baidu,c33df507e3fcaa2aa10464c8,THE COOL KID Bar,东四北大街482号,北京市,北京市,东城区,18811736187,unknown,
baidu,41d4f9d27c6281bec4f50d7a,布拉格KTV(INN店),南竹杆胡同6号地下一层,北京市,北京市,东城区,,unknown,
baidu,764672e57f06e7ad94ec84d0,保利剧院(保利大厦店),东直门南大街14号保利大厦1层,北京市,北京市,东城区,(010)65065345,unknown,
baidu,35d5ef841d52267d33621211,文化和旅游部老干部活动中心,朝阳门内大街203号朝内头条社区,北京市,北京市,东城区,,unknown,
baidu,47797c91ce14abf4ce04ef0d,乐空间,板桥南巷7号人美文化园区北楼西侧,北京市,北京市,东城区,18601337603,unknown,
baidu,119ad168e89c37c79cf779c2,BSP录音棚,北京市朝阳区朝阳门北大街12号天辰大厦,北京市,北京市,朝阳区,18211169217,unknown,
baidu,053d43acc27501dfa2a93415,DDC黄昏黎明俱乐部,神路街39号地下一层,北京市,北京市,朝阳区,,unknown,
baidu,a6833c57f1ced643c72ba151,三里屯脱口秀大笑喜剧,工人体育场北路13号世茂广场·工三F3（北区）,北京市,北京市,朝阳区,13671312367,unknown,
baidu,dd38677fd710ad5a465726c3,绮之SPA会所(华玺店),朝阳门内大街288号华玺一层南侧116室,北京市,北京市,东城区,,unknown,
baidu,98e7de57ac9c1cbae01103c6,陆军总医院第十六总支老干部活动中心,北京市东城区朝阳门北小街南新仓文化休闲街,北京市,北京市,东城区,,unknown,
baidu,db6ee592742362318bb98811,公共文化礼士朝西竹竿社区文化活动室,北京市东城区北竹杆胡同8号楼9单元103号,北京市,北京市,东城区,,unknown,
baidu,12a9b98ab14ccbd02806cec4,觅谧·布梵之境,东水井胡同11号楼4层5B01室,北京市,北京市,东城区,,unknown,
baidu,d0803362218f0d897ec87650,灵shu推拿·脊柱调理工作室(朝阳门店),东水井胡同北京INN4号楼D区9层B906,北京市,北京市,东城区,,unknown,
baidu,f498d661a1454ee2f6c59c68,南阳共享际剧场,南阳胡同6号,北京市,北京市,东城区,,unknown,
baidu,6ed3083af0a218ae2a3a9fa0,博纳国际影城(朝阳门IMAX店),三丰路悠唐购物中心二期B1层,北京市,北京市,朝阳区,(010)59775660,unknown,
baidu,c76aa5367674f3fb4302450d,晓玲妙音依娜养生馆(东四十条店),北京市东城区南小街20号1层,北京市,北京市,东城区,"(010)84076766,15711326410",unknown,
baidu,fc930f2f6f0c1365a0046455,三秋堂,北京市东城区东四十条70-1号,北京市,北京市,东城区,"13811960196,13910501015",unknown,
baidu,3a4f1aadf907fc238f1a89fd,北京人民艺术剧院,北京市东城区王府井大街22号,北京市,北京市,东城区,(010)65249847,unknown,
baidu,8180bed85c117cc2f02d830a,一茗茶苑·品品香·曦瓜茗茶(东四店),朝阳门内大街288号凯德华玺底商110号,北京市,北京市,东城区,15646500078,unknown,
baidu,3885f46c84cd0fb7220220a6,北京人民艺术剧院-北京国际戏剧中心(曹禺剧场),王府井大街22号院内东南角,北京市,北京市,东城区,,unknown,
baidu,e85e2527b6cf615395f08cd0,首都剧场,王府井大街22号,北京市,北京市,东城区,"(010)65249847,(010)65250996",unknown,
baidu,8f3e2c7eca4224bf246e9810,下城广场,北京市东城区朝阳门街道南水关胡同新华小学东侧约210米,北京市,北京市,东城区,,unknown,
baidu,1060ca5e8583874be01103c5,北京港澳中心瑞士酒店-行政酒廊,北京市东城区东直门街道朝阳门北大街2号港澳中心瑞士酒店16层,北京市,北京市,东城区,,unknown,
baidu,faac3b25abefdb4c38221ccd,音乐时间ktv,北京市东城区朝阳门南竹竿胡同6号北京INN3号楼B1楼,北京市,北京市,东城区,,unknown,
baidu,e44156d5085b83292fb9089e,青蓝剧场,东四十条24号青蓝大厦三层青蓝剧场（近保利大厦）,北京市,北京市,东城区,"010-84021155,13601110481",unknown,
baidu,154d31fd009bd173b05c6a13,颐馨茶艺馆(豆瓣胡同小区东区店),豆瓣胡同2单元2号楼,北京市,北京市,东城区,,unknown,
baidu,3c61abdef9bb3b73e60738dc,子龙修脚部,东四十三条甲16号,北京市,北京市,东城区,,unknown,
baidu,65f802f7eea6c65b2efaa781,布美手工定制,北京市东城区月光胡同5-1号,北京市,北京市,东城区,,unknown,
baidu,eb5dd2bee2424ec1c27da22e,野上家,礼士胡同甲三十四号院,北京市,北京市,东城区,,unknown,
baidu,a88d8f50a650c30c100daa67,猫头鹰喜剧,北京市东城区东四北大街甲383,北京市,北京市,东城区,17521650056,unknown,
baidu,00609070d2be19e093114c25,地质礼堂(东城区),东中街58号美惠大厦A座801室,北京市,北京市,东城区,(010)65546116,unknown,
baidu,9c58a2d6db816992f8dc858c,保利剧院御爵八音盒精品店,北京市东城区东直门南大街14号保利大厦1层,北京市,北京市,东城区,,unknown,
baidu,ee02de165087f9cf2db908b0,槐轩,北京市东城区朝阳门内大街朝阳首府南3门,北京市,北京市,东城区,18210079623,unknown,
baidu,fd714912dcfabcebcae33c09,清木天韵皮肤管理中心,朝阳门大街8号首府2楼8号,北京市,北京市,东城区,,unknown,
baidu,c3ee6ec09eff2c629222e016,五福茶舍(朝阳门店),吉庆里蓝筹名座B座2层14-15号,北京市,北京市,朝阳区,13810661701,unknown,
baidu,9d2e34009cfd4fb0b64f54c2,旺吉号茶馆,东四头条侯宝林故居旁,北京市,北京市,东城区,"16600020977,18187191545",unknown,
baidu,f1876188a0833bcab426550b,火虫手工,东四四条77号院内,北京市,北京市,东城区,13161011807,unknown,
baidu,0ba8ab61a51b4a425d0d0253,HERE,东四南大街68号,北京市,北京市,东城区,13269836070,unknown,
baidu,2e00c5ddeb887b05d7851f78,北京港澳中心瑞士酒店-馥澜吧,北京市东城区东直门街道朝阳门北大街2号北京港澳中心瑞士酒店1层,北京市,北京市,东城区,,unknown,
baidu,a81b45b76507f095ddee8b0c,茶以印心(瑞士公寓店),瑞士公寓B座b907室,北京市,北京市,东城区,18513985655,unknown,
baidu,844e893575e8c7371329356c,海友酒店(北京朝阳门店),朝阳门豆瓣胡同2号楼2室,北京市,北京市,东城区,(010)84077796,unknown,
baidu,55fa2c0b7206ea341ce99935,北京国际饭店,北京市东城区建国门内大街9号,北京市,北京市,东城区,(010)65126688,unknown,
baidu,477cb6213346a3fb5d0d0203,汉庭酒店(北京东四路口店),朝阳门内大街271号,北京市,北京市,东城区,"(010)84050380,(010)84050887",unknown,
baidu,8fa14fc39faf3d77f7eafc07,7天酒店(南锣鼓巷店),北京市东城区东四六条45号,北京市,北京市,东城区,(010)84017688,unknown,
baidu,a8bad29712a5be07bda822fb,青季酒店MINI(北京东四十条地铁站店),东直门南小街20号-1,北京市,北京市,东城区,(010)84035106,unknown,
baidu,d23ef7f7cab43530cae33c1c,北京都市之星精品酒店,朝阳门内大街216号,北京市,北京市,东城区,(010)65284568,unknown,
baidu,52cf440aaa547422c909f0a4,北京时尚港湾快捷酒店,东四北大街486号,北京市,北京市,东城区,(010)84039789,unknown,
baidu,84b0d2ac2ae7914be215f916,希雅酒店(北京东四地铁站店),北京市东城区东四街道月牙胡同12号,北京市,北京市,东城区,(010)64040208,unknown,
baidu,fd4fa671d301025af8dc85f6,速8酒店(北京朝阳门地铁站工体店),新中街68号8号楼8-3,北京市,北京市,东城区,(010)85611656,unknown,
baidu,7c5489ac90e719fe5ebe864f,布丁酒店(北京灯市口地铁站店),东四南大街80号,北京市,北京市,东城区,(010)59477988,unknown,
baidu,c32a4393b3f21a9040024511,99优选酒店(北京站协和医院金宝街店),朝阳门南小街16-1,北京市,北京市,东城区,(010)65255307,unknown,
baidu,cbfd5bc27b78cdfcf82d619f,厚道酒店(北京朝阳医院工体店),朝外吉祥里202号楼,北京市,北京市,朝阳区,"(010)65306262,(010)65513738",unknown,
baidu,c9c094c3f1b30b4a4d776efa,99优选酒店(北京雅宝路儿研所店),雅宝路7号,北京市,北京市,朝阳区,(010)85628578,unknown,
baidu,a472a59937f6c8db095cb32f,喆啡酒店(北京朝阳门地铁站工体店),朝阳门外大街19号楼华普国际大厦一层,北京市,北京市,朝阳区,(010)85616042,unknown,
baidu,4a4157946b005676b9df8f36,北京华信宾馆,朝阳门内南小街51号,北京市,北京市,东城区,(010)65274369,unknown,
baidu,64c1ca66248f8135a1046472,汉庭酒店(北京东四地铁站店),东四北大街537号,北京市,北京市,东城区,(010)64051122,unknown,
baidu,7aea43b75f0ee3e17c29bd71,北京王府井希尔顿酒店,王府井东街8号北京王府井希尔顿酒店1层大堂,北京市,北京市,东城区,(010)58128888,unknown,
baidu,850815e173eb168243e19207,北京同力旅馆(北京中医院店),山老胡同3号,北京市,北京市,东城区,(010)64029976,unknown,
baidu,083a55fa8945e560256e98ae,王府半岛酒店The Peninsula Beijing(金鱼胡同店),东华门街道王府井金鱼胡同8号(近地铁5号线/1号线/王府井步行街),北京市,北京市,东城区,(010)85162888,unknown,
baidu,ec4c9c3f9fae8b5bdaeced5c,wohkoon者行孙青年酒店(北京三里屯工体店),工体东路20号2层,北京市,北京市,朝阳区,"(010)65056890,18519336890",unknown,
baidu,96b672aa53a1476cce04ef0a,北京丽晶酒店,北京市东城区金宝街99号,北京市,北京市,东城区,(010)85221888,unknown,
baidu,05dd7d5f2cce4b18ad080f34,北京靓美快捷酒店(东直门医院东四十条地铁站店),东中街铜厂子46号楼,北京市,北京市,东城区,(010)64166488,unknown,
baidu,2527be1e3d555baa4afc8d02,北京亚洲大酒店,北京市东城区新中西街8号,北京市,北京市,东城区,(010)65007788,unknown,
baidu,805bc638491bc22d902ca359,如家精选酒店(北京朝阳门地铁站店),朝阳门内北小街仓南胡同14号院1号楼,北京市,北京市,东城区,(010)64048900,unknown,
baidu,f2aea5b5de159cc51ff74dbe,wohkoon者行孙青年酒店(北京建国门地铁站首都儿研所店),北京市朝阳区雅宝路6号雅宝大厦1号楼2楼,北京市,北京市,朝阳区,15601216875,unknown,
baidu,be54cde97d70074178f79601,春豪宾馆(北京王府井协和医院店),王府井大街大鹁鸽胡同17号,北京市,北京市,东城区,(010)65259950,unknown,
baidu,a6c48f115e772d61c9e33cba,锦江之星(北京王府井步行街店),北京市东城区灯市口大街75号,北京市,北京市,东城区,(010)85111100,unknown,
baidu,c3133799b62025b4ebe58225,全季酒店(北京三里屯工体西门店),王家园胡同16号,北京市,北京市,东城区,(010)85633599-0,unknown,
baidu,39d43f82c6103b9fa8059d35,北京华尔道夫酒店,金鱼胡同5-15号华尔道夫酒店1层,北京市,北京市,东城区,(010)85208989,unknown,
baidu,8ab0dfc4ee04410fd8eced0a,北京励骏酒店,北京市东城区金宝街92号,北京市,北京市,东城区,(010)85113388,unknown,
baidu,3da907f36bd8884ab320a84f,北京保利大厦酒店,北京市东城区东直门南大街14号,北京市,北京市,东城区,(010)65001188,unknown,
baidu,28efc97b833080e8f503b8f9,汉庭酒店(北京东直门店),东直门外大街42号宇飞大厦5层,北京市,北京市,东城区,(010)64664478,unknown,
baidu,73d24c703df3f62d5cbe8608,北京璞瑄酒店,北京市东城区王府井大街1号,北京市,北京市,东城区,(010)53936688,unknown,
baidu,00f1c7fbbd07c706c056ac02,海友良品酒店(北京东四地铁站店),东四南大街33号,北京市,北京市,东城区,(010)65231018,unknown,
baidu,ea4a3dc9704481374e554702,格林豪泰智选酒店(北京东城区北新桥地铁站簋街店),雍和宫大街北新桥头条胡同56号,北京市,北京市,东城区,(010)84066811,unknown,
baidu,4cf8d24eba4845fd9cf77914,北京朝阳悠唐皇冠假日酒店,北京市朝阳区三丰北里3号,北京市,北京市,朝阳区,(010)59096688,unknown,
baidu,c7fb04bd5652740cfa0cadcb,格林豪泰(北京中医医院南锣鼓巷后海店),北京市东城区地安门东大街41号,北京市,北京市,东城区,"(010)51491777,17611532667",unknown,
baidu,d52831f9bea3f5be2efaa700,丽恩酒店(北京工体东四十条地铁站店),新中西街甲3号,北京市,北京市,东城区,"(010)65531503,(010)65531516",unknown,
baidu,beabdbf48c5cb4817069d30a,北京诺富特和平宾馆,北京市东城区金鱼胡同3号,北京市,北京市,东城区,(010)65128833,unknown,
baidu,79ce2a0dab855197ebe5829c,小巢精品酒店(北京朝阳医院东大桥地铁站店),工体东路20号春平广场四层,北京市,北京市,朝阳区,"(010)53673370,(010)53673371,13522679237",unknown,
baidu,2ad32cc3af5dc5969d95de07,7天优品酒店(北京东直门机场快轨站店),东直门外大街察慈小区9号楼(东门),北京市,北京市,东城区,(010)64622378,unknown,
baidu,161a0ed28da0f4495cd4fe07,北京东方花园饭店,北京市东城区东直门南大街6号,北京市,北京市,东城区,(010)64168866,unknown,
baidu,8de7f80b94f9abd9b45f1eef,汉庭酒店(北京王府井步行街店),王府井大街20号,北京市,北京市,东城区,(010)85188669,unknown,
baidu,99418f8e3a8b1ab6270bd0b0,悠家酒店式公寓(北京日坛店),日坛北路17号2号楼2单元,北京市,北京市,朝阳区,13121767577,unknown,
baidu,05dd7d5f2cbb4b18ad080f0b,辉宿酒店(三里屯工体店),工人体育场东路甲6号,北京市,北京市,朝阳区,(010)65957288,unknown,
baidu,86ce4873b17f9785b64f54ba,速8精选酒店(北京工体三里屯春秀路店),东直门外大街春秀路25号,北京市,北京市,朝阳区,(010)64686670,unknown,
baidu,9bebe271bcd2bb71213bf214,北京福庭酒店,北京市朝阳区雅宝路街甲5号,北京市,北京市,朝阳区,(010)85628888,unknown,
baidu,173dd6007966fb1cd82f280f,北京日坛宾馆,北京市朝阳区日坛路1号,北京市,北京市,朝阳区,(010)85635588,unknown,
baidu,f72a3044cde53c10d518b747,壹色四合院酒店(北京天安门王府井店),东四南大街演乐胡同70号,北京市,北京市,东城区,"(010)85173948,18515945191",unknown,
baidu,130418825625d04c3b221c0a,美程青居酒店(王府井协和医院店),灯市口大街57号,北京市,北京市,东城区,(010)53688288,unknown,
baidu,613b4d2293d21e50220262e0,向日葵酒店(北京三里屯工体店),工人体育场西路8号楼4层,北京市,北京市,朝阳区,(010)65519166,unknown,
baidu,f3fb7c8330dacbc3631809bf,北京东方茂酒店(簋街北新桥地铁站店),北京市东城区交道口东大街101号,北京市,北京市,东城区,(010)60175777,unknown,
baidu,5e2438dce9bdc5e48a36ee07,非繁城品酒店(北京王府井南锣鼓巷店),北京市东城区东四北大街320-1号,北京市,北京市,东城区,(010)64042944,unknown,
baidu,c95887e2ba5c5fb9eb1e971d,秋果四合院酒店(北京王府井协和医院店),东四南大街礼士胡同64号,北京市,北京市,东城区,13240790890,unknown,
baidu,be6617026c95727aa6da39a3,吉祥生活旅店(北京雍和宫张自忠地铁站店),东四十二条辛寺胡同12号,北京市,北京市,东城区,13269985712,unknown,
baidu,381796fb0789397f223bf220,青季酒店MINI(北京王府井灯市口地铁站店),东四南大街演乐胡同88号,北京市,北京市,东城区,(010)65231677,unknown,
baidu,e0be783e2f111c1102294fa0,佳龙酒店(北京朝阳门总店),北京市东城区朝内大街75号院B座,北京市,北京市,东城区,(010)64038888,unknown,
baidu,161a0ed28ddff4495cd4fe32,中青记者之家饭店,海运仓胡同2号,北京市,北京市,东城区,"(010)64098718,(010)64098719,(010)64098900",unknown,
baidu,e2c734e40f53534415a1905d,智选假日酒店(东直门店),北京市东城区春秀路1号,北京市,北京市,东城区,(010)64169999,unknown,
baidu,8313c073417a26f69ee321ab,北京君来江南酒店,东四十条34号,北京市,北京市,东城区,(010)51018888,unknown,
baidu,2b4502fcf566f44f36b06c3b,馨香雅苑公寓(北京天安门王府井店),朝阳门内大街288号（1129室办理入住）,北京市,北京市,东城区,"(010)64162899,15810865388",unknown,
baidu,ef23a983c662b7921df74d55,曜石酒店(北京王府井东四地铁站店),东四北大街343号,北京市,北京市,东城区,"(010)83126660,(010)83128887",unknown,
baidu,5109cb9c916633e79f09f76b,北京知还国风四合院酒店,东四二条1号,北京市,北京市,东城区,18800065989,unknown,
baidu,6ee0102056b56df652e5c502,北京丽亭酒店,北京市金宝街97号,北京市,北京市,东城区,(010)85221999,unknown,
baidu,6b8cf5b7e32ec27b31870a2b,东四78号精品公寓,北京市东城区东四四条78号,北京市,北京市,东城区,(010)84061099,unknown,
baidu,435d7aeaf57aae2c5abbbc2f,北京天伦松鹤大饭店,北京市东城区灯市口大街88号,北京市,北京市,东城区,(010)58168999,unknown,
baidu,aa40108b9e59260cc5effb05,宽街宾馆(北京中医院店),老山胡同九号,北京市,北京市,东城区,"(010)84039456,13683161789",unknown,
baidu,7bfa08fc51693e6625d2bb06,景里红驿栈酒店(北京东直门三里屯店),东直门外春秀路太平庄10号院28号楼,北京市,北京市,朝阳区,15810188232,unknown,
baidu,2e00c5dd108d3461d7851f1a,北京阅微庄四合院特色酒店,北京市东城区东四四条37号,北京市,北京市,东城区,(010)64007762,unknown,
baidu,a05a49cfe372a024f4e73b14,北京快乐怡家商务酒店(王府井协和医院店),东四南大街本司胡同,北京市,北京市,东城区,(010)65281448,unknown,
baidu,bcd809457f6c5fc6aeb22a02,潮漫酒店(北京东直门簋街雍和宫店),东直门内大街15号2层,北京市,北京市,东城区,(010)84026977,unknown,
baidu,dffd631c6bdc1ca538221c6d,北京唐钢宾馆,北京市东城区海运仓胡同仓夹道7号,北京市,北京市,东城区,"(010)84073430,(010)84073492",unknown,
baidu,a328aee131aa2dd65e0d0289,行舍·礼院(北京王府井四合院店),朝阳门内南小街礼士胡同12号,北京市,北京市,东城区,(010)65212508,unknown,
baidu,96ad8a7920515d935810932a,新鲜酒店(北京站店),宝珠子胡同6号楼3层,北京市,北京市,东城区,(010)65282502,unknown,
baidu,eaf5a8850ea47140fea7789a,京茂古院酒店(北京王府井东四地铁站店),东四北大街368号,北京市,北京市,东城区,(010)66006618,unknown,
baidu,322f4cc1a940ee8e1029359e,北京加来酒店公寓(银河SOHO朝阳门地铁站店),东水井胡同11号楼6层7C07,北京市,北京市,东城区,13240063002,unknown,
baidu,43bff6dc629f04a0e215f908,秋朵酒店(北京王府井南锣鼓巷店),东四北大街228号,北京市,北京市,东城区,(010)64056886,unknown,
baidu,68303ccea3a5820cd23ce37e,映向城酒店(北京故宫店),人民市场西巷28号,北京市,北京市,东城区,(010)84015584,unknown,
baidu,6629adbec08b9cd20b69d936,雅诗国际酒店(北京朝阳门儿研所店),日坛北路19号雅宝城国际大厦15层,北京市,北京市,朝阳区,18500427755,unknown,
baidu,00130d92daac249eacee7a3f,北京悦轩四合院精品酒店,北京市东四二条1号(近东四地铁站B口、工人体育场),北京市,北京市,东城区,18800065989,unknown,
baidu,3056f48bf4ac3429b23c81bd,春天映向酒店(北京王府井南锣鼓巷店),东四九条78号,北京市,北京市,东城区,13051715632,unknown,
baidu,d219bb1dc658b392f50e773f,中航快捷酒店(北京东四店),北京市东城区月牙胡同25号,北京市,北京市,东城区,(010)64040208,unknown,
baidu,9ee7cc789e684b6916c90506,北京新红资红色主题四合院酒店,北京市东城区东四六条九号,北京市,北京市,东城区,(010)84018886,unknown,
baidu,87436933ca52d49acf06a426,文沁阁·自如寓,北京市东城区东四五条137号,北京市,北京市,东城区,13810674779,unknown,
baidu,b2a2549ba821b081c5effbbb,栖筑拾光四合院酒店(王府井店),北京市灯草胡同5号(近王府井、天安门),北京市,北京市,东城区,13811391125,unknown,
baidu,850815e173e4168243e19202,青蓝大厦(北京第七医学中心东四十条地铁站店),东四十条24号,北京市,北京市,东城区,(010)84021155,unknown,
baidu,2e00c5ddcd38111fd6851fb2,玉花香旅馆,北京市东城区东四十条34号,北京市,北京市,东城区,(010)84030608,unknown,
baidu,083a55fa89bee560246e9807,平安府宾馆,北京市东城区平安大街东四十条100号,北京市,北京市,东城区,(010)57075588,unknown,
baidu,8ff742c9a6f1f6eee856fab8,米诺卡酒店公寓(银河soho店),北京市南水关胡同INN4号楼D区7层7C07室(近悠唐购物中心，朝阳门地铁站),北京市,北京市,东城区,13611198817,unknown,
baidu,4a52f5b9ce0cd594f60e7721,寻梦小筑,北京市东城区东四八条42号,北京市,北京市,东城区,,unknown,
baidu,e6aaa196d663ccae0b1cc7f7,商旅智选北京INN公寓(北京朝阳门店),北京市东城区东水井胡同11号北京inn4号楼b812,北京市,北京市,东城区,,unknown,
baidu,4348002222618ce7adb22abd,海绵宝宝的家王府井店公寓(朝阳门内大街1号分店),北京市朝阳门内大街288号院-1号楼凯德华玺,北京市,北京市,东城区,,unknown,
baidu,04d39102887665883517dca3,北京巧思酒店,北京市东城区东四北大街343号矅石酒店原,北京市,北京市,东城区,,unknown,
baidu,796ce0f5c6cb8257adb22af1,乡寓青年社区(东四店),北京市东城区东四六条45号院北楼,北京市,北京市,东城区,,unknown,
baidu,4cf815699cf18f0440ab9a4f,东桥足道酒店,北京市东城区育群胡同巧思大厦,北京市,北京市,东城区,,unknown,
baidu,220f4d64bf11641909ccdd33,7天优品北京协和医院朝阳门东四地铁站店大堂,北京市东城区朝阳门街道朝阳门北小街甲190号,北京市,北京市,东城区,(010)85112563,unknown,
baidu,fa2dde25a12e48f6d92f28f8,天使房,北京市东城区东四九条88号共享季F2,北京市,北京市,东城区,,unknown,
baidu,6deee308fd88cc7329fc483b,北京顺捷短租公寓,北京市东城区张自忠路10号,北京市,北京市,东城区,,unknown,
baidu,4494fd37f370c4a69de321d3,SUPER CAR车美-养护体验中心,东四十条19号（南新仓地下停车场一层）,北京市,北京市,东城区,17710594587,unknown,
baidu,cf01d62ce03be4dec16c149f,峰桥汽车服务(工体店),北京市东城区潘家坡胡同1号西区7号楼,北京市,北京市,东城区,(010)65539090,unknown,
baidu,b2d3e2a00f00ddd29ee321c1,新保利大厦靓车工坊,朝阳门北大街1号新保利大厦B4,北京市,北京市,东城区,17718360125,unknown,
baidu,c9f58d2c24ac1f13c42ba181,8186·车盟汽车养护中心(银河SOHO店),银河SOHO-C座B2层,北京市,北京市,东城区,18510101238,unknown,
baidu,ecb5c3baea779b9b6d20b956,瀚海汽车美容服务中心(万邦大厦店),万邦大厦B2,北京市,北京市,朝阳区,15501292219,unknown,
baidu,d47f74b5a8ecc6378936ee77,周一周末汽车美容服务连锁(居然大厦店),东直门南大街甲3号居然大厦B2,北京市,北京市,东城区,"17602199305,17602199565",unknown,
baidu,352f7d4b9b6260e740afe611,艺车汇汽车美容(居然大厦店),东直门地铁站居然大厦地下车库B2层,北京市,北京市,东城区,13910560129,unknown,
baidu,e9a515c6c95a5996cf06a407,极氪空间(北京朝阳门),北京市朝阳区三丰北里2号楼01层F1-032\02层F2-049,北京市,北京市,朝阳区,18667089315,unknown,
baidu,ed528cc787476c21e31103ad,精洗车间,吉市口东路与吉市口八条交叉路口往北约50米,北京市,北京市,东城区,(010)65539090,unknown,
baidu,fae93236d2fe2568adb22ad9,特斯拉(北京来福士体验店),北京市东城区东直门南大街1号北京来福士中心01层12B/13号,北京市,北京市,东城区,(010)80937626,unknown,
baidu,44d3b16e959c5824eddfcaf5,北京晟众捷优汽车租赁服务有限公司,北京市东城区南竹杆胡同6号楼11层06,北京市,北京市,东城区,,unknown,
baidu,4d2d8e54053e51f9a2a934fc,卡迪卡汽车清洁美容专家,建国门内大街9号北京国际饭店地库P1室,北京市,北京市,东城区,"(010)65254608,15110082732,18600036161",unknown,
baidu,5779f8b0dea859ae095cb31b,北京骏东汽车销售服务有限公司,北京市东城区金宝街金宝大厦1层,北京市,北京市,东城区,,unknown,
baidu,ecdd6351dd1e71167ab55c7d,途虎养车工场店(北京张自忠路店),北京市东城区张自忠路10号华人一品大厦1层,北京市,北京市,东城区,15901450256,unknown,
baidu,458e754121c54e77c61b7543,车管部,北京市东城区海运仓胡同3号-2层211室,北京市,北京市,东城区,,unknown,
baidu,e820a32db789d1eff82213a3,宾利北京-三里屯(新耀莱集团),北京市朝阳区新东路幸福二村40号耀莱新天地底商LG1,北京市,北京市,朝阳区,010-84389825,unknown,
baidu,429f9b8c5f839b45276e9879,SuperNew车倍洁车体清洁护理(朝阳门店),三丰路悠唐购物中心B3层F区西出入口处,北京市,北京市,朝阳区,"13681437620,13910838978",unknown,
baidu,58d6aaf6f7e3463785420e2c,奥捷利STEK漆面保护膜(工体西路店),工体西路光彩国际公寓地库B3,北京市,北京市,朝阳区,13901201580,unknown,
baidu,e363347e2aa68f08343a717b,靓车汇(银座mall),东中街东方银座B4层出口处,北京市,北京市,东城区,13910216957,unknown,
baidu,8d5857b1e30bdbbbc2f1cf5f,北京即乐汽车服务有限公司,北京市东城区东四北大街107号科林大厦B座318号,北京市,北京市,东城区,,unknown,
baidu,76d2280633dc9fe99ee321a9,沃特美容洗车,交道口东大街北京东方茂酒店负2层（近南门）,北京市,北京市,东城区,18710285991,unknown,
baidu,7d417de7645848b1b7f42f47,美车堂(王府井in88店),王府井大街88号B3,北京市,北京市,东城区,13522767474,unknown,
baidu,344a4eed62bb7828465726a4,北京诚饰之星汽车装饰有限公司,东直门外大街46号天恒大厦B2,北京市,北京市,东城区,17310413839,unknown,
baidu,f36f69cf815cb7716d20b9e9,管家洗车服务中心(新中街店),北京市东城区新中街18号阳光都市地下停车场入口处,北京市,北京市,东城区,13911727102,unknown,
baidu,f62eefa96b037d6288fc06ac,美车堂(侨福芳草地店),东大桥路9号地下二层商业P2层（东大桥地铁站）,北京市,北京市,朝阳区,,unknown,
baidu,012091a6ef3bae10abf0cd17,TGfan's club,建国门内大街11号长安太和一期B4,北京市,北京市,东城区,13910806223,unknown,
baidu,ba8ce11b746d8e5ab34c49b0,沈阳华晨金杯汽车公司北京分公司,朝外大街20号(近朝阳门)联合大厦商务楼F18-1803,北京市,北京市,朝阳区,,unknown,
baidu,0d134e7b667405a6ae04579d,天猫养车(百子湾店),北京市朝阳区百子湾路11号,北京市,北京市,朝阳区,13260065492,unknown,
baidu,fbdc92afeb9e8034c2f1cfc1,星光美车工作室,建国门内大街11号长安太和一期B4,北京市,北京市,东城区,13601398794,unknown,
baidu,44836f68b5d352d6ca09f035,车迟国,北京市东城区王府井大街74号王府井天主教堂副楼高富诗酒店一楼,北京市,北京市,东城区,,unknown,
baidu,c9e15f847c79b22ab9df8f08,U2·车衣改色养护中心(金宝街励骏店),金宝街92号励骏酒店停车场B3层,北京市,北京市,东城区,13520289219,unknown,
baidu,e41d0771e21db589593ac876,银河SOHOGALASY,北京市东城区朝阳门南竹竿胡同2号银河sohoD座B2,北京市,北京市,东城区,,unknown,
baidu,ca75d3376c88c4b32db908bf,速达汽车救援补胎换胎换电瓶搭电(金宝街店),北京市东城区金宝街春松胡同8号,北京市,北京市,东城区,"(010)65231830,13910925381",unknown,
baidu,24b6716263931dab2afc4841,北京美合振永汽车贸易有限公司,北京市朝阳区新东路38~40号首开幸福广场40号楼1层,北京市,北京市,朝阳区,(010)84389720,unknown,
baidu,f6cbc834b4534d3a430245d0,Rolls Royce Motor Cars,北京市东城区金宝街励骏酒店,北京市,北京市,东城区,,unknown,
baidu,2e91559fb704e0b76f476024,极星汽车销售有限公司北京朝阳分公司,北京市朝阳区东大桥路9号楼1层L1-18单元,北京市,北京市,朝阳区,,unknown,
baidu,7ca6640d64ba3d42276e9891,A736KAPRO(日坛国际贸易中心店),北京市朝阳区日坛北路17号日坛国际贸易中心,北京市,北京市,朝阳区,18511837888,unknown,
baidu,9faa7641f2d8b188cac3db98,人车家体验中心,北京市东城区北新桥街道东直门南大街5号,北京市,北京市,东城区,,unknown,
baidu,9dc75d0427bbf454d9d891c9,87洗车美容养护,天润财富中心地下停车场,北京市,北京市,东城区,,unknown,
baidu,20eb1589e1625b795f17c392,运通超豪华中心(金宝汇购物中心店),金宝街88号金宝汇购物中心F1,北京市,北京市,东城区,18600074000,unknown,
baidu,a6179db658846c7ca8059dc8,87EIGHT SEVEN汽车贴膜BOP隐形车衣AX改色膜轮胎,天润财富中心地下停车场,北京市,北京市,东城区,13683239477,unknown,
baidu,5efa9dae4fcacf149cf7790d,TMT汽修补胎搭电拖车道路救援,北京市东城区东四十条甲22号1号楼7层B818A,北京市,北京市,东城区,15655297602,unknown,
baidu,e1a801980860298f1d58006c,嘎嘎租车(朝阳门店),北京市东城区朝阳门内大街2号,北京市,北京市,东城区,,unknown,
baidu,8514c750a9fadb4bc7f0253d,嘎嘎租车(中国美术馆店),北京市东城区美术馆东街24-1号,北京市,北京市,东城区,,unknown,
baidu,e09c778229840a3e3be4a6e7,中国人民解放军总医院第七医学中心,北京市东城区东四十条南门仓5号,北京市,北京市,东城区,(010)66721629,unknown,
baidu,d8424eb9f5417e902811d13b,中国人民解放军总医院第七医学中心-神经外科,北京市东城区东四十条5号南楼7楼,北京市,北京市,东城区,(010)84008156,unknown,
baidu,eeb74b5ebc6f80deb04c4931,中国人民解放军总医院第七医学中心-门诊部,北京市东城区东四十条南门仓5号,北京市,北京市,东城区,,unknown,
baidu,8f6e223a9c83502217c8f652,东四保健科,北京市东城区罗家大院1号,北京市,北京市,东城区,"(010)84046073,(010)84077280",unknown,
baidu,4d19a8f02602bb5839e4a65f,中国人民解放军总医院第七医学中心-南楼,北京市东城区南门仓胡同中国人民解放军总医院第七医学中心,北京市,北京市,东城区,(010)66721629,unknown,
baidu,a1baa6023513f066d618b731,中国人民解放军总医院第七医学中心-住院部,北京市东城区南门仓5号,北京市,北京市,东城区,,unknown,
baidu,a60d232116f783b6d2f49ec6,医疗器械护理用品,北京市东城区南门仓胡同6号楼6-3室,北京市,北京市,东城区,(010)84068295,unknown,
baidu,f5b184521fef60ea7adbd220,北京东洲中医门诊部,北京市东城区豆瓣胡同2号楼一层2-4号,北京市,北京市,东城区,,unknown,
baidu,e60d4c10b6951dc55b109394,八一儿童医院-西楼,北京市东城区东四六条南门仓5号北京军区总医院,北京市,北京市,东城区,,unknown,
baidu,7e6b428b3aa755b8d72ce203,中国人民解放军总医院第七医学中心-药剂科,北京市东城区东四六条南门仓5号北京军区总医院,北京市,北京市,东城区,,unknown,
baidu,bcb12b596e659a06c51b75c7,八一儿童医院-发热门诊,北京市东城区东四六条南门仓5号,北京市,北京市,东城区,,unknown,
baidu,1821a7bfa919892246e27428,北大医疗脑健康儿童成长之家(北京工体中心),北京市东城区朝阳门北大街8号富华大厦E座3楼,北京市,北京市,东城区,4000812698,unknown,
baidu,3e820cc66eeaa787871541ad,八一儿童医院,北京市东城区东四六条南门仓5号,北京市,北京市,东城区,(010)66721117,unknown,
baidu,ef773a0f9750472d220220c0,北京松乔门诊部(东四总部),北京市东城区东四十条甲22号南新仓大厦B座,北京市,北京市,东城区,(010)64006702,unknown,
baidu,5c2dc21d110514046fc02cc0,首都医科大学中医门诊部,北京市东城区东四十条27号,北京市,北京市,东城区,(010)84070499,unknown,
baidu,623ce922e9e8a1c0c336446a,真优美医疗美容,北京市东城区朝阳门内大街130号,北京市,北京市,东城区,"(010)65280198,(010)65309820",unknown,
baidu,11a8ca687e4e51888a36ee97,东城区东四街道南门仓社区卫生服务站,北京市东城区东城区南门仓胡同1号罗家大院,北京市,北京市,东城区,(010)84068240,unknown,
baidu,e8a26263b60d355458f6be96,中国人民解放军总医院第七医学中心-急诊,北京市东城区南门仓胡同5号,北京市,北京市,东城区,,unknown,
baidu,f35bfc0e5ccc15d6077ce81c,北京口腔工作者协会东城区第二口腔门诊部,北京市东城区朝内大街豆瓣胡同5-3号底商,北京市,北京市,东城区,"(010)84067206,(010)84067306",unknown,
baidu,7e5ca9e378a1b702badf8ff1,东城区朝阳门街道朝内头条社区卫生服务站,北京市东城区朝内大街97号后门,北京市,北京市,东城区,(010)64015610,unknown,
baidu,f8591281013b36c97dc87668,金匮(北京)中医门诊部,北京市东城区豆瓣胡同3号楼3-1号,北京市,北京市,东城区,(010)84065346,unknown,
baidu,4f085e0f4eed79153a04b181,北京中医药大学东直门医院,北京市东城区海运仓5号,北京市,北京市,东城区,(010)84013276,unknown,
baidu,1ca22de8efcbcafa9d95ded5,首都国医名师馆,北京市东城区东四十条27号,北京市,北京市,东城区,(010)84070499,unknown,
baidu,a5097bfaca0fa77af03cbac5,北京市东城金针研究学会海运仓中医门诊部,北京市东城区东直门内南小街20号楼-1号,北京市,北京市,东城区,(010)84070345,unknown,
baidu,cb052655e7b34a749868b413,朝阳区朝外街道吉祥里社区卫生服务站,北京市朝阳区朝外大街吉祥里西区南门旁,北京市,北京市,朝阳区,(010)65526098,unknown,
baidu,7fa1151bfea02f0dd52ce20e,影像楼,北京市东城区南门仓5号,北京市,北京市,东城区,,unknown,
baidu,df0dc5dedbc008c2f842b2e1,国医之家,北京市东城区南小街20号楼,北京市,北京市,东城区,(010)84070345,unknown,
baidu,4686af226dcc0f500482c2e7,北京朝内小街育仁堂中医诊所,北京市东城区朝阳门南小街2号楼1层111号,北京市,北京市,东城区,(010)85117865,unknown,
baidu,f7477920ea6a18e64354d7f6,北京市东城区青少年健康中心,东四九条49号(张自忠路地铁站C东南口步行440米),北京市,北京市,东城区,,unknown,
baidu,6215b8155dfac513b55f1ec7,北京上上相医疗美容诊所,北京市东城区新中西街工人体育场北路66号瑞士公寓E座3层,北京市,北京市,东城区,(010)65514548,unknown,
baidu,db6b55a783306bee8bf15d71,北京安然缘医疗美容诊所,北京市东城区东直门南大街9号华普花园C300号,北京市,北京市,东城区,,unknown,
baidu,07287aaf1edbd2cb2806cecf,清木整形(朝阳门总部),北京市东城区朝阳门内大街8号,北京市,北京市,东城区,4009602002,unknown,
baidu,2104435d609ff934306212f3,东城区社区卫生服务管理中心,北京市东城区朝阳门内大街192-1号,北京市,北京市,东城区,(010)65125503,unknown,
baidu,887788d1f221b9e30869d95e,北京市东四中医医院门诊部,北京市东城区南弓匠营胡同东4小区(南2门)西南侧约40米,北京市,北京市,东城区,,unknown,
baidu,d6df91c1b173f36af7b916c0,东城区东四街道东四社区卫生服务站,北京市东城区东四北大街东四六条甲62号,北京市,北京市,东城区,(010)64017470,unknown,
baidu,b73c3df5bf44741548cc4adb,北京花皇医疗美容诊所,北京市东城区东直门南大街14号保利大厦写字楼M012(010-017),北京市,北京市,东城区,(010)65010291,unknown,
baidu,9ee7cc78f03ebd7016c905c0,北京市东城区中小学卫生保健所,北京市东城区东四九条49号,北京市,北京市,东城区,,unknown,
baidu,badf8e930bab13193ee231a0,中国人民解放军总医院第七医学中心-泌尿外科门诊,北京市东城区仓南北巷北口西,北京市,北京市,东城区,,unknown,
baidu,1cbe773ae60fbc3c902ca326,东城区北新桥街道海运仓社区卫生服务站,北京市东城区东四十条南颂年胡同3号楼,北京市,北京市,东城区,(010)84073206,unknown,
baidu,bf4420cc39a10bd888fc06f6,正欣堂中医诊所,北京市东城区东中街58号美惠大厦a座1层,北京市,北京市,东城区,(010)84504529,unknown,
baidu,edd64ce136e669883ee231f8,北京爱多邦医疗美容诊所,北京市东城区朝阳门内大街8号朝阳首府1层109室,北京市,北京市,东城区,,unknown,
baidu,49aee5272632e4753be4a6f8,阳光走廊,北京市东城区南门仓胡同5号中国人民解放军总医院第七医学中心2层,北京市,北京市,东城区,,unknown,
baidu,3fd50e2107e2af186fc02c80,北京中医药大学东直门医院(国际部),北京市东城区东四北大街279号,北京市,北京市,东城区,(010)84012662,unknown,
baidu,803708f10b0cfe60018972c2,北京市东四中医医院,北京市东城区东四六条甲62号,北京市,北京市,东城区,"(010)84046478,(010)84049919",unknown,
baidu,923ffd004f507daed82f28ee,东城区东直门社区卫生服务中心,北京市东城区王家园胡同37号院1号楼一层,北京市,北京市,东城区,(010)65519556,unknown,
baidu,8d8189385a0bee48343a7171,海元岛海参行,朝阳门内大街216-2号(东四地铁站C东南口步行350米),北京市,北京市,东城区,(010)65136351,unknown,
baidu,c8e8f633b48d746cab0dd8f9,北京康尔癌症药物研究所,北京市东城区朝阳门内大街139号,北京市,北京市,东城区,,unknown,
baidu,046edc4838954b2c96ca0755,北京建国门口腔诊所,北京市东城区朝阳门南小街8号楼,北京市,北京市,东城区,(010)58642995,unknown,
baidu,cc63e6580f6a6ce51d58000a,首都名医研修院,北京市东城区北新桥街道东四十条27号,北京市,北京市,东城区,,unknown,
baidu,c7fb04bd4350090cfa0cadc5,中国中医科学院针灸医院,北京市东城区东直门内南小街16号北新仓胡同18号,北京市,北京市,东城区,"(010)64031166,(010)64031169",unknown,
baidu,b3e6d7cb531d43d471210b1b,北京大学口腔医院第五门诊部,北京市朝阳区朝阳门外大街吉庆里14号佳汇国际中心A座305室,北京市,北京市,朝阳区,,unknown,
baidu,7974cc69d8892a5a2b201aa9,北京朝阳门中西医结合医院,北京市朝阳区朝阳门南大街12号,北京市,北京市,朝阳区,010-65120097,unknown,
baidu,2ad32cc3ae19c2969d95decb,北京市朝阳区中医医院,北京市朝阳区工人体育场南路6号,北京市,北京市,朝阳区,(010)85925299,unknown,
baidu,d4034eb365c8deefc03644fc,北京市隆福医院,北京市东城区美术馆东街18号院,北京市,北京市,东城区,4000601129,unknown,
baidu,798e18f7ae6a9f76b5f42fcf,中国人民解放军总医院第七医学中心-发热门诊,北京市东城区东四十条南门仓5号,北京市,北京市,东城区,,unknown,
baidu,84df2d6d72f3c92974026984,北京东宫美容整形外科诊所,北京市东城区东四十条72号,北京市,北京市,东城区,,unknown,
baidu,ad43e5177784e36ebda2400d,北京中医药大学东直门医院-发热门诊,北京市东城区海运仓5号,北京市,北京市,东城区,(010)84013693,unknown,
baidu,64ff3be1fa1220a290114cc4,金象大药房(东兴店),北京市东城区豆瓣胡同5号楼5-1号,北京市,北京市,东城区,(010)84069618,unknown,
baidu,4c09630c19fd72923be4a6f0,祝信康医疗器械,北京市东城区北门仓胡同6-8号,北京市,北京市,东城区,,unknown,
baidu,738f6fa6acec3c547adbd263,首都医科大学附属首都儿童医学中心,北京市朝阳区雅宝路2号,北京市,北京市,朝阳区,(010)65612345,unknown,
baidu,6ee01020480c6bf653e5c5f5,北京市东城区妇幼保健计划生育服务中心(北院区),北京市东城区交道口南大街136号,北京市,北京市,东城区,(010)64043259,unknown,
baidu,593850fb004c9120df1e5228,中国医学科学院北京协和医院-门诊楼,北京市东城区帅府园1号,北京市,北京市,东城区,"(010)69151188,(010)69156114",unknown,
baidu,15ed53ce4be8ec299222e027,北京协和医院(东单院区)-急诊,北京市东城区帅府园1号,北京市,北京市,东城区,(010)69151188,unknown,
baidu,8c12d61c816ee1e382a12e92,首都医科大学附属北京中医医院,北京市东城区美术馆后街23号,北京市,北京市,东城区,(010)84712345,unknown,
baidu,9beb9c04dd8330b6130daaf2,北京善方医院,北京市朝阳区工人体育场北路13号院4号楼,北京市,北京市,朝阳区,(010)64136688,unknown,
baidu,49fa28a7682fed1496f08c0c,北京和睦家医院(东城院区),北京市东城区西总布胡同46号明阳国际中心A座,北京市,北京市,东城区,4008919191,unknown,
baidu,009fd212a7c249dafbdc8581,东四中医医院口腔科,东城区东四六条北京市东四中医医院,北京市,北京市,东城区,,unknown,
baidu,91c13f932bdc3fe320f017f2,首都医科大学附属北京口腔医院王府井院区,北京市东城区王府井步行街锡拉胡同11号,北京市,北京市,东城区,,unknown,
baidu,e42b3dffa26586fcafb22a49,颐生中医,北京市东城区朝内南小街大方家胡同8号甲10号,北京市,北京市,东城区,,unknown,
baidu,210827b26e32b09b167643ca,北京协和医院(东单院区),北京市东城区帅府园1号,北京市,北京市,东城区,(010)69156114,unknown,
baidu,ecbd95df88a9738c223bf20d,轮椅制氧机拐杖家用医疗器械(银河SOHO商场B座店),北京市东城区南水关胡同银河SOHO,北京市,北京市,东城区,13126703339,unknown,
baidu,34059f9751cf634d70455bed,北京市第六医院,北京市东城区交道口北二条36号,北京市,北京市,东城区,(010)64035566,unknown,
baidu,57dec60691e52f74a1a93404,丹麦奥迪康助听器(朝阳门内大街),朝阳门内大街97-99号(朝阳门地铁站H西南口步行380米),北京市,北京市,东城区,,unknown,
baidu,433c39eb870ffb4e43ab9a01,北京科苑达医疗器械有限公司(朝阳门内大街店),北京市东城区朝阳门街道朝阳门内大街288号凯德华玺1层118室,北京市,北京市,东城区,(010)64061989,unknown,
baidu,a12baa409186294fe956faef,永安堂大药房(十条药店),北京市东城区东四十条邮局旁(陆军总院北门),北京市,北京市,东城区,,unknown,
baidu,db04e6f373675ba7f90cad7d,北京市东四中医医院-门诊部,北京市东城区东四六条甲62号,北京市,北京市,东城区,,unknown,
baidu,c2164a77cd51e3b42902e17e,药剂楼,北京市东城区东四十条南门仓5号解放军总医院第七医学中心,北京市,北京市,东城区,,unknown,
baidu,88d5bdc471de2d0e0869d9fd,文润古方,北京市东城区东直门南小街海运仓社区,北京市,北京市,东城区,,unknown,
baidu,012f2b0ad59814e87ab55c22,中国石油化工集团公司机关服务中心朝阳门医务室,北京市朝阳区朝阳门北大街22号,北京市,北京市,朝阳区,(010)59960120,unknown,
baidu,3be122e1c3f4594b1ef74dc4,康中福大药房(朝阳门南小街店),北京市东城区朝阳门南小街8号102室,北京市,北京市,东城区,"13241371806,13641118748",unknown,
baidu,91b17a0135be46c04afd3f9d,同仁堂药店(盛世医缘店),北京市东城区前拐棒胡同28号院1号楼-1层地下一商,北京市,北京市,东城区,15832428088,unknown,
baidu,2887a68064e199ee715e806f,同仁堂(东四十条店),北京市东城区东直门内南小街89号,北京市,北京市,东城区,(010)64457321,unknown,
baidu,caf55b56bfe620a0f6e73b0d,百康药房(朝外药店),北京市朝阳区朝外北街蓝筹名座A座底商,北京市,北京市,朝阳区,,unknown,
baidu,15a93810b574cfa415c8f6ef,永安堂宏仁堂药店(东四北街店),北京市东城区东四北大街434号,北京市,北京市,东城区,,unknown,
baidu,8fa14fc3eec7ca6ef7eafcc7,永安堂大药房(朝内药店),北京市东城区朝内大街243号,北京市,北京市,东城区,(010)84021648,unknown,
baidu,88070bcd728cd9f4921fc9ac,安湃声助听器(东四十条店),北京市东城区东四十条35号,北京市,北京市,东城区,4006013325,unknown,
baidu,871d27f4e4be487bd518b73e,唯愈健康管理中心,北京市东城区东四二条12号,北京市,北京市,东城区,,unknown,
baidu,b359c96ccb815d2a4f6d46ec,北京市红十字会999急救中心东四急救站,北京市东城区东四六条南门仓5号北京军区总医院,北京市,北京市,东城区,,unknown,
baidu,18fa600c802ffad981a12ee0,泰康拜博口腔(东城门诊部),北京市东城区朝阳门内大街8号,北京市,北京市,东城区,,unknown,
baidu,6ef4cae3a885425487330462,北京诚和口腔诊所,北京市东城区南竹杆胡同1号3层310室,北京市,北京市,东城区,(010)84216429,unknown,
baidu,1eeed54648f3e7ebb4147fed,艳玲口腔,北京市东城区朝内大街216-7号,北京市,北京市,东城区,(010)65597988,unknown,
baidu,fd007c5eebebe06ca8f729c0,北京京达康口腔诊所,北京市东城区东直门内南小街18-11号,北京市,北京市,东城区,(010)84074657,unknown,
baidu,3241914a387fc58c6e20b98d,瑞泰口腔(工体分院),北京市东城区工人体育场北路66号瑞士公寓1层,北京市,北京市,东城区,010-84825969,unknown,
baidu,c390ec9a723bf01c57bfffbc,佳美口腔(保利总部旗舰店),北京市东城区东直门南大街14号,北京市,北京市,东城区,4006509970,unknown,
baidu,3288eb0514b05eaf0482c21d,安信口腔,北京市朝阳门内南小街6号楼首层103室(鹰城商务酒店旁),北京市,北京市,东城区,"(010)65247456,(010)65271332",unknown,
baidu,86d08f782f3c771883a00c53,乐康联合宜健门诊部,北京市东城区南竹杆胡同2号银河SOHO-A座3楼10301号、10305号室,北京市,北京市,东城区,(010)65281933,unknown,
baidu,78f153d5f44371c59de321dd,北京康美佳口腔诊所,北京市东城区朝内南小街8号楼首层103号,北京市,北京市,东城区,"(010)58644119,13701204622",unknown,
baidu,63812b241a967bcc32870a51,北京世恩口腔诊所,北京市东城区朝阳门北大街8号富华大厦A座B1层5室,北京市,北京市,东城区,(010)65544378,unknown,
baidu,a7ae57677a85bd1d85420e82,北京急救中心东直门急救站,北京市东城区海运仓5号,北京市,北京市,东城区,,unknown,
baidu,25db14fff87b22e92dfaa710,慢病基金,北京市东城区朝阳门北大街8号富华大厦d座6号,北京市,北京市,东城区,,unknown,
baidu,2ec6e1f7ae4ada70c7f50d0b,北京怡和基业口腔诊所,北京市东城区南竹杆胡同3号银河SOHO购物中心F2,北京市,北京市,东城区,,unknown,
baidu,816f830d6f43442140024550,oticon,北京市东城区朝阳门内大街小区东北侧,北京市,北京市,东城区,(010)84019139,unknown,
baidu,d8d227fb52c12d9d3ee231ab,自然之声助听器(东直门南小街店),北京市东城区东直门内南小街18号楼1层18-6号,北京市,北京市,东城区,13260250904,unknown,
baidu,5fccaa4af902fb279cf779ff,典学学堂,北京市东城区仓南胡同2号楼4-1,北京市,北京市,东城区,18513198889,unknown,
baidu,88502ff1fcf90d8b03ec010f,童林启程艺术培训,北京市东城区北小街8-16号8号楼16号底商,北京市,北京市,东城区,,unknown,
baidu,63341952bf3cb1563904b1f2,育健帕里西青少年体能训练中心(朝阳门店),北京市东城区朝阳门内大街8号朝阳首府2层209-1、212-2号,北京市,北京市,东城区,18600056744,unknown,
baidu,b677b90bd9f44fa7ea12e448,五味堂中医研究院,北京市东城区南门仓胡同4号,北京市,北京市,东城区,(010)62375235,unknown,
baidu,7d80aac112a31831aeb22a08,壹加壹益学教育,北京市东城区东门仓胡同5-7号,北京市,北京市,东城区,18612140094,unknown,
baidu,5fd98f2d5bd79d39626858fa,新壹书院,北京市东城区东四六条53号,北京市,北京市,东城区,,unknown,
baidu,0c69b99db53b6317f319377d,东城区小学课程资源中心(史家小学基地),北京市东城区朝内北小街71号南侧,北京市,北京市,东城区,,unknown,
baidu,cccc0cb66dde400f9a00509b,和信击剑,北京市东城区朝阳门街道南竹杆胡同6号北京INN3号楼2楼,北京市,北京市,东城区,13810934403,unknown,
baidu,e15b9230bb77cd915d17c38c,博文轩启学馆,朝阳门街道新鲜胡同宜琴商务楼（朝阳门地铁站G东南口步行490米）,北京市,北京市,东城区,13141094334,unknown,
baidu,86a3f8ccfdf7ec645b109342,北京玖伍优加教育,前拐棒胡同28号1号楼,北京市,北京市,东城区,18510589895,unknown,
baidu,011c3f073e2de7af71455b87,卓逸跆拳道(东城店),东四十条南新仓商务大厦B座525室,北京市,北京市,东城区,18519596040,unknown,
baidu,b974742efe5ec7192cb17e1d,悦动康乒乓球(朝阳门店),北京市东城区朝阳门内大街77号,北京市,北京市,东城区,18511209083,unknown,
baidu,7fd1e96e48f6f585882fb5f7,东方启明星篮球培训(朝阳门校区),北京市东城区朝内大街8号朝阳首府8号院1层117号,北京市,北京市,东城区,4006709880,unknown,
baidu,ddd7f5d44858587aad0457c8,飞行者音乐学校,北京市朝阳区朝阳门外大街朝外蓝筹名座A座2楼1区,北京市,北京市,朝阳区,,unknown,
baidu,f9e4da57ee80f114d518b7b5,顺天府学教育中心(东四校区),北京市东城区东四街道东四北大街526号2层,北京市,北京市,东城区,,unknown,
baidu,381f8ef9db72a5824e55477b,学而思(张自忠路校区),北京市东城区东四北大街210号（张自忠路地铁站C出口旁边D出口正对面）,北京市,北京市,东城区,18519933590,unknown,
baidu,31f60372b55ad8b131870a1e,艺盟国际艺术院校申请中心,东四十条94号亮点设计中心4层,北京市,北京市,东城区,4008192990,unknown,
baidu,14022ad4322e0233626858f8,翰林书画院,北京市东城区东四十一条21号院,北京市,北京市,东城区,,unknown,
baidu,26f8acbc5b03a8fdc03644a9,人美美育学堂(东四校区),北京市东城区东四北大街390号,北京市,北京市,东城区,13269258821,unknown,
baidu,11b1ea9d4d3d87d32fb90876,小太阳舞蹈艺术中心(朝阳门店),东城区朝阳首府二层207-1号,北京市,北京市,东城区,4006885510,unknown,
baidu,94633c5da76e64001994c6b3,北京市东城区职工教育实践活动中心,北京市东城区演乐胡同15号,北京市,北京市,东城区,,unknown,
baidu,a919f3fc0c5cf98aebe582ba,鸿院·高端书画培训中心(朝阳门校区),北京市东城区朝阳门街道南竹杆胡同1号朝阳门SOHO底商107室,北京市,北京市,东城区,18601965890,unknown,
baidu,506efcc277617e36d23ce37a,作文报语言文字版采编研究中心,北京市东城区南小街51号,北京市,北京市,东城区,,unknown,
baidu,c4f6d782d42bea12e8e58214,北京建工培训中心,北京市东城区新中街11号,北京市,北京市,东城区,(010)64179323,unknown,
baidu,f867771bb897e43f276e9888,HiDance舞蹈(保利剧院校区),北京市东城区东直门南大街保利剧院二层,北京市,北京市,东城区,17812725617,unknown,
baidu,669775d0a4fdec5bfd0eb0fe,东四五条幼儿园,北京市东城区东四五条41号,北京市,北京市,东城区,(010)64040197,unknown,
baidu,ef30f543fa0cb3f6306212f5,晟格钢琴(银河SOHO店),北京市东城区南竹杆胡同2号银河SOHO购物中心F1,北京市,北京市,东城区,18810146875,unknown,
baidu,e0a1220754f62d4da104648d,天一跆拳道·少儿体能运动馆(朝阳门店),北京市东城区朝阳门SOHO-6楼608室,北京市,北京市,东城区,13126854544,unknown,
baidu,5eb195ad47867cacdb131853,乌鹭围棋教室(朝阳店),朝阳门银河sohoD座50228,北京市,北京市,东城区,(010)65210799,unknown,
baidu,41a2b21dab44bf4ec0364491,礼士传习馆,礼士胡同127号西2门,北京市,北京市,东城区,,unknown,
baidu,4311d1750e1c890b6040a937,秋之歌培训学校(银河SOHO购物中心店),北京市东城区南竹杆胡同2号银河Soho商场B座三层20311号,北京市,北京市,东城区,"18610743900,18611139425",unknown,
baidu,d84207a26d4ddd06c51b7533,季宣书院·书法艺考·书法篆刻培训,北京INN4号楼A区A302室,北京市,北京市,东城区,18611700261,unknown,
baidu,00891274ad235a1c8f1a8955,鸿艺舞蹈艺术培训中心(银河SOHO店),北京市东城区牌坊胡同甲7号银河SOHO座3层20315---20316室,北京市,北京市,东城区,"13161911855,13161911955",unknown,
baidu,0f801c9cd1882206c5effbb4,子弈围棋,北京市朝阳区朝阳门北大街天辰大厦309号,北京市,北京市,朝阳区,13811621092,unknown,
baidu,cac5fc7612c30ff32cb96df9,北京市第二中学(分校),北京市东城区南竹杆胡同81号,北京市,北京市,东城区,(010)65268716,unknown,
baidu,8cba4bb0043e9d84ad0457f9,东城区回民小学,北京市东城区朝阳门内大街124号,北京市,北京市,东城区,(010)65254529,unknown,
baidu,6719d0761552272a88fc0698,小小悦读俱乐部,北京市东城区富华大厦E座B1室,北京市,北京市,东城区,15901546428,unknown,
baidu,11273cae9796d824e3110325,水墨京华书画(东城店),北京市东城区东直门南大街9号华普花园D座一楼105室,北京市,北京市,东城区,15810323180,unknown,
baidu,1ee99ffe2239742494ca07fc,Active Masters国际课程培训中心,北京市朝阳区环二环绿道天辰大厦,北京市,北京市,朝阳区,,unknown,
baidu,40d73e8266ddc5e6d8d891ef,奇迹街舞(银河SOHO购物中心店),北京市东城区南竹杆胡同2号银河SOHO购物中心A座3层10315、10316号,北京市,北京市,东城区,13801025038,unknown,
baidu,d50e0b2cdbdd2541b11e36c2,壹方·有声音乐工坊,北京市东城区海运仓南里一区二号楼,北京市,北京市,东城区,,unknown,
baidu,d8b4267bc5e40b67ee74f86d,建国领导力口才演讲(东城校区),北京市东城区东直门南大街9号华普花园一层1011室（东四十条地铁站附近）,北京市,北京市,东城区,13552160888,unknown,
baidu,3aa426a5e007f3b11e5800d8,北京市第一六六中学,北京市东城区东四六条44号166室,北京市,北京市,东城区,(010)64042204,unknown,
baidu,c30ef1baaa20d94bd12dd632,北京市第一六六中学(初中部),北京市东城区东四六条甲44号,北京市,北京市,东城区,(010)64042204,unknown,
baidu,669775d058cf0825fd0eb0ca,史家七条小学,北京市东城区东四七条31号,北京市,北京市,东城区,(010)64043873,unknown,
baidu,82396f469f7f86d35fbe86fe,阿蓓俐雅蒙学园,北京市东城区王家园胡同16号中国儿童福利大厦1楼,北京市,北京市,东城区,,unknown,
baidu,f7bba3d5704944adab0dd887,东城职大(北京电商联盟商学院),北京市东城区潘家坡胡同1号,北京市,北京市,东城区,,unknown,
baidu,b2a700aa50bf628f15a19089,东城区红星幼儿园,北京市东城区北新桥街道东四十条113-1号(张自忠路地铁站B东北口步行260米),北京市,北京市,东城区,(010)80443269,unknown,
baidu,b1aa646bd8cdb7e09b68b4ba,德曼艺术培训(银河SOHO购物中心店),北京市东城区小牌坊胡同甲7号银河SOHOA座B1,北京市,北京市,东城区,18510841228,unknown,
baidu,892d25ee9be5ee98a4da395e,大方家回民幼儿园本园,北京市东城区后芳嘉园胡同3号朝内小区3号楼,北京市,北京市,东城区,(010)65223556,unknown,
baidu,bcd15227bb0cdbd14107c1db,林产设计院建筑一所,朝阳门街道朝内大街130号,北京市,北京市,东城区,,unknown,
baidu,af637d88ac88c32e0c0e6bd6,北京市第二中学,北京市东城区内务部街15号,北京市,北京市,东城区,(010)65252231,unknown,
baidu,251374c9d01c3e3fa11de9f9,教育部语言文字应用研究所,北京市东城区南小街51号,北京市,北京市,东城区,,unknown,
baidu,19f5822a003e8903b54f54bc,优越留学(北京分校区),北京市东城区银河SOHOD2座8楼50838号,北京市,北京市,东城区,,unknown,
baidu,2848ffd6945b880f48cc4a48,白家庄小学(朝外校区),北京市朝阳区朝外北街与吉市口路交叉路口西侧(中国人保寿险大厦东北侧约50米),北京市,北京市,朝阳区,(010)65522165,unknown,
baidu,7f0a6fc06fedf2490bf5eb25,吴阶平医学基金会细胞与分子医学研究中心,北京市东城区东四街道南门仓胡同7号,北京市,北京市,东城区,,unknown,
baidu,3cdda704b556337a0bf5eb34,中国中医科学院,北京市东城区东直门内南小街16号,北京市,北京市,东城区,(010)64089801,unknown,
baidu,e6655197b50faee6c1f1cf82,科技成长中心,北京市东城区朝阳门内大街朝阳首府,北京市,北京市,东城区,,unknown,
baidu,7bd65f9921803dab15a1903c,东城区北新桥街道图书馆,北新桥海运仓小区南颂年胡同3号楼202室,北京市,北京市,东城区,84073191,unknown,
baidu,afba48c70280e5448605bf07,北京财贸职业学院(东城校区),北京市东城区礼士胡同41号,北京市,北京市,东城区,(010)65231250,unknown,
baidu,1bdb36c7df84205c354aaefa,史家小学分校,北京市东城区北门仓胡同1号,北京市,北京市,东城区,(010)84070087,unknown,
baidu,4616f3351077e79b9de32141,新鲜胡同小学,北京市东城区朝阳门街道朝内南小街新鲜胡同36号,北京市,北京市,东城区,,unknown,
baidu,9283212b2496811159bbbc04,文化部老年大学,北京市东城区朝内头条社区,北京市,北京市,东城区,,unknown,
baidu,70dd5cd4acbafde522026206,北京市第五十五中学,北京市东城区新中街12号,北京市,北京市,东城区,(010)64162085,unknown,
baidu,4e8053b67105a8140d3dda97,北京市第一六六中学(西校区),北京市东城区同福夹道3号,北京市,北京市,东城区,(010)65253226,unknown,
baidu,341c35de4b1033c3e70738a6,灯市口小学低年级部,北京市东城区礼士胡同123号,北京市,北京市,东城区,,unknown,
baidu,2a5b16678f885761a80dd8c0,北京市第一六五中学,北京市东城区育群胡同45号,北京市,北京市,东城区,(010)64043902,unknown,
baidu,cc788fde072b2f8a88fc06f9,北京景山学校,东城区灯市口大街53号,北京市,北京市,东城区,(010)65223416,unknown,
baidu,060f5e53cedfc5a9081cc7da,北京市第五中学,北京市东城区细管胡同13号,北京市,北京市,东城区,(010)64042971,unknown,
baidu,38e1466869ef79c5d5b74e63,北京市第二十五中学,北京市东城区灯市口大街55号,北京市,北京市,东城区,(010)65257525,unknown,
baidu,81cdcfda2c999e2694ec840c,史家小学一年级部,北京市东城区金宝街65,北京市,北京市,东城区,(010)64065588,unknown,
baidu,97e2499e4e26d35c6f3e1b35,北京市陈经纶中学(东大桥高中部),朝外大街38号,北京市,北京市,朝阳区,(010)85616203,unknown,
baidu,435d7aea7b502c355abbbcfe,灯市口小学,北京市东城区灯市口北巷14号,北京市,北京市,东城区,(010)65235708,unknown,
baidu,eb36750313d2271b00ec01f9,北京市东直门中学,北京市东城区民安街与东扬威街交叉路口往西北约50米,北京市,北京市,东城区,(010)64045131,unknown,
baidu,dffd4642d2adb1b23c9a5ef9,北京市府学胡同小学,北京市东城区府学胡同65号,北京市,北京市,东城区,(010)64045995,unknown,
baidu,d146b3889a1aa4de740269f9,北京市第二十二中学(中学本部),北京市东城区东大街77号,北京市,北京市,东城区,(010)64040322,unknown,
baidu,53cebd509d39ab612a02e1d3,北京市东城区图书馆(交道口馆),北京市东城区交道口东大街85号,北京市,北京市,东城区,(010)64051155,unknown,
baidu,72e57fd7b32d5ab6f9dc85bc,芳草地国际学校(日坛校区),北京市朝阳区日坛北路1号,北京市,北京市,朝阳区,(010)85635120-8027,unknown,
baidu,7388dffd6e7611ead3ff237a,北京市朝阳区实验小学,北京市朝阳区幸福一村四巷36号,北京市,北京市,朝阳区,(010)64154368,unknown,
baidu,4de0372dd7be9710f50e77f1,东城区东四街道图书馆,北京市东城区北小街14号,北京市,北京市,东城区,,unknown,
baidu,e96e43a94b45fc6a744ff100,北京市人文空间雕塑研究所,北京市东城区东四十条甲34号院东门南侧约50米,北京市,北京市,东城区,(010)84038725,unknown,
baidu,8fc7ea2ba0af161695ca07f2,首都医科大学中医研修学院(东四十条),北京市东城区东四十条27号(东四十条地铁站A西北口步行410米),北京市,北京市,东城区,(010)64045305,unknown,
baidu,4fa37924086d7bcf2bd7ab0a,国家林业局风景园林与建筑规划设计院,北京市东城区朝阳门内大街130号,北京市,北京市,东城区,,unknown,
baidu,d59a44782fb86858f8f0cb7e,东四九条小区,北京市东城区朝阳门北小街西侧,北京市,北京市,东城区,,unknown,
baidu,9f2251f4fb5c39d58bdb734f,气味图书馆(北京办公室),北京市东城区东四街道东四十条94号亮点文创园b座2层207号,北京市,北京市,东城区,(010)65006511,unknown,
baidu,e3d54cfd15425a3689db73ab,北京古今来玉器研究中心,北京市东城区东四十条24号青蓝大厦2层,北京市,北京市,东城区,,unknown,
baidu,1dc1c9e74198f9d1b6f42f27,北京市水电物探研究所,东中街58号美惠大厦二单元,北京市,北京市,东城区,,unknown,
baidu,3d543189ea4f29515e17c39e,AS国际建筑与空间研究所ASRI,北京市东城区银河Soho商场B座3层20305号,北京市,北京市,东城区,18210157831,unknown,
baidu,be7efa1acdd3e987b23c811b,金螳螂北京设计院,北京市东城区南竹杆胡同2号,北京市,北京市,东城区,13366321616,unknown,
baidu,9fb2ee9030852ebbebe582e9,船检大厦研发中心,北京市东城区北新桥街道东直门南大街9号,北京市,北京市,东城区,,unknown,
baidu,868b392c503d345a29fc48d0,嘉库创意研发中心,北京市东城区朝阳门街道前炒面胡同2号,北京市,北京市,东城区,,unknown,
baidu,0702fd94ed2f80d72efaa7c4,广东设计院,北京市东城区朝阳门北大街6号a座,北京市,北京市,东城区,,unknown,
baidu,e9e49f08e13a4289d4851f48,北京荷欧建筑规划设计院,北京市东城区东四十条94号,北京市,北京市,东城区,,unknown,
baidu,441d5a979846a1da6c3e1bfe,格兰研究,北京市东城区朝阳门南小街6号楼502室,北京市,北京市,东城区,,unknown,
baidu,40c628663e23d1a4e507381e,中纺联产业经济研究院,北京市朝阳区朝阳门北大街18号中国人保寿险大厦9层,北京市,北京市,朝阳区,,unknown,
baidu,5d1df861cd9e66ecf503b8e3,北京中医药大学心血管病研究所,北京市东城区海运仓胡同5号海运仓,北京市,北京市,东城区,,unknown,
baidu,acd99282326a6d180c0e6b05,中国纺织规划研究会,北京市朝阳区朝阳门北大街18号中国人保寿险大厦5楼,北京市,北京市,朝阳区,,unknown,
baidu,e7c864dc97fe722ff82d6121,南门仓社区-地下停车场,北京市东城区东四十条南门仓社区,北京市,北京市,东城区,,unknown,
baidu,c8c6ce3b8c82ffcd7c29bd10,如家精选酒店(北京朝阳门地铁站店)-地上停车场,北京市东城区东四街道仓南胡同14号-2号楼-4门-1号,北京市,北京市,东城区,,unknown,
baidu,672d4a7ade3b0908f4eafc1c,东四六条,24路;63路;夜28路,北京市,北京市,东城区,,unknown,
baidu,09b6f04ab4cdf7ef8e7727b1,南门仓社区东侧-停车场,北京市东城区仓南北巷南新仓文化休闲街,北京市,北京市,东城区,,unknown,
baidu,84fd25a402dc80a949fc8d32,朝内小街,24路;58路;63路;101路;109路;110路;夜13路;夜28路,北京市,北京市,东城区,,unknown,
baidu,e506012a9f1d01bceee4a551,华商三优充电站(东城区朝阳门内大街北侧(10131)扬招站),北京市东城区朝阳门内大街孚王府,北京市,北京市,东城区,4006556620,unknown,
baidu,bd6d94e55ff20bc9fa0cadfd,东四九条,24路;63路;夜28路,北京市,北京市,东城区,,unknown,
baidu,de0d23bd2a30be4681288a40,南新仓商务大厦-地下停车场,北京市东城区朝阳门北大街1号,北京市,北京市,东城区,,unknown,
baidu,19f06b69d2a493b92a06cede,朝阳门,地铁2号线内环;地铁2号线外环;地铁6号线,北京市,北京市,东城区,,unknown,
baidu,5200949fba1681f3fd0eb05a,东直门交通枢纽,北京市东城区东直门外大街39号,北京市,北京市,东城区,,unknown,
baidu,6c4b1702f26a751cbca2406c,朝阳门内,58路;101路;109路;110路;夜13路,北京市,北京市,东城区,,unknown,
baidu,bf705f8ff07a443cd518b71b,东四小区-停车场,北京市东城区吉兆东巷东四小区,北京市,北京市,东城区,,unknown,
baidu,819d6b57591b3967f4e73bf3,朝阳门北小街路东侧-停车场,北京市东城区朝阳门北小街东四小区,北京市,北京市,东城区,,unknown,
baidu,88a6aa6428fcfbe4a11de98c,东四十条桥西,3路;4路;42路;113路;115路;118路;406路;通医专线3路;夜34路;夜3路,北京市,北京市,东城区,,unknown,
baidu,ea2a0950b2e69370eddfcab8,南弓匠营胡同-停车场,北京市东城区南弓匠营胡同南新仓文化休闲街,北京市,北京市,东城区,,unknown,
baidu,ea009669c0ea93a057bfffbd,五矿广场-地下停车场,北京市东城区朝阳门北大街3号五矿广场B4停车场,北京市,北京市,东城区,,unknown,
baidu,b68488144b4d1bddf72310e5,东四十条桥南,44路内环;44路外环;75路;142路;200路内环;200路外环;首都机场大巴北京站线;夜20路内环;夜20路外环,北京市,北京市,东城区,,unknown,
baidu,62e76090aa1628c29868b46d,朝内北小街-地下停车场,南弓匠营胡同史家小学对面,北京市,北京市,东城区,,unknown,
baidu,4d388f0396275777c06c14de,东四,地铁5号线;地铁6号线,北京市,北京市,东城区,,unknown,
baidu,671d8e9ccbc7ff821c389448,泓晟国际中心-地上停车场,北京市东城区东门仓胡同泓晟国际中心,北京市,北京市,东城区,,unknown,
baidu,03debba35043b9b038221cf5,北京电信大楼-地下停车场,北京市东城区朝阳门北大街19号,北京市,北京市,东城区,,unknown,
baidu,0e283020d139f925c82915de,张自忠路,地铁5号线,北京市,北京市,东城区,,unknown,
baidu,02a28d60d792fcaaa8f729ab,旺春阁烤鸭店-地上停车场,北京市东城区东四四条1号,北京市,北京市,东城区,,unknown,
baidu,c7c7308e2b23dd9f715e8052,悠唐购物中心-地下停车场,北京市朝阳区朝阳门外大街三丰北里2号悠唐购物中心B1,北京市,北京市,朝阳区,,unknown,
baidu,07e17036c5461095c9e33c8a,史家小学(高年级部)-地下停车场,北京市东城区朝阳门北小街2号,北京市,北京市,东城区,,unknown,
baidu,ac14bdf588079cd52bb97c97,豆瓣小区西区-停车场,北京市东城区朝阳门北小街豆瓣社区,北京市,北京市,东城区,,unknown,
baidu,9a0bd61376d7b8743ce23106,豆瓣小区北区-地上停车场,北京市东城区豆瓣胡同1号,北京市,北京市,东城区,,unknown,
baidu,509d7a1452400485f50e77b8,东方文华大厦-接送点,北京市东城区东方文华大厦附近,北京市,北京市,东城区,,unknown,
baidu,e1190cba57d428cf2cb17e54,中国农业银行(北京市分行营业部)-地上停车场,北京市东城区东四十条朝阳门北大街9号,北京市,北京市,东城区,,unknown,
baidu,4a67d81430b4814b14c8f6b6,中国海洋石油大厦-地上停车场,北京市东城区太阳宫朝阳门北大街25号,北京市,北京市,东城区,,unknown,
baidu,8afa157203cba0a7f8f0cb02,朝阳门北小街-地下停车场,北小街8-5号附近,北京市,北京市,东城区,,unknown,
baidu,fff131327b1d3bac9fec2b8e,仓南胡同小区停车场,北京市东城区东四六条南门仓社区西北侧约140米,北京市,北京市,东城区,,unknown,
baidu,87240abb361f671c42d63e2f,东四奥林匹克社区体育文化中心-地上停车场,北京市东城区朝阳门北小街129号,北京市,北京市,东城区,,unknown,
baidu,a36a780b6766c3e4c91b95d3,北京来福士中心-地下停车场,北京市东城区东直门南大街1-2号,北京市,北京市,东城区,,unknown,
baidu,dbe2400fc473c63ac9fa5f9e,东四九条胡同东口-停车场,北京市东城区东四九条20号,北京市,北京市,东城区,,unknown,
baidu,73fe2f4fd2d7739ec91b95c6,佳龙酒店-接送点,北京市东城区佳龙阳光酒店(朝阳门店a座)附近,北京市,北京市,东城区,,unknown,
baidu,aedafb2683b10d3552e5c53b,中国美术馆,地铁8号线,北京市,北京市,东城区,,unknown,
baidu,43aec313290410696e3e1bde,灯市口,地铁5号线,北京市,北京市,东城区,,unknown,
baidu,7bfa08fc4a05110125d2bbc1,朝阳首府-地上停车场,北京市东城区朝阳门内大街8号,北京市,北京市,东城区,,unknown,
baidu,d57c951d70da684579dbd262,朝内小街口,北京市东城区朝阳门内大街日月明旅馆西南侧约70米,北京市,北京市,东城区,,unknown,
baidu,d600d97d2e2bce8caa059dde,东直门,地铁13号线;地铁2号线内环;地铁2号线外环;首都机场线,北京市,北京市,东城区,,unknown,
baidu,8efd4a9d342acf16c03644ff,泓晟国际中心-地下停车场,北京市东城区东门仓胡同5-5号,北京市,北京市,东城区,,unknown,
baidu,7bedc96c5cd4f7684d2fdfc1,中国人民保险办公楼-地下停车场,北京市东城区朝阳门北大街25号海洋石油总公司,北京市,北京市,东城区,,unknown,
baidu,b00b773e7f6bf160f5b916de,北新桥,地铁5号线;首都机场线,北京市,北京市,东城区,,unknown,
baidu,f0fe76afd7041b359e9d68ad,新保利大厦-地下停车场,北京市东城区朝阳门北大街1号,北京市,北京市,东城区,,unknown,
baidu,d3355cb4dea50a0497031944,雅宝路,44路内环;44路外环;58路;139路;142路;200路内环;200路外环;首都机场大巴北京站线;夜20路内环;夜20路外环,北京市,北京市,东城区,,unknown,
baidu,8480d6887840d704c16c141b,东直门枢纽站,3路;132路;401路;404路;416路;418路;850路;850路快车;852路;852路快车;916路;916路快车;916路快车[南华快车];916路快车[青春路七院快车];918路;942路;980路快车;980路快车[大站快车];980路快车[直达快车];通勤关,北京市,北京市,东城区,,unknown,
baidu,f15296d1e835bc7507026fd8,7天酒店(南锣鼓巷店)-停车场,北京市东城区东四六条45号,北京市,北京市,东城区,,unknown,
baidu,a8e62aaa67b65d87eddfcac3,东直门枢纽站,3路;106路;107路;132路;401路;404路;416路;418路;852路;852路快车;916路快车;918路;942路;980路快车;慕田峪专线;专26路,北京市,北京市,东城区,,unknown,
baidu,63bbdb1a3f2fe5a796ec84f6,东直门,24路;117路;123路;135路;413路;850路;850路快车;916路;935路快车;快速直达专线102路;快速直达专线72路;首都机场大巴北京站线;通勤关上;夜10路内环;夜10路外环;夜32路;夜6路,北京市,北京市,东城区,,unknown,
baidu,402114556e650223fb2d61e6,北京一商集团公司-停车场,北京市东城区东四十条21号,北京市,北京市,东城区,,unknown,
baidu,2f3da13ac2ed64f2d2f49ed5,工人体育场,地铁17号线北段;地铁3号线,北京市,北京市,朝阳区,,unknown,
baidu,12aa5266e7b1730403ec0177,金鱼胡同,地铁8号线,北京市,北京市,东城区,,unknown,
baidu,f79dc23bfc5cacc46cc02c51,东四十条甲34号院-停车场,北京市东城区东四十条甲-34号院,北京市,北京市,东城区,,unknown,
baidu,c0c76ea25ddca1721b11d5ea,博隆建亚科技(北京)有限公司-停车场,北京市东城区烧酒胡同40号,北京市,北京市,东城区,,unknown,
baidu,d519688996e51872a2a934c6,南北水关胡同-停车场,朝阳门内大街--大方家胡同,北京市,北京市,东城区,,unknown,
baidu,61abfa99b22a37559f09f774,新闻出版大厦-地上停车场,北京市东城区朝阳门内大街55号新闻出版大厦,北京市,北京市,东城区,,unknown,
baidu,78e9b17e4e66f36b15a1909f,朝阳门内大街75号院-停车场,北京市东城区朝阳门北小街朝阳门内大街75号院,北京市,北京市,东城区,,unknown,
baidu,3662937f0a3b90eea6da393f,北京电信大楼-接送点,北京市东城区电信大楼附近,北京市,北京市,东城区,,unknown,
baidu,e30828481fe0f3c1b24c49a4,朝阳门内大街小区西北侧停车场,北京市东城区朝阳门内大街小区西北侧,北京市,北京市,东城区,,unknown,
baidu,28e4ef971cde6f26f7e73bef,中国海洋石油大厦-接送点,北京市东城区中国海洋石油大厦附近,北京市,北京市,东城区,,unknown,
baidu,de219ac0260979abc03644ef,东大桥,地铁22号线,北京市,北京市,朝阳区,,unknown,
baidu,9bdc8f8ea90145b88bdb7361,孚王府东侧-停车场,北京市东城区朝阳门北小街东四小区,北京市,北京市,东城区,,unknown,
baidu,416079b5c5278b808405bf08,中国海洋石油办公楼-接送点,北京市东城区中国海洋石油办公楼附近,北京市,北京市,东城区,,unknown,
baidu,6f1c63cf488ca55815c905c6,五矿广场-B座-接送点,北京市东城区五矿广场-B座附近,北京市,北京市,东城区,,unknown,
baidu,7f841074c9faa81c79dbd26b,北京市交管局中心区支队-停车场,北京市东城区东四六条8号,北京市,北京市,东城区,,unknown,
baidu,f951ad5907bf3c1f7f29bd61,朝阳门内大街小区-地下停车场,北京市东城区南竹杆胡同8号,北京市,北京市,东城区,,unknown,
baidu,026a0a819a08a51095ca0709,朝内小区北区-地下停车场,北京市东城区东水井胡同5号楼,北京市,北京市,东城区,,unknown,
baidu,9d0099a484e3937e8b2fb5a3,孚王府-地上停车场,北京市东城区朝阳门内大街路北137号,北京市,北京市,东城区,,unknown,
baidu,eb8e0ab1c2b8b27cfd0eb0e5,合生国际大厦-立体停车场,北京市东城区东门仓胡同北京喜剧院,北京市,北京市,东城区,,unknown,
baidu,ff52fdaac2d1f86088f15dcb,鸿安国际大厦-接送点,北京市东城区鸿安国际大厦附近,北京市,北京市,东城区,,unknown,
baidu,257b9e27ed958e244d554762,豆瓣东区-地下停车场,北京市东城区豆瓣胡同2号,北京市,北京市,东城区,,unknown,
baidu,103be6544f88baa640e1921c,北京青蓝大厦-接送点,北京市东城区青蓝大厦附近,北京市,北京市,东城区,,unknown,
baidu,6d37b5934ddad814f942b2e1,平安发展大厦-接送点,北京市东城区平安发展大厦附近,北京市,北京市,东城区,,unknown,
baidu,f9cd6de0b305b81b31870a9a,北兵马司,104路;108路;113路;141路;612路;夜10路内环;夜10路外环;夜18路;夜2路;夜34路,北京市,北京市,东城区,,unknown,
baidu,cf2bfbfcad38b623f90cad6a,中国海洋石油集团有限公司-地下停车场,北京市东城区朝阳门北大街25号,北京市,北京市,东城区,,unknown,
baidu,a1e7fb91a80c54d6441a3231,南新仓商务大厦-接送点,北京市东城区南新仓商务大厦附近,北京市,北京市,东城区,,unknown,
baidu,9401f552d8e68c9e5b109373,天辰大厦-接送点,北京市朝阳区天辰大厦附近,北京市,北京市,朝阳区,,unknown,
baidu,14d6ade1631f55fe0b1cc77a,驿充电充电站(东四站),朝阳门北大街21号,北京市,北京市,东城区,4008129338,unknown,
baidu,044fd448430be6417dc87631,北京电信大楼东北侧停车场,北京市东城区仓南胡同中国人民保险办公楼南侧,北京市,北京市,东城区,,unknown,
baidu,fb8e898509b8ea39f22d83a0,中国工商银行(北京市分行东城支行)-停车场,北京市东城区东四十条24号青蓝大厦,北京市,北京市,东城区,,unknown,
baidu,5e4619fe6beabccbb0077da9,华富商贸大楼东南侧-停车场,北京市东城区朝内头条华富商贸大楼,北京市,北京市,东城区,,unknown,
baidu,a852f07854b616904354d765,北京外交人员服务局东北侧-停车场,北京市东城区朝内头条社区,北京市,北京市,东城区,,unknown,
baidu,c1607a94eeace6302cb908ea,语文出版社-停车场,北京市东城区南小街51号,北京市,北京市,东城区,,unknown,
baidu,3b1d2e727e1cb8812cb9088f,北京市东城区人民政府东四街道办事处-停车场,北京市东城区东四六条17号,北京市,北京市,东城区,,unknown,
baidu,a655c49bcdf7de9012293559,中国人民保险办公楼-接送点,北京市东城区中国人民保险办公楼附近,北京市,北京市,东城区,,unknown,
baidu,512bec5ee8dc3378fb2d61f5,中国人保寿险大厦-接送点,北京市朝阳区中国人保寿险大厦附近,北京市,北京市,朝阳区,,unknown,
baidu,b1a0990103e474617ec87614,人民文学出版社-停车场,北京市东城区朝阳门内大街166号,北京市,北京市,东城区,,unknown,
