source,bd_uid,name,address,province,city,area,tel,poi_type,tag
baidu,41572e00da84f7adb55f1ea3,月星餐厅(北京西路店),北京西路10号1幢3单元,江苏省,南京市,鼓楼区,13776602480,unknown,
baidu,dfc496b61d7b1eb68936ee2b,胡劲松汤包,渊声巷11号107号,江苏省,南京市,鼓楼区,15366051078,unknown,
baidu,2527be1e340052aa4afc8dc9,状元楼西苑餐厅,上海路金银街20号2楼,江苏省,南京市,鼓楼区,(025)83594449,unknown,
baidu,fc7675242425eae34e776e4d,老地方餐厅(上海路店),上海路160号金银街,江苏省,南京市,鼓楼区,13016960248,unknown,
baidu,2ad32cc39715cd969d95deff,第一泉酒家(鼓楼店),北京西路6号（南京大学北门）,江苏省,南京市,鼓楼区,(025)86632356,unknown,
baidu,4136785cb581a63b14948efe,见舍咖啡·西餐(上海路店),金银街20号,江苏省,南京市,鼓楼区,"(025)58991102,13675115502",unknown,
baidu,787e8c87bb50f070a5da3974,沪上阿姨鲜果茶(南京大学金银街店),金银街17-2-9,江苏省,南京市,鼓楼区,18061486506,unknown,
baidu,bf29b7022198678009b93a58,台式烩饭(金银街小区店),上海路158号1栋2单元,江苏省,南京市,鼓楼区,(025)83308211,unknown,
baidu,d771f5a81b7da532100daa67,滕家大院百姓餐厅,江苏省南京市鼓楼区湖南路街道北京西路12号,江苏省,南京市,鼓楼区,,unknown,
baidu,8790c417885998e071455be6,阿爸饭桌(上海路209号院南一栋102店),上海路209号院南一栋102,江苏省,南京市,鼓楼区,17372759220,unknown,
baidu,4461aa19a0d040f4dbeced2e,面皮说(云南路店),云南路27-1号（云南路地铁站4号口步行200米）,江苏省,南京市,鼓楼区,13376094547,unknown,
baidu,9118025ea603b66104026f20,港师傅·菠萝包(金银街店),上海路金银街1-1号,江苏省,南京市,鼓楼区,13910617685,unknown,
baidu,4c4ab6b8e8b2a64bf42310dc,月星餐厅酸菜鱼(宁海路店),宁海路街道宁海路南阴阳营22号(近上海路),江苏省,南京市,鼓楼区,13776602480,unknown,
baidu,2cc3c8e8a87d5bcf4c2fdfae,云中食品店(上海路店),南京市鼓楼区上海路160-2临,江苏省,南京市,鼓楼区,(025)83317103,unknown,
baidu,ae8ac4e74cbe8d6c17c8f60d,万象书坊Café Belong,金银街8号,江苏省,南京市,鼓楼区,(025)83204546,unknown,
baidu,4413596a136647e1e60738aa,梧桐深处(南京大学店),金银街16号,江苏省,南京市,鼓楼区,(025)83621185,unknown,
baidu,620957f60835da2ec42ba13c,cafe·com2·0(金银街店),金银街,江苏省,南京市,鼓楼区,,unknown,
baidu,1187920b013b8074b54f54dd,靖小馆·大馄饨(上海路店),上海路209号1幢101室,江苏省,南京市,鼓楼区,17372952282,unknown,
baidu,79cceb368c3a2f901f580082,利得恒土菜馆(北京西路店),湖南路街道北京西路10号(近鼓楼四条巷),江苏省,南京市,鼓楼区,18761651283,unknown,
baidu,849244342c1ea72030169b24,La Mia Casa漫味意式小馆(上海路店),上海路南秀村14-1号,江苏省,南京市,鼓楼区,(025)58578887,unknown,
baidu,dd6fb3e0a74e590936b06c78,粤泰粤美食,南京大学安中大楼北门旁金银街特色商业街,江苏省,南京市,鼓楼区,,unknown,
baidu,2941dae52891a021220262c4,法苑宾馆-餐厅,宁海路75号,江苏省,南京市,鼓楼区,,unknown,
baidu,978346c2c3deb73995ca07d3,果缘酒店,宁海路街道北京西路17号(化工大厦一楼),江苏省,南京市,鼓楼区,(025)83328765,unknown,
baidu,53bd6a2cd3bda89ed81318da,卢记小馆黑金店(南大店),南阴阳营3号106室（云南路地铁站2号口步行470米）,江苏省,南京市,鼓楼区,15996237531,unknown,
baidu,060f5e53ea1ad9ce091cc7f8,福星小馆(云南路店),云南路和西桥交叉口西南角,江苏省,南京市,鼓楼区,(025)83321643,unknown,
baidu,850815e17ac9198243e19261,清真老马牛肉拉面馆(上海路店),上海路154号4幢106室(路北侧)（云南北路北侧）,江苏省,南京市,鼓楼区,18651804612,unknown,
baidu,8226f5f6a51924bff403b88a,EN cocktail bar,南京市鼓楼区金银街17号小区东北侧,江苏省,南京市,鼓楼区,,unknown,
baidu,c9c758184df44130f219377c,卢浮尚品咖啡(上海路店),上海路160-1号（距地铁4号线云南路地铁站2号口步行178米）,江苏省,南京市,鼓楼区,18502567565,unknown,
baidu,33b16c496fb3bfa25bf6be6f,南京大牌档(鼓楼紫峰店),中山北路6号紫峰购物广场5楼A03室,江苏省,南京市,鼓楼区,(025)84278777,unknown,
baidu,3dedf2ee6859d14eddee8b96,缪小云餐厅,二条巷一巷18号,江苏省,南京市,鼓楼区,(025)83302451,unknown,
baidu,18e3e3bf415a6d2e17b54ba4,耕读园·别墅里的私享菜(华新巷小区店),宁海路街道宁海路华新巷小区11号(苏州路对面巷内50米独立黄色小楼),江苏省,南京市,鼓楼区,"13611571163,19825818114",unknown,
baidu,f697a9c0d26a02f05d17c35f,象牙果咖啡(金银街店),上海路160号金银街,江苏省,南京市,鼓楼区,15205199330,unknown,
baidu,4ada985acb4a1337343a7177,薛义炸货铺,湖南路街道上海路160号(云南路地铁站2号口步行220米),江苏省,南京市,鼓楼区,,unknown,
baidu,41377f9788e2873d2fb9086d,一家专注十年的盖浇饭(南大店),北京西路10号北京西路10号院,江苏省,南京市,鼓楼区,,unknown,
baidu,dcce6ff0d0a8fa43f32d83cc,迎春七家湾牛肉锅贴店,云南路25号院西门旁(云南路地铁站4号口步行190米),江苏省,南京市,鼓楼区,,unknown,
baidu,1c4baf75fbe2bb0384154118,a里巴巴伊斯玛烤肉,云南路21-2号(云南路地铁站4号口步行290米),江苏省,南京市,鼓楼区,,unknown,
baidu,34aaf7244cde45930aa8d48b,泰姬玛哈印度料理(上海路店),宁海路街道上海路187-1号（宁海路国家电网旁）,江苏省,南京市,鼓楼区,"(025)83350491,(025)84214123",unknown,
baidu,bbe31277d755640cf4eafc79,老时光菜馆(倍格硅巷店),北京西路倍格硅巷,江苏省,南京市,鼓楼区,18851128099,unknown,
baidu,d9e0bc81a852e495c17da253,朱氏梅花糕,湖南路街道上海路120号之一505室(近汉口西路),江苏省,南京市,鼓楼区,15062284608,unknown,
baidu,f226088f64972d855e0d02fa,潘家韩国料理(南阴阳营店),上海路南阴阳营22号1单元101室月星餐厅旁边,江苏省,南京市,鼓楼区,13675111994,unknown,
baidu,481375fba53f28d13904b1c0,三一公馆,宁海路84号,江苏省,南京市,鼓楼区,19816589338,unknown,
baidu,df1cd572bff88c8ff019379b,水西门陶记烤鸭店(鼓楼店),渊声巷11号,江苏省,南京市,鼓楼区,15951901838,unknown,
baidu,a01dbb840ffa917a6da3cc43,鸡鸣汤包(汉口西路店),汉口西路22号1楼苏果超市西侧隔壁,江苏省,南京市,鼓楼区,(025)57714551,unknown,
baidu,50fb64ffe9241944e9f85336,同堂韩国料理(汉口西路店),汉口西路与上海路交叉口西40米路北（南秀大厦正对面）,江苏省,南京市,鼓楼区,"(025)83323589,13770510688",unknown,
baidu,15605b6132047e503ce231cb,安庆有机黑猪小吃,云南路25号院(云南路地铁站4号口步行230米),江苏省,南京市,鼓楼区,,unknown,
baidu,75d0881a9cb53b543b04b1aa,麦当劳(南京宁海路店),华侨路街道宁海路122-1临(近五台山体育馆北门),江苏省,南京市,鼓楼区,(025)83727582,unknown,
baidu,17a844923158eb2ed7851f8a,正宗徐州杂粮煎饼店(二条巷店),二条巷一巷16号-1,江苏省,南京市,鼓楼区,18105157262,unknown,
baidu,b3fb96fdf49a0c85c156ac02,晶丽酒店香榭自助餐吧,湖南路街道北京西路7号晶丽酒店1楼(近南京大学),江苏省,南京市,鼓楼区,(025)83513977,unknown,
baidu,76d57e38924122f588b98848,肖记四川宜宾燃面(青岛路店),汉口路48-1号,江苏省,南京市,鼓楼区,13062596839,unknown,
baidu,1039093252fb5cb0fa0cad9e,老街大肉面(南阴阳营小区店),南阴阳营1号,江苏省,南京市,鼓楼区,15150539831,unknown,
baidu,fd13a3f21e79eee3b1077d61,金爵酒楼(北京西路店),江苏省南京市鼓楼区湖南路街道北京西路6号,江苏省,南京市,鼓楼区,(025)86634357,unknown,
baidu,72aa251318ef0f5e067ce896,巴子烧鹅店(南阴阳营店),宁海路121号南阴阳营巷口(近南师大),江苏省,南京市,鼓楼区,13913897354,unknown,
baidu,37ef97679291512152e5c53a,莲花公馆Lotus Restaurant & Bar,宁海路52-2号（宁海中学对面）,江苏省,南京市,鼓楼区,17798530909,unknown,
baidu,dea48d564e3b65549868b40e,西桥面馆(五条巷店),西桥8号105室,江苏省,南京市,鼓楼区,13151565568,unknown,
baidu,f3c2373ca096dd4bd22dd63b,麦部落(西桥店),云南路西桥89号101室,江苏省,南京市,鼓楼区,(025)83708867,unknown,
baidu,33ca1661b1d3468fbadf8f15,七家湾牛肉锅贴(鼓楼二条巷一巷店),鼓楼二条巷渊声巷小学对面,江苏省,南京市,鼓楼区,13914488183,unknown,
baidu,b0eeb7bb339ebbb1714b8708,李家馒头店(鼓楼二条巷一巷店),渊声巷11号四单元108室,江苏省,南京市,鼓楼区,(025)83206462,unknown,
baidu,ef06673380af3ffcc61e511e,放心油条店(南阴阳营店),南阴阳营3号106室卢记小馆旁,江苏省,南京市,鼓楼区,15301589113,unknown,
baidu,31f9101b621fefa027e0a0f4,可西玛西班牙餐厅(上海路店),上海路120号（工商银行对面）,江苏省,南京市,鼓楼区,(025)83337576,unknown,
baidu,07fb77d0c99a3dd3d6b74e1f,淮南牛肉汤羊肉馆(鼓楼店),渊声巷11号,江苏省,南京市,鼓楼区,15879916389,unknown,
baidu,c37a4c7d0195b18eb426559e,Sunny Coffee,南秀村11号,江苏省,南京市,鼓楼区,13390799903,unknown,
baidu,51b2be562ea289041576437c,袁记云饺(上海路店),汉口西路2-2号,江苏省,南京市,鼓楼区,18251849364,unknown,
baidu,6ba8792ca7da3616e115f9de,南京沉香鸭馆·盐水鸭(汉口西路店),汉口西路2-1号,江苏省,南京市,鼓楼区,15365170887,unknown,
baidu,23d354600add987001294f2c,稻满湘(狮子桥店),云南北路28-1号,江苏省,南京市,鼓楼区,17368739117,unknown,
baidu,cf6c7cb9e2cb34f814b54be4,三猫黑鱼花(广州路店),"广州路228-3号（宁海路与广州路交叉口,先锋书店斜对面）",江苏省,南京市,鼓楼区,17397958975,unknown,
baidu,56872f41b6fa4c123010afe0,PAUSE CAFE(南秀村店),上海路陶谷新村6号（近汉口西路）,江苏省,南京市,鼓楼区,(025)52252669,unknown,
baidu,a88a66f2968ce1360c0e6b53,西西米点心铺(汉口西路店),汉口西路18号,江苏省,南京市,鼓楼区,15366196352,unknown,
baidu,57ec608efc698ec648cc4a80,阿Sir Coffee(陶谷新村店),上海路陶谷新村6号104室,江苏省,南京市,鼓楼区,"18118843544,18901596373",unknown,
baidu,8ef2c3b1a60c38a0cb213d2b,渔家宴(狮子桥店),云南北路28号-2号,江苏省,南京市,鼓楼区,(025)86621118,unknown,
baidu,e0d3172514cfd177d91318e4,匠二家·咖喱炸物定食,汉口西路3号-8（桂花鸭旁边巷子往里10米）,江苏省,南京市,鼓楼区,18551661642,unknown,
baidu,d4034eb30972a2efc13644ba,紫燕百味鸡(上海路店),汉口西路22号上海路农贸市场内卤菜熟食4-6号,江苏省,南京市,鼓楼区,13350754178,unknown,
baidu,bf29b7022084608009b93a7c,清真马祥兴菜馆(云南北路店),"云南北路32号（米乐星隔壁,近狮子桥,青云巷路口对面）",江苏省,南京市,鼓楼区,(025)83286387,unknown,
baidu,6649f1c32832d5d22e473358,小辣椒湖南米粉(大纱帽巷店),鼓楼湖南路渊声巷111,江苏省,南京市,鼓楼区,13815407520,unknown,
baidu,14076dee5a4378ed03294fac,咕咕鸡韩国料理(汉口路店),汉口路陶谷新村6-5临,江苏省,南京市,鼓楼区,(025)89673380,unknown,
baidu,e58822c8397b95f49403195f,雨鑫酸菜鱼馆(二条巷店),渊声巷11号109室,江苏省,南京市,鼓楼区,13814073591,unknown,
baidu,35a01c5a816498136d20b905,红杏酒家(荔枝广场店),北京东路4号省广电荔枝广场5楼,江苏省,南京市,玄武区,(025)58818333,unknown,
baidu,3f9337d61ff9e7aaf7231039,陶谷小吃(汉口路店),陶谷新村1-3号,江苏省,南京市,鼓楼区,(025)83241887,unknown,
baidu,64ff3be1e29c58a290114c7e,桂花鸭(汉口西路店),汉口西路3-1号,江苏省,南京市,鼓楼区,"13801588646,15205193155",unknown,
baidu,f9a36c7fddf237cc86420e09,玲家粥铺,南京市鼓楼区渊声巷24号院,江苏省,南京市,鼓楼区,,unknown,
baidu,fea3c015ac8c09843586f4bf,东浩小吃店,二条巷16-1号渊声巷小区,江苏省,南京市,鼓楼区,17502506651,unknown,
baidu,f612046fd8aa35ff54bfff08,京川卤菜店,渊声巷24号1栋,江苏省,南京市,鼓楼区,(025)83324446,unknown,
baidu,813aaa9286cb825f40afe6c5,王顺兴包子铺,汉口西路22号,江苏省,南京市,鼓楼区,13776646994,unknown,
baidu,d5464cf82f17734efca778a2,肯德基(广州店),广州路104号,江苏省,南京市,鼓楼区,(025)86632902,unknown,
baidu,04253e50d6302350d23ce3f7,德天肥牛海鲜火锅(狮子桥店),云南北路28号（清真马祥兴菜馆旁）,江苏省,南京市,鼓楼区,(025)57017773,unknown,
baidu,ce1e7e844a388800283a9f04,达美乐比萨(云南北路店),云南北路49号1层05号商铺,江苏省,南京市,鼓楼区,4001597597,unknown,
baidu,922d245be7319c051e5800ee,老卤面馆,渊声巷24号院,江苏省,南京市,鼓楼区,15062200870,unknown,
baidu,7a9fb882fecd384db13c81b8,扬州特色包子店(渊声巷店),湖南路街道第三幼儿园,江苏省,南京市,鼓楼区,13382786546,unknown,
baidu,14d0d783c3b0145b41d63e16,蒸鲜道汤包店(二条巷第六分店),湖南路街道鼓楼二条巷6号(近南大附中),江苏省,南京市,鼓楼区,"17755002312,18795908621",unknown,
baidu,fe7e04a3d4fa22d4b6147f49,豆腐鸡蛋灌饼,南京市鼓楼区南阴阳营小区-南区,江苏省,南京市,鼓楼区,,unknown,
baidu,0a2613500e7ff37f128824b0,同心大厦机关食堂,江苏省南京市鼓楼区北京西路30号,江苏省,南京市,鼓楼区,,unknown,
baidu,ae85d6f5816960bcf32d838b,北西酒烤·创作料理(南大店),北京西路2号S01,江苏省,南京市,鼓楼区,,unknown,
baidu,2eea436a44c768a038221ce3,中国兰州拉面(西桥店),西桥8号102室,江苏省,南京市,鼓楼区,13914723574,unknown,
baidu,af1170da8f6cdf0fe7073839,南京鼓楼吾悦广场,江苏省南京市鼓楼区湖北路51号,江苏省,南京市,鼓楼区,(025)83775188,unknown,
baidu,da4014781b8fd6b3b020a856,鼓楼·荔枝广场,南京市玄武区北京东路4号,江苏省,南京市,玄武区,(025)87722056,unknown,
baidu,04bdf4a393313b56354aae60,山西路百货大楼,南京市鼓楼区中山北路107-141号,江苏省,南京市,鼓楼区,(025)83238013,unknown,
baidu,8ab0dfc4ccc2230fd8eced44,中央商场(山西路店),江苏省南京市鼓楼区中山北路88号,江苏省,南京市,鼓楼区,(025)83201148,unknown,
baidu,a7c56ee02fb643aaa3acc466,绿地中心·紫峰购物广场,江苏省南京市鼓楼区中山北路6号,江苏省,南京市,鼓楼区,,unknown,
baidu,f9414fb66c23773d32870a23,鹤梅草堂,南京市鼓楼区金银街南京大学北门西北侧约40米,江苏省,南京市,鼓楼区,,unknown,
baidu,f5f7c914541f89a382288a2d,百家超市(上海路店),上海路160号(云南路地铁站2号口步行170米),江苏省,南京市,鼓楼区,(025)52654190,unknown,
baidu,dca6f95cc9ad9fc32cb96dfe,苏果便利(云南路店),云南路54号(云南路地铁站4号口步行230米),江苏省,南京市,鼓楼区,(025)83304248,unknown,
baidu,a73e47dec721e4892efaa757,逸海精品超市(绿地中心·紫峰购物广场店),北京西路6号(鼓楼地铁站6号口步行340米),江苏省,南京市,鼓楼区,13851600464,unknown,
baidu,4bc5c42ef77c453f2806ceb7,苏果超市(宁海路社区店),汉口西路22号,江苏省,南京市,鼓楼区,(025)83321465,unknown,
baidu,d24e48eb491e8cb4afee7a5e,华联超市(鼓楼渊声巷社区店),渊声巷41号02幢,江苏省,南京市,鼓楼区,13382085675,unknown,
baidu,93df0dc30fd77a55882fb5e1,上海路副食品中心市场(汉口西路店),汉口西路22号,江苏省,南京市,鼓楼区,13851942911,unknown,
baidu,9cca086232eef369b320a88b,京东酒世界(云南路店),江苏省南京市鼓楼区云南路26号,江苏省,南京市,鼓楼区,13655198070,unknown,
baidu,c879fa019fc35b53c909f0c4,座上客(0004云南路店),宁海路街道云南路50号(西桥路口),江苏省,南京市,鼓楼区,(025)84641951,unknown,
baidu,7d8eca08e00c8364d618b7c0,有食有酒,南京市鼓楼区金银街南京大学北门东北侧约50米,江苏省,南京市,鼓楼区,,unknown,
baidu,d46936f905f36fde49fd3fd6,苏建大厦-服饰店,南京市鼓楼区云南路31-1号苏建大厦,江苏省,南京市,鼓楼区,,unknown,
baidu,78a1f712bb3edb167dc8768c,老宇宙商店,陶谷新村4-4101室,江苏省,南京市,鼓楼区,18094248876,unknown,
baidu,6e0b88c39bca9f61c9c3db50,城市有爱外贸休闲(上海路店),上海路181号,江苏省,南京市,鼓楼区,15312062379,unknown,
baidu,4fab09089658986c17948e39,ISHOW(上海路店),上海路185号,江苏省,南京市,鼓楼区,(025)83231782,unknown,
baidu,6ec7f22799f35ba02a02e144,沙子shop,南秀村11号,江苏省,南京市,鼓楼区,13776579869,unknown,
baidu,4d5d294a1352c8d2adb22afc,上海路菜场,南京市鼓楼区汉口西路34号院东侧,江苏省,南京市,鼓楼区,19941514426,unknown,
baidu,2391c081cc7c9fee81a12e82,三福(山西路中央商场店),中山北路中央商场奥莱店一楼（近山百）,江苏省,南京市,鼓楼区,(025)58189397,unknown,
baidu,79c6457fe1db1c1116c90551,程潇烟酒,云南路54号(云南路地铁站4号口步行240米),江苏省,南京市,鼓楼区,(025)83311786,unknown,
baidu,1720ac8ad9d190c8130daadd,苏州路社区菜市场,苏州路17号苏州路17号公寓,江苏省,南京市,鼓楼区,,unknown,
baidu,538a996cfe9ebb9b49fc8d78,羲和商业广场,中山路286号(珠江路地铁站3号口步行440米),江苏省,南京市,玄武区,,unknown,
baidu,08e858e8303209bcc51e5153,五金杂货店,南京市鼓楼区南阴阳营南阴阳营小区-北区,江苏省,南京市,鼓楼区,13813972791,unknown,
baidu,70f706e1ac9f8213badf8f46,靖,南京市鼓楼区上海路158号院西北侧,江苏省,南京市,鼓楼区,,unknown,
baidu,6a9df78f0f36d15eafee7aa0,凤福铭炒货店,渊声巷24号（京川卤菜店旁）,江苏省,南京市,鼓楼区,18851149100,unknown,
baidu,108b1cea9e8811d23486f4be,双龙巷通信市场,双龙巷一号通信市场(鼓楼地铁站1号口步行470米),江苏省,南京市,玄武区,(025)68909798,unknown,
baidu,74bdd8a8f5e49d89c9e33c03,炒货休闲食品店,江苏省南京市鼓楼区宁海路街道南阴阳营5号,江苏省,南京市,鼓楼区,18055534232,unknown,
baidu,d60ed5d39873408485420e00,站驿风民,南京市鼓楼区上海路国家电网江苏省电力大厦南侧,江苏省,南京市,鼓楼区,,unknown,
baidu,9f088b4a17c95c2f4251c046,七彩服装店,江苏省南京市鼓楼区西桥5号北楼,江苏省,南京市,鼓楼区,13057668255,unknown,
baidu,3e8cc651c5f8e61d85420e03,镭超建材店,江苏省南京市鼓楼区云南路27号,江苏省,南京市,鼓楼区,13401921249,unknown,
baidu,7eea69242a8eb2a3fb2213d4,好的便利(南京市鼓楼公园店),北京西路鼓楼公园西北侧约80米,江苏省,南京市,鼓楼区,(025)85328113,unknown,
baidu,fccd3bbe2540e20fab0dd8e1,沙仑(五条巷小区西苑店),南京市鼓楼区云南路地铁站4号口步行410米,江苏省,南京市,鼓楼区,,unknown,
baidu,2838615690ad8b721b11d5a7,凡鲜凡美团购店(云南路店),江苏省南京市鼓楼区湖南路街道云南路26号中国移动旁,江苏省,南京市,鼓楼区,,unknown,
baidu,e1f25fa6d44310bde9f8533f,和县蔬果平价店,江苏省南京市鼓楼区南阴阳营32号,江苏省,南京市,鼓楼区,,unknown,
baidu,2903ee9e7884332ad81318b4,点缀服饰(南阴阳营),南京市鼓楼区南阴阳营32号,江苏省,南京市,鼓楼区,,unknown,
baidu,24245592c1fe55cec7f50dd6,贵族佳人(五条巷小区西院店),江苏省南京市鼓楼区西桥10~11号,江苏省,南京市,鼓楼区,,unknown,
baidu,2bd47aa1700fa05915c90528,丽人服饰(鼓楼五条巷店),江苏省南京市鼓楼区云南路西桥8号,江苏省,南京市,鼓楼区,13813886490,unknown,
baidu,3c6f4a777b19d5c0213bf264,玉明切面店,江苏省南京市鼓楼区湖南路街道二条巷一巷8号,江苏省,南京市,鼓楼区,,unknown,
baidu,3b7dc3ceffc640837069d3bd,玥玛锁具专卖店,西桥8-10号,江苏省,南京市,鼓楼区,,unknown,
baidu,e2662fbbe9ecc5ff07026f04,贡锦云锦织造厂(北京西路),江苏省南京市鼓楼区湖南路街道北京西路8号,江苏省,南京市,鼓楼区,025-83610503,unknown,
baidu,f9a62424679e6ce915764305,兴旺烟酒店(金银街店),上海路158号一幢(云南路地铁站2号口步行190米),江苏省,南京市,鼓楼区,15366055221,unknown,
baidu,adc6532decb7e5e6ad080ffa,东西特色外贸服饰(上海路店),上海路181号-4附近,江苏省,南京市,鼓楼区,13505158617,unknown,
baidu,d5934929a88fb3cbe50738ab,辉煌旧书店,鼓楼四条巷3号院东北门旁,江苏省,南京市,鼓楼区,13451860926,unknown,
baidu,44f8eaf76b2628c61ff74d27,足力健老人鞋(云南路店),江苏省南京市鼓楼区云南路27号,江苏省,南京市,鼓楼区,13813081214,unknown,
baidu,0b79b7d4af3480c5f5c59c69,雅迪电动车(云南路旗舰店),江苏省南京市鼓楼区云南路17-1号,江苏省,南京市,鼓楼区,15105195607,unknown,
baidu,f4450fc169132ddeadcb6695,新日电动车(云南路工厂直营店),江苏省南京市鼓楼区云南路17号,江苏省,南京市,鼓楼区,15105195607,unknown,
baidu,25ec69fcce16ad64c26c1433,学人旧书店(中山路店),汉口路48号,江苏省,南京市,鼓楼区,13951693707,unknown,
baidu,d7ef1b57178756ac0b1cc717,孩童之家童装馆,江苏省南京市鼓楼区上海路153号(云南路地铁站2号口步行440米),江苏省,南京市,鼓楼区,13813907075,unknown,
baidu,820763f8a0b7772cc7f02598,拾伍象文创,江苏省南京市鼓楼区湖南路街道南秀村7-3号,江苏省,南京市,鼓楼区,18958646359,unknown,
baidu,66cad534fea1135e6e20b90a,汤小青重庆豆花饭(西桥店),鼓楼西桥242-4号,江苏省,南京市,鼓楼区,15380895069,unknown,
baidu,1bf85b25cc9735bda1a9342b,先锋书店(五台山店),广州路173号五台山体育馆地下车库,江苏省,南京市,鼓楼区,(025)83711455,unknown,
baidu,381caccd1b14d15e441a32f8,先锋颐和书馆(颐和路店),江苏路39号,江苏省,南京市,鼓楼区,(025)83325082,unknown,
baidu,dd5073723402507476e5b671,有间鞋店(上海路店),江苏省南京市鼓楼区上海路157-1号,江苏省,南京市,鼓楼区,18260034577,unknown,
baidu,0f8749a8adcf0ef8da2f28bb,南京李师傅黄金珠宝私人订制(老店),南京市鼓楼区中山北路107-141号山西路百货大楼F1,江苏省,南京市,鼓楼区,13605176299,unknown,
baidu,e30fe12633d5c5b18bdb73f7,果珍甜(上海路店),南阴阳营3单元22号(云南路地铁站2号口步行460米),江苏省,南京市,鼓楼区,15150303322,unknown,
baidu,fbdad153d4ec5ba30e0e6b37,羲和奇点书集(羲和广场店),中山路286号羲和广场1F东南角,江苏省,南京市,玄武区,(025)84519999,unknown,
baidu,87fd365900f18cfa2b11d15a,电子烟体验店,江苏省南京市鼓楼区五老村新巷7-2号,江苏省,南京市,鼓楼区,,unknown,
baidu,012db0f1e7d296083f9a5e79,荣氏烟酒(云南路店),云南路52号,江苏省,南京市,鼓楼区,(025)83266232,unknown,
baidu,8cba4bb06d9eb484ad045759,宣郎广茶庄,上海路145号,江苏省,南京市,鼓楼区,13512531886,unknown,
baidu,51723a173a8cf86f5bf6beb8,姐弟水果店(南阴阳营店),南阴阳营小区南区北6门旁,江苏省,南京市,鼓楼区,,unknown,
baidu,13f8f25fded104f6f02d8314,得力文具(渊声巷店),江苏省南京市鼓楼区渊声巷24号,江苏省,南京市,鼓楼区,4001850555,unknown,
baidu,51bd75e834c4292fc336442a,桃李书屋,江苏省南京市鼓楼区北京西路15号江苏教育大厦一楼,江苏省,南京市,鼓楼区,,unknown,
baidu,3d3f4eb9da155645336212fc,华糖烟酒商行,南京市鼓楼区南秀村南北秀村小区(南大宿舍)南1门东南侧,江苏省,南京市,鼓楼区,,unknown,
baidu,cda5f3d4f6d966bbbb17e7b1,MF电子烟店,南京市鼓楼区云南路25号院西南侧,江苏省,南京市,鼓楼区,,unknown,
baidu,56e5e3dbbb2ba07a88b98800,福印板栗(汉口西路店),宁海路街道汉口西路22号(苏果超市门口),江苏省,南京市,鼓楼区,15155370686,unknown,
baidu,255907058ec4493a0b69d9eb,金星钟表眼睛店,宁海路90号,江苏省,南京市,鼓楼区,"(025)86081447,18795962480",unknown,
baidu,646fcb0e06a7a1923a13fde0,小芬烟酒店,宁海路106号(江苏省人民检察院北),江苏省,南京市,鼓楼区,13913922883,unknown,
baidu,ce122505b5440521fea7787b,五金水暖(鼓楼五条巷店),江苏省南京市鼓楼区御足阁南门旁(云南路地铁站4号口步行360米),江苏省,南京市,鼓楼区,18913957505,unknown,
baidu,16c8e4591879579e9cf779fd,针织衫店,江苏省南京市鼓楼区四条巷16-2号,江苏省,南京市,鼓楼区,13382783933,unknown,
baidu,6f796fb6d8cf08a3931fc9b3,陶谷五金店,汉口路1-2号陶谷新村1号,江苏省,南京市,鼓楼区,(025)83248317,unknown,
baidu,8cee619724fac99df8dc8598,霓彩,江苏省南京市鼓楼区上海路155号,江苏省,南京市,鼓楼区,15295510420,unknown,
baidu,706f543e3c7e31c48c55ec08,上海路菜场检测中心,江苏省南京市鼓楼区宁海路街道汉口西路22号上海路副食品中心市场,江苏省,南京市,鼓楼区,,unknown,
baidu,f318f91177c98cdaacee7ae8,元丰烟酒,南京市鼓楼区鼓楼二条巷鼓楼二条巷-9号院西北侧,江苏省,南京市,鼓楼区,,unknown,
baidu,694db74b05d210df2b201add,23°26′回归线外贸服饰,江苏南京市鼓楼区陶谷新村2326号,江苏省,南京市,鼓楼区,,unknown,
baidu,a509cab0e93395ff9e82ea87,DEER FOREST花礼馆,宁海路90号102室（苏州路上）,江苏省,南京市,鼓楼区,18262621781,unknown,
baidu,74e67bb61ba6a2b49b68b4df,吉禾丝绸店,江苏省南京市鼓楼区上海路120号,江苏省,南京市,鼓楼区,18913383255,unknown,
baidu,70d3f1397dc09a902b02e1a1,李邮烟杂店,江苏省南京市鼓楼区宁海路90号院,江苏省,南京市,鼓楼区,,unknown,
baidu,1848d487da11ccebcac3dbe3,南京张元林建材店,江苏省南京市鼓楼区云南路48-1号,江苏省,南京市,鼓楼区,(025)86635932,unknown,
baidu,79f2a83a6005e085734b87aa,霞旺百货店(南阴阳营小区北区店),宁海路南阴阳营32号(云南路地铁站2号口步行490米),江苏省,南京市,鼓楼区,,unknown,
baidu,7b6386b1618919feaeb22a1a,美丽365品牌化妆品折扣店,江苏省南京市鼓楼区陶谷新村10-6号,江苏省,南京市,鼓楼区,,unknown,
baidu,2ac33610c9c9ea6656bfffd5,平价水果店,江苏省南京市鼓楼区苏州路103室,江苏省,南京市,鼓楼区,18217322283,unknown,
baidu,b55466892de461d50c0e6b79,外单精品,南京市鼓楼区上海路南阴阳营小区-北区,江苏省,南京市,鼓楼区,,unknown,
baidu,a0e60c5ddc07d3ebcb213d7b,Fairy(Kiss店),御足阁南门西100米(云南路地铁站4号口步行430米),江苏省,南京市,鼓楼区,13655170081,unknown,
baidu,3073e3d976e95798f503b8d4,小邓门窗(云南路店),江苏省南京市鼓楼区云南路19号,江苏省,南京市,鼓楼区,13770919084,unknown,
baidu,71fa9c40d4924ae76240a9ee,六合牛肉(南阴阳营店),南京市鼓楼区南阴阳营小区-北区,江苏省,南京市,鼓楼区,,unknown,
baidu,8d91a13cbb0bf05d5810931f,鑫玻璃移门,江苏省南京市鼓楼区云南路21-3号,江苏省,南京市,鼓楼区,,unknown,
baidu,f4a8f0d64fc5e96d901fc917,佰俐买手集合店,江苏省南京市鼓楼区西桥街12号,江苏省,南京市,鼓楼区,19844563173,unknown,
baidu,675afe53f7e1224c6e20b9ef,广盛门窗装饰(渊声巷43号院店),江苏省南京市鼓楼区渊声巷45号,江苏省,南京市,鼓楼区,(025)83302434,unknown,
baidu,c3a42e24603e64789d82eaf9,创佳门窗装饰部(渊声巷),江苏省南京市鼓楼区渊声巷28号,江苏省,南京市,鼓楼区,"(025)83986449,13770932698",unknown,
baidu,7a264b016eeb220f2102627b,湖南路街道南秀村社区党群服务中心,江苏省南京市鼓楼区金银街17号小区,江苏省,南京市,鼓楼区,(025)83314839,unknown,
baidu,968362b79e161da528201a18,湘辉快印,上海路209号-1楼104室,江苏省,南京市,鼓楼区,13912988976,unknown,
baidu,ebeec94f0b6cdbbf97ec84e0,尚彩优印快印工坊,湖南路街道北京西路8号,江苏省,南京市,鼓楼区,15005155502,unknown,
baidu,9382c279611c130e52e5c570,菜鸟驿站(南京上海路158号金银街兴旺小店),江苏省南京市鼓楼区上海路158号-1幢-2单元,江苏省,南京市,鼓楼区,15366055221,unknown,
baidu,8a8a2719775eae3e5dbe868d,鸿飞印务图文(北京西路10号院店),江苏省南京市鼓楼区北京西路10号1栋3单元506室,江苏省,南京市,鼓楼区,(025)83318645,unknown,
baidu,05994bcdf6d249cc78b55ca3,浩裕图文(北京西路10号院店),北京西路10号北京西路10号院,江苏省,南京市,鼓楼区,"(025)83221534,13770313916",unknown,
baidu,62204f3f88c8fab1dbd89149,国网电力公司综合服务中心,江苏省南京市鼓楼区北京西路20号,江苏省,南京市,鼓楼区,,unknown,
baidu,268cb5819582211257bfffc7,公共厕所,江苏省南京市鼓楼区鼓楼四条巷与西桥交叉口西南方向50米,江苏省,南京市,鼓楼区,,unknown,
baidu,56e88cba6ef9a465a4c7565b,公共厕所,江苏省南京市鼓楼区南阴阳营小区-南区,江苏省,南京市,鼓楼区,,unknown,
baidu,04c75ddf8ab929aa0aa8d4cd,洗手间,南京市鼓楼区西南路吕志和游泳馆,江苏省,南京市,鼓楼区,,unknown,
baidu,3a5febb82b429fc11f3894e6,千字文图文广告,云南路29-1号(云南路地铁站4号口步行180米),江苏省,南京市,鼓楼区,,unknown,
baidu,e3553ab4f0a37c1b6ca3cc4c,公厕,江苏省南京市鼓楼区南阴阳营小区-南区,江苏省,南京市,鼓楼区,,unknown,
baidu,31eb4b9c6ba1c60117b54b7f,公共厕所,江苏省南京市鼓楼区鼓楼街1号-1,江苏省,南京市,鼓楼区,,unknown,
baidu,2d0f416069d93c4c2cb90887,中通快递(鼓楼一部渊声巷分部),渊生巷50号106南大宿色区旁边院子内,江苏省,南京市,鼓楼区,95311,unknown,
baidu,a3b0d6166184bd5efb2213e9,南京市鼓楼房地产经营服务交易中心,云南路24号(云南路地铁站4号口步行400米),江苏省,南京市,鼓楼区,,unknown,
baidu,f1c26f9e92084482cac3db00,公共厕所,江苏省南京市鼓楼区上海路89号,江苏省,南京市,鼓楼区,,unknown,
baidu,176bfe813ac84a6feb12e43a,正华干洗店,江苏省南京市鼓楼区渊声巷28号,江苏省,南京市,鼓楼区,"13655188883,13739189988",unknown,
baidu,93814dfaf1b330db5cd4feff,斯马特数码快印(鼓楼店),湖南路街道北京西路2号（鼓楼地铁站6号口西行150米),江苏省,南京市,鼓楼区,17354171615,unknown,
baidu,fd65a58e194f353b26d2bbc7,老秦配钥匙门禁卡,江苏省南京市鼓楼区湖南路街道渊声巷6号,江苏省,南京市,鼓楼区,13851967166,unknown,
baidu,a6b2373b4e4f7c8314b54b17,甜舍宠物(南北秀村小区店),陶谷新村4-4栋103室,江苏省,南京市,鼓楼区,13770776200,unknown,
baidu,3dd90eee1f683cffce04ef38,康康服装店(鼓楼四条巷店),鼓楼四条巷3号一1,江苏省,南京市,鼓楼区,15996295986,unknown,
baidu,8a27b4e3c736c86810293548,宠伴小精灵连锁宠物店(鼓楼店),云南路西桥10号101室,江苏省,南京市,鼓楼区,"(025)83702182,15062220872",unknown,
baidu,32e2bfdb230e4e99f7231000,中国体育彩票(鼓楼五条巷店),江苏省南京市鼓楼区西桥10号103室,江苏省,南京市,鼓楼区,95086,unknown,
baidu,3239ec49a36ecf6177e5b654,豪帅制衣,陶谷新村1号1-6临,江苏省,南京市,鼓楼区,13851577521,unknown,
baidu,4230036250825722deee8bcd,宇鸿图文,云南路15-3号（云南路地铁站4号口步行390米）,江苏省,南京市,鼓楼区,18913940668,unknown,
baidu,b25b4b6e6796f42a465726c6,菜鸟驿站(南京五条巷西区11幢店),江苏省南京市鼓楼区五条巷1号大方巷小区西区11幢102室,江苏省,南京市,鼓楼区,,unknown,
baidu,e84c7e5bcf86a1c74f6d4646,米仓(上海路店),江苏省南京市鼓楼区上海路173号,江苏省,南京市,鼓楼区,13357702667,unknown,
baidu,8a9b2ce8d230b7f1abf0cdc8,宏晟图文(渊声巷),南京市鼓楼区渊声巷24号,江苏省,南京市,鼓楼区,13382776338,unknown,
baidu,191918d69b9dbecebea24032,中国体育彩票(汉口西路店),南京市鼓楼区汉口西路22号苏果超市,江苏省,南京市,鼓楼区,95086,unknown,
baidu,56bb742c479fef7bd5b74e37,爪爪萌宠物用品店,鸿德大厦A704,江苏省,南京市,鼓楼区,18066033468,unknown,
baidu,293a2e803d4fba00ed74f81d,中国体育彩票(汉口路店),南京市鼓楼区陶谷新村名人花园,江苏省,南京市,鼓楼区,95086,unknown,
baidu,63fe17591d318093f219370d,中国福利彩票(西桥店),江苏省南京市鼓楼区宁海路街道西桥29号1单元,江苏省,南京市,鼓楼区,954168,unknown,
baidu,d5464cf8ce535429fca77882,公共厕所,江苏省南京市鼓楼区大方巷87号,江苏省,南京市,鼓楼区,,unknown,
baidu,320fd32d67629e7d79dbd2d0,公厕,南京市鼓楼区江苏路大方新村小区,江苏省,南京市,鼓楼区,,unknown,
baidu,c2ae6656c2350990f6c59c73,鼓楼区人才市场,南京市鼓楼区鼓楼二条巷华阳大厦(鼓楼街),江苏省,南京市,鼓楼区,,unknown,
baidu,a40d33e2e428666e2806ce2e,鸿园快修,西桥12号102室,江苏省,南京市,鼓楼区,17372967281,unknown,
baidu,df45dca742697cc684154110,阿俊宠物,云南路17号2层,江苏省,南京市,鼓楼区,13813397181,unknown,
baidu,c4cdaf856a5e66acf2193722,中国体育彩票(鼓楼新村店),江苏省南京市鼓楼区西桥29号,江苏省,南京市,鼓楼区,18951667776,unknown,
baidu,06d2dffd687769f689f15daf,公共厕所,南京市鼓楼区天目路天目华庭1栋,江苏省,南京市,鼓楼区,,unknown,
baidu,a831315dc465189fd22dd6a5,南缘照相,汉口路61号,江苏省,南京市,鼓楼区,(025)83200486,unknown,
baidu,54e4fb51ca0f3d3dbd4842c1,丰巢(南秀大厦店),江苏省南京市鼓楼区汉口西路1号南秀大厦F1,江苏省,南京市,鼓楼区,,unknown,
baidu,82500dc1e19e95e73310af46,公厕,江苏省南京市鼓楼区五条巷小区-东区,江苏省,南京市,鼓楼区,,unknown,
baidu,0adce3e2fffd1f1f80a00c7f,公共厕所,江苏省南京市鼓楼区青岛路59号,江苏省,南京市,鼓楼区,,unknown,
baidu,bcaebff89b40b82ac8e33ca2,公厕,邮政大厦(北门)附近,江苏省,南京市,鼓楼区,,unknown,
baidu,b2f1765acf549fcd02ff2dd7,辉煌高价回收,南京市鼓楼区鼓楼四条巷鼓楼四条巷-3号院,江苏省,南京市,鼓楼区,,unknown,
baidu,24cd14d1385bc3552cb96d17,圆通速递(西桥店),西桥23号西桥花苑,江苏省,南京市,鼓楼区,95554,unknown,
baidu,933e038e2bc9471226d2bb43,华石印屋(鸿德大厦店),云南路20号鸿德大厦102室,江苏省,南京市,鼓楼区,,unknown,
baidu,9a0d06a656ae901fa90dd853,公共厕所,江苏省南京市鼓楼区北京西路51号,江苏省,南京市,鼓楼区,,unknown,
baidu,b0d056f28df6e900cac3db7f,公共厕所,鼓楼四条巷20号附近,江苏省,南京市,鼓楼区,,unknown,
baidu,f4460918d91d006ab11e3655,中国邮政(北京西路邮政支局),江苏省南京市鼓楼区北京西路49号,江苏省,南京市,鼓楼区,(025)83710061,unknown,
baidu,2955d906338c95c500ec01d8,五环大厦省体彩中心,江苏省南京市鼓楼区广州路191号,江苏省,南京市,鼓楼区,,unknown,
baidu,be1ea5efc732acc115948ea2,公共厕所,广州路173号五台山体育场,江苏省,南京市,鼓楼区,,unknown,
baidu,8baa0341c76e58a7f90cad75,速洁洗衣(名人花园店),汉口路48-1号,江苏省,南京市,鼓楼区,"15705651185,17805123042",unknown,
baidu,25ec69fcb1937c7dc26c1454,中国邮政(广州路邮政支局),广州路101号广海大厦1层,江苏省,南京市,鼓楼区,"(025)11185,(025)83603923",unknown,
baidu,314be4622514a9e78c55ecec,公厕,安仁街鼓楼广场,江苏省,南京市,玄武区,,unknown,
baidu,5d034740e515f8aa8f1a8913,公共厕所,狮子桥39号,江苏省,南京市,鼓楼区,,unknown,
baidu,3658ce456f208e967bf7964f,麦当劳(南京宁海路店)-洗手间,南京市鼓楼区宁海路122号南京师范大学随园校区(近五台山体育馆北门),江苏省,南京市,鼓楼区,,unknown,
baidu,f98268357e2c859bb23c81b4,南京电信局,南京市玄武区中央路2号,江苏省,南京市,玄武区,18951775123,unknown,
baidu,c0c839c90a34db111288240b,龙人广告,江苏省南京市鼓楼区鼓楼四条巷40号院旁,江苏省,南京市,鼓楼区,18905178655,unknown,
baidu,3b39799cde7e8309b020a8ed,把握家政,江苏省南京市鼓楼区苏州路8号,江苏省,南京市,鼓楼区,,unknown,
baidu,b70542ae9b2fd41676e5b694,洞庭山桶装水送水(龙江水站),江苏省南京市鼓楼区西桥89号,江苏省,南京市,鼓楼区,"051287821802,19951305689",unknown,
baidu,d9be87ed6f025dcb2fe67bb2,公共厕所,丹凤街石婆婆巷小区,江苏省,南京市,玄武区,,unknown,
baidu,3da907f302f0d32db320a85a,公共厕所,吉兆营52号,江苏省,南京市,玄武区,,unknown,
baidu,46aab7eadff3af64c056acdf,江苏省人才市场,江苏省南京市鼓楼区广州路213号,江苏省,南京市,鼓楼区,,unknown,
baidu,2527be1e142172cd4afc8dcd,公共厕所,江苏省南京市玄武区天创大厦(唱经楼西街北),江苏省,南京市,玄武区,,unknown,
baidu,b13df60c57b612f895f08c12,公共厕所,南京市鼓楼区四卫头江苏路140号,江苏省,南京市,鼓楼区,,unknown,
baidu,bdcfefcea8d740833a04b1cb,昌华服装加工修改,南京市鼓楼区苏州路29号小区,江苏省,南京市,鼓楼区,13601450695,unknown,
baidu,ed78606eac27e3f7c92915dc,鼎旺房地产,江苏省南京市鼓楼区云南路7号,江苏省,南京市,鼓楼区,,unknown,
baidu,34307bc77bd47f452811d178,文顺数码快印,江苏省南京市鼓楼区云南路20号鸿德大厦A座902室,江苏省,南京市,鼓楼区,15895829391,unknown,
baidu,39a369972e506478bb17e7b6,泛韩物流有限公司(南京办事处),鼓楼街88号绿地广场国际商务中心12层1201-1204室,江苏省,南京市,鼓楼区,,unknown,
baidu,9a7dc53015a044c2471a32bd,南京怡华酒店-洗手间,江苏省南京市鼓楼区中山北路49号江苏机械大厦1楼,江苏省,南京市,鼓楼区,,unknown,
baidu,a363590508a06d5d9122e0a2,环亚凯瑟琳广场-公共厕所,江苏省南京市玄武区北京东路环亚凯瑟琳广场,江苏省,南京市,玄武区,,unknown,
baidu,326df82dea3207505fd4fe06,农情暖域工会驿站(农行南京云南路支行),江苏省南京市鼓楼区云南路1号,江苏省,南京市,鼓楼区,,unknown,
baidu,664debda6957c7fb40024565,怪兽充电(见舍),南京市鼓楼区金银街20号,江苏省,南京市,鼓楼区,4006703303,unknown,
baidu,8fde79ccbf7a98bf95ca0754,国家电网江苏省电力公司-北区(北区),江苏南京市鼓楼区北京西路20号,江苏省,南京市,鼓楼区,,unknown,
baidu,ca278b5a5050b5f43a04b1a9,街电(成都娃娃花园餐厅南秀村店),南京市鼓楼区上海路南秀村18号,江苏省,南京市,鼓楼区,4006868588,unknown,
baidu,344249493d477a35bd4842f3,云南路摩托车电动车维修,江苏省南京市鼓楼区云南路21-4号,江苏省,南京市,鼓楼区,,unknown,
baidu,7ca4e0695ab5b4fe2ce67b73,江苏省职业介绍中心(鼓楼街),江苏省南京市鼓楼区鼓楼街5号华阳大厦2层,江苏省,南京市,鼓楼区,"(025)83233822,(025)83233825,(025)83233826,(025)83233836",unknown,
baidu,9331c49f9864c71800ff2df7,KEEP More·上海路85号无猫不欢猫咪世界·猫咖,上海路85号-2（可可托海隔壁）,江苏省,南京市,鼓楼区,17766063565,unknown,
baidu,3c455eda360f5d60c51b75f0,链家(苏州路店),苏州路6号108室南京苏州路,江苏省,南京市,鼓楼区,10109666,unknown,
baidu,d24e48eb1c747bcaaeee7ab3,中国电信(云南路营业厅),江苏省南京市鼓楼区云南路3号,江苏省,南京市,鼓楼区,(025)83272877,unknown,
baidu,1530cd851ce1bbc641afe6ac,广润房产,江苏省南京市鼓楼区陶谷新村1-5号临,江苏省,南京市,鼓楼区,"13851709939,18915977498",unknown,
baidu,36cc4131c985d016441a32e5,住商不动产(西桥公寓店),江苏省南京市鼓楼区西桥12号,江苏省,南京市,鼓楼区,13914766329,unknown,
baidu,5fcff24d73b878e022f0175f,中国电信(大钟亭营业厅),江苏省南京市玄武区大钟亭6号,江苏省,南京市,玄武区,(025)83619307,unknown,
baidu,92ebafbae2296eee94031909,南京怡华酒店-大堂,南京市鼓楼区中山北路45号,江苏省,南京市,鼓楼区,,unknown,
baidu,a165219e905775f4ca1b9572,废品收购站,南京市鼓楼区鼓楼新村西桥花苑西北侧,江苏省,南京市,鼓楼区,13451897895,unknown,
baidu,a9ad263e2e657772abf72943,纵贯图文广告,江苏省南京市鼓楼区宁海路175号,江苏省,南京市,鼓楼区,15151865653,unknown,
baidu,89052990328985f6f02d8344,街电(怡华天厨),南京市鼓楼区湖南路街道中山北路45号怡华酒店4楼,江苏省,南京市,鼓楼区,4006868588,unknown,
baidu,4ce30ca6ac66c99fafee7a8c,沈浩工作室,宁海路街道上海路209号101-2（百家超市对面）,江苏省,南京市,鼓楼区,"(025)83751323,13777006017",unknown,
baidu,b672b7ba8e16fcc058f6be3c,Rainbow salon,上海路209号2幢102室,江苏省,南京市,鼓楼区,13016997059,unknown,
baidu,37956f5e36dbac57eaf8535d,百年丽人(湖南路店),云南北路49号天星翠琅大厦5层,江苏省,南京市,鼓楼区,(025)83206069,unknown,
baidu,8818f1f0a535ce15c7f0250a,森田造型美学,南秀村14号,江苏省,南京市,鼓楼区,,unknown,
baidu,2a79ca1a9878aef8bfa82293,LZ造型,渊声巷13号101室,江苏省,南京市,鼓楼区,,unknown,
baidu,6671ea9a8af7279158f6be8e,宫延楼热灸养生馆(西桥店),西桥12号107室,江苏省,南京市,鼓楼区,,unknown,
baidu,02c634aaf079f8d4c4f0259e,天悦美容,江苏路60-4号临,江苏省,南京市,鼓楼区,15905177000,unknown,
baidu,108b1cea63bf06b53486f4e6,金夫人美容(湖南路店),湖南路狮子桥2号临街店铺  3楼（尹氏汤包隔壁）,江苏省,南京市,鼓楼区,(025)83244900,unknown,
baidu,890de6529ce272cefe0eb063,奕妍科技美肤中心(江苏商厦店),南京市中山北路28号1713室,江苏省,南京市,鼓楼区,,unknown,
baidu,e6aa0ec0a3cb7f7a593ac831,美丽田园(荔枝广场店),北京东路4号（江苏电视总台荔枝广场4楼）,江苏省,南京市,玄武区,(025)85513557,unknown,
baidu,2d6ba8518751bb359a0050c0,ABRIR156美肤·心SPA中心(汉口西路店),汉口西路154号院子内1楼门面房ABRIR156美肤品牌,江苏省,南京市,鼓楼区,(025)83369518,unknown,
baidu,3a7b52392aa1c084e011034b,TRYBETTER川北造型(上海路店),上海路96号,江苏省,南京市,鼓楼区,17312277525,unknown,
baidu,74c915079a2a25324c6d46a1,清秀美发造型,西桥12号二单元105室,江苏省,南京市,鼓楼区,18761885859,unknown,
baidu,c99487699a594f9d2811d1cc,Miss Li美甲美睫美妆,渊声巷4号（城市名人酒店对面巷子口理发店的旁边）,江苏省,南京市,鼓楼区,,unknown,
baidu,9496327bc7fee81b5ed4fe45,Up艾朴半永久皮肤管理工作室,中山北路28号江苏商厦1615,江苏省,南京市,鼓楼区,"15365007600,17372262833",unknown,
baidu,6edc95366260fb26cc06a471,小薰名阁·专业祛痘问题肌管理(鼓楼店),中山北路105号军人俱乐部内中环国际酒店式公寓3606室,江苏省,南京市,鼓楼区,13912979575,unknown,
baidu,74171073925d97d76fc02c8d,小红理发店,厚载巷58-2号临私家厨房(厚载巷60号近城市名人酒店)湖北路4-1号,江苏省,南京市,鼓楼区,13770314198,unknown,
baidu,7caee5eef84743cc770269ea,高云造型,厚载巷33号,江苏省,南京市,鼓楼区,13770819011,unknown,
baidu,87a31c448a98f21ad42ce291,飘纱坊美发(汉口路南大店),"汉口路61-6号（南大旁,汉口路与青岛路路口）",江苏省,南京市,鼓楼区,15050549452,unknown,
baidu,70bd89bab86e5f4ae9f8539a,H M ART SALON(云南路店),鼓楼四条巷与云南路交汇处南80米（38号对面）,江苏省,南京市,鼓楼区,,unknown,
baidu,46aa89d868d56496f7b91648,甲如有你美甲美睫皮肤管理,大方巷2号,江苏省,南京市,鼓楼区,"18501418111,18994042440",unknown,
baidu,55d664a88f9e3c742fb17e8d,CHARMING姹而明·美容沙龙(上海路店),上海路154号1室(云南路地铁站2号口步行280米),江苏省,南京市,鼓楼区,(025)83317734,unknown,
baidu,63bc7f45f2ab70dbb23c8163,西柚美学(南师校区),广州路228号易发科技大厦4楼401室,江苏省,南京市,鼓楼区,18020105671,unknown,
baidu,2527be1e288e56aa4afc8d5b,发帝发型(上海路店),上海路145-1号,江苏省,南京市,鼓楼区,"(025)83303734,15020575596",unknown,
baidu,1d56abda6b17fd834657268f,影凡发型(西桥花苑店),云南路西桥23号(云南路地铁站4号口步行370米),江苏省,南京市,鼓楼区,,unknown,
baidu,475c44ff7fccae22d518b770,姐妹发型设计,渊声巷28号,江苏省,南京市,鼓楼区,,unknown,
baidu,dffd4642597848ab3d9a5e85,指尖蜜语美甲美睫(上海路店),上海路89-3号,江苏省,南京市,鼓楼区,(025)83307511,unknown,
baidu,0e4f076dbc8d956df50e77d6,鹿屋TATTOO纹身·原创定制店,汉口路48号,江苏省,南京市,鼓楼区,13951884509,unknown,
baidu,24d05508766e5fb613882495,农林美发(西桥公寓店),江苏路28号2号楼3单元404室,江苏省,南京市,鼓楼区,13382093209,unknown,
baidu,2e7232e7d93722be9403193f,小草发型设计,江苏省南京市鼓楼区四条巷18号,江苏省,南京市,鼓楼区,13814054046,unknown,
baidu,bb4d19480f0fb0cfb020a827,S·W科技护肤体验中心(紫峰购物广场店),湖南路街道中山北路6号紫峰购物广场5层(乐刻健身旁),江苏省,南京市,鼓楼区,17301375505,unknown,
baidu,73f2f361da0130c4ce04ef6d,君梅发艺(大方巷店),大方巷1号甲101室,江苏省,南京市,鼓楼区,13851706382,unknown,
baidu,d050d7f7b6a62f815bbbbc18,云南路专业烫染店,南京市鼓楼区鼓楼四条巷云南路17号院,江苏省,南京市,鼓楼区,,unknown,
baidu,6479b70fc06e39208a36ee33,美发(匡芦路),江苏省南京市鼓楼区匡芦路14号1室,江苏省,南京市,鼓楼区,,unknown,
baidu,6716849e04c60bd2db13182d,T·G造型,三条巷18号（云南路电信大楼旁100米）,江苏省,南京市,鼓楼区,,unknown,
baidu,27895a5f5e038546f82d61b4,丝芙雅美甲美睫(西桥店),西桥236号,江苏省,南京市,鼓楼区,13405818492,unknown,
baidu,ecb53c306439adebfb2213a5,丝艺发型(南京鼓楼区),湖北路16-1号,江苏省,南京市,鼓楼区,13776623437,unknown,
baidu,b82e9629c226cc62fb2d61ab,发线美发艺(匡芦路店),江苏省南京市鼓楼区宁海路街道匡庐路14号-101室,江苏省,南京市,鼓楼区,,unknown,
baidu,8dbf04bba15632d33913fd35,FLOWER SALON(紫峰购物广场店),紫峰购物广场5层B01,江苏省,南京市,鼓楼区,"(025)83518280,18061730896",unknown,
baidu,16134bebac2f8a31b35c6a91,英仔造型(五条巷小区店),西桥12号,江苏省,南京市,鼓楼区,13814114682,unknown,
baidu,0ce65c2de198f3402d473377,绿镜台专业美发(苏州路18号院店),苏州路16号102室,江苏省,南京市,鼓楼区,13770756566,unknown,
baidu,096009bee5443c3142e192aa,天空造型,江苏省南京市鼓楼区西桥236号,江苏省,南京市,鼓楼区,13770575898,unknown,
baidu,90e201ec7a8a6c5295ca0737,九点造型,湖北路10-11号,江苏省,南京市,鼓楼区,17600403064,unknown,
baidu,47ee0528e5822f7ef603b8e5,樊文花面部护理连锁(鼓楼吾悦店),湖北路51号吾悦广场3层305号,江苏省,南京市,鼓楼区,15862901067,unknown,
baidu,83c0842718ec8b224d554766,颜与你·美肤美睫,中山北路45号怡华酒店1层,江苏省,南京市,鼓楼区,,unknown,
baidu,00b91b3ce9066ed2f60e77d6,杜姐美甲,江苏省南京市鼓楼区渊声巷8号,江苏省,南京市,鼓楼区,13851483816,unknown,
baidu,d2d94f5e0d0c55ec17c8f67f,南京纹身大为刺青(世界贸易大厦店),湖南路街道山西路67号世贸大厦A座9楼905室,江苏省,南京市,鼓楼区,"13057606222,13813964743",unknown,
baidu,3d8cda632c8d0c59aecb66da,藤野造型(山西路中央商场烫染接发店),中山北路86号中央城市奥莱5楼,江苏省,南京市,鼓楼区,18285769854,unknown,
baidu,b7c1c38be83b4e61b2077d14,山南发廊(山西南村小区店),大方巷87号1幢103室,江苏省,南京市,鼓楼区,13851983598,unknown,
baidu,c2258ef4d281fad59cec2b28,梁仔造型,傅佐路17-6号(近中环国际广场),江苏省,南京市,鼓楼区,13951602646,unknown,
baidu,b226a18cb011f02914b54b60,丝艺发型工作室(天目路店),天目路26号天目路28号,江苏省,南京市,鼓楼区,13951767463,unknown,
baidu,bd5046e80ff4e958d62ce293,新概念专业美发(山西路店),江苏路60号-10临（世贸大厦停车场出口处）,江苏省,南京市,鼓楼区,17351780111,unknown,
baidu,ecd1563720c8bbdbfea77843,春泥发型沙龙,湖北路10-8号,江苏省,南京市,鼓楼区,13851888610,unknown,
baidu,0d2e484829d2892b8f1a89ec,Mr·JUDY洗个头发(鼓楼·荔枝广场店),北京东路4号荔枝广场3楼,江苏省,南京市,玄武区,"15779888742,18516369081",unknown,
baidu,f9930602b38393c432870a51,永亮发型,车站东巷6-3号(鼓楼地铁站4A口步行320米),江苏省,南京市,鼓楼区,(025)83320536,unknown,
baidu,95e3f0c5061750702102620d,丝舞秀造型连锁总店(南京总店),江苏省南京市鼓楼区苏州路6号,江苏省,南京市,鼓楼区,,unknown,
baidu,13912a9d3fd9c887f7e73beb,Ni Na美甲美睫(中环国际广场店),中山北路105号中环国际商务楼1502室,江苏省,南京市,鼓楼区,18151666672,unknown,
baidu,279a3c217f2ac528c06c146f,倾意纤养科技瘦身·熙木森(山西路店),山西路67号世贸中心大厦A2座1106,江苏省,南京市,鼓楼区,18168402459,unknown,
baidu,d122004568161939eedfca8e,润妍生·瘦身型体中心(鼓楼店),山西路67号世贸中心大厦A1座1909,江苏省,南京市,鼓楼区,"18114809109,18114929115",unknown,
baidu,05dd7d5f312e4618ac080f94,肯尼造型(钱塘路店),钱塘路2号101室,江苏省,南京市,鼓楼区,13951612302,unknown,
baidu,d8ca07505fe21f9eacee7acd,藤野造型(珠江路华利国际大厦烫染接发店),珠江路67号华利国际大厦北门入口20楼2002室（新世界百货斜对面）,江苏省,南京市,玄武区,(025)57795521,unknown,
baidu,18f4270c966718ad52e5c5fa,ABRIR156日式美甲美睫(汉口西路店),汉口西路156号ABrir156美甲店（创意美发隔壁）,江苏省,南京市,鼓楼区,"(025)86525065,19951953092",unknown,
baidu,4eb1e88293fb242f30169bad,SALON+HICHI(绿地中心紫峰购物广场店),江苏省南京市鼓楼区中山北路6号绿地中心·紫峰购物广场F5,江苏省,南京市,鼓楼区,15708475818,unknown,
baidu,b13081b0fac4eb68a2a9340c,新秀丽美甲美睫(易发科技大厦店),易发科技大厦902,江苏省,南京市,鼓楼区,,unknown,
baidu,64924f3e1d917c8c095cb3bd,YY美甲美睫(大方巷店),湖南路街道大方巷40号,江苏省,南京市,鼓楼区,15312036817,unknown,
baidu,25736f87f4f5adea1ef74dad,甲情甲意美甲美睫,中山北路105号中环国际酒店公寓3723室,江苏省,南京市,鼓楼区,"(025)83232372,18151666672",unknown,
baidu,b84e3413b3f80794bd4842e7,艾兰慕德(世贸中心大厦店),山西路67号世贸中心大厦A1幢14层A15A10室,江苏省,南京市,鼓楼区,13072587208,unknown,
baidu,0ed20a15bcb79f8e57bfff5d,浪涛发型(汉中路店),汉中路208号,江苏省,南京市,秦淮区,(025)86537863,unknown,
baidu,5748758694aa19d0f02d8305,美甲小铺,中山北路105号中环国际公寓44楼4418室,江苏省,南京市,鼓楼区,13951822699,unknown,
baidu,a27c367ba3bef0273062128a,灵熙美甲美睫纹绣(中环国际店),傅佐路中环国际广场公寓楼42楼4219室,江苏省,南京市,鼓楼区,"13770970869,18652060816",unknown,
baidu,7c5e480b0c926badacb22aba,春泥造型(居安里片区店),进香河路居安里1号103室,江苏省,南京市,玄武区,15295532373,unknown,
baidu,07f3c8b564d1707a6340a9be,永琪美容美发(长江路店),新街口街道估衣廊长江花园12号(近长江路),江苏省,南京市,玄武区,(025)84702636,unknown,
baidu,39c58cd42662ed083ee231ae,MU CHUN SALON(马台街店),马台街90号（河马生鲜向北150米，新四方美食城斜对面）,江苏省,南京市,鼓楼区,13813899083,unknown,
baidu,36de22cb693338da48fc8ddd,佲剪世家男士发型设计(南京店),金轮新天地A区401（商场4楼）,江苏省,南京市,鼓楼区,17326117652,unknown,
baidu,3ae80fb58107cafb21f01782,F HAIR(金轮店),汉中路8号金轮新天地A区2楼205,江苏省,南京市,鼓楼区,17714366551,unknown,
baidu,cff347eba05cc28fca09f004,ASIA QUEEN亚后(中山北路店),中山北路28号江苏商厦1308室,江苏省,南京市,鼓楼区,13057595595,unknown,
baidu,696033c6155c889b882fb51e,期五新生代男士发型(南京新街口店),汉中路8号金轮新天地二楼A203号,江苏省,南京市,鼓楼区,13600959884,unknown,
baidu,c61bd30529ecd568c27da2ed,古鸡鸣寺,江苏省南京市玄武区鸡鸣寺路1号,江苏省,南京市,玄武区,(025)57715595,unknown,
baidu,efb7c7fee40ee96bc056ac9a,马歇尔公馆旧址,南京市鼓楼区宁海路5号,江苏省,南京市,鼓楼区,,unknown,
baidu,7877ba5b909d59ed0a69d9bf,樱花大道,南京市玄武区鸡鸣寺路古鸡鸣寺,江苏省,南京市,玄武区,,unknown,
baidu,16f4ab63991db42f343a7176,颐和路11号民国建筑,江苏省南京市鼓楼区宁海路街道颐和路11号,江苏省,南京市,鼓楼区,,unknown,
baidu,33ccceb1d0a4c3d5b817e74e,南京国防园,江苏省南京市鼓楼区虎锯路87号(近虎踞南路),江苏省,南京市,鼓楼区,(025)83728950,unknown,
baidu,d305db1fc827d33e932ca3ed,大钟亭公园,大钟亭路1号,江苏省,南京市,玄武区,(025)57713865,unknown,
baidu,55aa77670172d304e01103e5,南京师范大学随园校区明妮魏特琳雕像,江苏省南京市鼓楼区宁海路122号,江苏省,南京市,鼓楼区,,unknown,
baidu,9eff1e47ff13ef0c14948ee8,泽存书库旧址,江苏省南京市鼓楼区颐和路2号,江苏省,南京市,鼓楼区,,unknown,
baidu,f4a33da9a5808f103010af45,鼓楼公园,江苏省南京市鼓楼区北京西路1-2号,江苏省,南京市,鼓楼区,(025)86634466,unknown,
baidu,7b9228b364a467f6b21e36cf,南京颐和路历史文化街区第十一片区,江苏省南京市鼓楼区宁海路50号,江苏省,南京市,鼓楼区,,unknown,
baidu,e275ab91264c7803c51b752e,原国民政府(外交部)旧址,南京市鼓楼区中山北路32号,江苏省,南京市,鼓楼区,,unknown,
baidu,08f1f1f5db98e0b488db7342,清凉山,江苏省南京市鼓楼区广州路83号,江苏省,南京市,鼓楼区,(025)83728013,unknown,
baidu,39d43f828120e486a8059ded,北极阁公园,江苏省南京市玄武区鸡鸣寺路1号,江苏省,南京市,玄武区,,unknown,
baidu,45bcd5b5c8c244009a68b484,南京城墙台城景区,解放门8号,江苏省,南京市,玄武区,(025)83217200,unknown,
baidu,7295f146dd89f3d2aeb22a10,颐和路13号民国建筑,江苏省南京市鼓楼区颐和路13号,江苏省,南京市,鼓楼区,,unknown,
baidu,75e7ddcc31646016276e980b,吉兆营清真寺,南京市玄武区吉兆营43号,江苏省,南京市,玄武区,(025)83605565,unknown,
baidu,f84c295e96695a81b020a880,鼓楼,古鸡鸣寺路1号古鸡鸣寺内,江苏省,南京市,玄武区,,unknown,
baidu,bb1d38e4c37ee54d0c0a705b,基督教江苏路堂,江苏省南京市鼓楼区江苏路60-10号,江苏省,南京市,鼓楼区,(025)83724547,unknown,
baidu,034fa82d09597bcf601c67bd,大钟亭,江苏省南京市玄武区大钟亭路1号大钟亭公园,江苏省,南京市,玄武区,(025)57713865,unknown,
baidu,825f40c87eb2634a79b55c04,南京消防博物馆,江苏省南京市鼓楼区湖南路街道北京西路1号-1,江苏省,南京市,鼓楼区,,unknown,
baidu,2a57676ce926c16ed33ce354,法国驻中华民国大使馆旧址,江苏省南京市鼓楼区北京西路19号,江苏省,南京市,鼓楼区,,unknown,
baidu,eeee75c70d8db04a16764319,江苏科技馆,江苏省南京市鼓楼区石头城路118号,江苏省,南京市,鼓楼区,"(025)83740011,(025)83759018,(025)83759030",unknown,
baidu,6c9fe726ef330fb986420e43,新石器时期北阴阳营古文化遗址,南京市鼓楼区北阴阳营8号,江苏省,南京市,鼓楼区,,unknown,
baidu,2c2bd9487c142391100daa62,樱洲,南京市玄武区玄武巷1号玄武湖公园内,江苏省,南京市,玄武区,,unknown,
baidu,4cf8d24e031fece49cf779ec,南京古生物博物馆,江苏省南京市玄武区北京东路39号,江苏省,南京市,玄武区,(025)83282255,unknown,
baidu,6c2dc4eaabc3d1826d20b9ca,乌龙潭公园,江苏省南京市鼓楼区广州路217号(省人民医院对面),江苏省,南京市,鼓楼区,(025)83714809,unknown,
baidu,0a46dc0f6bbf0e5e3062127d,石鼓路天主堂,南京市秦淮区石鼓路112号(近愁莫街),江苏省,南京市,秦淮区,(025)84706863,unknown,
baidu,606289fd3b875d30a30464bb,中英文化协会旧址,南京市鼓楼区北京西路41号,江苏省,南京市,鼓楼区,,unknown,
baidu,0cf872a0338558cdc61e5137,北丘当代美术馆,南京市玄武区北京东路1号环亚凯瑟琳广场F3,江苏省,南京市,玄武区,(025)86219156,unknown,
baidu,96b672aa99539975cf04efa0,吴贻芳纪念馆,南京市鼓楼区宁海路122号南京师范大学随园校区,江苏省,南京市,鼓楼区,(025)83720987,unknown,
baidu,3c4f8e4eb44d53692efaa7b5,鬼脸照镜,南京市鼓楼区石头城1号石头城遗址公园内,江苏省,南京市,鼓楼区,,unknown,
baidu,880785cbf8fb3178931fc9b3,陶谷新村19号民国建筑,南京市鼓楼区陶谷新村19号,江苏省,南京市,鼓楼区,,unknown,
baidu,3d7125b5ac4efbe9e5073877,大方巷7号建筑群-3,南京市鼓楼区大方巷7-5号,江苏省,南京市,鼓楼区,,unknown,
baidu,ea2e702991210e0d1df74dff,南京大学(鼓楼校区)-科技馆,江苏省南京市鼓楼区汉口路22号,江苏省,南京市,鼓楼区,,unknown,
baidu,d518f4954085fd34f4e73bc7,原郝钦铭寓所,江苏省南京市鼓楼区陶谷新村17号,江苏省,南京市,鼓楼区,,unknown,
baidu,df91eda4be5a291d57bfffbf,南京世界文学客厅,江苏省南京市玄武区北京东路37-5号,江苏省,南京市,玄武区,15295516652,unknown,
baidu,dc1ec5e9d1549db349cc4ab3,金陵大学旧址(鼓楼校区),南京市鼓楼区汉口路22号南京大学鼓楼校区,江苏省,南京市,鼓楼区,(025)83598010,unknown,
baidu,c8b5cdefee5cd91a130daa75,古林公园,江苏省南京市鼓楼区虎踞北路21号,江苏省,南京市,鼓楼区,(025)83700646,unknown,
baidu,694e59460e3320b7cd04efde,颐和路18号民国建筑,颐和路18号,江苏省,南京市,鼓楼区,,unknown,
baidu,c3fc8c2f1168850b2cb96d7e,和平公园,南京市玄武区北京东路43号,江苏省,南京市,玄武区,,unknown,
baidu,79364bb2b76792505b10930f,月季园,南京市玄武区玄武湖公园环洲内,江苏省,南京市,玄武区,(025)83614286,unknown,
baidu,e92191238cb9e046354aaebe,颐和路24号民国建筑,江苏省南京市鼓楼区宁海路街道颐和路24号,江苏省,南京市,鼓楼区,,unknown,
baidu,b9d12a41e1ed72c7ee74f89d,汉口路22号民国建筑群,江苏省南京市鼓楼区汉口路22号,江苏省,南京市,鼓楼区,,unknown,
baidu,cb186fc8a93229782902e1b2,南京师范大学随园校区德风园,南京市鼓楼区汉口西路南京师范大学(随园校区),江苏省,南京市,鼓楼区,,unknown,
baidu,8518586277ce767df4231066,李起化旧居,南京市鼓楼区颐和路9号,江苏省,南京市,鼓楼区,,unknown,
baidu,fa835ce2d43d1bb6e912e4a0,李宗仁公馆旧址,南京市鼓楼区傅厚岗30号后楼,江苏省,南京市,鼓楼区,,unknown,
baidu,4586b26e61b761e3081cc7a0,南京鼓楼医院-历史纪念馆,江苏省南京市鼓楼区中山路321号鼓楼医院内,江苏省,南京市,鼓楼区,,unknown,
baidu,563a1a8e58f12a4a5fbe868a,南京大学鼓楼校区北园-大礼堂,南京大学鼓楼校区北园大礼堂,江苏省,南京市,鼓楼区,,unknown,
baidu,a24667a8153a556cfd0eb0a8,南京艺术学院-美术馆,江苏省南京市鼓楼区虎踞北路15号,江苏省,南京市,鼓楼区,(025)83498761,unknown,
baidu,d027be1bdfeed76bc8c3db5f,薛岳旧居,南京市鼓楼区江苏路23号,江苏省,南京市,鼓楼区,,unknown,
baidu,3a8518b40adfcb9c21022067,原柳克宣寓所,南京市鼓楼区北京西路39号,江苏省,南京市,鼓楼区,,unknown,
baidu,a718caadea3903946c476078,任仲琅旧居,南京市鼓楼区颐和路16号,江苏省,南京市,鼓楼区,,unknown,
baidu,738e8e142c5787d2213bf2c2,傅抱石纪念馆,江苏省南京市鼓楼区汉口西路132号,江苏省,南京市,鼓楼区,(025)83732904,unknown,
baidu,8a41bd2680928a6c40afe6d6,大方巷7号建筑群-1,南京市鼓楼区大方巷7-3号,江苏省,南京市,鼓楼区,,unknown,
baidu,3cf91b478dc06a5db9df8f05,国民政府最高法院旧址,南京市鼓楼区中山北路101号,江苏省,南京市,鼓楼区,,unknown,
baidu,b01895ac71f03ead4354d7e0,祖焜厅,南京市鼓楼区三江路南京大学(鼓楼校区),江苏省,南京市,鼓楼区,,unknown,
baidu,16a8cb5c08bb1a6bc17da22d,大方巷7号建筑群-2,南京市鼓楼区大方巷7-1号,江苏省,南京市,鼓楼区,,unknown,
baidu,9b6b9d3ae5a3f571b23c81f6,南京大学丛葬地,江苏省南京市鼓楼区南秀村5号(南大北园西大门外),江苏省,南京市,鼓楼区,,unknown,
baidu,0c1f8906a454746a8bfc0668,马林医院旧址,江苏省南京市鼓楼区中山路321号,江苏省,南京市,鼓楼区,(025)83304616,unknown,
baidu,c01bf3b8fdc60ea0a4c756bb,南京市鼓楼区不可移动文物莫干路10号民国建筑,南京市鼓楼区莫干路琅琊路小学东侧约100米,江苏省,南京市,鼓楼区,,unknown,
baidu,e889a744f1ed2cc88705bfa1,南京大学(鼓楼校区)-校史博物馆,江苏省南京市鼓楼区汉口路22号南京大学鼓楼校区,江苏省,南京市,鼓楼区,(025)83597429,unknown,
baidu,eec468ccde9076404f3a59bf,颐和公馆-邓寿荃旧居,江苏省南京市鼓楼区江苏路颐和路公馆区第十二片区,江苏省,南京市,鼓楼区,,unknown,
baidu,fcc62b644cdd946ec33644ed,亚明纪念馆,南京市鼓楼区珞珈路15号,江苏省,南京市,鼓楼区,,unknown,
baidu,af686e2f06902a70d0ff233a,山阴路的夏天美术馆,江苏省南京市鼓楼区山阴路19号,江苏省,南京市,鼓楼区,,unknown,
baidu,dec7571073219e10c1f1cfe8,八路军驻京办事处旧址(一),江苏省南京市鼓楼区青云巷41号,江苏省,南京市,鼓楼区,(025)83210553,unknown,
baidu,3bb15b799c0c719f1ce999c8,南视觉美术馆,江苏省南京市鼓楼区中山北路30号城市名人酒店43层,江苏省,南京市,鼓楼区,13390799973,unknown,
baidu,2127a4a2fe27fcdfa11de985,南京特别市第六区区公所旧址,南京市鼓楼区江苏路39号,江苏省,南京市,鼓楼区,,unknown,
baidu,14d014a8a1786d7fc9e33c31,孙科旧居,南京市鼓楼区宁海路街道武夷路11号,江苏省,南京市,鼓楼区,,unknown,
baidu,3c7f4e722a3c1c9423f01701,原陈庆云寓所,江苏省南京市鼓楼区颐和路20号,江苏省,南京市,鼓楼区,,unknown,
baidu,21e859796ea8e697095cb348,原陈布雷寓所(二),南京市鼓楼区江苏路15号,江苏省,南京市,鼓楼区,,unknown,
baidu,24b3d0598614c325d92f2802,傅厚岗32号民国建筑,傅厚岗32号,江苏省,南京市,鼓楼区,,unknown,
baidu,3548130987349887abf0cd0c,拉贝旧居,广州路小粉桥1号,江苏省,南京市,鼓楼区,(025)83597227,unknown,
baidu,9e73c3d230e029f1455726cb,南京大学(鼓楼校区)-赛珍珠故居,江苏省南京市鼓楼区汉口路22号南京大学鼓楼校区(近广州路),江苏省,南京市,鼓楼区,,unknown,
baidu,56dfefebecee089940afe683,陈裕光公寓旧址,南京市鼓楼区平仓巷南京大学(鼓楼校区),江苏省,南京市,鼓楼区,,unknown,
baidu,97c64e939ec3bee09f82eae6,南京市基督教莫愁路堂,江苏省南京市秦淮区朝天宫街道莫愁路390号,江苏省,南京市,秦淮区,,unknown,
baidu,7f354ad043434ad44e5547c2,高云岭20号民国建筑,江苏省南京市鼓楼区高云岭17号101室,江苏省,南京市,鼓楼区,,unknown,
baidu,8361c1b1511a87fb5abbbcea,北京西路23号民国建筑,北京西路23号,江苏省,南京市,鼓楼区,,unknown,
baidu,e00f4e785967f810841541a4,颐和路15号民国建筑,江苏省南京市鼓楼区颐和路15号,江苏省,南京市,鼓楼区,,unknown,
baidu,c5cc78020b54a15cadcb6600,天目路民国时期建筑风貌区,江苏省南京市鼓楼区宁海路64号,江苏省,南京市,鼓楼区,,unknown,
baidu,9818da9cc681c9e69e82ea1d,北京西路55号民国建筑,江苏省南京市鼓楼区北京西路55号,江苏省,南京市,鼓楼区,,unknown,
baidu,c73ff2c72e957673081cc730,何应钦公馆,南京市鼓楼区汉口路22号南京大学(鼓楼校区)图书馆西北角,江苏省,南京市,鼓楼区,,unknown,
baidu,1b6c193d3b5120444afc8d25,瑞士公使馆旧址,江苏省南京市鼓楼区珞珈路46号,江苏省,南京市,鼓楼区,,unknown,
baidu,42f5dd7f515ec3f11e5800f9,尖角营51号民国建筑群,南京市玄武区新街口街道丹凤街尖角营51号,江苏省,南京市,玄武区,,unknown,
baidu,a53249a664a4bccdd518b7c6,徐国镇寓所,南京市鼓楼区北京西路36号,江苏省,南京市,鼓楼区,,unknown,
baidu,ce15ba3492e039781d580050,马林雕像,南京市鼓楼区中山路321号南京鼓楼医院,江苏省,南京市,鼓楼区,,unknown,
baidu,1430770c1175a6beb817e798,紫藤园,江苏省南京市鼓楼区宁海路与南东瓜市交叉路口往西北约150米(南京师范大学),江苏省,南京市,鼓楼区,,unknown,
baidu,2118a92260a3178b4d776e6d,榴园,南京市鼓楼区汉口路22号南京大学鼓楼校区,江苏省,南京市,鼓楼区,,unknown,
baidu,8f9899c95c55ed931b94c653,天目路26号民国建筑,江苏省南京市鼓楼区天目路24号,江苏省,南京市,鼓楼区,,unknown,
baidu,8fef6cf462afec16c61b75d2,国民政府司法部大门旧址,南京市鼓楼区中山路251号,江苏省,南京市,鼓楼区,,unknown,
baidu,81a45bc1b5f62349cc06a43d,太平大钟,南京市鼓楼区北京西路1号鼓楼2层,江苏省,南京市,鼓楼区,(025)86635513,unknown,
baidu,dfe5c4f9f55f124e25d2bb6f,江宁织造博物馆,江苏省南京市玄武区长江路123号,江苏省,南京市,玄武区,"(025)83410337,(025)83416802",unknown,
baidu,a5ca034000b9a06f21f0172a,袁守谦旧居,南京市鼓楼区江苏路13号,江苏省,南京市,鼓楼区,,unknown,
baidu,836abe7b524ab69a2bb97c3e,颐和公馆-艺风堂,江苏省南京市鼓楼区宁海路15号,江苏省,南京市,鼓楼区,,unknown,
baidu,15ceff9e9afbbc32bda822ef,邵力子旧居,南京市鼓楼区剑阁路27号,江苏省,南京市,鼓楼区,,unknown,
baidu,6746ecdb3a130c16dbd891ed,剑阁路27号民国建筑,江苏省南京市鼓楼区剑阁路27号,江苏省,南京市,鼓楼区,,unknown,
baidu,224b8ddca7d4673443afe61d,国民政府立法院、监察院旧址,江苏省南京市鼓楼区中山北路105号,江苏省,南京市,鼓楼区,,unknown,
baidu,b7dac4eedbec97b09f82eab6,蒋锄欧旧居,南京市鼓楼区宁海路11号,江苏省,南京市,鼓楼区,,unknown,
baidu,c68ee82f63719eeeb320a897,八路军驻京办事处-纪念馆,江苏省南京市鼓楼区青云巷41号,江苏省,南京市,鼓楼区,(025)83210553,unknown,
baidu,750333c39661982dad0457a1,南京大学鼓楼校区陈裕光雕像,南京市鼓楼区三江路南京大学(鼓楼校区),江苏省,南京市,鼓楼区,,unknown,
baidu,53b36254f0a5bc6387154139,名人李世琼故居,江苏省南京市鼓楼区北京西路38号-1,江苏省,南京市,鼓楼区,,unknown,
baidu,1a9349a2cc267ffb0d3ddaf3,杨公达旧居,南京市鼓楼区江苏路19号,江苏省,南京市,鼓楼区,,unknown,
baidu,ab2f17ecacdbddccb35c6af9,南京大学鼓楼校区潘菽雕像,江苏省南京市鼓楼区汉口路22号南京大学鼓楼校区,江苏省,南京市,鼓楼区,,unknown,
baidu,0dc3d82d0facfc1174e5b6a1,熊斌旧居,江苏省南京市鼓楼区江苏路29号,江苏省,南京市,鼓楼区,,unknown,
baidu,d805c8d2294b8ff58533048a,原徐祖贻寓所,南京市鼓楼区武夷路12号,江苏省,南京市,鼓楼区,,unknown,
baidu,d878cd9439faeef2ee74f834,大纛坪碑记,江苏省南京市鼓楼区西南路南京大学(鼓楼校区),江苏省,南京市,鼓楼区,,unknown,
baidu,c3ccf337570fe73e4107c1f2,吴光杰旧居,南京市鼓楼区江苏路25号,江苏省,南京市,鼓楼区,,unknown,
baidu,6ece44297e75c4a9d8131883,黄仁霖旧居,江苏省南京市鼓楼区宁海路15号,江苏省,南京市,鼓楼区,,unknown,
baidu,02360ebed1f1b44de81e97e9,暨南学堂纪念碑,南京市鼓楼区鼓楼公园,江苏省,南京市,鼓楼区,,unknown,
baidu,a600e7212d60c7cd1fe9997a,吴贻芳寓所,南京市鼓楼区傅厚岗15号,江苏省,南京市,鼓楼区,,unknown,
baidu,1f2c2d6f8bbcb8234bfc8da1,南冬瓜市20号民国建筑,江苏省南京市鼓楼区南东瓜市22号,江苏省,南京市,鼓楼区,,unknown,
baidu,de1fed9e6416ba027f29bd59,南京大学革命烈士纪念碑(鼓楼校区),南京市鼓楼区汉口路22号(南京大学北苑内),江苏省,南京市,鼓楼区,,unknown,
baidu,47a6599bc86462983c9a5ea4,侯镜如旧居,南京市鼓楼区大方巷39号,江苏省,南京市,鼓楼区,,unknown,
baidu,38f05685fce48b2f9cf77906,鼓楼公园-圣谕碑,南京市鼓楼区北京西路1号鼓楼2层,江苏省,南京市,鼓楼区,(025)86635513,unknown,
baidu,232b4f047b397f2c3904b188,贻芳园,南京市鼓楼区华侨路街道宁海路122号南京师范大学随园校区金陵女子学院南山专家楼旁边,江苏省,南京市,鼓楼区,,unknown,
baidu,0cc1fcabf854112f7c29bdcd,鼓楼公园-美术馆,南京市鼓楼区北京西路1号,江苏省,南京市,鼓楼区,,unknown,
baidu,5b06e9da55991ab371455b54,原刘献捷寓所,南京市鼓楼区天目路8号,江苏省,南京市,鼓楼区,,unknown,
baidu,d8d43649fef5ab072202208b,琅琊路12号民国建筑,江苏省南京市鼓楼区颐和路16号,江苏省,南京市,鼓楼区,,unknown,
baidu,035fbe260969460759bbbc66,颐和路19号民国建筑,颐和路19号,江苏省,南京市,鼓楼区,,unknown,
baidu,db904963bd0c44803310af6f,宁海路1号民国建筑,南京市鼓楼区宁海路颐和路公馆区第十二片区,江苏省,南京市,鼓楼区,,unknown,
baidu,adaa2842527f2b94ae045708,天竺路21号民国建筑,天竺路21号,江苏省,南京市,鼓楼区,,unknown,
baidu,41c37005dc502d6b4c6d462c,大方巷39号民国建筑,江苏南京市鼓楼区五条巷17号,江苏省,南京市,鼓楼区,,unknown,
baidu,12fd36d481e830029a005078,南京城墙清凉门,南京市鼓楼区虎踞路59号,江苏省,南京市,鼓楼区,(025)83313180,unknown,
baidu,950b62d7b9b9fdca86420e15,北京西路21号民国建筑,江苏省南京市鼓楼区宁海路街道北京西路25号,江苏省,南京市,鼓楼区,,unknown,
baidu,b52d0cd3cec4ed983913fd01,陶谷新村4号民国建筑,陶谷新村4号,江苏省,南京市,鼓楼区,,unknown,
baidu,df2f2619e5c12ac8f50e773d,宁海路2号民国建筑,五条巷17号-2,江苏省,南京市,鼓楼区,,unknown,
baidu,a5c9e14a0f706408c51b75c0,颐和路20号民国建筑,江苏省南京市鼓楼区牯岭路19号,江苏省,南京市,鼓楼区,,unknown,
baidu,9eb46a597330f6e633169b4f,颐和路公馆区第十二片区-杨华臣旧居,江苏路5号,江苏省,南京市,鼓楼区,,unknown,
baidu,2069f5351c917122efe4a56f,吴贻芳工作处,南京市鼓楼区宁海路122号,江苏省,南京市,鼓楼区,,unknown,
baidu,8226f5f6a51924bff403b88a,EN cocktail bar,南京市鼓楼区金银街17号小区东北侧,江苏省,南京市,鼓楼区,,unknown,
baidu,fd5476f42a184e83a11de935,缘时空养生馆(金银街小区店),上海路158号2幢3单1室,江苏省,南京市,鼓楼区,18262630839,unknown,
baidu,6763a01c16af05a04f6d4636,T33(鼓楼店),中山北路49号二层,江苏省,南京市,鼓楼区,(025)66043405,unknown,
baidu,ebfd668a8f0dd8bb4c6d46c7,OPEN BAR鸡尾酒(南大店),金银街17号5号铺,江苏省,南京市,鼓楼区,15715191419,unknown,
baidu,b53516bb79cd7ec171210bf8,万三茶社,云南路大方巷公交站18-4号,江苏省,南京市,鼓楼区,13951009660,unknown,
baidu,5c5f40227f672aa0fb22134f,T三三,江苏省南京市鼓楼区中山北路45号,江苏省,南京市,鼓楼区,"(025)66043405,(025)83309999",unknown,
baidu,1dcc91b039989c77cafa5f6c,Placebo Bar,汉口西路19号102室志友宾馆后门口,江苏省,南京市,鼓楼区,18013977065,unknown,
baidu,3f91408d70847da5260bd0d2,皇廷养生馆,云载巷与车站东巷交叉口北40米,江苏省,南京市,鼓楼区,,unknown,
baidu,ae58f198cb190d3af33cba23,清新玉足,厚载巷66号101室,江苏省,南京市,鼓楼区,,unknown,
baidu,da99203ecc89898b43024563,二樓後座·2F·CAF07·BAR,南秀村29号秀爱尔兰西餐吧2楼,江苏省,南京市,鼓楼区,"(025)85439898,15366179898",unknown,
baidu,1a036bff184840248c55ec39,天音量贩式KTV(苏宁环球购物中心店),江苏省南京市鼓楼区湖南路18号苏宁环球购物中心九层,江苏省,南京市,鼓楼区,,unknown,
baidu,5c62d86bdd433ea840afe6c8,青栀如初茶空间(鼓楼三条巷45号院店),云南路七号,江苏省,南京市,鼓楼区,13913887999,unknown,
baidu,f9fd6062ffe2e1620e0e6bbc,南京名人国际商务会所(湖北路店),中山北路名人酒店后,江苏省,南京市,鼓楼区,13002112783,unknown,
baidu,57199efec720ee9d118824e1,温莎24K(新街口店),中山南路49号商茂世纪广场3层3001室,江苏省,南京市,秦淮区,,unknown,
baidu,367f03ada1cc79b12bb97c68,HOME PARTY KTV(城市名人店),中山北路30号名人城市广场601室,江苏省,南京市,鼓楼区,,unknown,
baidu,50074778a4a6135e3617dc2f,绿地广场,江苏省南京市鼓楼区鼓楼街88号,江苏省,南京市,鼓楼区,(025)83280777,unknown,
baidu,7c5e480b0c206badadb22ac8,剑武盲人推拿(上海路店),上海路209号剑武推拿,江苏省,南京市,鼓楼区,(025)83306650,unknown,
baidu,fa835ce23a4bbdafe912e486,乐康缘盲人按摩(南秀店),上海路南秀村16号,江苏省,南京市,鼓楼区,(025)83303337,unknown,
baidu,58f8bf693db2d0f34354d7dc,郑远元专业修脚房(西桥店),西桥8号107室,江苏省,南京市,鼓楼区,,unknown,
baidu,a1e0395072840821b23c81db,好运智竞馆(南大店),汉口路47号2层（CoCo都可旁）（CoCo都可旁边，南大正南门斜对面）,江苏省,南京市,鼓楼区,17798569538,unknown,
baidu,2911d0601df6b14ff5c59c89,南京大学-学生体育活动中心,江苏南京市鼓楼区汉口路22号南京大学大学生活动中心2楼,江苏省,南京市,鼓楼区,,unknown,
baidu,22e11407a6eddcadd4b74ef4,手佳盲人按摩保健中心(云南路店),湖南路街道云南路15号(近大方巷)(距鼓楼站约900米),江苏省,南京市,鼓楼区,025-86630010,unknown,
baidu,d1f10064717e1fe14e776efc,爱嗨进口酒量贩店,江苏省南京市鼓楼区上海路209号1幢101室,江苏省,南京市,鼓楼区,15895996975,unknown,
baidu,86a11a36d30dd68638221c35,Talking音乐餐吧(金银街2店),上海路158号金银街（西苑宾馆对面）,江苏省,南京市,鼓楼区,"13952002451,18260024870",unknown,
baidu,bdc6b699b2e1e4945e17c303,足缘推拿足疗,汉口西路15-101号,江苏省,南京市,鼓楼区,,unknown,
baidu,e511fb4ef1b82f09b21e3621,马林广场,江苏省南京市鼓楼区中山路321号,江苏省,南京市,鼓楼区,,unknown,
baidu,5da24628d1bb9445f8f0cb06,九仓ALCOHOL STORE,上海路120-1号6幢102室,江苏省,南京市,鼓楼区,18061884448,unknown,
baidu,51b0b4d6532de427b817e70d,元和推拿,湖南路街道大方巷38号二楼(傅佐路交叉口),江苏省,南京市,鼓楼区,13515117588,unknown,
baidu,37ffd51ff6283c9409a8d475,宁海路广场,江苏省南京市鼓楼区宁海路44号,江苏省,南京市,鼓楼区,,unknown,
baidu,c5b2e80f79ec471833169b01,军人俱乐部会所,江苏省南京市鼓楼区湖南路街道中山北路105号,江苏省,南京市,鼓楼区,,unknown,
baidu,bcea15f6ffda49523010afe4,君梵SPA,中山北路45号华美达怡华写字楼,江苏省,南京市,鼓楼区,13002525534,unknown,
baidu,34d96eff39923d7288f15d4a,悦君颜轻奢SPA水疗会所,中山北路江苏商厦1512室,江苏省,南京市,鼓楼区,18668051952,unknown,
baidu,a05ef9c13345b512210220dd,养之阁养生馆,南京市鼓楼区汉口西路南秀大厦北侧约30米,江苏省,南京市,鼓楼区,,unknown,
baidu,cdc3e503693704794bcc4a3d,尚尚指盲人推拿中心(江苏商厦店),中山北路28号江苏商厦1616室（距鼓楼地铁站4号口350米，汉庭酒店大门进入）,江苏省,南京市,鼓楼区,,unknown,
baidu,935bda01993ca4ca9968b431,糖豆卡牌,上海路85号3单元106,江苏省,南京市,鼓楼区,15150531727,unknown,
baidu,7e8d7d759cca547f14c8f6e6,小五棋牌室,江苏省南京市鼓楼区陶谷新村101号,江苏省,南京市,鼓楼区,,unknown,
baidu,0bf39cef2860f68cc17da2f6,安康足疗,湖北路20号105室,江苏省,南京市,鼓楼区,,unknown,
baidu,83cd564e1cf6e6430f0a70b2,休闲足艺,江苏省南京市鼓楼区厚载巷62号楼1层101室,江苏省,南京市,鼓楼区,,unknown,
baidu,7528e6ae368a02e76240a9c9,紫峰温泉(绿地中心·紫峰购物广场店),江苏省南京市鼓楼区中山北路6号绿地中心·紫峰购物广场F2,江苏省,南京市,鼓楼区,13140809002,unknown,
baidu,2c3ac47ea8df0b04b05c6ab0,张师傅推拿,厚载巷38号,江苏省,南京市,鼓楼区,,unknown,
baidu,50fb64fff3a96744e8f853b3,UME影城(南京玄武门店),中央路201号南京金茂汇6楼北区,江苏省,南京市,鼓楼区,(025)57670802,unknown,
baidu,b91c9918e6bfdbf7dbd8914d,靓足湾足疗,厚载村3号102室,江苏省,南京市,鼓楼区,,unknown,
baidu,f544ca8f65a2a58a33169b6c,纳米汗蒸推拿养生(西桥店),江苏路西桥花苑89号楼底商宁海中学后门100米,江苏省,南京市,鼓楼区,,unknown,
baidu,a74481d61c36445ff403b8b9,扬州足疗(西桥店),西桥25号（大方巷）,江苏省,南京市,鼓楼区,,unknown,
baidu,3296d5b93c99007b85420ef5,扬州修脚,云南路2-3号,江苏省,南京市,鼓楼区,,unknown,
baidu,b373ef8f9fe150abadcb667a,幸福蓝海国际影城(荔枝广场旗舰店),新街口街道北京东路2号荔枝广场F6层,江苏省,南京市,玄武区,(025)86637788,unknown,
baidu,59ea28edd48b963ea1a93493,足上客,江苏省南京市鼓楼区湖北路16号,江苏省,南京市,鼓楼区,,unknown,
baidu,6646face5832e90688fc0620,和子足浴SPA会馆(曼度店),新街口街道杨将军巷9号曼度广场3楼（新宝都楼上）,江苏省,南京市,玄武区,18018313188,unknown,
baidu,1d18254c2a936898b8bd63ca,荔枝大剧院(荔枝广场店),北京东路4号荔枝广场3楼（福满特和夜上海中间，江南小镇斜对面，靠近室外手扶梯）,江苏省,南京市,玄武区,(025)83188815,unknown,
baidu,4935b11001ca5a858c1a8902,米贩KTV量贩(新街口店),洪武路23号隆盛大厦西入口,江苏省,南京市,秦淮区,,unknown,
baidu,94bd1b7589ba470ae81e9735,水云轩,南京市鼓楼区厚载巷厚载村,江苏省,南京市,鼓楼区,,unknown,
baidu,006bf0378bb11c5716c905bb,随园音乐厅,江苏省南京市鼓楼区宁海路122号,江苏省,南京市,鼓楼区,,unknown,
baidu,a45957c3a65f2a091894c63b,风云再起游乐汇(新街口天丰大厦店),五老村街道洪武路26号天丰大厦1楼(中山东路与洪武路交叉口),江苏省,南京市,秦淮区,(025)84700130,unknown,
baidu,794db3f7812f569808f5eb80,STAFF ONLY Bar(南台巷店),南台巷西10号101室,江苏省,南京市,秦淮区,(025)86303036,unknown,
baidu,f85706325d6091a33617dc33,扬州脚艺(大方巷),江苏省南京市鼓楼区大方巷87号1幢101号,江苏省,南京市,鼓楼区,,unknown,
baidu,e97bff5b0c731565c42ba1cf,卢米埃影城(金鹰新街口店),汉中路101号金鹰新街口店B座9楼01,江苏省,南京市,秦淮区,(025)85791191,unknown,
baidu,f60da7ef9ed1d9c324e0a024,南京绿地洲际酒店-行政酒廊,江苏省南京市鼓楼区中央路1号绿地洲际酒店47层6011房,江苏省,南京市,鼓楼区,(025)83538888,unknown,
baidu,e5a152a9889ce3b2d9eced9c,紫峰一号商务清吧,江苏省南京市鼓楼区中山北路名人城市广场2楼201(亚本KTV楼下),江苏省,南京市,鼓楼区,,unknown,
baidu,9d2013839c8e1178a8059dc8,踏浪网咖(新街口店),淮海路2号三层,江苏省,南京市,秦淮区,18951732879,unknown,
baidu,cc14b180c01b85be3617dcd0,来吧茶社,厚载巷33-1号,江苏省,南京市,鼓楼区,,unknown,
baidu,d2670b08de738a6252e5c503,后爱小剧场,江苏省南京市鼓楼区中山北路28号江苏商厦4楼531space演艺新空间内,江苏省,南京市,鼓楼区,,unknown,
baidu,cd67b921a8cbad837f29bd70,十七间茶馆(颐和路店),"宁海路50、52号（宁海中学西门对面,莲花公馆正对面）",江苏省,南京市,鼓楼区,17714329263,unknown,
baidu,47a2cab25ea40454c51e514d,spring wild萨摩耶天使主题狗咖·猫咖,南京国际贸易中心30楼3007室,江苏省,南京市,秦淮区,18205087835,unknown,
baidu,da3d18c9d603f873100daa0a,江苏议事园酒店大堂酒吧,湖南路街道江苏议事园酒店主楼3层,江苏省,南京市,鼓楼区,(025)83326826,unknown,
baidu,7c5d7e2cbac318b01911d5fc,倍格共享书房·会议·茶室,北京西路2号倍格硅巷2楼,江苏省,南京市,鼓楼区,,unknown,
baidu,22623d607d1bc86772210b85,江苏省高级人民法院法官活动室,南京市鼓楼区宁海路75号,江苏省,南京市,鼓楼区,,unknown,
baidu,0b0fca567a16ff1916a190ce,7天连锁酒店(南京鼓楼云南路地铁站店),云南路11-2号,江苏省,南京市,鼓楼区,(025)83337333,unknown,
baidu,e77fed738bde88718c55ec73,古南都亦闲公馆(新街口南京大学店),上海路160号,江苏省,南京市,鼓楼区,(025)85202626,unknown,
baidu,1f5b9bfccbbd94cac27da2a7,云杉民宿(省人民医院脑科医院店),江苏省南京市鼓楼区华侨路街道广州路228号易发科技大厦北门15楼,江苏省,南京市,鼓楼区,13914740473,unknown,
baidu,6fddd7fd75b511663517dc56,格林豪泰酒店(南京鼓楼地铁站店),中山北路49号,江苏省,南京市,鼓楼区,(025)83310101,unknown,
baidu,1fc30ecd68adece7e5e9657b,南京沐庭酒店(山西路湖南路店),江苏省南京市鼓楼区中山北路42号,江苏省,南京市,鼓楼区,(025)86508786,unknown,
baidu,694dd4ea75566eabf4e73b9e,布丁酒店(南京宁海路南师大河海大学店),苏州路17号公寓,江苏省,南京市,鼓楼区,(025)52306166,unknown,
baidu,9d25065593dae73bd0ff23d7,南京鼓楼德善招待所,厚载村4号102,江苏省,南京市,鼓楼区,"(025)83327758,15365040809",unknown,
baidu,7d5f3a0a23f5bd4b2cb90858,湖北路宾馆(南京鼓楼地铁站店),湖北路8号,江苏省,南京市,鼓楼区,(025)52421056,unknown,
baidu,35debf298d75265da6da3941,南京凤凰京华大酒店,山西路51号,江苏省,南京市,鼓楼区,(025)83128888,unknown,
baidu,2bc51789d8e592f515a1902c,南京紫玄酒店(鼓楼地铁站店),中山北路26号,江苏省,南京市,鼓楼区,(025)86630333,unknown,
baidu,c5a36b61da5604d50ab93ad0,南京兮兮浪漫满屋民宿,中山北路30号2701室,江苏省,南京市,鼓楼区,15850525780,unknown,
baidu,05dd7d5f341e4318ac080fe4,南京城市名人酒店(名人城市广场店),江苏省南京市鼓楼区中山北路30号,江苏省,南京市,鼓楼区,(025)69033333,unknown,
baidu,b0d056f2aef2ce67cac3db54,南京怡华酒店,江苏省南京市鼓楼区中山北路45号近1号线鼓楼站,江苏省,南京市,鼓楼区,(025)83308888,unknown,
baidu,1c99adadbc84a11ed5b74ef9,南京佳寓民宿,南京市中山北路49号机械大厦1109室,江苏省,南京市,鼓楼区,18751985769,unknown,
baidu,be54cde977a1094178f79656,南京中心大酒店,江苏省南京市鼓楼区中山路75号,江苏省,南京市,鼓楼区,(025)83155888,unknown,
baidu,f60a15ed0fe2f8f5ba17e78c,汉庭酒店(南京汉中门地铁站店),江苏省南京市秦淮区汉中路209号近地铁二号线汉中门站4号出口,江苏省,南京市,秦淮区,(025)86662599,unknown,
baidu,1e94730a6a3a32f0a0acc408,肯定连锁酒店(狮子桥美食街玄武湖景区店),江苏省南京市鼓楼区湖北路42-6号3楼321室,江苏省,南京市,鼓楼区,18912989088,unknown,
baidu,dbf4d6eec87ab0336fa3cc5e,南京古南都饭店,江苏省南京市鼓楼区广州路208号,江苏省,南京市,鼓楼区,(025)83311999,unknown,
baidu,bbb805839c139555fb22138d,南京玄武饭店,江苏省南京市鼓楼区中央路193号,江苏省,南京市,鼓楼区,"(025)83358888,(025)86811666",unknown,
baidu,8cba4bb09daa649dad045744,清沐酒店(南京五台山广州路随园大厦店),江苏省南京市鼓楼区广州路140号,江苏省,南京市,鼓楼区,(025)83206499,unknown,
baidu,1cff55abb990b8cd8733045f,春风十里酒店(南京云南路地铁站上海路店),上海路189号华新巷内（鼓楼工商局对面）,江苏省,南京市,鼓楼区,"(025)83324789,15005660287,18156550800",unknown,
baidu,680fb703620b79858bb98858,南京鼓楼晶丽酒店,北京西路7号,江苏省,南京市,鼓楼区,(025)83310818,unknown,
baidu,3976fe87a75447306140a93c,夜泊金陵公寓(鼓楼地铁站店),南京市中山北路30号3601室,江苏省,南京市,鼓楼区,13770558297,unknown,
baidu,f5e3bcae86bcbed85f17c3b4,南京古佳快捷宾馆,南京鼓楼区青岛路6号二楼（南京大学旁）,江苏省,南京市,鼓楼区,(025)83200880,unknown,
baidu,d1469ee7cce8cb7b84330468,南京苏宁环球套房饭店,广州路188号苏宁环球大厦3楼,江苏省,南京市,鼓楼区,(025)83232888,unknown,
baidu,3a0fbba851f3e2589ee3217d,江苏议事园酒店,江苏省南京市鼓楼区中山北路81号,江苏省,南京市,鼓楼区,"(025)83108888,(025)83108995",unknown,
baidu,ae3233a8fb84b5c25d17c34e,南京苏宁索菲特银河大酒店,江苏省南京市鼓楼区山西路9号,江苏省,南京市,鼓楼区,(025)83718888,unknown,
baidu,2d12152a8c1de02b9e95deea,罗莱夏朵·南京颐和公馆,江苏路3号,江苏省,南京市,鼓楼区,(025)84868888,unknown,
baidu,98b251ac46de6574d81318fd,南京金鹰珠江壹号国际酒店,珠江路1号珠江壹号大厦56楼501604单元,江苏省,南京市,玄武区,(025)83218888,unknown,
baidu,6bf9829d3ee6a2a6c26c1445,南京金帆万源酒店,江苏省南京市鼓楼区牌楼巷47号-1号,江苏省,南京市,鼓楼区,(025)52801888,unknown,
baidu,3dc9befd71fa8e0fbea24053,华达宾馆(南京新街口珠江路地铁站店),青岛路33号,江苏省,南京市,鼓楼区,(025)83137888,unknown,
baidu,388b60827dbdaabc0869d900,南京好运来临民宿,江苏省南京市鼓楼区渊声巷52号,江苏省,南京市,鼓楼区,13813870854,unknown,
baidu,a5097bfab17cae7af03cba78,南京汉府饭店,江苏省南京市玄武区长江路262号,江苏省,南京市,玄武区,"(025)83553001,(025)83553002,(025)83553003",unknown,
baidu,7aea43b7560b9ae17c29bd7a,江苏凤凰台饭店,南京市鼓楼区湖南路47号近玄武湖、狮子桥步行街,江苏省,南京市,鼓楼区,(025)86838888,unknown,
baidu,6125cc0d564333e9df1e5285,好运宾馆(南师大省人民医院店),苏州路18号,江苏省,南京市,鼓楼区,15896458044,unknown,
baidu,c7eca12bd02a2d2ee115f952,华东饭店,江苏省南京市鼓楼区北京西路67号,江苏省,南京市,鼓楼区,(025)83120888,unknown,
baidu,906f47d3e3b77e0a16764333,凯文宾馆(南秀村路店),江苏省南京市鼓楼区上海路14号,江苏省,南京市,鼓楼区,,unknown,
baidu,fa7da3e80999087b42d63e77,锦江南京饭店(国际联欢社旧址),南京市鼓楼区模范中路18号,江苏省,南京市,鼓楼区,(025)86826666,unknown,
baidu,0b77d0ca769c76d729d7abaa,全季酒店(南京总统府店),江苏省南京市玄武区中山东路139号,江苏省,南京市,玄武区,(025)52357778,unknown,
baidu,1dcea1cfa0cf1cb4bfa240e8,多园青年旅舍(南京新街口地铁站店),江苏省南京市秦淮区石鼓路56号建华大厦3F,江苏省,南京市,秦淮区,18005156316,unknown,
baidu,6d95f2b821360681bf4842ac,南京悠米·悠质公寓,南京市南东瓜市易发科技大厦12层(近易发科技大厦北门),江苏省,南京市,鼓楼区,"13601450473,13914740473",unknown,
baidu,cc0849a0300c184994031946,南京西康宾馆,江苏省南京市鼓楼区西康路33号,江苏省,南京市,鼓楼区,(025)83393333,unknown,
baidu,53349ee3733c3b7722026277,南京天丰大酒店,江苏省南京市秦淮区洪武路26号近中山东路距新街口地铁站24号出口50米,江苏省,南京市,秦淮区,(025)84737777,unknown,
baidu,dc0f0adcf39ff038f822137f,南京新纪元大酒店,江苏省南京市鼓楼区中山路251-1号,江苏省,南京市,鼓楼区,(025)86812222,unknown,
baidu,9fbfeef24fd4785cede4a5fc,志友宾馆(云南路地铁站南京师范大学店),江苏省南京市鼓楼区汉口西路7号,江苏省,南京市,鼓楼区,"(025)83358466,13151586651",unknown,
baidu,2b0253c63588da94fa0cad83,顺庭酒店(南京云南路地铁站店),西桥23号,江苏省,南京市,鼓楼区,(025)83687199,unknown,
baidu,e85e2527c3eaea4a95f08cc4,寒舍精品酒店(南京湖南路狮子桥步行街玄武湖景区店),江苏省南京市鼓楼区湖北路42号干部管理学院3层,江苏省,南京市,鼓楼区,"(025)83112751,(025)86650122",unknown,
baidu,97f5eaf172810901ca291556,南京朱老大商务快捷酒店,江苏省南京市鼓楼区上海路106号,江苏省,南京市,鼓楼区,,unknown,
baidu,6d3f192cf7085fa759bbbc4b,南京颐和公馆公寓,江苏路31-1号,江苏省,南京市,鼓楼区,(025)84868888,unknown,
baidu,4e33d0ffd1307cd086420e46,鑫略宾馆,江苏省南京市鼓楼区北京西路8号3幢2层,江苏省,南京市,鼓楼区,,unknown,
baidu,92f4a0f1b3a5e8e63586f4c3,宜城公寓(云南路店),江苏省南京市鼓楼区云南路26号,江苏省,南京市,鼓楼区,(025)69088201,unknown,
baidu,b32f4cc2068c6e2a744ff127,安家公寓(紫峰大厦旁鼓楼店)(鼓楼三条巷分店),江苏省南京市鼓楼区湖南路街道二条巷26号,江苏省,南京市,鼓楼区,,unknown,
baidu,d9af68df7831a0c5d3ff2357,南京宿时光民宿,江苏省南京市鼓楼区宁海路23-1号中商万豪大厦1731室,江苏省,南京市,鼓楼区,,unknown,
baidu,08fc93dfa74192889b68b47a,江苏南大招待所,江苏省南京市鼓楼区汉口路22号,江苏省,南京市,鼓楼区,(025)83592603,unknown,
baidu,1a5f041592d1d794e856fafe,南京途掌柜108573精品民宿,江苏省南京市鼓楼区中山北路30号6楼,江苏省,南京市,鼓楼区,,unknown,
baidu,2e5903a6c566567f260bd0bc,同福招待所(渊声巷),江苏省南京市鼓楼区渊声巷8号,江苏省,南京市,鼓楼区,(025)81779382,unknown,
baidu,cc38be04386344a86e20b9b5,后山有爱公寓(南京3号店),江苏省南京市鼓楼区大学北阴阳营8号小区3号楼,江苏省,南京市,鼓楼区,,unknown,
baidu,2ad32cc323c959f29c95debe,南京爱家宾馆(傅厚岗),江苏省南京市鼓楼区湖北路22号,江苏省,南京市,鼓楼区,(025)83211509,unknown,
baidu,084edf593322f0845cbe86e6,忆恋主题公寓民宿(宁海路1号分店),江苏省南京市鼓楼区宁海路54号三楼,江苏省,南京市,鼓楼区,,unknown,
baidu,2952107a4129d58d5cd4fed0,遇见金陵A公寓(湖北路分店),江苏省南京市鼓楼区中山北路30号6楼,江苏省,南京市,鼓楼区,,unknown,
baidu,4467163fb7372ea215c9057d,清风园宾馆,江苏省南京市鼓楼区宁海路106号,江苏省,南京市,鼓楼区,(025)83798024,unknown,
baidu,f31c8571e6d735207069d327,美原英文图书馆,江苏省南京市鼓楼区广州路140号随园大厦1809室,江苏省,南京市,鼓楼区,,unknown,
baidu,678aedb4a73c5f7b8505bf0d,莫泰酒店(南京鼓楼地铁站店),湖北路34-1号,江苏省,南京市,鼓楼区,(025)83243988,unknown,
baidu,7e609c643fe977429de32101,城市名人酒店-名人厅,江苏省南京市鼓楼区湖南路街道中山北路30号(城市名人广场4层),江苏省,南京市,鼓楼区,,unknown,
baidu,9491d18a5a81cf2bbb17e790,南京梅·子公寓(6号店),江苏省南京市鼓楼区四条巷2号,江苏省,南京市,鼓楼区,,unknown,
baidu,ddc3b6e9e7ffae682fb17ede,岚依公寓(汉口路分店),江苏省南京市鼓楼区湖南路街道汉口路59号,江苏省,南京市,鼓楼区,,unknown,
baidu,4d93b9affadc8a41354aae3f,Friendly Hotel宾馆,南京市鼓楼区汉口西路志友宾馆(汉口西路店),江苏省,南京市,鼓楼区,,unknown,
baidu,b36e98ed82fcf55a9d95de34,南京HiYouth公寓(14号店),南京市鼓楼区中山北路30号名人城市广场,江苏省,南京市,鼓楼区,15952155672,unknown,
baidu,09700a489a41a7a2cd04ef3a,江苏议事园酒店-会见厅,江苏省南京市鼓楼区湖南路街道中山北路81号江苏议事园酒店主楼2层,江苏省,南京市,鼓楼区,(025)83108888,unknown,
baidu,fc522552b2d4fdd0373a713a,罗莱夏朵南京颐和公馆-藕舫,江苏省南京市鼓楼区江苏路3号,江苏省,南京市,鼓楼区,,unknown,
baidu,7b54371eb15ffadfc42ba132,城市名人酒店-大堂,南京市湖南路街道中山北路30号,江苏省,南京市,鼓楼区,,unknown,
baidu,bf7e53c5096e140e5bf6be44,南京浪漫小家酒店式公寓,南京市鼓楼区车站东巷14号(新晨国际旁)魅力皇朝8号201室,江苏省,南京市,鼓楼区,,unknown,
baidu,38da24acb015d3770869d9a7,龙翔汽车维修,江苏路8号101室,江苏省,南京市,鼓楼区,(025)83325680,unknown,
baidu,abf10dc3f276c8b84054d738,超亦全汽车美容,湖北路42-1号,江苏省,南京市,鼓楼区,,unknown,
baidu,18af7671b5679247f219376b,福仕星洗车美容装潢服务中心,山西路67号,江苏省,南京市,鼓楼区,13776636676,unknown,
baidu,14edd0cc29152ec0c27da283,倍捷特24h共享自助洗车(山西路店),索菲特银河大酒店地下停车场,江苏省,南京市,鼓楼区,"17701788721,18905151510",unknown,
baidu,645703c7d2875941f60e7759,比亚迪汽车王朝网(盛世新景新街口城市展厅),江苏省南京市鼓楼区华侨路街道中山路179号易发信息大厦一楼,江苏省,南京市,鼓楼区,(025)86600101,unknown,
baidu,3804da653ed5770640024520,宝润汽车服务·车衣改色太阳膜(马台街店),西流湾27号,江苏省,南京市,鼓楼区,15380809316,unknown,
baidu,356370dd3cc633c8223bf275,南京驰能汽车服务中心,上海路4号（地铁站2口步行310米）,江苏省,南京市,鼓楼区,18901590816,unknown,
baidu,8dc5bd1f12b352a41811d5ee,蔚来中心(南京新街口店),江苏省南京市鼓楼区中山路75号,江苏省,南京市,鼓楼区,16602188934,unknown,
baidu,954bbb9daeb59857c3f1cf5a,江苏省省级机关汽车维修中心(云南北路店),江苏省南京市鼓楼区湖北路42号,江苏省,南京市,鼓楼区,(025)83222106,unknown,
baidu,6d5f33dccac807726cc02c71,倍耐力轮胎(江苏路店),江苏省南京市鼓楼区江苏路8号,江苏省,南京市,鼓楼区,(025)83325680,unknown,
baidu,5cb4a542a98089154d776e11,兰博精品名车馆,厚载巷8号(鼓楼地铁站4A口步行490米),江苏省,南京市,玄武区,,unknown,
baidu,c61bd3052a2bd468c37da2ac,南京汉马汽车服务有限公司(虎踞南路店),江苏省南京市秦淮区虎踞南路28~30号,江苏省,南京市,秦淮区,(025)86560799,unknown,
baidu,c6ca8f329ac1430eabf729bd,米其林轮胎(牌楼巷店),江苏省南京市鼓楼区牌楼巷40号,江苏省,南京市,鼓楼区,(025)86792183,unknown,
baidu,8d2885515e602d13f11937bc,喜佰车行,江苏省南京市玄武区韩家巷10号-2号,江苏省,南京市,玄武区,(025)85656075,unknown,
baidu,9d7815099a036b769d82eae5,江苏外汽汽车维修服务有限公司,江苏省南京市鼓楼区中山北路204号,江苏省,南京市,鼓楼区,,unknown,
baidu,2c2508f31c23457203294ffb,上汽奥迪(南京新街口金轮都市店),江苏省南京市鼓楼区汉中路8号金轮新天地购物中心F1,江苏省,南京市,鼓楼区,13776576567,unknown,
baidu,ac38343ab2695220631809e2,特斯拉(南京德基广场体验店),江苏省南京市玄武区中山路18号德基广场二期B1,江苏省,南京市,玄武区,(025)66088188,unknown,
baidu,5010b8c728e9fa644207c1d1,格耐国际美容·途博汽车养护中心(新街口苏宁生活广场店),淮海路88号苏宁生活广场店B2层停车厂,江苏省,南京市,秦淮区,,unknown,
baidu,4c6e2f6d36f2bd0fd3f49e35,贵亮服务,南京市玄武区珠江路新世界大厦2206室,江苏省,南京市,玄武区,,unknown,
baidu,a185f4253112864d3904b11b,途佳汽车维修中心,虎踞路58-5号,江苏省,南京市,鼓楼区,13505170267,unknown,
baidu,2c019b291a6f3761f4eafcee,易发汽车美容中心,中山路179号易发信息大厦1层,江苏省,南京市,鼓楼区,13912976510,unknown,
baidu,7f77847cc1f767b80f0a7050,极氪空间(南京德基广场),江苏省南京市玄武区中山路18号德基广场二期B1-C126,江苏省,南京市,玄武区,18667085651,unknown,
baidu,3aa5cfe624198c706dc02c15,腾之达洗车馆,罗廊路罗廊巷2号,江苏省,南京市,秦淮区,18551852750,unknown,
baidu,bcd871e88db6cdd85cd4fe89,理想汽车(南京德基广场零售中心),江苏省南京市玄武区德基广场二期B1层,江苏省,南京市,玄武区,13813922520,unknown,
baidu,49bafbeb64b366a62ce67b2a,车之宝汽车专业美容(山西路百货大楼店),南京市鼓楼区山西路1号乐购仕生活广场B2,江苏省,南京市,鼓楼区,,unknown,
baidu,2dd97821331a2c9c2fb17ee1,龙卡洗车补胎电瓶,模范中路18号,江苏省,南京市,鼓楼区,13813870668,unknown,
baidu,5613f8f3b5b87c74c16c1471,南京市玄武区海之腾汽车服务中心,南京市玄武区新街口街道长江路109号721室,江苏省,南京市,玄武区,,unknown,
baidu,58e539cf0019649428201a0a,森众汽车服务中心,江苏省南京市鼓楼区水佐岗48巷56号1楼,江苏省,南京市,鼓楼区,13057681460,unknown,
baidu,76bde2eb4ae8f14d33169b57,优洁汽车美容(宽途汽车店),中山北路蜂巢大厦188号（八方客对面）,江苏省,南京市,鼓楼区,15371005333,unknown,
baidu,029f5782067ac3ca9868b43d,南京优之腾汽车服务有限公司,南京市玄武区珠江路88号1幢1901室,江苏省,南京市,玄武区,17555222425,unknown,
baidu,a27513ea82c75219871541ef,南京永达路诚汽车销售服务有限公司,江苏省南京市秦淮区中山南路1号,江苏省,南京市,秦淮区,,unknown,
baidu,84877c66047f0a4109b93aa3,洪涛汽修钣金,江苏省南京市鼓楼区拉萨路1号,江苏省,南京市,鼓楼区,186-56271820,unknown,
baidu,ee5b01ffdd440651f82d61f7,南京天扬汽车销售服务有限公司,南京市鼓楼区汉中路8号金轮新天地1楼A113-115铺,江苏省,南京市,鼓楼区,,unknown,
baidu,c0f98075a1dec08351e5c54c,百援精养(南京嘉会店),虎踞南路40-2号,江苏省,南京市,秦淮区,17705158833,unknown,
baidu,d1bcf76bf78beef98b2fb57d,苏舜车联,江苏省南京市玄武区珠江路355号-3号,江苏省,南京市,玄武区,17805246160,unknown,
baidu,9553fe696f30f106631c67d3,美优卡名车护理·车衣改色(金轮店),汉中路8号金轮国际广场B2层,江苏省,南京市,鼓楼区,18021527171,unknown,
baidu,c633a9e82e2a5d6d3617dcf6,将菌汽车会所,汉中路2号金陵饭店B3层D区,江苏省,南京市,鼓楼区,17714395770,unknown,
baidu,56f2f696a57509990aa8d401,蛮兽汽车,江苏省南京市鼓楼区新模范马路88号,江苏省,南京市,鼓楼区,13851999995,unknown,
baidu,a2f11318d2a83473d9d891c0,南京韵骏汽车服务有限公司,南京市鼓楼区水佐岗44号-210室,江苏省,南京市,鼓楼区,17555224076,unknown,
baidu,e6ce0114d50313b1f6c59c28,车佰润CR-ONE(金鹰新街口店),汉中路89号金鹰国际购物中心B馆B3层,江苏省,南京市,鼓楼区,18252023299,unknown,
baidu,ec1736f75739aa6a54bfffe3,天福园洗车场,江苏省南京市鼓楼区司背后五十中对面(天福园菜场旁边),江苏省,南京市,鼓楼区,15380939158,unknown,
baidu,807ad3c59eab404d3b221cf6,車佰润JS-ONE(德基广场店),中山路18号德基广场2期B3层J区,江苏省,南京市,玄武区,18013898297,unknown,
baidu,361d84288659d967b34c4937,南京意悠行汽车租赁有限公司,南京市鼓楼区中山北路185号919室,江苏省,南京市,鼓楼区,,unknown,
baidu,3f0ced4c9fff2e32e215f99d,南京鑫佰安汽车服务有限公司,南京市玄武区长江路109号820室,江苏省,南京市,玄武区,,unknown,
baidu,b499b0b86c33cbc179b55c83,美车堂(新城市虹桥店),中山北路281号虹桥新城市广场B2层,江苏省,南京市,鼓楼区,(025)83171203,unknown,
baidu,8ba85f7ffdd61d402e47334c,途虎养车认证店(南京市鼓楼区中山北路店),江苏省南京市鼓楼区校门口1号20栋,江苏省,南京市,鼓楼区,13357828217,unknown,
baidu,9b15910d67f6e5d5bda240ec,喜车堂汽车美装工作室(新街口总店),洪武路88号印象汇负二层（淮海路北）,江苏省,南京市,秦淮区,15005190447,unknown,
baidu,4e044831c7747e1d7369d314,金众机关汽车维修定点单位,新模范马路80号,江苏省,南京市,鼓楼区,,unknown,
baidu,a7dd56448225a265c51b7582,安瑞途汽车维修中心,古平岗20号7幢南门西南50米,江苏省,南京市,鼓楼区,,unknown,
baidu,a7dc7f86f0c37dd76fa3cce7,专修汽车玻璃,南京市鼓楼区模范中路水佐岗-73号院,江苏省,南京市,鼓楼区,,unknown,
baidu,a6920aad235e18d84d2fdfea,南京驰祥舜汽车有限公司,南京市玄武区珠江路88号2幢3515室,江苏省,南京市,玄武区,,unknown,
baidu,263188851b25a090d23ce313,玛吉斯轮胎(罗廊路店),江苏省南京市秦淮区南卫巷12号,江苏省,南京市,秦淮区,13400072922,unknown,
baidu,8727faf2f05c4f50ce04ef8f,南方卫星导航,中央路323号利奥大厦20层,江苏省,南京市,鼓楼区,,unknown,
baidu,822415090925cfba5cd4fec2,南京苏俊佳汽车租赁有限公司,南京市秦淮区莫愁路329号越界梦幻城37号楼第一层115-3单元,江苏省,南京市,秦淮区,,unknown,
baidu,d3d756ab9a4126d5631c67f2,开心泡泡车,江苏省南京市玄武区玄武门街道北京东路25号,江苏省,南京市,玄武区,18905192596,unknown,
baidu,26263fe4d6e542027c29bd8f,泽宜吊车叉车出租公司,南京市鼓楼区中山北路95号2002室,江苏省,南京市,鼓楼区,15655246136,unknown,
baidu,8bf5f30d72206f905fd4fedc,博瑞特豪车租赁,江苏省南京市秦淮区礼拜寺巷20号负1层,江苏省,南京市,秦淮区,,unknown,
baidu,09651ced815c088f9e95de08,名爵俱乐部,江苏省南京市五老村街道西区中山东路160号金太隆国际酒店3楼,江苏省,南京市,秦淮区,,unknown,
baidu,0a0465d02825f67254bfffe3,鸿俊源吊车叉车出租公司,南京市鼓楼区汉中路6号五层,江苏省,南京市,鼓楼区,13004084783,unknown,
baidu,858ef7fb261cf550a6da39b7,南京美莱医疗美容,江苏省南京市鼓楼区广州路188号,江苏省,南京市,鼓楼区,"(025)86978888,(025)86998888",unknown,
baidu,74c4be5e08d50a2560180965,南京鼓楼医院(北院区)-门诊楼,南京市鼓楼区南京鼓楼医院(北院区)1号楼,江苏省,南京市,鼓楼区,,unknown,
baidu,2311691317030e80724b87bc,南京鼓楼医院,江苏省南京市鼓楼区中山路321号,江苏省,南京市,鼓楼区,(025)83106666,unknown,
baidu,181653347eaaad1dfa2d61b2,南京市儿童医院(广州路院区),江苏省南京市鼓楼区广州路72号,江苏省,南京市,鼓楼区,(025)83117500,unknown,
baidu,f534581ae01eaec02efaa7bd,南京指力颈肩腰腿痛中医门诊部,江苏省南京市鼓楼区上海路152号,江苏省,南京市,鼓楼区,(025)86531358,unknown,
baidu,db299b1175323a4c3686f4c8,鼓楼医院-门诊部,江苏省南京市鼓楼区中山路321号,江苏省,南京市,鼓楼区,,unknown,
baidu,28e82b9ff651ca67d8d891d0,南京鼓楼医院(北院区)-住院部,江苏南京市鼓楼区中山北路53号1号楼,江苏省,南京市,鼓楼区,,unknown,
baidu,cd9d05dd834476af84420e9c,南京鼓楼医院北院服务保障中心,江苏南京市鼓楼区中山北路53号,江苏省,南京市,鼓楼区,,unknown,
baidu,6b5faa05d7f167b23b221c48,南京鼓楼医院-医技楼,南京市鼓楼区南京鼓楼医院7号楼,江苏省,南京市,鼓楼区,,unknown,
baidu,54168e560f623f96deee8b52,南京鼓楼医院(北院区),江苏省南京市鼓楼区中山北路53号,江苏省,南京市,鼓楼区,(025)83106666,unknown,
baidu,3243ebeaedc7841f9c09f789,献血屋(鼓楼医院),南京市鼓楼区天津路鼓楼医院内,江苏省,南京市,鼓楼区,,unknown,
baidu,f9fd606299eb5b1d0e0e6b89,南京市口腔医院-急诊,江苏省南京市玄武区中央路30号南京市口腔医院,江苏省,南京市,玄武区,,unknown,
baidu,c21db9e5929abbfd01ff2db9,南京市口腔医院-门诊,玄武区中央路30号,江苏省,南京市,玄武区,(025)83620362,unknown,
baidu,c171d84d46a9bd7211882470,南京蚨芝林中医诊所有限公司,江苏省南京市鼓楼区中山北路62号,江苏省,南京市,鼓楼区,,unknown,
baidu,ba114927a647ed295a3ac806,南京鼓楼医院-钢琴厅,江苏省南京市鼓楼区中山路321号,江苏省,南京市,鼓楼区,,unknown,
baidu,a93115c6151f7a1bf5c59cf8,南京鼓楼医院-急诊部,南京市鼓楼区中山路321号南京大学医学院附属鼓楼医院内,江苏省,南京市,鼓楼区,,unknown,
baidu,f2fe8f618aed693a626858b1,美思昀诊所,江苏省南京市鼓楼区湖南路街道厚载巷48号,江苏省,南京市,鼓楼区,(025)57621383,unknown,
baidu,0576f39dc30afae1e856fa95,爱康国宾体检中心(南京鼓楼分院),江苏省南京市鼓楼区中央路19号金峰大厦3层4层,江苏省,南京市,鼓楼区,(025)86640066,unknown,
baidu,cb82660851a67b666ca3cc8d,南京鼓楼医院-感染科门诊,南京市鼓楼区中山路321号南京鼓楼医院,江苏省,南京市,鼓楼区,,unknown,
baidu,203307988c930335a7c75653,南京市儿童医院(广州路院区)-住院楼,南京市鼓楼区南京市儿童医院(广州路院区)3号楼,江苏省,南京市,鼓楼区,,unknown,
baidu,3c0ea7c5f6a0fd9cfaf0cba0,南京大学医院,南京市鼓楼区汉口路22号,江苏省,南京市,鼓楼区,"(025)83592526,(025)83592531",unknown,
baidu,20b107329a3b34b946e274b2,健是仙中医诊所(云南路店),江苏省南京市鼓楼区云南路3号,江苏省,南京市,鼓楼区,,unknown,
baidu,0a15c7ecb0bd0dfded74f80e,南京大学(鼓楼校区)-社区卫生服务中心,江苏省南京市鼓楼区汉口路22号,江苏省,南京市,鼓楼区,(025)83592531,unknown,
baidu,cd8055a500a5f43eb5f42f84,马荣中医诊所,江苏省南京市鼓楼区厚载巷38号1幢103室,江苏省,南京市,鼓楼区,,unknown,
baidu,a431c4a660e2f84ebbbd6389,南京鼓楼医院-发热门诊,江苏省南京市鼓楼区中山路321号,江苏省,南京市,鼓楼区,,unknown,
baidu,9f97b1c533cf237bb74f54b4,南京市儿童医院(广州路院区)-门诊部,江苏省南京市鼓楼区广州路72号,江苏省,南京市,鼓楼区,(025)83117500,unknown,
baidu,b533ea4a5de81c404e6d4682,南京脑科医院,南京市鼓楼区广州路264号,江苏省,南京市,鼓楼区,(025)82296000,unknown,
baidu,c62893ec8e7662922bb97cd2,江苏省省级机关医院,南京市鼓楼区江苏路65号,江苏省,南京市,鼓楼区,(025)83712838,unknown,
baidu,6945a212dfeab2388733042c,南京市儿童医院-新生儿危急重症救治中心,江苏省南京市鼓楼区广州路72号,江苏省,南京市,鼓楼区,,unknown,
baidu,314a28970892dbdd223bf2ed,丹德齿科(绿地中心紫峰购物广场),江苏省南京市鼓楼区中山北路6号绿地中心·紫峰购物广场F4,江苏省,南京市,鼓楼区,"(025)58801888,(025)66070000,4000259968",unknown,
baidu,dc33c09d4ce50f9a0bf5eb88,献血车(鼓楼市民广场),江苏省南京市玄武区中央路鼓楼市民广场(凯瑟琳广场对面),江苏省,南京市,玄武区,13372028574,unknown,
baidu,a7c56ee08760ebb3a2acc4a0,南京市胸科医院,南京市鼓楼区广州路215号,江苏省,南京市,鼓楼区,(025)83728558,unknown,
baidu,32683cdd85956a4aae080f93,南京市儿童医院(广州路院区)-急诊,南京市鼓楼区广州路72号南京市儿童医院(广州路院区),江苏省,南京市,鼓楼区,,unknown,
baidu,37d60a46fa28231e1f1d11b4,江苏省人民医院-门诊部,江苏省南京市鼓楼区广州路300号,江苏省,南京市,鼓楼区,"(025)83714511,(025)83718836",unknown,
baidu,04bdf4a396dc3856354aae47,江苏省人民医院,南京市鼓楼区广州路300号,江苏省,南京市,鼓楼区,(025)83714511,unknown,
baidu,268e2ee6736e5c95ca1b9578,江苏省人民医院南京医科大学第一附属医院临床生殖医学中心,江苏省南京市鼓楼区永庆巷16号,江苏省,南京市,鼓楼区,(025)68302222,unknown,
baidu,9c1d0c9bb9cfd290f7b9169d,南京鼓楼医院-1892楼,南京市鼓楼区中山路321号南京鼓楼医院,江苏省,南京市,鼓楼区,,unknown,
baidu,f5848d9fd69d1c0fbbbd638c,江苏省肿瘤医院,南京市玄武区昆仑路百子亭42号,江苏省,南京市,玄武区,"(025)83283364,(025)83283597",unknown,
baidu,cfa66b15daa42bf1d22dd6fd,江苏省口腔医院-门诊综合大楼,江苏省南京市鼓楼区上海路1号,江苏省,南京市,鼓楼区,,unknown,
baidu,a6030129fb2607affda7789e,南京鼓楼医院-肝炎门诊,中山路321号鼓楼医院南扩新院区,江苏省,南京市,鼓楼区,,unknown,
baidu,dbf4d6ee1864602a6ea3cca0,南京医科大学附属眼科医院,江苏省南京市鼓楼区汉中路138号,江苏省,南京市,鼓楼区,(025)86677777,unknown,
baidu,24de36f4c23d44f017948e5f,南京市儿童医院(广州路院区)-综合楼,南京市鼓楼区南京市儿童医院(广州路院区)5号楼,江苏省,南京市,鼓楼区,,unknown,
baidu,0523a1419e9c2060b33c81b4,江苏省中医院-门诊部,江苏省南京市秦淮区汉中路155号,江苏省,南京市,秦淮区,(025)86518612,unknown,
baidu,cde9e2c7a680baade81e9754,东南大学附属中大医院,江苏省南京市鼓楼区丁家桥87号,江苏省,南京市,鼓楼区,(025)83272111,unknown,
baidu,218614e954d161682fb17efe,AED(南京美仕年专科门诊部有限公司),南京市鼓楼区中山北路49号美年大健康1层,江苏省,南京市,鼓楼区,,unknown,
baidu,e1ff5dc150149a9914a190af,南京逸康莱医疗器械(中山路店),江苏省南京市鼓楼区中山路321号,江苏省,南京市,鼓楼区,,unknown,
baidu,1d75eedbc1b6d46938e4a660,江苏省中医院-代煎中药服务中心,石鼓路中际烟酒店东南30米,江苏省,南京市,秦淮区,,unknown,
baidu,13a2e6895f1ea32d40024558,美年大健康(湖南路分院),江苏省南京市鼓楼区湖南路18号苏宁环球购物中心4-5F,江苏省,南京市,鼓楼区,17751006953,unknown,
baidu,5923e321805996391d1d11c4,鼓楼区妇幼保健所中医药健康管理中心,江苏省南京市鼓楼区三条巷6号,江苏省,南京市,鼓楼区,"(025)58932010,(025)58932018",unknown,
baidu,68ede766803e0e1b5fd4fe92,南京鼓楼医院-位元堂,中山路321号南京鼓楼医院南扩新院,江苏省,南京市,鼓楼区,,unknown,
baidu,ced80a35efcb5146c6effb3a,南京鼓楼医院-1982楼,南京大学医学院附属鼓楼医院1982楼,江苏省,南京市,鼓楼区,,unknown,
baidu,e889a7443bbf9aac8605bf53,南京市妇幼保健院,南京市秦淮区莫愁路天妃巷123号,江苏省,南京市,秦淮区,(025)52226777,unknown,
baidu,d5da3b5103baccd14302458b,南京师范大学医院,江苏省南京市鼓楼区宁海路122号,江苏省,南京市,鼓楼区,,unknown,
baidu,5b25f4463d4c63f3112935a4,江苏省中医院,南京市秦淮区汉中路155号,江苏省,南京市,秦淮区,"(025)86518612,(025)86618472",unknown,
baidu,0adce3e2fff71f6380a00c75,南京市中心医院,南京市玄武区成贤街116号,江苏省,南京市,玄武区,(025)68781555,unknown,
baidu,95c7ef75cc25d781da2f282e,南京鼓楼医院-放射治疗部,南京市鼓楼区中山路321号南京鼓楼医院,江苏省,南京市,鼓楼区,,unknown,
baidu,aac1e1ab7e8cfaf45e17c378,益丰大药房(云南路店),江苏省南京市鼓楼区云南路5号一层房屋,江苏省,南京市,鼓楼区,(025)58819107,unknown,
baidu,6d573c7dca4a7abe932ca3cd,南京市玄武医院,南京市玄武区杨将军巷21号,江苏省,南京市,玄武区,(025)86642930,unknown,
baidu,69a70b3e0b0f31622cb17e57,上元堂药店(苏州路店),江苏省南京市鼓楼区苏州路17-1号,江苏省,南京市,鼓楼区,(025)83708234,unknown,
baidu,efc05ce9112ceab9d0f49e8b,奇冠药店(鼓楼药店),江苏省南京市鼓楼区中山北路41号,江苏省,南京市,鼓楼区,(025)58229317,unknown,
baidu,05dd7d5f30654718ad080f49,益丰大药房(南京大方巷二店),江苏省南京市鼓楼区大方巷17号,江苏省,南京市,鼓楼区,"(025)86389117,(025)86637266",unknown,
baidu,bf29b7022cb6648008b93aae,鼓楼大药店(中山路店),江苏省南京市鼓楼区中山路321号,江苏省,南京市,鼓楼区,(025)86225797,unknown,
baidu,f527c20df87dacb7a11de9e9,南京市儿童医院(广州路院区)-抢救室,南京市鼓楼区广州路72号南京市儿童医院(广州路院区),江苏省,南京市,鼓楼区,,unknown,
baidu,862a56fb1ba8a5598505bf6c,南京市儿童医院(广州路院区)-后勤服务中心,南京市鼓楼区广州路72号南京市儿童医院(广州路院区),江苏省,南京市,鼓楼区,,unknown,
baidu,50c536be7567a70e9b68b43f,南京市儿童医院(广州路院区)-制剂室,南京市鼓楼区广州路72号南京市儿童医院(广州路院区),江苏省,南京市,鼓楼区,,unknown,
baidu,8ff8b15d72d88b5e6cc02c67,庭医信息服务咨询中心,江苏省南京市鼓楼区青岛路2-6号,江苏省,南京市,鼓楼区,,unknown,
baidu,e1900a3147b02c1dcd04ef64,南京鼓楼医院-肠道门诊,中山路321号鼓楼医院南扩新院区,江苏省,南京市,鼓楼区,,unknown,
baidu,cfbc1f6cc4feea4a21f017ef,中医治疗近弱视眼,江苏省南京市鼓楼区厚载巷38号,江苏省,南京市,鼓楼区,,unknown,
baidu,b21be481ed8aa3d44f6d463d,南京鼓楼医院-普通发热诊室,南京市鼓楼区中山路321号南京鼓楼医院,江苏省,南京市,鼓楼区,,unknown,
baidu,8be2a41d233f265f2a02e18e,益丰大药房(厚载巷店),江苏省南京市鼓楼区厚载巷27-6号,江苏省,南京市,鼓楼区,(025)52618775,unknown,
baidu,566fb78d3a54b20630169b06,江苏省医药有限公司国药商场(医药大药房),江苏省南京市鼓楼区广州路140号随园大厦1楼,江苏省,南京市,鼓楼区,(025)83272693,unknown,
baidu,a16450d79044ab21f50e77a2,南京市口腔医院-医患沟通办公室,中央路30号南京市口腔医院,江苏省,南京市,玄武区,,unknown,
baidu,6677f3c1b23116eda1d23049,南京市口腔医院-输液室,中央路30号,江苏省,南京市,玄武区,,unknown,
baidu,551c4c6753c0da433c9a5e82,北京同仁堂养生馆(北京西路店),江苏省南京市鼓楼区宁海路街道玉泉路5号,江苏省,南京市,鼓楼区,13675136553,unknown,
baidu,ff6878a02c03687982288a39,南京市口腔医院-隔离诊室,中央路30号南京市口腔医院,江苏省,南京市,玄武区,,unknown,
baidu,f1004f8a0de8ab7be31103b5,上城药店(汉口路店),江苏省南京市鼓楼区汉口路47号-6号,江苏省,南京市,鼓楼区,(025)83733073,unknown,
baidu,d7493d8d822a7ef5c7f025e3,康瑞仕健康营养中心,江苏省南京市鼓楼区上海路77-3号,江苏省,南京市,鼓楼区,,unknown,
baidu,4bde91144430f898b13c814d,南京同仁堂(中山路店),中山路248号(珠江路地铁站3号口步行150米),江苏省,南京市,玄武区,(025)86307366,unknown,
baidu,889b0f20d68d74e529b97ca6,江苏信臣医疗器械有限公司,广州路188苏宁环球大厦11层1101,江苏省,南京市,鼓楼区,,unknown,
baidu,43761c85e313bff1306212c3,立聪堂助听器(南京军人俱乐部店),江苏省南京市鼓楼区中山北路76号,江苏省,南京市,鼓楼区,02583307795,unknown,
baidu,7bfa08fc2588326624d2bba1,业康药房(广州路店),江苏省南京市鼓楼区广州路39-13号,江苏省,南京市,鼓楼区,(025)86631804,unknown,
baidu,ea3012d40f12540df4b9163c,益东大药房,江苏省南京市鼓楼区中央路47号,江苏省,南京市,鼓楼区,,unknown,
baidu,245c43024d90c58a82288ac2,聚力堂健康大药房(云南北路店),江苏省南京市鼓楼区云南北路49号一层(米乐星KTV对面),江苏省,南京市,鼓楼区,(025)83352367,unknown,
baidu,982b384579129074d23ce3ae,5S健康管理中心,南京市鼓楼区大方巷宁乐新苑,江苏省,南京市,鼓楼区,,unknown,
baidu,c6c79d2bbfac28064c6d46ea,奇冠药店(山西路店),江苏省南京市鼓楼区山西路56号,江苏省,南京市,鼓楼区,(025)52219257,unknown,
baidu,012f4177cd943b4c5fbe8608,运鑫大药房,南京市玄武区中山路汇杰广场南侧约30米,江苏省,南京市,玄武区,,unknown,
baidu,c628a6f2f0891b3d5e17c384,连鑫大药房,江苏省南京市玄武区中山路248-5号,江苏省,南京市,玄武区,,unknown,
baidu,4061a289881ddd0d43afe60e,AED-江苏省南京鼓楼医院干保中心,江苏省南京市鼓楼区中山路321号,江苏省,南京市,鼓楼区,,unknown,
baidu,823fdc74329997dcd12dd61a,AED(江苏省南京鼓楼医院钢琴厅),江苏省南京市鼓楼区南京鼓楼医院内,江苏省,南京市,鼓楼区,,unknown,
baidu,92bd5578c9ab7cc04457265a,南京市口腔医院,江苏省南京市玄武区中央路30号,江苏省,南京市,玄武区,(025)83620362,unknown,
baidu,e8543668d35266c3b34c499c,欧蓝德手足关爱中心,上海路149号附近,江苏省,南京市,鼓楼区,,unknown,
baidu,ba49c3b2a898e6131329357a,康好口腔,南京市鼓楼区鼓楼五条巷小区西院,江苏省,南京市,鼓楼区,,unknown,
baidu,d0e63cdf4a0fd0b90bccdd19,行心儿童学习困难训练中心·厌学复学·注意力(脑科医院分中心),广州路189号民防大厦10楼1003,江苏省,南京市,鼓楼区,,unknown,
baidu,77eebc0b1f156f8930169bfa,江苏省口腔医院,汉中路136号,江苏省,南京市,鼓楼区,(025)69593100,unknown,
baidu,aa7782650c2979c26b49f3e8,南大口腔门诊,南京市玄武区中央路南京市口腔医院,江苏省,南京市,玄武区,,unknown,
baidu,c4b4b576fd78f857f8f0cb23,江苏省新生儿急救与新出生体重儿干预中心,南京市鼓楼区广州路南京市儿童医院(广州路院区),江苏省,南京市,鼓楼区,,unknown,
baidu,101bc61b214d36a3c42ba158,江苏省疾病预防控制中心,江苏省南京市鼓楼区宁海路街道江苏路172号(近江苏路广场),江苏省,南京市,鼓楼区,(025)83759311,unknown,
baidu,fbf8d9f42b2daa8a704b87f7,青少年近弱视防治,厚载巷38号1-3附近,江苏省,南京市,鼓楼区,,unknown,
baidu,3f4a7a6d95642fa24051c0bf,南京市口腔医院-注射室,中央路30号,江苏省,南京市,玄武区,,unknown,
baidu,a6a8d05e22e1bf89ab175ab1,AED(南京市鼓楼区宁海路党群服务中心),江苏省南京市鼓楼区云南路44号宁海路街道党群服务中心大厅内,江苏省,南京市,鼓楼区,,unknown,
baidu,6f5bbaeb8fe7fca8ca291560,江苏省疾病预防控制局,南京市玄武区中央路高楼门57号西门西北侧约80米,江苏省,南京市,玄武区,,unknown,
baidu,28d03fe8bb05eaf8d0f49e92,吾风柔道(上海路店),上海路160号南楼4楼,江苏省,南京市,鼓楼区,18252034599,unknown,
baidu,22184ae8cb56ab2679dbd225,歌德考试中心,鼓楼区江苏省南京市宁海路街道上海路205号,江苏省,南京市,鼓楼区,,unknown,
baidu,27657409503d4714ab0dd8b9,南京大学-现代分析中心,江苏省南京市鼓楼区北京西路11-1号南京大学科学楼,江苏省,南京市,鼓楼区,,unknown,
baidu,9a580e7dbc1a520b09ccdd4d,费彝民楼(鼓楼校区),江苏省南京市鼓楼区汉口路22号（云南路地铁站3号口步行430米）,江苏省,南京市,鼓楼区,,unknown,
baidu,de449492c1cdbdeb1676431e,南京大学(鼓楼校区)-工程管理学院,江苏省南京市鼓楼区平仓巷5号,江苏省,南京市,鼓楼区,(025)83597501,unknown,
baidu,45f21421428373921811d590,南京大学(鼓楼校区)-安中大楼(鼓楼校区),江苏省南京市鼓楼区金银街16号,江苏省,南京市,鼓楼区,,unknown,
baidu,85c4aa6524e52aef601c67fe,南京大学(鼓楼校区)-曾宪梓楼(鼓楼校区),江苏省南京市鼓楼区湖南路街道金银街18号,江苏省,南京市,鼓楼区,,unknown,
baidu,0578aac9bbb546a6f60e7744,北欧之家留学移民中心,江苏省南京市鼓楼区宁海路街道上海路207号办公楼206号,江苏省,南京市,鼓楼区,(025)83368596,unknown,
baidu,7af5d919c58c5964acee7ab2,向量空间科技中心,江苏省南京市鼓楼区北京西路2号倍格硅巷三楼,江苏省,南京市,鼓楼区,"15261826671,17714317758",unknown,
baidu,16d0bb7f8ec04436f1193782,一格教育,江苏省南京市鼓楼区宁海路122-1号营养楼3层,江苏省,南京市,鼓楼区,18136856756,unknown,
baidu,f4344c6aadeaf5ebbb17e7f8,自然力量艺术教育,江苏省南京市鼓楼区北京西路2号倍格硅巷3楼,江苏省,南京市,鼓楼区,13151559953,unknown,
baidu,529e979b9458dc7043e19232,江苏三连星围棋(云南路校区),云南路20-1号鸿德大厦A座2层205室,江苏省,南京市,鼓楼区,(025)83317828,unknown,
baidu,a96ea38236f8ca629cec2b85,金陵汉枫院,江苏省南京市鼓楼区五条巷5号一楼院子,江苏省,南京市,鼓楼区,,unknown,
baidu,d39e7eb0134e7a2fac04578e,江苏省高校招生就业指导服务中心,江苏省南京市鼓楼区北京西路15-2号九号楼,江苏省,南京市,鼓楼区,(025)83335329,unknown,
baidu,13dc374d0e9af2b1cae33c34,江苏省职业技能鉴定中心,中山北路49号机械大厦27楼,江苏省,南京市,鼓楼区,(025)83271773,unknown,
baidu,ccee737b02a20850d13ce3d2,南京大学(鼓楼校区)-化学楼(鼓楼校区),江苏省南京市鼓楼区汉口路22号,江苏省,南京市,鼓楼区,,unknown,
baidu,3be122e10a4b80521ef74d54,南京大学(鼓楼校区)-海外教育学院,江苏省南京市鼓楼区金银街18号（南京大学鼓楼校区）,江苏省,南京市,鼓楼区,,unknown,
baidu,9cb76bc56c449e60f6c59c6e,宁海路街道海洋国防教育馆,江苏省南京市鼓楼区宁海路54号,江苏省,南京市,鼓楼区,(025)83320988,unknown,
baidu,b7d2c82b89336ae22c47332c,费彝民新闻研究院(鼓楼校区),江苏省南京市鼓楼区北京西路9号,江苏省,南京市,鼓楼区,,unknown,
baidu,f09665b1fafd2454b35c6ae9,南京大学鼓楼校区北园-建良楼,江苏省南京市鼓楼区汉口路22号,江苏省,南京市,鼓楼区,,unknown,
baidu,7cc1a1ea866f71c532f71d7e,南京大学(鼓楼校区)-田家炳楼,江苏省南京市鼓楼区金银街8号,江苏省,南京市,鼓楼区,,unknown,
baidu,6dc74d441f76fed0276e9810,南京大学(鼓楼校区)-软件学院(汉口路),江苏省南京市鼓楼区汉口路22号,江苏省,南京市,鼓楼区,,unknown,
baidu,15323272d6c842b8ab175af1,Simple星渤·双语悦读馆,江苏省南京市鼓楼区汉口西路2号银河证券楼上803室,江苏省,南京市,鼓楼区,17205143810,unknown,
baidu,ffbb82a1fe8cba099a005071,南京大学-唐仲英楼,江苏省南京市鼓楼区金银街15号,江苏省,南京市,鼓楼区,,unknown,
baidu,ef439ff389494958ddee8b08,南京大学工程管理学院协鑫楼,江苏省南京市鼓楼区平仓巷5号,江苏省,南京市,鼓楼区,,unknown,
baidu,53349ee3a3f4eb6e22026254,江苏省建筑科学研究院,江苏省南京市鼓楼区北京西路12号,江苏省,南京市,鼓楼区,(025)83278678,unknown,
baidu,8e7ea82884b5ff841ce99970,南京大学约翰斯·霍普金斯大学国际问题研究所,江苏省南京市鼓楼区上海路162号,江苏省,南京市,鼓楼区,,unknown,
baidu,087f990e19a524387402692e,南京小能豆艺术培训有限责任公司鼓楼分公司,南京市鼓楼区宁海路80号办公楼4楼,江苏省,南京市,鼓楼区,,unknown,
baidu,d5ffb1883da99c2fc056ac7f,南京大学(鼓楼校区)-西南楼,江苏省南京市鼓楼区汉口路22号南京大学西南楼,江苏省,南京市,鼓楼区,,unknown,
baidu,610852113ea0fcb8c51b7502,江苏棋院,五台山1-6号五台山体育场内,江苏省,南京市,鼓楼区,13951034952,unknown,
baidu,983d3f1eba991f31b54f54de,江苏联合职业技术学院,江苏省南京市鼓楼区北京西路15-2号慈悲社9号楼,江苏省,南京市,鼓楼区,(025)83335358,unknown,
baidu,a26d3f62be10d143343a712a,南京大学(鼓楼校区),江苏省南京市鼓楼区汉口路22号,江苏省,南京市,鼓楼区,(025)83593186,unknown,
baidu,5949cb7c372c43cb364aaecd,南京大学委员会-统一战线工作部,江苏省南京市鼓楼区汉口路22号,江苏省,南京市,鼓楼区,,unknown,
baidu,6b77cd02172c1f1dae0457c6,安吉拉文化艺术培训,江苏省南京市鼓楼区北东瓜市7号,江苏省,南京市,鼓楼区,18020105671,unknown,
baidu,44207646aaae926bdeee8b55,南京市鼓楼幼儿园(北京西路),江苏省南京市鼓楼区北京西路4号(鼓楼地铁站6号口步行300米),江苏省,南京市,鼓楼区,(025)86635264,unknown,
baidu,24e4870b1c0a2766ee74f87d,南京市芮禾职业培训学校,江苏省南京市鼓楼区中山北路49号,江苏省,南京市,鼓楼区,(025)83376616,unknown,
baidu,81d6a50971b6e5406e20b955,宁海中学,江苏省南京市鼓楼区宁海路39号,江苏省,南京市,鼓楼区,(025)83237330,unknown,
baidu,92ebe7f2fcbf6a6b78f796bc,南京大学(鼓楼校区)-北大楼,江苏省南京市鼓楼区汉口路22号,江苏省,南京市,鼓楼区,,unknown,
baidu,9ecbafc2a68aeab3a2046408,南京大学教育技术中心,江苏省南京市鼓楼区湖南路街道平仓巷5号,江苏省,南京市,鼓楼区,,unknown,
baidu,e96b4420af0d9f5982288a55,南京市实验幼儿园,江苏省南京市鼓楼区匡庐新村113号,江苏省,南京市,鼓楼区,(025)83722187,unknown,
baidu,6fddd7fd9601cc033517dcce,南京大学(鼓楼校区)-幼儿园(鼓楼校区),江苏省南京市鼓楼区平仓巷3号,江苏省,南京市,鼓楼区,(025)83594550,unknown,
baidu,3902f3bc24f8a7dd5cd4fef8,南京大学附属中学,江苏省南京市鼓楼区鼓楼街83号,江苏省,南京市,鼓楼区,(025)83231068,unknown,
baidu,4ae5c80186dbf61c94ec84ff,南京大学鼓楼校区北园-西大楼,江苏省南京市鼓楼区汉口路22号西大楼,江苏省,南京市,鼓楼区,,unknown,
baidu,5f9d5099dcc90a76d4851f24,南京大学鼓楼校区北园-赛珍珠楼,南京市鼓楼区平仓巷南京大学(鼓楼校区),江苏省,南京市,鼓楼区,,unknown,
baidu,1a0ce630773f5430eb56fa7b,国家电网设计院,江苏省南京市鼓楼区北京西路22号北区4楼,江苏省,南京市,鼓楼区,,unknown,
baidu,5077fb4f835a4ccfb2077d3d,南京大学新金融研究院,江苏省南京市鼓楼区南秀村5号,江苏省,南京市,鼓楼区,,unknown,
baidu,61bf1f5cf9d4daf7eb12e4fc,南京师范大学幼儿园,江苏省南京市鼓楼区汉口西路南区2号（匡庐新村2号）,江苏省,南京市,鼓楼区,(025)83598909,unknown,
baidu,d7b17526752f03da42d63e8f,河海大学(西康路校区),江苏省南京市鼓楼区西康路1号,江苏省,南京市,鼓楼区,(025)83786232,unknown,
baidu,6dac140e390de4c700ec011d,江苏建科院结构所,江苏省南京市鼓楼区湖南路街道北京西路12-1号505室,江苏省,南京市,鼓楼区,,unknown,
baidu,d7fd2ad3c4c47b290accdd94,南京市第十三中学(西家大塘),西家大塘14号,江苏省,南京市,玄武区,(025)83269911,unknown,
baidu,74434e00f98a3c0af4b91609,南京大学-生命分析化学国家重点实验室,江苏省南京市鼓楼区汉口路22号南京大学鼓楼校区,江苏省,南京市,鼓楼区,,unknown,
baidu,4ccd20c29bc4d620f8221399,南京大学鼓楼校区北园-丙丁楼,南京大学鼓楼校区北园丙丁楼,江苏省,南京市,鼓楼区,,unknown,
baidu,72b9563dba2b7805240bd037,南京市鼓楼幼儿园盛美分园,江苏省南京市鼓楼区渊声巷3号(鼓楼地铁站3号口步行490米),江苏省,南京市,鼓楼区,,unknown,
baidu,e97710021706e42827e0a0af,南京大学(鼓楼校区)-知行楼(鼓楼校区),江苏省南京市鼓楼区汉口路22号,江苏省,南京市,鼓楼区,,unknown,
baidu,8dc58e20f533bf9efea77812,南京大学鼓楼校区北园-教学楼,江苏省南京市鼓楼区汉口路22号,江苏省,南京市,鼓楼区,,unknown,
baidu,4e4e79660fd832c3f7e73b33,南京大学鼓楼校区大学外语部,江苏省南京市鼓楼区平仓巷5号,江苏省,南京市,鼓楼区,,unknown,
baidu,894a89c004037772afee7a58,南京大学中国思想家研究中心,江苏省南京市鼓楼区汉口路22号,江苏省,南京市,鼓楼区,,unknown,
baidu,5fff5dd934c663ef9f82eaf6,南京大学鼓楼校区南京微结构国家实验室,江苏省南京市鼓楼区汉口路22号南京大学鼓楼校区,江苏省,南京市,鼓楼区,(025)83592756,unknown,
baidu,3d41385ce157a5fba0acc4f0,南京大学(鼓楼校区)新教学楼,南京市鼓楼区两江路南京大学(鼓楼校区),江苏省,南京市,鼓楼区,,unknown,
baidu,c63cfee195d76014d23ce35f,南京大学鼓楼校区南京历史文化研究中心,江苏省南京市鼓楼区湖南路街道金银街11号,江苏省,南京市,鼓楼区,,unknown,
baidu,7e7fbdf0638d15066fa3ccb9,美言美语英语阅读馆(鼓楼校区),江苏省南京市鼓楼区中山北路28号江苏商厦3楼,江苏省,南京市,鼓楼区,13809044871,unknown,
baidu,e52183e319e2499424e0a001,南京大学(鼓楼校区)-东大楼,江苏南京市鼓楼区汉口路22号北园,江苏省,南京市,鼓楼区,,unknown,
baidu,753daf0ef0a446c08505bf67,歌德图书馆,江苏南京市鼓楼区上海路205号,江苏省,南京市,鼓楼区,,unknown,
baidu,de073d1faba918f575e5b606,南京大学鼓楼校区计算中心,江苏省南京市鼓楼区湖南路街道天津路1号,江苏省,南京市,鼓楼区,,unknown,
baidu,2b021391015d5ff58bf15d41,南京大学政府新闻学研究所,南京市鼓楼区北京西路南京大学(鼓楼校区)东北门南侧约100米,江苏省,南京市,鼓楼区,,unknown,
baidu,083a55fac7403b79246e9855,南京市力学小学,江苏省南京市鼓楼区汉口西路120号,江苏省,南京市,鼓楼区,(025)83716008,unknown,
baidu,1c08814ec288b17d4afd3f83,南京大学鼓楼校区审计处,江苏省南京市鼓楼区汉口路9号南京大学(鼓楼校区),江苏省,南京市,鼓楼区,,unknown,
baidu,5394e9b4bd4db3bd59bbbc0b,南京师范大学(随园校区),江苏省南京市鼓楼区宁海路122号,江苏省,南京市,鼓楼区,(025)83720759,unknown,
baidu,927412a2438ce5969d9d68cd,江苏省教育装备与勤工俭学中心,江苏省南京市鼓楼区北京西路15号江苏教育大厦1楼,江苏省,南京市,鼓楼区,(025)83335290,unknown,
baidu,835961733b928c331df74de3,树华楼(鼓楼校区),江苏省南京市鼓楼区汉口路22号南京大学鼓楼校区,江苏省,南京市,鼓楼区,,unknown,
baidu,096eb5f250f348732902e156,南京大学鼓楼校区模式动物研究所,江苏省南京市鼓楼区北京西路9号,江苏省,南京市,鼓楼区,,unknown,
baidu,8ae74c1bebdf605d1e5800c3,南京大学鼓楼校区社会科学处,南京市鼓楼区天津路南京大学(鼓楼校区),江苏省,南京市,鼓楼区,,unknown,
baidu,de003fe3ac1b870b8e77273d,南京市鼓楼幼儿园亲子园,江苏省南京市鼓楼区鼓楼三条巷2号,江苏省,南京市,鼓楼区,,unknown,
baidu,28e700f1c7b7e901095cb355,金陵中学(新街口校区),南京市鼓楼区中山路169号,江苏省,南京市,鼓楼区,(025)84786335,unknown,
baidu,406aeaecf40ba1a57dc87695,三八保育院,江苏省南京市鼓楼区宁夏路6号,江苏省,南京市,鼓楼区,(025)83313372,unknown,
baidu,a75fad929d59c821ca1b95f8,南京大学鼓楼校区低温技术实验中心,江苏省南京市鼓楼区南秀村2号,江苏省,南京市,鼓楼区,,unknown,
baidu,5bec4f6b543e4b7af4b91665,南京大学鼓楼校区田家炳艺术书院,汉口路22号（云南路地铁站3号口步行450米）,江苏省,南京市,鼓楼区,,unknown,
baidu,e4497b05ce9686aed7851f92,生殖中心研究室,江苏省南京市鼓楼区中山北路53号,江苏省,南京市,鼓楼区,,unknown,
baidu,73f3088b4da257afa1d230d2,南京大学鼓楼校区中韩文化研究中心,江苏省南京市鼓楼区汉口路22号,江苏省,南京市,鼓楼区,,unknown,
baidu,101bc61b214e36a3c42ba155,南京市鼓楼区第一中心小学,江苏省南京市鼓楼区上海路42号,江苏省,南京市,鼓楼区,(025)83321804,unknown,
baidu,28e700f1c607e801095cb3e5,南京市人民中学,江苏省南京市玄武区中山路178号,江苏省,南京市,玄武区,(025)83159566,unknown,
baidu,35faa62884762a732cb96d73,南京中智文化创意研究院有限公司,南京市鼓楼区汉口路22号南京大学鼓楼校区费彝民楼B座309室,江苏省,南京市,鼓楼区,,unknown,
baidu,e3a7fd138205052c28b97ce4,南京市赤壁路小学,江苏省南京市鼓楼区赤壁路10号,江苏省,南京市,鼓楼区,(025)83725915,unknown,
baidu,c5b7adf45e70a281cc06a482,南京市拉萨路小学六年级教学区,江苏省南京市鼓楼区云南北路74号(玄武门地铁站出入口步行450米),江苏省,南京市,鼓楼区,,unknown,
baidu,07f3c8b50a3e6e1d6240a9ce,南京拉萨路小学,江苏省南京市鼓楼区拉萨路7号,江苏省,南京市,鼓楼区,(025)86609444,unknown,
baidu,a734471de0a858cd34b06c3c,江苏省高院研究室,宁海路街道宁海路75号,江苏省,南京市,鼓楼区,,unknown,
baidu,ddc1a8655a92f156441a32f3,鼓楼医院北院-教学楼,江苏南京市鼓楼区二条巷一巷107号鼓楼医院,江苏省,南京市,鼓楼区,,unknown,
baidu,668d1ffca0bec196f60e772f,南京玄武外国语学校附属小学,江苏省南京市玄武区昆仑路43号,江苏省,南京市,玄武区,(025)83607448,unknown,
baidu,bb9a5e78dcb805c13be4a689,南京医科大学(五台校区),汉中路140号,江苏省,南京市,鼓楼区,(025)86862618,unknown,
baidu,462413c9f3b1aa5cf50e778e,南京大学(鼓楼校区)-声学研究所,江苏省南京市鼓楼区汉口路22号,江苏省,南京市,鼓楼区,,unknown,
baidu,4fd4c1a9d2b2ecadca29150d,江苏省教育建筑设计研究院,江苏省南京市鼓楼区宁海路街道北京西路15号江苏教育大厦24-25层2402室,江苏省,南京市,鼓楼区,(025)83335903,unknown,
baidu,2fd31672287b16363586f4b5,南京大学工程管理学院光通信工程研究中心,南京市鼓楼区平仓巷南京大学(鼓楼校区),江苏省,南京市,鼓楼区,,unknown,
baidu,dc055ef44c399fcc0d0a7028,南京师范大学附属小学,江苏省南京市玄武区四牌楼4号,江苏省,南京市,玄武区,(025)83367955,unknown,
baidu,39e18e69997fe84c41d63e49,南京大学(鼓楼校区)-马克思主义学院,江苏省南京市鼓楼区汉口路22,江苏省,南京市,鼓楼区,,unknown,
baidu,e6244a8c223dac8d343a719c,江苏省民族宗教研究中心,江苏省南京市鼓楼区匡庐新村8号,江苏省,南京市,鼓楼区,(025)83713337,unknown,
baidu,6820f628c5fd5825b020a82a,琅琊路小学教育集团,南京市鼓楼区渊声巷南京市渊声巷小学,江苏省,南京市,鼓楼区,,unknown,
baidu,cc2b0011837ea34a09a8d4c9,南京大学(鼓楼校区)-加速器研究所,江苏省南京市鼓楼区汉口路22号南京大学鼓楼校区北校区,江苏省,南京市,鼓楼区,,unknown,
baidu,8aefb46972057756990050a6,南京大学(鼓楼校区)-水科学研究中心,江苏省南京市鼓楼区汉口路22号费彝民楼14f,江苏省,南京市,鼓楼区,,unknown,
baidu,34da086a089eada71ce9994e,南京大学中国南海研究协同创新中心国际海洋法研究所(鼓楼校区),南京市鼓楼区汉口路22号南京大学鼓楼校区丁字楼,江苏省,南京市,鼓楼区,,unknown,
baidu,9698104c0a7f6105ad080fdb,南京大学人工微结构科学与技术协同创新中心(中大路),南京市鼓楼区中大路南京大学(鼓楼校区),江苏省,南京市,鼓楼区,,unknown,
baidu,ff1b42134622aeae48cc4a04,画里的拾光(鼓楼南大店),金银街8号万象书坊内二楼,江苏省,南京市,鼓楼区,17714530935,unknown,
baidu,cac5fc76d76b428e2cb96d4c,江苏国际预科学院(上海路),江苏省南京市鼓楼区上海路203-207号,江苏省,南京市,鼓楼区,(025)83335996,unknown,
baidu,582eefb69683e03c715e8040,江苏省食品药品监督检验研究院,南京市鼓楼区湖南路街道北京西路6号省药检所食品中心,江苏省,南京市,鼓楼区,,unknown,
baidu,b3a6d178af95f27279b55c3f,建国大学南京代表处,江苏省南京市鼓楼区金银街18号,江苏省,南京市,鼓楼区,,unknown,
baidu,2856e6d7d324f5ffb11e3621,江苏省建筑装饰设计研究院,江苏省南京市鼓楼区云南路31-1号苏建大厦25层,江苏省,南京市,鼓楼区,,unknown,
baidu,a1418eb45eeaa27febe58255,江苏省省级机关第一幼儿园,江苏省南京市鼓楼区中山北路40号,江苏省,南京市,鼓楼区,(025)83220513,unknown,
baidu,f49706bbb92151004154d767,国网江苏省电力公司经济技术研究院,江苏省南京市鼓楼区中山路251号,江苏省,南京市,鼓楼区,(025)68102121,unknown,
baidu,cada95413613081d1f389483,江苏省行政管理科学研究所,江苏省南京市鼓楼区中山北路49号江苏机械大厦25层,江苏省,南京市,鼓楼区,(025)83236094,unknown,
baidu,be8e42598e2e3867873304ca,南京大学约翰斯霍普金斯大学中美文化研究中心-地上停车场,南京市鼓楼区汉口路22号南京大学鼓楼校区,江苏省,南京市,鼓楼区,,unknown,
baidu,90f2b83d1c70b227f8dc85c5,南京大学(鼓楼校区)商学院(鼓楼校区)-地下停车场,江苏省南京市鼓楼区金银街16号,江苏省,南京市,鼓楼区,,unknown,
baidu,3c3ed8cfe67a41a001897260,江苏省建筑科学研究院-地上停车场,江苏省南京市鼓楼区北京西路12号,江苏省,南京市,鼓楼区,,unknown,
baidu,da3a5b21b9ec9da4f6c59c5d,苏兴大厦-停车场,南京市鼓楼区云南路18号,江苏省,南京市,鼓楼区,,unknown,
baidu,e011f7eb7152db1cc16c14dd,云南路,地铁4号线;地铁5号线,江苏省,南京市,鼓楼区,,unknown,
baidu,5ca188cf97734148f60e77ff,南京大学-停车场2,南京市鼓楼区金银街16号,江苏省,南京市,鼓楼区,,unknown,
baidu,707e631893305468bfa822f5,北京西路·云南路,11路;20路高峰区间;56路;303路;559路;Y11路夜间,江苏省,南京市,鼓楼区,,unknown,
baidu,74587aa82005f4753904b1fc,上海路·北京西路,13路;20路;20路区间;65路;83路;552路;Y13路夜间,江苏省,南京市,鼓楼区,,unknown,
baidu,5930d437c4184abac91b95a5,南京大学唐仲英楼-停车场,南京市鼓楼区金银街15号,江苏省,南京市,鼓楼区,,unknown,
baidu,9e883d62c54cb6779cec2be8,公共自行车点,江苏省南京市鼓楼区北京西路28号,江苏省,南京市,鼓楼区,,unknown,
baidu,118cab496a322a53f8dc8536,苏建大厦-停车场,南京市鼓楼区云南路苏建大厦,江苏省,南京市,鼓楼区,,unknown,
baidu,e0e40dccb30813eba21de904,鼓楼公园,11路;20路;20路高峰区间;20路区间;552路;559路;G25路[钟山5号线];Y11路夜间,江苏省,南京市,鼓楼区,,unknown,
baidu,c3fc316d4c5e16ac2a02e1ca,电动车停车场,南京市鼓楼区鼓楼二条巷华阳大厦(鼓楼街),江苏省,南京市,鼓楼区,,unknown,
baidu,a34c0ffbf5584bd78e772799,云南路·大方巷,13路;56路;83路;303路;Y13路夜间,江苏省,南京市,鼓楼区,,unknown,
baidu,c9b82d459b74dc2543afe6c7,鼓楼公交总站,26路;67路;70路;503路;D2路;G25路[钟山5号线];Y25路夜间;Y28路夜间,江苏省,南京市,鼓楼区,,unknown,
baidu,536d98bb231ed9fed7851f14,云南路12号院-停车场,江苏省南京市鼓楼区云南路12号,江苏省,南京市,鼓楼区,,unknown,
baidu,bbb59c2113b5aabceddfca14,中山北路·鼓楼,16路;31路;34路;34路区间;52路;67路;95路;100路;503路;551路;D2路;Y16路夜间;Y25路夜间;Y28路夜间,江苏省,南京市,鼓楼区,,unknown,
baidu,cc1d244f9f3c50008d55ecc7,五台山北,13路;65路;83路;552路;Y13路夜间,江苏省,南京市,鼓楼区,,unknown,
baidu,555eae2f089a64670c0e6b40,鼓楼,地铁1号线;地铁4号线,江苏省,南京市,鼓楼区,,unknown,
baidu,40e73903231845aad0ff2332,南京鼓楼医院-地下停车场,南京市鼓楼区中山路321号南京大学医学院附属鼓楼医院,江苏省,南京市,鼓楼区,"(025)83106666,(025)83304616",unknown,
baidu,5cd0ffebc59f4ae6e8f8539b,南京大学商学院安中楼自行车库,江苏省南京市鼓楼区湖南路街道南京大学商学院安中楼自行车库,江苏省,南京市,鼓楼区,,unknown,
baidu,cdf44ef99beb1c1416a19075,国家电网江苏省电力大厦-接送点,国家电网江苏省电力大厦附近,江苏省,南京市,鼓楼区,,unknown,
baidu,3f4a9c40bbe6abbb71455bc0,苏兴大厦-地下停车场,南京市鼓楼区北京西路16号,江苏省,南京市,鼓楼区,,unknown,
baidu,a845a96afe34610542d63ee3,龙全花园-地上停车场,南京市鼓楼区北京西路8号,江苏省,南京市,鼓楼区,,unknown,
baidu,078cd796d70d59e41188246f,鼓楼四条巷-路侧停车场,江苏省南京市鼓楼区北京西路16号,江苏省,南京市,鼓楼区,,unknown,
baidu,3dff938afd7a5b6b9f9d685b,宁海路,65路;78路;303路,江苏省,南京市,鼓楼区,,unknown,
baidu,a4e32ea50c602d21028972fe,江苏省高校招生就业指导服务中心-停车场,南京市鼓楼区北京西路江苏联合职业技术学院,江苏省,南京市,鼓楼区,,unknown,
baidu,f16321189acc9a874c3a5998,南京市儿童医院(广州路院区)-地下停车场,江苏省南京市鼓楼区广州路72号,江苏省,南京市,鼓楼区,,unknown,
baidu,1ce563214b5e5caf8e7727fb,停车场(金银街),南京市鼓楼区鼓楼四条巷龙全花园,江苏省,南京市,鼓楼区,,unknown,
baidu,866ff0c6aee7c6b74f3a5955,金银街17号小区-停车场,南京市鼓楼区金银街17号,江苏省,南京市,鼓楼区,,unknown,
baidu,d22457cebe32cf7d4c3a59a5,南京鼓楼吾悦广场-地下停车场,南京市鼓楼区湖北路南京鼓楼吾悦广场,江苏省,南京市,鼓楼区,(025)83775188,unknown,
baidu,40cd95a56075bd5815a190de,龙全花园西南侧-停车场,南京市鼓楼区北京西路8号,江苏省,南京市,鼓楼区,,unknown,
baidu,3467863bfef92ce3d5b74e9b,南京大学唐仲英楼-地下停车场,南京市鼓楼区金银街南京大学北门东南侧约90米,江苏省,南京市,鼓楼区,,unknown,
baidu,40e3869fc437cd484c2fdfe3,鼓楼·荔枝广场-地下停车场,南京市玄武区北京东路4号鼓楼·荔枝广场B2,江苏省,南京市,玄武区,,unknown,
baidu,5f176772e87fbfe61f389478,江苏教育大厦-地下停车场,南京市鼓楼区宁海路街道北京西路15号江苏省教育厅,江苏省,南京市,鼓楼区,,unknown,
baidu,2e8b535db9ef79c2a6da39ac,华美达怡华写字楼-停车场,南京市鼓楼区中山北路45号(鼓楼街口),江苏省,南京市,鼓楼区,,unknown,
baidu,3892861dec5ccbd901294f32,双菱大厦(鼓楼医院旁)-停车场,江苏省南京市鼓楼区二条巷26号-2幢,江苏省,南京市,鼓楼区,18061766812,unknown,
baidu,10aea24f5b4e8523eaf85325,苏建大厦-接送点,南京市鼓楼区苏建大厦附近,江苏省,南京市,鼓楼区,,unknown,
baidu,35ea25450b488f6fa7c756ec,珠江路,地铁1号线,江苏省,南京市,玄武区,,unknown,
baidu,b68adb92cf110a942fb17ee5,西桥花苑-停车场,南京市鼓楼区西桥23号,江苏省,南京市,鼓楼区,,unknown,
baidu,da6665cd64b681ffdeee8b10,环亚凯瑟琳广场-地下停车场,江苏省南京市玄武区北京东路1号环亚凯瑟琳广场B2,江苏省,南京市,玄武区,,unknown,
baidu,0bb7b4f4673d09acc26c14e9,龙全花园西侧-停车场,南京市鼓楼区北京西路8号南京云锦,江苏省,南京市,鼓楼区,,unknown,
baidu,d1469ee7595d201f853304ba,新晨国际大厦-地下停车场,南京市鼓楼区中山北路26号,江苏省,南京市,鼓楼区,,unknown,
baidu,824bb3d3d34046acb23c81a1,莫干路,3路;42路;78路;X5路,江苏省,南京市,鼓楼区,,unknown,
baidu,10cc0657be084dfaac080f3e,南京怡华酒店-地下停车场,中山北路南京怡华酒店,江苏省,南京市,鼓楼区,,unknown,
baidu,e1245cf0a699d4e1306212f6,国家电网江苏省电力大厦-停车场,南京市鼓楼区上海路215号北京西路路口江国家电网江苏省电力大厦,江苏省,南京市,鼓楼区,,unknown,
baidu,8e25357c6d8b48d0354aaee0,南京城市名人酒店(名人城市广场店)-地上停车场,南京市鼓楼区中山北路30号城市名人酒店,江苏省,南京市,鼓楼区,,unknown,
baidu,d480327e0efcec01f50e7716,金鹰国际购物中心(珠江路店)-地下停车场,江苏省南京市玄武区珠江路1号,江苏省,南京市,玄武区,,unknown,
baidu,9005ba3c3dd8bb2400ff2d30,江苏省高级人民法院-地上停车场,南京市鼓楼区宁海路75号,江苏省,南京市,鼓楼区,,unknown,
baidu,a2adcdb4b0181f52047ce877,江苏省司法厅-停车场,南京市鼓楼区北京西路28号,江苏省,南京市,鼓楼区,,unknown,
baidu,c55acc670f4d13ab601c671f,北门桥,估衣廊长江花园1号1层1-1室,江苏省,南京市,玄武区,,unknown,
baidu,2801035839bd568000ec011e,华新巷小区-停车场,南京市鼓楼区华新巷15号,江苏省,南京市,鼓楼区,,unknown,
baidu,0f784da459c8794843ab9ad1,上海路东侧临时停车点,南京市鼓楼区上海路南阴阳营小区-北区东侧约30米,江苏省,南京市,鼓楼区,,unknown,
baidu,985cbfa8294c7e64c92915c0,停车场,南京市鼓楼区北京西路中国银行(南京鼓楼支行)西侧约70米,江苏省,南京市,鼓楼区,,unknown,
baidu,0d4c32a3198367aff03cbad3,鼓楼四条巷1-5号院-停车场,江苏省南京市鼓楼区湖南路街道鼓楼四条巷1-5号,江苏省,南京市,鼓楼区,,unknown,
baidu,b107dc8cecaa8d5d38e4a66e,博爱佳苑-地上停车场,江苏省南京市鼓楼区汉口西路29号,江苏省,南京市,鼓楼区,,unknown,
baidu,f8c0720173dc4c34f6c59ca4,江苏机械大厦-停车场,南京市鼓楼区中山北路49号,江苏省,南京市,鼓楼区,,unknown,
baidu,140b4c3547e63ee7922ca38d,国家电网江苏省电力大厦-地下停车场,南京市鼓楼区上海路215号,江苏省,南京市,鼓楼区,,unknown,
baidu,486dbb21536f04713904b15d,云南路,13路;56路;83路;303路,江苏省,南京市,鼓楼区,,unknown,
baidu,3313ddfdbdbe83f0d7b74e6b,南阴阳营,3路;20路;20路区间,江苏省,南京市,鼓楼区,,unknown,
baidu,ca01dcd5ce376e7208ccddcf,江苏省教育考试院-地上停车场,南京市鼓楼区上海路南京市公安局鼓楼分局宁海路派出所,江苏省,南京市,鼓楼区,,unknown,
baidu,e6f49d87aa9cf77bf603b84a,江苏省教育厅-停车场,南京市鼓楼区北京西路15号,江苏省,南京市,鼓楼区,,unknown,
baidu,b6d6dcda3da7c9e5cbc3dbda,鼓楼街路东侧临时停车点,南京市鼓楼区鼓楼街绿地广场国际商务中心南侧,江苏省,南京市,鼓楼区,,unknown,
baidu,fa95183a16104a0cb54f54ec,玄武门,地铁1号线,江苏省,南京市,玄武区,,unknown,
baidu,1bc874ed30e0afb075e5b6fe,国家矿山安全监察局江苏局-地上停车场,江苏省南京市鼓楼区北京西路15号-1,江苏省,南京市,鼓楼区,,unknown,
baidu,b2b29078822d477c43024537,绿地广场国际商务中心-地下停车场,南京市鼓楼区鼓楼街88号,江苏省,南京市,鼓楼区,,unknown,
baidu,6cf24445674b6872b020a8f0,汉口路四十八号小区-地上停车场,南京市鼓楼区汉口路48号,江苏省,南京市,鼓楼区,,unknown,
baidu,dd6271321979d980ee74f834,汉口路小区-停车场,南京市鼓楼区汉口路小区,江苏省,南京市,鼓楼区,,unknown,
baidu,211c3c789025781f4e776ed6,南京市鼓楼幼儿园(北京西路)西侧-停车场,南京市鼓楼区鼓楼二条巷一巷南京市鼓楼幼儿园(北京西路)西侧,江苏省,南京市,鼓楼区,,unknown,
baidu,02ec058bc3dfa52ef6c59cf3,名人城市广场-地下停车场,南京市鼓楼区湖南路街道中山北路30号,江苏省,南京市,鼓楼区,,unknown,
baidu,8da25950fda6a84e33621236,南京大学附属中学-地上停车场,南京市鼓楼区鼓楼街83号南京大学附属中学,江苏省,南京市,鼓楼区,,unknown,
baidu,750d546f137ef10414c8f66d,鼓楼街路东侧临时停车点,南京市鼓楼区鼓楼街绿地广场国际商务中心西南侧,江苏省,南京市,鼓楼区,,unknown,
baidu,acad19daf8b268f2980050e8,上海路·省中医院,地铁2号线;地铁5号线,江苏省,南京市,秦淮区,,unknown,
baidu,00d79c896781f811d8d8913e,江苏中江国际房地产公司-地上停车场,南京市鼓楼区北京西路晶丽酒店东侧,江苏省,南京市,鼓楼区,,unknown,
baidu,110d1768921720db5fbe860d,北阴阳营小区-停车场,江苏省南京市鼓楼区北阴阳营8号,江苏省,南京市,鼓楼区,,unknown,
baidu,8f46b7b84cae58b8d2f49e5b,南秀村7号-停车场,南秀村7号,江苏省,南京市,鼓楼区,,unknown,
baidu,902a76a14876d4dbd518b7f9,二号新村小区-停车场,南京市鼓楼区北京西路2号,江苏省,南京市,鼓楼区,,unknown,
baidu,3d527cc0ad29262e77e5b666,草场门·南艺·二师,地铁4号线;地铁7号线,江苏省,南京市,鼓楼区,,unknown,
baidu,7deeb79f76347a62bbbd63e6,鼓楼街,551路,江苏省,南京市,鼓楼区,,unknown,
baidu,efeb4b38741c43beeb1e97ed,汉中门,地铁2号线,江苏省,南京市,秦淮区,,unknown,
baidu,8f16554b05c0027cb72655e0,江苏化工大厦-停车场,南京市鼓楼区北京西路17号江苏化工大厦,江苏省,南京市,鼓楼区,(025)83598602,unknown,
baidu,f964c0ea61982aba0aa8d4ae,江苏省人民政府侨务办公室-停车场,江苏省南京市鼓楼区北京西路2-1号6楼,江苏省,南京市,鼓楼区,,unknown,
baidu,5c50ab0f421035d6ab0dd828,湖北路南,52路;95路,江苏省,南京市,鼓楼区,,unknown,
baidu,eeb8e24f09219f8eae0457ec,新街口,地铁1号线;地铁2号线,江苏省,南京市,秦淮区,,unknown,
baidu,27b98eabe9b25d2190114c56,鸡鸣寺,地铁3号线;地铁4号线,江苏省,南京市,玄武区,,unknown,
baidu,43e28e8d69d1be3043ab9ac5,南京翠峰大厦-地上停车场,南京市鼓楼区鼓楼街绿地广场国际商务中心,江苏省,南京市,鼓楼区,,unknown,
baidu,2c71c98166310314f8dc854f,浮桥,地铁3号线,江苏省,南京市,玄武区,,unknown,
baidu,469ede6070e2983c1b11d5a9,南京鼓楼医院(北院区)-地上停车场,江苏省南京市鼓楼区中山北路53号南京大学医学院附属鼓楼医院北院,江苏省,南京市,鼓楼区,,unknown,
baidu,ac2c467b9bed5b2b8a36ee6b,南京大学(鼓楼校区)停车场,南京市鼓楼区陶谷新村华达宾馆(青岛路店)西侧约60米,江苏省,南京市,鼓楼区,,unknown,
baidu,af935e35ae661d6a3c9a5e2b,南大小区东南侧-停车场,南京市鼓楼区陶谷新村南北秀村小区(南大宿舍),江苏省,南京市,鼓楼区,,unknown,
baidu,26197bdf3d109da04d776eec,五条巷小区-东区-停车场,"江苏省南京市鼓楼区五条巷48号,鼓楼五条巷56号",江苏省,南京市,鼓楼区,,unknown,
baidu,5a16179af4242106a80dd890,苏州路17号公寓东侧-停车场,南京市鼓楼区苏州路17号公寓东侧,江苏省,南京市,鼓楼区,,unknown,
baidu,52073668f13d905e72455bec,新模范马路,地铁1号线,江苏省,南京市,鼓楼区,,unknown,
baidu,2e87e06b99af07d1b21e366a,剑阁路南侧临时停车点,南京市鼓楼区剑阁路南京市力学小学西北侧,江苏省,南京市,鼓楼区,,unknown,
baidu,3b50cd02ac652ec94354d73a,北东瓜市小区-地下停车场,江苏省南京市鼓楼区北东瓜市小区,江苏省,南京市,鼓楼区,,unknown,
baidu,e3e025503a88272c2b11d1d1,绿地中心紫峰购物广场-接送点,绿地中心·紫峰购物广场附近,江苏省,南京市,鼓楼区,,unknown,
baidu,8570b0a1f615fc320c0a70c4,新晨国际大厦-地上停车场,江苏省南京市鼓楼区广州路185号(广州路临时停车路段),江苏省,南京市,鼓楼区,,unknown,
baidu,2064ed11d40aa3a303ff2de1,宁海中学-停车场,江苏省南京市鼓楼区宁海路39号,江苏省,南京市,鼓楼区,,unknown,
baidu,8c419ab4dc88853122022091,鼓楼街路西侧临时停车点,南京市鼓楼区鼓楼街华阳大厦(鼓楼街)东侧,江苏省,南京市,鼓楼区,,unknown,
baidu,8e82850c907d73308ab9889e,中国电信南京电信局鼓楼区局-地上停车场,江苏省南京市鼓楼区云南路1号,江苏省,南京市,鼓楼区,,unknown,
baidu,42e64f43e4297c4df23cba4c,南秀大厦-停车场,江苏省南京市鼓楼区汉口西路1号南秀大厦,江苏省,南京市,鼓楼区,,unknown,
baidu,da7d3858e622b1996fa3cc08,古平岗,21路;66路;67路;114路;134路;134路高峰区间;162路;302路;530路;532路;533路;583路;Y28路夜间;Y4路夜间,江苏省,南京市,鼓楼区,,unknown,
baidu,060f5e53f739cca9091cc7b8,鸿德大厦-停车场,南京市鼓楼区云南路20-1号,江苏省,南京市,鼓楼区,,unknown,
baidu,56e93606840a7125a8059de7,中国银行(南京鼓楼支行)-地上停车场,南京市鼓楼区北京西路34号,江苏省,南京市,鼓楼区,,unknown,
baidu,dc16bd5dfc22e9fd5fbe8643,苏州路17号公寓-停车场,南京市鼓楼区苏州路17号,江苏省,南京市,鼓楼区,,unknown,
baidu,041ec4256eb45465bfa8227a,南京安达饭店-停车场,南京市鼓楼区大方巷鼓楼四条巷-25号院东侧约30米,江苏省,南京市,鼓楼区,,unknown,
baidu,97b892b263cd7f8a0f0a702f,省人大西门公共自行车租赁点,江苏省南京市鼓楼区中山北路原国民政府(外交部)旧址,江苏省,南京市,鼓楼区,,unknown,
baidu,9183dab83b0b57bc1ef74d46,南京市力学小学-停车场,南京市鼓楼区匡庐路南京市力学小学,江苏省,南京市,鼓楼区,,unknown,
baidu,ed35b8bc0572fae53904b168,中国电信南京电信局鼓楼区局-地下停车场,南京市鼓楼区云南路1号局,江苏省,南京市,鼓楼区,,unknown,
baidu,7ef52b35ccab0af880a00c01,南京市口腔医院-地下停车场,江苏省南京市玄武区中央路30号,江苏省,南京市,玄武区,,unknown,
baidu,9200eb899ae166f41df74d16,江苏省物价局成本调查监审分局-停车场,江苏省南京市鼓楼区北京西路24号,江苏省,南京市,鼓楼区,,unknown,
baidu,b7ff5ee2c79dee57d8ecedc3,江苏省人民检察院-停车场,南京市鼓楼区北京西路江苏省人民检察院,江苏省,南京市,鼓楼区,,unknown,
baidu,37adf58f280fcd4ed42ce2b7,江苏省国家税务局直属分局-停车场,江苏省南京市鼓楼区中山北路77号,江苏省,南京市,鼓楼区,,unknown,
baidu,48bf94067a93830f96031976,江苏省人民检察院西区-地下停车场,江苏省南京市鼓楼区宁海路南京师范大学幼儿园东北侧约30米,江苏省,南京市,鼓楼区,,unknown,
