source,bd_uid,name,address,province,city,area,tel,poi_type,tag
baidu,6d15b2c96304c8f430f71d88,江南蟹壳皇(新民桥店),广济路新民桥菜市场,江苏省,苏州市,姑苏区,13122410528,unknown,
baidu,750ec165e9e1a5324c3a59d7,松鹤楼(山塘街店),山塘街198号(近广济路),江苏省,苏州市,姑苏区,18051222262,unknown,
baidu,da7ab8584528b368b9bd6354,北浩弄清真牛肉包子店,虎丘街道北浩弄33号(近山塘街地铁站),江苏省,苏州市,姑苏区,13405001264,unknown,
baidu,ebeaf76a850186a2990050ff,山塘老街牛荘(农发新民桥菜场店),山塘街新民桥菜市场2楼200号(山塘街地铁站3号口旁),江苏省,苏州市,姑苏区,"13222216527,15501581816",unknown,
baidu,18aa9c3fdc03e324a8175add,柏玛头饭店,老阊门北码头民国风情街73号,江苏省,苏州市,姑苏区,(0512)67289707,unknown,
baidu,1290d20b82458c9d09a8d475,星月轩,北浩弄永余弄33号,江苏省,苏州市,姑苏区,13814886734,unknown,
baidu,95b73131db5fc3fa4354d791,蜜雪冰城(山塘街店),山塘街174号,江苏省,苏州市,姑苏区,18018161351,unknown,
baidu,3e431c9f5ca7e49a260bd070,马栋佩烧卖(广济路店),广济路236号新民桥菜市场内一楼A7、A8号,江苏省,苏州市,姑苏区,13328002506,unknown,
baidu,91079d5275e72a09c51e5101,鑫震源·苏式大虾生煎(新民桥店),广济路238号,江苏省,苏州市,姑苏区,13646210854,unknown,
baidu,5e03cd884e9f8c29744ff157,长城大厦-餐饮,江苏省苏州市姑苏区广济路233号,江苏省,苏州市,姑苏区,,unknown,
baidu,403d68c74f87c5a82ce67be3,丹凤楼食府,广济南路238号万家邻里山塘街生活中心,江苏省,苏州市,姑苏区,13914047511,unknown,
baidu,b0e22ef3b9acc5e881a12e93,义昌福包子(新民桥店),广济路新民桥菜场(山塘街地铁站3号口旁),江苏省,苏州市,姑苏区,18362681596,unknown,
baidu,7d3f0b39e6a3c482d518b791,北京老吴烤鸭店(新民桥店),广济路新民桥菜场一楼A3号,江苏省,苏州市,姑苏区,18912778488,unknown,
baidu,0430d11ef9647e635a3ac8d5,浮山茉香·绣球花冰淇淋(山塘街店),苏州市山塘街180号,江苏省,苏州市,姑苏区,18962189536,unknown,
baidu,1aa3b25525f3cc69018972b1,王氏林记(万家邻里新民桥菜市场店),广济路236号122、123室,江苏省,苏州市,姑苏区,15268251821,unknown,
baidu,13897c0cf8852c66c42ba1fe,远香府书房菜(北码头店),金阊街道惠济桥东南北码头200号,江苏省,苏州市,姑苏区,13912799352,unknown,
baidu,207994a4b71a904193114c53,陆振兴(新民桥店),广济路236号,江苏省,苏州市,姑苏区,15370030600,unknown,
baidu,f8d3d8570df246e3eb12e423,苏州市立医院(北区)-食堂,江苏省苏州市姑苏区市立医院(北区)10号楼,江苏省,苏州市,姑苏区,,unknown,
baidu,423ac3506a98f668774ff1f2,小闵盐水鹅(新民桥店),新民桥菜场一楼西侧(山塘街地铁站3号口旁),江苏省,苏州市,姑苏区,15195604818,unknown,
baidu,94450d3bdbaf6200fb2d6135,裕兴记(山塘街店),苏州市山塘街186号,江苏省,苏州市,姑苏区,13671828845,unknown,
baidu,d6700021fdfeca91704b871f,荣阳楼(山塘街店),山塘街329号,江苏省,苏州市,姑苏区,(0512)65529665,unknown,
baidu,4731b6f1ff3cd995eb56fa5e,双塔顾甜白斩鸡(新民桥店),农发新民桥菜市场入口,江苏省,苏州市,姑苏区,13451726098,unknown,
baidu,2c004b48f71ffaf526d2bbf8,申城特色爆鱼,新民桥农贸市场二楼(203)申城爆鱼（山塘街地铁站3号口旁）,江苏省,苏州市,姑苏区,15365734158,unknown,
baidu,d6c5d9917aca84f130169bdc,采芝斋(山塘街店),山塘街150号,江苏省,苏州市,姑苏区,(0512)67239980,unknown,
baidu,01e94af2640938e3882fb55d,苏帮菜,苏州市姑苏区广济路山塘客栈(山塘街店)北侧约80米,江苏省,苏州市,姑苏区,,unknown,
baidu,7f1a712738d97b18e6e96525,口吅品饭店(山塘街店),虎丘街道山塘街354号（山塘街地铁站1号口步行480米）,江苏省,苏州市,姑苏区,13115100240,unknown,
baidu,f91d7bfb5f6b2af080a00ca2,紫燕百味鸡(新民店),新民桥农贸菜场内2楼卤菜区,江苏省,苏州市,姑苏区,18151576615,unknown,
baidu,8fc6a35b79a1af5cae045718,东方卤菜(新民桥店),广济路238号院西南侧约80米,江苏省,苏州市,姑苏区,,unknown,
baidu,849954d6574654716849f361,袁记云饺(新民桥店),广济路新民桥菜场2楼,江苏省,苏州市,姑苏区,13735787622,unknown,
baidu,455a1e4445e535853686f43d,杜三珍(万家邻里新民桥菜市场店),广济路新民桥菜场二楼(山塘街地铁站3号口旁),江苏省,苏州市,姑苏区,18013488428,unknown,
baidu,7923f56e04f441037069d338,传统苏式面,苏州市姑苏区广济路238号院南侧约60米,江苏省,苏州市,姑苏区,,unknown,
baidu,c47f27f809c386eeca09f050,江醪糟(苏州山塘景区店),广济路通贵桥下塘41号,江苏省,苏州市,姑苏区,18556999889,unknown,
baidu,aabe1f02bce4f3ccb11e3682,孙记牛肉,广济路236号新民桥菜市场2楼202室,江苏省,苏州市,姑苏区,13915582190,unknown,
baidu,15142e78e2b773375a3ac81a,秋娟小吃店,广济路西杨安浜3号楼,江苏省,苏州市,姑苏区,13179611659,unknown,
baidu,ade64eb513d57f4b78f7968d,怪兽充电(柏玛头饭店),江苏省苏州市姑苏区金阊街道北浩弄48号-1-、2,江苏省,苏州市,姑苏区,4006703303,unknown,
baidu,f12cff820927c522c929159b,狐狸家·酸奶酪专门店(山塘店),山塘街168号（上塘街游船上客点旁）,江苏省,苏州市,姑苏区,15195684412,unknown,
baidu,d6d0352371d57c165b3ac8a0,和府捞面(金阊山塘街店),山塘街207号,江苏省,苏州市,姑苏区,18262509177,unknown,
baidu,d31b4565b9ca12980a69d9e6,春晖堂,山塘街201号,江苏省,苏州市,姑苏区,18012785811,unknown,
baidu,d2e3143efd6b2b75d2f49e6d,锁彦军牛肉经营部,苏州市姑苏区广济路新民桥菜市场内,江苏省,苏州市,姑苏区,,unknown,
baidu,1aefb50eca017d31f7e73bdd,寻常巷陌,江苏省苏州市姑苏区北浩弄40-2号104室,江苏省,苏州市,姑苏区,,unknown,
baidu,951ddaa96489e5d78bf15dd1,DQ·蛋糕·冰淇淋(山塘店),山塘街190号,江苏省,苏州市,姑苏区,13771788714,unknown,
baidu,e99b0dec1d26125031870a07,吾盏,山塘街通贵桥下塘27号,江苏省,苏州市,姑苏区,18550011222,unknown,
baidu,d9aa88bf61b9991240024528,CoCo都可(山塘街店),东杨安浜17号,江苏省,苏州市,姑苏区,18110535520,unknown,
baidu,884421539ed75d029c09f7d6,吴宅庄园小镇·苏帮菜(山塘街),江苏省苏州市姑苏区北浩弄2号(锦绣苏州东北方向100米),江苏省,苏州市,姑苏区,0512-65839588,unknown,
baidu,0b726c651c9a2825c51e5119,小欢喜(南新路店),"南新路17,19,21,23,25号",江苏省,苏州市,姑苏区,(0512)65573850,unknown,
baidu,9d8f152cbd5e4c606e3e1b45,咸丰老铺(山塘街店),山塘街141号,江苏省,苏州市,姑苏区,18605129797,unknown,
baidu,573013b68ae737772bd7ab7b,赵元章肉骨烧(山塘街店),虎丘街道山塘街85号(近石路步行街),江苏省,苏州市,姑苏区,15250005756,unknown,
baidu,8e331a7f1771e2bd018972d2,上海和府餐饮管理有限公司山塘街分公司,姑苏区苏州市山塘街207号、209号,江苏省,苏州市,姑苏区,18662159855,unknown,
baidu,097b87412456b55a902ca36a,满记甜品(山塘街店),北浩弄7号商铺,江苏省,苏州市,姑苏区,(0512)65344172,unknown,
baidu,584e9a82e1f4deffb35c6a82,阿二烤鸡(山塘街店),山塘街324号,江苏省,苏州市,姑苏区,(0512)65577599,unknown,
baidu,7376315f51d3eede08f5eb63,稻山村·苏州菜·松鼠桂鱼(石路店),南新路1号（阊门遗址往南）,江苏省,苏州市,姑苏区,(0512)68111222,unknown,
baidu,a5ab11ebecb2e1fa2cb908ae,鑫震源·苏式大虾生煎(山塘街店),山塘街2号（渡僧桥北）,江苏省,苏州市,姑苏区,13862410837,unknown,
baidu,1f7526133044448f1ce9991a,千里香馄饨(广济路店),山塘街245号（山塘街地铁站1号口步行210米）,江苏省,苏州市,姑苏区,13962156934,unknown,
baidu,cd54dacae9f7527a16a19001,暖男小食铺,山塘街162号古戏台东侧10米,江苏省,苏州市,姑苏区,15262411319,unknown,
baidu,2b8e138d6b87cad09f82eaa9,街头夜市·章鱼烧(山塘街店),七里山塘108号,江苏省,苏州市,姑苏区,15862033861,unknown,
baidu,0ed8c8b72108df78c7f025a8,滴滴绣咖啡,七里山塘景区160号,江苏省,苏州市,姑苏区,15312177112,unknown,
baidu,ee55ef62886148f1ebe58281,山塘早点来,虎丘街道通贵桥下塘61号,江苏省,苏州市,姑苏区,,unknown,
baidu,4a89ac9346bd52910ab93a76,糖粥,山塘街东杨安浜3号,江苏省,苏州市,姑苏区,18915513231,unknown,
baidu,9cf00772c4cd4c073310af42,無桐咖啡,阊门北码头69号,江苏省,苏州市,姑苏区,,unknown,
baidu,a701bdffaa773d3d0189729d,如意馄饨(广济路店),广济路195号-16,江苏省,苏州市,姑苏区,18501544899,unknown,
baidu,08961c50a58baef1c26c14f6,御品坊宫廷糕点(山塘街店),山塘街257号,江苏省,苏州市,姑苏区,18279232557,unknown,
baidu,972e2383dea4b4c74e554700,六宜楼菜馆·精品苏帮菜,南新路91号,江苏省,苏州市,姑苏区,"(0512)65216333,18900610778",unknown,
baidu,72857d8d7068fdb5cc06a499,星巴克(苏州山塘街店),山塘街北浩弄5号,江苏省,苏州市,姑苏区,(0512)65508960,unknown,
baidu,7da3a268a7c777e0da2f28d7,Aidets(山塘街店),山塘街195号(山塘街地铁站3号口步行200米),江苏省,苏州市,姑苏区,15722600707,unknown,
baidu,2212d35c1f52cb14f4b916b2,茉沏(苏州山塘街二店),广济路218号江南岸非遗美食1楼（山塘街地铁站3号口步行100米）,江苏省,苏州市,姑苏区,17751155988,unknown,
baidu,db29c6e8a4d05deb25d2bb42,南记仙豆糕,苏州市姑苏区通贵桥下塘七里山塘景区,江苏省,苏州市,姑苏区,15539070002,unknown,
baidu,9397060085c94f394acc4a56,降龙爪爪(山塘街店),江苏省苏州市姑苏区广济路通贵桥下塘9号(山塘街地铁站3号口步行250米),江苏省,苏州市,姑苏区,15617057878,unknown,
baidu,7fd2f065daa63e9b8c1a891e,老江头·手工鲜包馄饨(山塘街店),山塘街251号,江苏省,苏州市,姑苏区,18762885493,unknown,
baidu,ffadf344db6167fcdb131859,马栋佩烧卖(广济路店),江苏省苏州市姑苏区广济路236号新民桥菜场a区,江苏省,苏州市,姑苏区,13328002506,unknown,
baidu,aaa596ebeb5d3cb643e19216,一塘小吃,苏州市姑苏区山塘街七里山塘景区,江苏省,苏州市,姑苏区,,unknown,
baidu,f1f5cac50e824f8136b06cc7,阊门姚记豆浆(总店),金阊街道西中市60号(老阊门城门旁),江苏省,苏州市,姑苏区,18112542484,unknown,
baidu,6ee010204e8665f652e5c573,茶亦茶·诗情化忆(山塘街店),山塘街75号,江苏省,苏州市,姑苏区,15370050880,unknown,
baidu,db6abcdcf9493479f4e73b64,阿国蛋糕店,潭子里-8号楼(山塘街地铁站1号口步行220米),江苏省,苏州市,姑苏区,,unknown,
baidu,15009ca52f82cea04207c104,纳斯汉堡(石路店),广济路195号,江苏省,苏州市,姑苏区,18921989226,unknown,
baidu,388e8d01ecca4d3f15764377,裕面堂·精品苏式面馆(山塘街店),南新路73-77号（阊门遗址南行200米、提供3小时停车）,江苏省,苏州市,姑苏区,(0512)68705018,unknown,
baidu,27dba2cf4c456c411f389483,乾生元(山塘街店),山塘街45号,江苏省,苏州市,姑苏区,15150159591,unknown,
baidu,e3e2cd9d07b134fac7f50d4c,海角七号(山塘街店),虎丘街道石路山塘街东楊安浜1号(近七里山塘玉涵堂),江苏省,苏州市,姑苏区,13222995104,unknown,
baidu,33cbbd1594d09119e8e5822a,藏书羊肉老店,山塘街与木场头交叉口西北100米,江苏省,苏州市,姑苏区,13862428947,unknown,
baidu,cf516a2249338b964151c054,吴记小园楼(西北街店),西北街151号(西北街与皮市街交叉口东南角),江苏省,苏州市,姑苏区,(0512)67772967,unknown,
baidu,b6697096072c0deb09a8d43f,山塘辣壹年,江苏省苏州市姑苏区山塘街121号,江苏省,苏州市,姑苏区,,unknown,
baidu,077417407e75195e28201a17,匠圃门,东杨安浜9号山塘街地铁站3号口步行330米,江苏省,苏州市,姑苏区,13338698076,unknown,
baidu,dabb27901923df2002294f8d,范福记(山塘街店),山塘街333号,江苏省,苏州市,姑苏区,13179607726,unknown,
baidu,36b874552ed1b18f9cf77933,姑苏桥·文人苏式面馆(北寺塔店),人民路1736号（北寺塔地铁站1号西南口步行100米;开车请前往姑苏新天地停车场）,江苏省,苏州市,姑苏区,17751108699,unknown,
baidu,9b2d166ebc4c0cc3dbd89126,慕容传家酥,山塘街158号,江苏省,苏州市,姑苏区,13013816588,unknown,
baidu,5ffb1816b6b3a5466f476070,朱新年·苏式汤团·面点(山塘街店),山塘街351号（近星桥堍）,江苏省,苏州市,姑苏区,18888181611,unknown,
baidu,4636992ae4105e1dd33ce3cc,明兴楼菜馆(新民桥店),广济路195号(山塘街地铁站3号口步行310米),江苏省,苏州市,姑苏区,15995831346,unknown,
baidu,dc6115e74b88e6416c4760b7,金缘鹅(山塘街店),山塘街334号,江苏省,苏州市,姑苏区,15950067800,unknown,
baidu,0fe36f5bbb00ff24c6effbb1,夏德泰茶小吃,山塘街东杨安浜5号,江苏省,苏州市,姑苏区,18506244100,unknown,
baidu,d98ee3b9e6b8f0a888b988ca,江南船点,山塘街89号,江苏省,苏州市,姑苏区,15853191539,unknown,
baidu,e975d70101a5e263a8f0cd6e,山塘风味店,山塘街105号(山塘街地铁站3号口步行430米),江苏省,苏州市,姑苏区,(0512)67892000,unknown,
baidu,bdf9304f90a4deaaacee7aa6,山塘通贵咖啡,山塘街173号,江苏省,苏州市,姑苏区,13739174100,unknown,
baidu,a12baa406abd204fe956fa86,美味斋(西北街店),西北街111号,江苏省,苏州市,姑苏区,(0512)67535030,unknown,
baidu,0c809540381c0b9deedfca42,南江赞味,苏州市姑苏区山塘街七里山塘景区,江苏省,苏州市,姑苏区,,unknown,
baidu,3ce8fc2f9b4c7f983a04b1df,唐园烧饼,虎丘街道,江苏省,苏州市,姑苏区,,unknown,
baidu,2a0917a9f0bb54e99ff77986,香斋老卤(山塘街店),山塘街117号,江苏省,苏州市,姑苏区,13951111345,unknown,
baidu,dba6e8d9cec2b4aed12dd642,茯苓莲子酥,山塘雕花楼西南门旁(山塘街地铁站1号口步行260米),江苏省,苏州市,姑苏区,,unknown,
baidu,fa01e93715880f53774ff17e,阿月煲(山塘街阊胥路店),阊胥路501号（小日晖桥北公交站北20米路西）,江苏省,苏州市,姑苏区,(0512)65528929,unknown,
baidu,6ee0102032bd11f652e5c50a,乐惠馄饨(吴趋坊店),吴趋坊44号,江苏省,苏州市,姑苏区,13862179206,unknown,
baidu,09185c56da287644f11937fe,万福兴(东中市店),平江街道东中市12号(白塔公园斜对面),江苏省,苏州市,姑苏区,(0512)67275031,unknown,
baidu,6ff61f56d482e99e0f0a709e,旧城以西,人民路2020号,江苏省,苏州市,姑苏区,15050778941,unknown,
baidu,9c02e0b3637906fc6c3e1bdc,许家门酒酿饼(西北街店),西北街281号（四号线北寺塔地铁3号出口东20米）,江苏省,苏州市,姑苏区,18934580798,unknown,
baidu,7388dffd424a7df2d2ff23a6,胡子饮食店,金阊街道虹桥路5号(全创人力资源对面),江苏省,苏州市,姑苏区,18962178980,unknown,
baidu,22e11407a381dfadd5b74e48,同得兴面馆·苏式面·三虾面(嘉馀坊店),人民路嘉馀坊6号,江苏省,苏州市,姑苏区,(0512)65113808,unknown,
baidu,8cda9828d56b6a702bd7abde,毓秀园,江苏省苏州市姑苏区阊门北码头48号,江苏省,苏州市,姑苏区,13962195917,unknown,
baidu,edd64ce12dd812883ee231be,奥特莱斯(石路店),苏州市姑苏区石路步行街8号,江苏省,苏州市,姑苏区,,unknown,
baidu,e6ee2fd2ed40e7512b11d1cd,石路国际商城,苏州市姑苏区石路18号,江苏省,苏州市,姑苏区,(0512)65322511,unknown,
baidu,55e53ae57812a74925d2bbcd,苏州太阳广场,苏州市姑苏区上塘街111号,江苏省,苏州市,姑苏区,(0512)65706008,unknown,
baidu,fa835ce2d5be18b6e812e4dd,石路中心广场,苏州市姑苏区阊胥路761号,江苏省,苏州市,姑苏区,,unknown,
baidu,d7950e96defd7b158836ee92,瑞之阁超市,江苏省苏州市姑苏区广济路236号,江苏省,苏州市,姑苏区,,unknown,
baidu,a212a33243945d9a0782c2b5,天天惠超市,山塘街252号(山塘街地铁站1号口步行250米),江苏省,苏州市,姑苏区,13004571965,unknown,
baidu,e224cbd3f67d790b9dec2bb2,杨安弄超市,杨安弄58号(山塘街地铁站1号口步行440米),江苏省,苏州市,姑苏区,13771901573,unknown,
baidu,e4a034f1f44357425cd4febe,品缘堂,山塘街229号,江苏省,苏州市,姑苏区,,unknown,
baidu,8123301599867ccfcac3dba5,海市山塘,山塘街45号,江苏省,苏州市,姑苏区,13358013377,unknown,
baidu,c93133babe4f6f93f822133d,正宗渭塘太湖珍珠(徐氏分店),山塘街265号(山塘街地铁站1号口步行270米),江苏省,苏州市,姑苏区,13906138884,unknown,
baidu,a8e5b1414f8696db87330410,石路步行街,苏州市姑苏区金门路158号,江苏省,苏州市,姑苏区,,unknown,
baidu,7e925dad378a5eafb6f42f64,友家连锁超市,苏州市姑苏区平四路东四亩田-37号东北侧约70米,江苏省,苏州市,姑苏区,,unknown,
baidu,58cd6a8602e3a17c0c0e6b4e,福银堂(苏州山塘街),山塘街商业用房122号,江苏省,苏州市,姑苏区,13013775942,unknown,
baidu,dceb8bef6f948559eb56fa1f,苏州市食品商场(山塘街店),山塘街327号（星桥）,江苏省,苏州市,姑苏区,(0512)65239321,unknown,
baidu,6a643b9c0e26d0aa9d82ea5f,鹏云食品超市(广济路店),广济路195号(山塘街地铁站3号口步行290米),江苏省,苏州市,姑苏区,13962186478,unknown,
baidu,a3ce979bb107aaf77ab55c2d,三福(石路店),石路石路步行街31号,江苏省,苏州市,姑苏区,,unknown,
baidu,c9c68f2254703dcf932ca3ac,七里山塘景区-服装店,苏州市姑苏区广济路218号七里山塘景区内,江苏省,苏州市,姑苏区,,unknown,
baidu,242fa09c10ff23b1774ff177,山塘小店,苏州市姑苏区北浩弄山塘九府北侧约100米,江苏省,苏州市,姑苏区,,unknown,
baidu,0351e177b5139f564c3a5914,二丫水果店(姑苏店),西中市与新马路交叉口东120米,江苏省,苏州市,姑苏区,,unknown,
baidu,ee6d39b1336db19a246e9835,乾顺祥,山塘街86号(山塘街地铁站3号口步行420米),江苏省,苏州市,姑苏区,,unknown,
baidu,a3a05b5dda72607bd5b74ef1,印象山塘,苏州市姑苏区山塘街,江苏省,苏州市,姑苏区,13584813400,unknown,
baidu,e9424768d3c60c79400245d7,苏州鼎盛宝地,江苏省苏州市姑苏区北码头202号,江苏省,苏州市,姑苏区,13771708125,unknown,
baidu,eeaf42bd68d954b0db131836,渭塘姐妹珍珠,山塘街205号,江苏省,苏州市,姑苏区,13812688149,unknown,
baidu,c58306d0f8f1f8a25d0d0230,TR天然珍珠(苏州山塘店),山塘街114号,江苏省,苏州市,姑苏区,13771978326,unknown,
baidu,ae61f96f82be7dfed2f49e75,老万年(石路旗舰店),江苏省苏州市姑苏区金阊街道石路步行街广济路10号,江苏省,苏州市,姑苏区,(0512)69339999,unknown,
baidu,3cc6c9a85e40fa95d22dd671,供销合作,苏州市姑苏区山塘街殳家墙门28号院西南侧约100米,江苏省,苏州市,姑苏区,,unknown,
baidu,9ecb1f16f051e619e6e96533,情王阁书店,江苏省苏州市姑苏区山塘街356号,江苏省,苏州市,姑苏区,13656214912,unknown,
baidu,7f080cfaaac2f139eedfca9b,吴拓斋书画碑刻,山塘街东杨安浜22号,江苏省,苏州市,姑苏区,,unknown,
baidu,993a8d2246d23eaf465726b2,七狸邮局,山塘街165号,江苏省,苏州市,姑苏区,,unknown,
baidu,4f2d895ca6eb95b02fb96dbf,绣娘丝绸(山塘店),山塘街136号,江苏省,苏州市,姑苏区,15050109936,unknown,
baidu,0f6e8f326966dc7bc256ac46,红高粱酒坊(山塘九府西北),广济路238号市场边车库,江苏省,苏州市,姑苏区,18913553948,unknown,
baidu,cb38d8ff6d7a9997fd0eb0ed,兴德烟酒店,江苏省苏州市姑苏区木耳场7号,江苏省,苏州市,姑苏区,(0512)65345620,unknown,
baidu,add25aa49277cf155a3ac8be,琴川书店,虎丘街道山塘街176号(古戏台旁),江苏省,苏州市,姑苏区,,unknown,
baidu,1046bf389fe295cb33169b9d,茗峰泉茶行(新民桥菜场店),新民桥菜场a3层,江苏省,苏州市,姑苏区,15995856826,unknown,
baidu,66951ac6f5b832c06240a90d,锁记牛羊肉,广济路山塘街新民桥菜场二楼西北角,江苏省,苏州市,姑苏区,13222218705,unknown,
baidu,1cd8f0088197abdb8936eebc,梵景禧茶行,江苏省苏州市姑苏区广济路238号院西南侧约50米,江苏省,苏州市,姑苏区,15995856826,unknown,
baidu,88a3160612db186640d63e11,全家便利店(立医院北区店),广济南路242号,江苏省,苏州市,姑苏区,4008200996,unknown,
baidu,339053c01bee7ea0b320a84a,蔡氏天堂秀丝绸,山塘街149-153号,江苏省,苏州市,姑苏区,17701720188,unknown,
baidu,3f2cfeab1e2e57be0e3dda9b,儿时文创(山塘街店),山塘街191号,江苏省,苏州市,姑苏区,13861336658,unknown,
baidu,4d06253d2241ac0a3617dcaa,上海女人(苏州山塘街店),山塘街139号(山塘街地铁站3号口步行330米),江苏省,苏州市,姑苏区,13819070099,unknown,
baidu,4a5bc17bc2ef407b33169bec,纳西宝藏工艺品店(苏州山塘街),山塘街102号(山塘街地铁站3号口步行370米),江苏省,苏州市,姑苏区,"15850062071,15995477246",unknown,
baidu,20d5dd4fd2240a112fb9080d,东吴张记手工作坊(山塘街店),山塘街80号(山塘街地铁站3号口步行430米),江苏省,苏州市,姑苏区,(0512)65561357,unknown,
baidu,3e59c69f73916303223bf2ae,振名蔬菜批发部,苏州市姑苏区广济路新民桥菜市场内,江苏省,苏州市,姑苏区,,unknown,
baidu,a72cb0f59bb390f33517dcd6,正社苏丝馆,江苏省苏州市姑苏区虎丘街道石路山塘街146号,江苏省,苏州市,姑苏区,,unknown,
baidu,bbbbf0abe97ad3e4a8175ac1,吴韵遗唐女装,江苏省苏州市姑苏区山塘街293号,江苏省,苏州市,姑苏区,,unknown,
baidu,ad3652bf62e2b88901294f72,张辉食品经营部,苏州市姑苏区广济路新民桥菜市场二楼203号,江苏省,苏州市,姑苏区,18501514791,unknown,
baidu,33f12dc6747b3a788505bf47,三姐妹豆制品店,苏州市姑苏区广济路236号农发新民桥市场二楼138号,江苏省,苏州市,姑苏区,13041888331,unknown,
baidu,faa79f366561e002873304f5,山塘老酒坊,山塘街景区山塘街110号,江苏省,苏州市,姑苏区,,unknown,
baidu,27286a8d1baabe3a260bd0b1,山塘染坊,山塘街113号(山塘街地铁站3号口步行380米),江苏省,苏州市,姑苏区,,unknown,
baidu,86462a0867547d6bb9df8f55,七里初棠汉服体验馆,江苏省苏州市姑苏区荟春北街9号,江苏省,苏州市,姑苏区,13771778659,unknown,
baidu,639d42c5518a6417cd04ef4f,泰和祥工艺品店(苏州山塘街店),山塘街68号,江苏省,苏州市,姑苏区,15995477246,unknown,
baidu,f85a1731970fe87059bbbcc9,幽兰,山塘街134号（近山塘街地铁站3号口）,江苏省,苏州市,姑苏区,18915517026,unknown,
baidu,1bdfac07e09c8fdfecdfca94,吴韵茶馆丝绸旗袍(苏州山塘街店),石路山塘街97号,江苏省,苏州市,姑苏区,13862106712,unknown,
baidu,f4548b8441cc77006c3e1bfa,祖名豆腐(NO·0070店),山塘街315号(山塘街地铁站1号口步行400米),江苏省,苏州市,姑苏区,,unknown,
baidu,7e4aa410d5e5fa9eabf0cd53,如观琉璃,苏州市姑苏区山塘街七里山塘景区,江苏省,苏州市,姑苏区,,unknown,
baidu,cb54f522b17b279003ff2dde,金阳光鞋服大卖场(石路店),阊胥路750号(石路地铁站12号口步行310米),江苏省,苏州市,姑苏区,15312158747,unknown,
baidu,d219bb1dd5c2c492f40e7791,天趣堂,江苏苏州市姑苏区山塘街158号,江苏省,苏州市,姑苏区,,unknown,
baidu,b10aa9b1c74b67a449fd3fee,屈臣氏(石路太阳城店),广济路太阳广场内,江苏省,苏州市,姑苏区,(0512)65560613,unknown,
baidu,f2d5b78367fd03e630169b9d,原彩香路旧货市场,路西街苏州市留园中心小学校西侧约80米,江苏省,苏州市,姑苏区,13402542812,unknown,
baidu,e29fec7bf474d3da8c55ec0c,国色工艺品店(七里山塘景区店),山塘街109号,江苏省,苏州市,姑苏区,15862360597,unknown,
baidu,b749c4132f3b012c2806ce20,正宗内蒙超大羊肉串,苏州市姑苏区山塘街殳家墙门28号院南侧约90米,江苏省,苏州市,姑苏区,,unknown,
baidu,e6be6ab5a4cdfd7c6ca3cc24,忆丝行,北浩弄1号(山塘街御碑亭对面),江苏省,苏州市,姑苏区,13584811506,unknown,
baidu,1f1d3bc9dad3029b1811d509,山塘游礼,苏州市姑苏区山塘街七里山塘景区,江苏省,苏州市,姑苏区,,unknown,
baidu,ccbd5616c09a77f21ce9997a,姑苏巧手坊(北浩弄),山塘街76号(山塘街地铁站3号口步行440米),江苏省,苏州市,姑苏区,,unknown,
baidu,f1e52c7a7205a2ac40e19232,山塘葫芦(山塘街店),山塘街77号,江苏省,苏州市,姑苏区,13338705516,unknown,
baidu,6deb3b25a9afaffde0110371,丝情韵意,山塘街88号(山塘街地铁站3号口步行410米),江苏省,苏州市,姑苏区,15862357370,unknown,
baidu,b5128f09686c8e1d6d20b966,兴桥土特产,江苏省苏州市姑苏区山塘街314号,江苏省,苏州市,姑苏区,15995767636,unknown,
baidu,163aaf5533745bcd94031905,兴永阁艺术品店,山塘街309号,江苏省,苏州市,姑苏区,,unknown,
baidu,b5674c2dae9380f62dfaa7c4,Apple授权专营店(石路国际店),江苏省苏州市姑苏区石路18号石路国际商城F1-1052,江苏省,苏州市,姑苏区,(0512)65116006,unknown,
baidu,04b0152013df9bda276e980a,小陆皮衣店,苏州市姑苏区山塘街殳家墙门28号院西侧约120米,江苏省,苏州市,姑苏区,,unknown,
baidu,f96fb890247727873913fd33,艺玉斋工艺品店,苏州市姑苏区山塘街164号(山塘景区内),江苏省,苏州市,姑苏区,,unknown,
baidu,27a130aec9cab04db64f54e1,朱英服饰,江苏省苏州市姑苏区山塘街391号,江苏省,苏州市,姑苏区,15862538785,unknown,
baidu,5abcf88d4e43f3e815c9054e,锦德紫檀家具艺术馆,江苏省苏州市姑苏区虎丘街道山塘街161,江苏省,苏州市,姑苏区,,unknown,
baidu,a52a0e962a4baecc8b2fb551,力力书屋(山塘街358号),江苏省苏州市姑苏区山塘街334号,江苏省,苏州市,姑苏区,,unknown,
baidu,a5515e1f6539b95757bfff82,无障碍电梯(山塘街地铁站4号口),江苏省苏州市姑苏区山塘街地铁站4号口,江苏省,苏州市,姑苏区,,unknown,
baidu,c863343cc13089f742d63e14,姑苏区徐记殡葬服务部,苏州市姑苏区北浩弄68号4幢105号,江苏省,苏州市,姑苏区,,unknown,
baidu,57f95f07a3963b5f4bfd3fb1,七里山塘景区-票务中心,江苏省苏州市姑苏区广济路218号173号,江苏省,苏州市,姑苏区,(0512)65314467,unknown,
baidu,f89d588ef8ef7d7eca1b9578,游船码头-票务中心,山塘街177号,江苏省,苏州市,姑苏区,(0512)65314467,unknown,
baidu,a80d117b0b97a22d9cec2bef,七里山塘景区-直饮水,苏州市姑苏区山塘街177号七里山塘景区,江苏省,苏州市,姑苏区,,unknown,
baidu,07d0446059b78d655bf6beaa,汉芳集汉服馆,姑苏区江苏苏州山塘街234号,江苏省,苏州市,姑苏区,18915530905,unknown,
baidu,5321620462c95c456f3e1b4e,梦华山塘汉服摄影体验馆,山塘街149、153号（山塘街地铁站3号口步行280米蔡氏天堂秀二楼),江苏省,苏州市,姑苏区,18051901808,unknown,
baidu,34c1771d19b4ca5bb4147fb1,山塘昆曲馆-售票处,苏州市姑苏区通贵桥下塘45号山塘昆曲馆内,江苏省,苏州市,姑苏区,,unknown,
baidu,ab9725df43f6708b2fb96dce,七里山塘景区-综合售票处,苏州市姑苏区广济路197号,江苏省,苏州市,姑苏区,,unknown,
baidu,9c3ece62257fab7f08ccdd95,潭子里综合为老服务中心,江苏省苏州市姑苏区广济路潭子里58号,江苏省,苏州市,姑苏区,(0512)69862087,unknown,
baidu,ade64eb513d57f4b78f7968d,怪兽充电(柏玛头饭店),江苏省苏州市姑苏区金阊街道北浩弄48号-1-、2,江苏省,苏州市,姑苏区,4006703303,unknown,
baidu,0ae084869b37b7444007c1fb,怪兽充电(品味山塘评弹书苑山塘街店),江苏省苏州市姑苏区山塘街180号(山塘客栈和苏州好风光中间),江苏省,苏州市,姑苏区,4006703303,unknown,
baidu,cc240337a14abaa24f6d4625,山塘街-售票处,山塘街与前小邾弄交叉口东60米,江苏省,苏州市,姑苏区,,unknown,
baidu,3e66c900a6e4c45a57bfff1e,游船码头票务中心,江苏省苏州市姑苏区山塘街58,江苏省,苏州市,姑苏区,(0512)65314467,unknown,
baidu,fbd3ab92e11d367bd8d891a9,中国体育彩票(新民桥店),江苏省苏州市姑苏区广济南路236号,江苏省,苏州市,姑苏区,95086,unknown,
baidu,b7e888641efd3607fa42b223,阊门码头-游船售票处,苏州市姑苏区方基上85号,江苏省,苏州市,姑苏区,(0512)65355503,unknown,
baidu,fcd1bd38d493f71c07fef5eb,阊门码头-售票处,苏州市姑苏区广济路218号七里山塘景区内,江苏省,苏州市,姑苏区,,unknown,
baidu,992cedb3564ca4ce03ff2d30,中国福利彩票(山塘街店),山塘街334号,江苏省,苏州市,姑苏区,954168,unknown,
baidu,51801cd724cb41e215a1901c,华为授权服务中心(苏州石路),石路29号上城门东侧一楼、二楼华为（美居酒店隔壁）,江苏省,苏州市,姑苏区,"(0512)67780333,18112702855",unknown,
baidu,ecc0207b68913b12a1046462,殡葬服务部,苏州市姑苏区广济路苏州市留园中心小学校东南侧,江苏省,苏州市,姑苏区,4006646120,unknown,
baidu,3b84e5087dc622d62b06ceee,清塘综合为老服务中心,江苏省苏州市姑苏区虎丘街道清塘新村6幢东,江苏省,苏州市,姑苏区,(0512)65331753,unknown,
baidu,1a86302d63b5c9cbbe4842fb,阊门社区党群服务中心,苏州市姑苏区官宰弄7号,江苏省,苏州市,姑苏区,,unknown,
baidu,155537d276f8aa690bccdd3b,菜鸟驿站(苏州宝城桥弄30号店),桃花坞街道宝城桥弄30号后门,江苏省,苏州市,姑苏区,13771878064,unknown,
baidu,3d77682dc8bbb8729a005094,中国体育彩票(西中市店),宝源里2号(阊门饭店旁),江苏省,苏州市,姑苏区,95086,unknown,
baidu,45fdd34690b73cd3d5b74ec9,中国邮政(苏州市集邮公司),苏州市姑苏区上塘街111号苏州太阳广场F1,江苏省,苏州市,姑苏区,11185,unknown,
baidu,90a59e9be2ec12b94207c18b,清塘社区党群服务中心,苏州市姑苏区清塘新村13幢东,江苏省,苏州市,姑苏区,(0512)65331753,unknown,
baidu,283b8e29d4165785aa059d42,苏州古城之巅观景台售票处,江苏省苏州市姑苏区上塘街1-102室,江苏省,苏州市,姑苏区,,unknown,
baidu,5f894a76b3e56511a8f0cd26,菜鸟驿站(苏州天库前55号店),江苏省苏州市姑苏区金阊街道响月廊,江苏省,苏州市,姑苏区,15995795362,unknown,
baidu,e6a7ef80ca2d481583a00c0b,苏州电信金门路营业厅爱心休息站,苏州市姑苏区金门路451号,江苏省,苏州市,姑苏区,,unknown,
baidu,361f5cdef618cbfb7cc876a6,陌上花开摄影连锁机构(苏州石路步行街店),石路步行街3号3楼（太阳广场正对面，地铁二号线石路站12号出口向前20米）,江苏省,苏州市,姑苏区,(0512)65587713,unknown,
baidu,c6f5c8f22ff44a287c29bd12,一秋证件照相馆(石路店),金门路158号协和大厦21楼2108室（翰海酒店同幢）,江苏省,苏州市,姑苏区,15371468670,unknown,
baidu,2678249ba8b6a6d65bbbbcaa,留园-游客中心,江苏省苏州市姑苏区七里山塘177号,江苏省,苏州市,姑苏区,,unknown,
baidu,f7c30f603193fc25b4265513,留园-售票处,留园路338号留园,江苏省,苏州市,姑苏区,(0512)65337903,unknown,
baidu,2af012ce0ed58e5ff82d61a3,农情暖域工会驿站(农行苏州石路支行),江苏省苏州市姑苏区阊胥路423号,江苏省,苏州市,姑苏区,,unknown,
baidu,4ce3364b615d47bc3d9a5eaf,公共厕所,苏州市姑苏区北浩弄广济路238号院东南侧约90米,江苏省,苏州市,姑苏区,,unknown,
baidu,62b9c096ffd98f35d418b793,中国体育彩票(上塘街店),上塘街72号(石路地铁站12号口步行260米),江苏省,苏州市,姑苏区,4008102008,unknown,
baidu,b14e74f067d61badad31e50b,公共厕所,江苏省苏州市姑苏区广济路235号-2幢,江苏省,苏州市,姑苏区,,unknown,
baidu,fbf62ef0db8c8d92fd0eb0d0,公共厕所,江苏省苏州市姑苏区广济路164号,江苏省,苏州市,姑苏区,,unknown,
baidu,430123571855a0fc4e6d46b3,苏州市立医院北区-洗手间,江苏省苏州市姑苏区广济路242号,江苏省,苏州市,姑苏区,,unknown,
baidu,a3d57a57d036e73a047ce8d8,来电共享充电宝(苏州市立医院北区),江苏省苏州市姑苏区广济路242号,江苏省,苏州市,姑苏区,4009030086,unknown,
baidu,33e7365f5040529f2102628b,山海国风旅拍,虎丘街道山塘街236号(山塘街地铁口步行200米),江苏省,苏州市,姑苏区,18261432187,unknown,
baidu,d7758aa58d7b593afda778ca,公共厕所,江苏省苏州市姑苏区广济路后管弄堂11号楼,江苏省,苏州市,姑苏区,,unknown,
baidu,18561e2e8e3d4d6c7369d3a9,怪兽充电(饭码头菜馆北码头店),苏州市姑苏区北码头59号,江苏省,苏州市,姑苏区,4006703303,unknown,
baidu,6aec4428995af2424bcc4ab3,木木阁汉服(山塘街店),山塘街181号（山塘街地铁站3号口步行210米）,江苏省,苏州市,姑苏区,13913544992,unknown,
baidu,789b2248ba50a4013d9a5ec6,街电(品味山塘评弹书苑山塘街店),苏州市姑苏区山塘街180号(山塘客栈和苏州好风光中间),江苏省,苏州市,姑苏区,4006868588,unknown,
baidu,f58a2ad28d3703b1a8175a86,公厕,江苏省苏州市姑苏区前小邾弄西杨安浜东侧约30米,江苏省,苏州市,姑苏区,,unknown,
baidu,0f05b3d163ce578405fef51e,公厕,山塘街殳家墙门28号院西南侧约120米,江苏省,苏州市,姑苏区,,unknown,
baidu,32c0f2850ebee0f7bca822f8,公厕,苏州市姑苏区山塘街北浩弄路7号(满记甜品)对面,江苏省,苏州市,姑苏区,,unknown,
baidu,4bba7b777bff5914f4eafc26,公厕,苏州市姑苏区广济路七里山塘景区,江苏省,苏州市,姑苏区,,unknown,
baidu,4dd3f1ca746425485cd4fea5,山塘府邸·宴会厅,山塘街88号,江苏省,苏州市,姑苏区,,unknown,
baidu,f9b1d16886b99ff2da2f2885,公共厕所,苏州市姑苏区清塘路红星社区,江苏省,苏州市,姑苏区,,unknown,
baidu,c7044a8684465667c1364482,七里山塘景区-公共厕所,苏州市姑苏区前小邾弄西杨安浜东侧,江苏省,苏州市,姑苏区,,unknown,
baidu,cdc7c90d02fa686d4bfd3ff7,公共厕所,山塘街133附近,江苏省,苏州市,姑苏区,,unknown,
baidu,a177df4ba66ad69a6268586f,公共厕所,苏州市姑苏区山塘街北五泾浜东南侧约140米,江苏省,苏州市,姑苏区,,unknown,
baidu,ab0f5500d8bf60683ce23104,公共厕所,苏州市姑苏区桃花桥路东四亩田-37号东南侧约50米,江苏省,苏州市,姑苏区,,unknown,
baidu,c7dc73405f5cc38695f08cc8,公共卫生间,前小邾弄江苏省苏州市金阊实验小学校东北侧约90米,江苏省,苏州市,姑苏区,,unknown,
baidu,8a88a825f16569480a5cb38a,庄氏糖果,山塘街73号,江苏省,苏州市,姑苏区,13338698076,unknown,
baidu,fc2f077b74fd55654d55474d,中国福利彩票(广济路店),江苏省苏州市姑苏区金阊街道广济路158号,江苏省,苏州市,姑苏区,954168,unknown,
baidu,b8d61efee488cb9c01294f6a,公共厕所,苏州市姑苏区曹家弄新风巷78-79号院东北侧约120米,江苏省,苏州市,姑苏区,,unknown,
baidu,3bf00170b0531f198bfc065a,拉贝妮月子会所,阊门北码头14号北码头民国风情街103室,江苏省,苏州市,姑苏区,,unknown,
baidu,72a3f90ebb64388a31f71d88,公共厕所,苏州市姑苏区山塘街殳家墙门28号院西北侧约80米,江苏省,苏州市,姑苏区,,unknown,
baidu,6ee010206fc0449152e5c5cc,公共厕所(JS-SZ-0917),江苏省苏州市姑苏区西中市占鱼墩,江苏省,苏州市,姑苏区,,unknown,
baidu,e5edbd53246bc9e4c4f50d12,公厕,苏州市姑苏区前小邾弄山塘府邸西侧约70米,江苏省,苏州市,姑苏区,,unknown,
baidu,b404c845b7b24fc5a9f729b2,公共厕所,姑苏区广济路苏州市留园中心小学校,江苏省,苏州市,姑苏区,,unknown,
baidu,a1e98a0dfb2e7d1c01294f10,公厕,苏州市姑苏区前小邾弄西杨安浜东侧,江苏省,苏州市,姑苏区,,unknown,
baidu,37d60a46e831111e1e1d115d,公共厕所,苏州市姑苏区宝城桥街1号,江苏省,苏州市,姑苏区,,unknown,
baidu,59103d1728a0353d3586f493,广济公园-公共厕所,广济路广济公园,江苏省,苏州市,姑苏区,,unknown,
baidu,b7ccd4a8b09442d65fd4fe50,情缘房产,江苏省苏州市姑苏区冰厂街6号,江苏省,苏州市,姑苏区,15862376290,unknown,
baidu,d8338604aedd7b17774ff12f,公共厕所,苏州市姑苏区新马路古城宾馆(西中市店)西北侧约120米,江苏省,苏州市,姑苏区,,unknown,
baidu,019e06b7b4190dd5b817e711,占鱼墩-公共厕所,江苏省苏州市姑苏区南浩街734号,江苏省,苏州市,姑苏区,,unknown,
baidu,3f4d3de0cdf0439a35b06c7e,公厕,苏州市姑苏区山塘街北五泾浜东侧约100米,江苏省,苏州市,姑苏区,,unknown,
baidu,b3aa435d984758751576432d,公厕,广济公园(七里山塘景区西150米),江苏省,苏州市,姑苏区,,unknown,
baidu,c26d1e440a6ac2961811d5c4,中国福利彩票(西中市店),江苏省苏州市姑苏区专诸巷91号,江苏省,苏州市,姑苏区,954168,unknown,
baidu,86b8714d8ca368048b2fb54b,怪兽充电(蓬莱阁酒楼石路店),江苏省苏州市姑苏区虎丘街道阊胥路807,江苏省,苏州市,姑苏区,4006703303,unknown,
baidu,b25bbb642ea309cd100daa35,公共厕所,苏州市姑苏区清塘路清塘新村,江苏省,苏州市,姑苏区,,unknown,
baidu,74c933fb72c542209e82ea55,公共厕所,苏州市姑苏区上塘街江苏省苏州市金阊实验小学校,江苏省,苏州市,姑苏区,,unknown,
baidu,2161312a95396d414054d718,街电(璞拾茂苑餐厅),苏州市姑苏区山塘街北码头18号,江苏省,苏州市,姑苏区,4006868588,unknown,
baidu,9c149181c9774c6279dbd25d,庆绳里,苏州市姑苏区桃花坞大街306号,江苏省,苏州市,姑苏区,,unknown,
baidu,513c484251cd823bc929154e,公共卫生间,爱河桥路309-311附近,江苏省,苏州市,姑苏区,,unknown,
baidu,c7818441e313da7d82a12e5a,怪兽充电(半斤捌两面馆),苏州市姑苏区上塘街新风巷78-79号院东北侧约100米,江苏省,苏州市,姑苏区,4006703303,unknown,
baidu,4ccde01011f4b36c363a71b2,公厕,苏州市姑苏区山塘街北五泾浜东北侧约40米,江苏省,苏州市,姑苏区,,unknown,
baidu,b768657c131651fa373a7192,街电(老阊门阊门北码头店),苏州市姑苏区石路山塘街北码头对面西中市57号(老阊门城门),江苏省,苏州市,姑苏区,4006868588,unknown,
baidu,6049490fb32f42d0b01e36fa,墅流传地产,江苏省苏州市姑苏区桃花桥路58号,江苏省,苏州市,姑苏区,15151690690,unknown,
baidu,1d53fbd7306b5e78f4eafc7f,老阊门菜馆·宴会厅,江苏省苏州市姑苏区金阊街道北码头6号,江苏省,苏州市,姑苏区,"(0512)65569777,18962168337",unknown,
baidu,275718aa47e54d5d40afe63b,公共厕所,江苏省苏州市姑苏区第三十中学(路西街北),江苏省,苏州市,姑苏区,,unknown,
baidu,8cc3b59373d35e7c3a04b103,公共厕所,江苏省苏州市姑苏区舒巷18号,江苏省,苏州市,姑苏区,,unknown,
baidu,b1a8c77366fcaea5471a3234,老傅花圈寿衣店,江苏省苏州市姑苏区渡僧桥下塘街47号,江苏省,苏州市,姑苏区,,unknown,
baidu,b9f004f0b2c9ebe396f08c35,公共厕所,苏州市姑苏区上塘街苏州太阳广场西侧约40米,江苏省,苏州市,姑苏区,,unknown,
baidu,4d142b603c7d5e506d20b902,中铁快运(苏州站营业部),车站路27号,江苏省,苏州市,姑苏区,,unknown,
baidu,601303de5cd5c62b9a005035,艺圃-售票处,文衙弄5号,江苏省,苏州市,姑苏区,(0512)67271614,unknown,
baidu,48eb005878844ed32fe67b13,公共厕所,苏州市姑苏区半边街余德里东南侧,江苏省,苏州市,姑苏区,,unknown,
baidu,f94fefe960833f830c0a70da,铁路行包房,苏州站出入口西220米,江苏省,苏州市,姑苏区,,unknown,
baidu,ce42d9d76e28a58f60180901,怪兽充电(印象城),苏州市姑苏区上塘街汤姆叔叔旁,江苏省,苏州市,姑苏区,4006703303,unknown,
baidu,282c0263f13833e1b11e36d1,怪兽充电(赛风公寓),江苏省苏州市姑苏区阊胥路198号,江苏省,苏州市,姑苏区,4006703303,unknown,
baidu,0e490a783f7a0cf586420ec3,公共厕所,苏州市姑苏区玻纤路南五泾浜18号小区,江苏省,苏州市,姑苏区,,unknown,
baidu,107658d2bcc446acbfa8227f,公共厕所,金门路与南浩街交叉口东北20米,江苏省,苏州市,姑苏区,,unknown,
baidu,014095a9f962ea45a1d230e0,街电(火小锅),江苏省苏州市姑苏区阊胥路523号,江苏省,苏州市,姑苏区,4006868588,unknown,
baidu,27037c4c198f0f39ad31e531,苏再投再生资源回收亭,江苏省苏州市姑苏区金阊街道南浩街734号,江苏省,苏州市,姑苏区,,unknown,
baidu,718125f48f689e35d7851ffc,来电共享充电宝(俏川娘龙虾上塘街店),苏州市姑苏区石路上塘街82号(石路步行街山塘景区),江苏省,苏州市,姑苏区,4008845966,unknown,
baidu,afe0100987e14bdbe856faed,米咔形象定制,广济路后管弄堂11号,江苏省,苏州市,姑苏区,18501561110,unknown,
baidu,314833dbf3aea8a122026262,不理不彩,广济路195号(山塘街地铁站3号口步行270米),江苏省,苏州市,姑苏区,15720885259,unknown,
baidu,ebaa9c3bbc0d4b2a2ee67bbb,大超家·日式美甲美睫皮肤管理,金门路158号协和大厦12楼1205室（近地铁2号线石路站9号出口）,江苏省,苏州市,姑苏区,"17712686808,18761305887",unknown,
baidu,f60b745e2f25e7152e4733d7,婷美小屋(神仙街店),石路神仙街11号(石路地铁站12号口步行380米),江苏省,苏州市,姑苏区,17751141188,unknown,
baidu,d4de24f0d2b9a5262bb97c2c,诗露丽涵(金门路店),金门路158号协和大厦2308室,江苏省,苏州市,姑苏区,(0512)66323942,unknown,
baidu,d9cc4a786f9d9963ad080ff2,伊恋,荟春北街6号,江苏省,苏州市,姑苏区,,unknown,
baidu,65172c86714a0e01bb17e703,言先生祛痘皮肤管理(石路店),金门路158号协和大厦1908室（苏宁易购旁、石路地铁9号口10米处）,江苏省,苏州市,姑苏区,18168993373,unknown,
baidu,90288657f51f8ee2734b8703,爱维肌修肤所(石路步行街店),"石路步行街（银河广场石路国际西大门对面,布丁酒店旁）",江苏省,苏州市,姑苏区,18915665355,unknown,
baidu,d774b5e8acb28ef116764369,泰秘丽人会(干将店),干将西路600号,江苏省,苏州市,姑苏区,(0512)65568332,unknown,
baidu,dbb4c20ae2b6fd10abf729da,知音美甲美睫,荟春北街51号（三福店北20米）,江苏省,苏州市,姑苏区,18136186498,unknown,
baidu,5947e9bcb068e22d3913fd43,阿文工作室(石路店),荟春北街61号,江苏省,苏州市,姑苏区,15358403099,unknown,
baidu,cfa9143b1354ddb5631c6781,妍伊娜美容,葫芦街33号,江苏省,苏州市,姑苏区,18668050810,unknown,
baidu,abb57aa7edd3da560ba8d4a8,妆点美甲护肤美睫(西中市店),南浩街736号,江苏省,苏州市,姑苏区,18506125657,unknown,
baidu,83d120ffb2e084940a1cc7d9,双林接发(石路店),神仙街25号,江苏省,苏州市,姑苏区,19941899118,unknown,
baidu,d08d5ae8d03d7f2c8c55ec35,雅馨美甲美睫,南浩街714号(石路地铁站12口步行490米),江苏省,苏州市,姑苏区,15995878502,unknown,
baidu,e8a45e234c7b2190abf0cd51,和久自助·美甲·美睫(石路店),金门路158号协和大厦12楼1206号,江苏省,苏州市,姑苏区,13962169724,unknown,
baidu,d53c5616d69f83309fec2b4e,MC美甲美睫(石路步行街店),虎丘街道石路女人街新风巷62号(石路女性街京京鸭血粉丝汤旁MC美甲美睫),江苏省,苏州市,姑苏区,13914029810,unknown,
baidu,ec368704daef16e5c356ac3d,尚瘾·绱瘾造型(石路金座店),广济南路288号金座大厦1037号商铺一楼（石路地铁站10号口）,江苏省,苏州市,姑苏区,18550291665,unknown,
baidu,325726e5da1d5437dc1e521a,JAN美甲美睫沙龙(苏州太阳广场店),虎丘街道石路步行街广济南路太阳广场1楼(星巴克隔壁),江苏省,苏州市,姑苏区,"13646224631,15006131255",unknown,
baidu,39611739fb068bf6b9df8f3a,蜜桃自助美甲·自助美睫,广济路百脑汇科技中心13层1307号（近二号线石路地铁站10号出口）,江苏省,苏州市,姑苏区,"13451662855,13814876971",unknown,
baidu,d69e0323abf6299e3586f491,渼约(石路店),三香路53号锦亭大厦104室,江苏省,苏州市,姑苏区,15151577332,unknown,
baidu,cac5fc7691958cea2cb96d0a,SLK银之湖美容(养育巷店),养育巷380号,江苏省,苏州市,姑苏区,(0512)65158703,unknown,
baidu,90428fec28a2d9ebb23c8132,青青美甲美睫,荟春南街18号,江苏省,苏州市,姑苏区,17610592135,unknown,
baidu,347739e0660004d3c61b7504,凡花龙美发,江苏省苏州市姑苏区山塘街渡僧桥下塘街2号,江苏省,苏州市,姑苏区,18360480825,unknown,
baidu,4fbaa06d494e22534107c10f,瑞美妍养生馆(苏州太阳广场店),江苏省苏州市姑苏区女性街新风巷66号,江苏省,苏州市,姑苏区,15962223695,unknown,
baidu,2a9f2ccfae617e1e4054d7ca,铭杰美发,清塘路54号,江苏省,苏州市,姑苏区,,unknown,
baidu,31aff1f6a98aacbcdb2f284e,丝执空间,外五泾弄6号阊门饭店内7号楼,江苏省,苏州市,姑苏区,18994310722,unknown,
baidu,a8f6692b27a126953a13fd07,思海理发店,山塘街497号,江苏省,苏州市,姑苏区,,unknown,
baidu,c519aa52da4f92c8a0acc49b,阿明专业理发,广济路西杨安浜16号(石路地铁站1号口步行450米),江苏省,苏州市,姑苏区,,unknown,
baidu,5f7c3138ee9f041835b06cf0,秋日闲语美容养生会所,广济南路288号10010室,江苏省,苏州市,姑苏区,17351231083,unknown,
baidu,0f10d18ca4a0adbdeb12e4ca,浪潮美发,苏州市姑苏区汤家巷大通花园西南侧,江苏省,苏州市,姑苏区,18912649895,unknown,
baidu,67b41c49407da1e0bda24031,龙之纹刺青穿孔纹眉,石路荟春北街43号,江苏省,苏州市,姑苏区,"13732648462,15995781607",unknown,
baidu,5b6e2c371f5dbef8c9e33c9c,阿春造型店(石路步行街店),石路女人街新风巷20号,江苏省,苏州市,姑苏区,13771806897,unknown,
baidu,7f46b3a4a704ba3d631c6769,凤凰造型(宝城桥街店),江苏省苏州市姑苏区宝城桥街与桃花坞大街交叉口西50米,江苏省,苏州市,姑苏区,13861326104,unknown,
baidu,ab1b1135bf5047fa84330420,墨刺青(石路店),江苏省苏州市姑苏区石路南浩街695号,江苏省,苏州市,姑苏区,15062322203,unknown,
baidu,cadf17775b6c9131336212cb,小志美发,江苏省苏州市姑苏区下塘街335号,江苏省,苏州市,姑苏区,13584898721,unknown,
baidu,a087c21ab56d0b5241d63eb7,嘛咕造型,西中市119号,江苏省,苏州市,姑苏区,15062360456,unknown,
baidu,b56d2836c16737f7f942b2b6,小勇美发工作室,吴趋坊302号,江苏省,苏州市,姑苏区,13584865371,unknown,
baidu,01b767c95bf8f5d6cac3db78,阿彬理发店,江苏省苏州市姑苏区广济路85号,江苏省,苏州市,姑苏区,15151525998,unknown,
baidu,4f01302690b9be6c8c55ecb8,千紫万红女子美容(石路店),江苏省苏州市姑苏区名人街31号,江苏省,苏州市,姑苏区,13915416892,unknown,
baidu,b3aa435d752dad0b157643d9,金太子美发沙龙(石路店),荟春北街54号,江苏省,苏州市,姑苏区,15995865313,unknown,
baidu,6716d3c0004bc6f8e9f853ac,私人定制,江苏省苏州市姑苏区荟春南街47号,江苏省,苏州市,姑苏区,13706213265,unknown,
baidu,853f031b8e7f2fb2cb213d2e,红霞发屋,江苏省苏州市姑苏区虎丘街道留园路西街16号,江苏省,苏州市,姑苏区,13913123214,unknown,
baidu,49e9c516e20eb0213617dc82,小宋造型,江苏省苏州市姑苏区吴趋坊286号,江苏省,苏州市,姑苏区,,unknown,
baidu,32e789bc0c2a7ac4b4265521,流星云,江苏省苏州市姑苏区荟春南街51号,江苏省,苏州市,姑苏区,,unknown,
baidu,6b40728610c21c486849f378,佲剪世家男士发型设计(苏州一店),石路广济南路288号金座大厦八楼8003,江苏省,苏州市,姑苏区,18100687239,unknown,
baidu,4c86ba8a7427ff263010afed,凤凰造型,汤家巷165号,江苏省,苏州市,姑苏区,18662216975,unknown,
baidu,e999710703fe75ec5fbe867c,富丽百合,养育巷352号,江苏省,苏州市,姑苏区,13506207333,unknown,
baidu,c5837635478c55b72cb908d0,风尚造型(南浩街店),名人街8号,江苏省,苏州市,姑苏区,13073385554,unknown,
baidu,e0820fa7fdaf620fb5147fb5,Baby美甲(南浩街店),石路南浩街694号,江苏省,苏州市,姑苏区,,unknown,
baidu,5a115cb725f47e140bf5ebc3,唯恋美甲(石路店),荟春南街14号,江苏省,苏州市,姑苏区,15962188954,unknown,
baidu,1bf6964bdc483f04441a3219,赫本美容健康管理(石路天虹店),金阊街道广济南路219号天虹商场负一楼,江苏省,苏州市,姑苏区,18662155204,unknown,
baidu,de13cf59a7038be7f03cbaa8,苏韵彩妆(石路步行街店),石路步行街8号奥特莱斯F1层,江苏省,苏州市,姑苏区,15950076577,unknown,
baidu,752c5e4c7b582c133c9a5e4d,歌妮美容(养育巷店),养育巷145-147号商务大厦1楼朝晖美容（国税局对面）,江苏省,苏州市,姑苏区,(0512)65156988,unknown,
baidu,b88b90f1066cc985ae31e59b,姑苏区剪风格各理发店,苏站路1716号,江苏省,苏州市,姑苏区,18706213358,unknown,
baidu,87a66d2b4639f41d59bbbc83,靓点美甲美睫·化妆半永久,南浩街605号,江苏省,苏州市,姑苏区,15862395061,unknown,
baidu,0e1247fc406d3f7ac7f0250a,壹恩HAIR烫发染发接发(西城店),广济南路19号西城永捷生活广场4楼,江苏省,苏州市,姑苏区,18915639868,unknown,
baidu,0f08b7ec2669cb42a3acc42c,潮店·十九匠美甲美睫(石路C056店),金门路108号时代晶华9楼909室,江苏省,苏州市,姑苏区,"18013476699,18506207152",unknown,
baidu,dabcda5fd13b36a13010afae,麦吉可科技美肤(平江怡景店),平川路江乾路交汇处苏州银行东100米,江苏省,苏州市,姑苏区,(0512)62870012,unknown,
baidu,f60a15ed01a9f2f5bb17e751,卡迪娅美容美发造型(干将西路店),干将西路580号（近友通数码港）,江苏省,苏州市,姑苏区,(0512)68625181,unknown,
baidu,051fb575b65dc933a2d23022,医颜美容中心,江苏省苏州市姑苏区人民路3158号万融国际大厦6楼,江苏省,苏州市,姑苏区,17761910235,unknown,
baidu,4ffb48368a9267b38e7727be,忆韵美甲,太平坊中心广场酒店公寓5楼538,江苏省,苏州市,姑苏区,13404242203,unknown,
baidu,aad089ea2f3722f4f503b841,多米皮肤管理美甲美睫,江苏省苏州市姑苏区金门路协和大厦24楼2403室,江苏省,苏州市,姑苏区,,unknown,
baidu,3398a6c0f0e70ac0a5da3911,寂然,公园路124号,江苏省,苏州市,姑苏区,18550336280,unknown,
baidu,9d0168d971d6c673df1e5245,卡莫假发,江苏省苏州市姑苏区养育巷295号,江苏省,苏州市,姑苏区,13771656493,unknown,
baidu,983700749dcc0480ad31e54f,柯琳造型(石路店),苏州市姑苏区金门路协和大厦22楼2210室(地铁2号线石路站9号出口),江苏省,苏州市,姑苏区,13862043973,unknown,
baidu,dde26e7b3490470388db7333,名品美发(观前街店),人民路1436号2楼4号线察院场3号口5米,江苏省,苏州市,姑苏区,17315576085,unknown,
baidu,1ba9585558a55010e81e9770,姑苏区简华男士发型设计,乔司空巷29号(察院场地铁站2号东南口步行290米),江苏省,苏州市,姑苏区,18985667342,unknown,
baidu,609794877f3fe6404bcc4a3c,EDG纯手工羽毛接发·专业接发·巴黎画染(苏州工厂店),金门路158号石路协合大厦19楼1909,江苏省,苏州市,姑苏区,18857209252,unknown,
baidu,f35c01449c41fed5d618b7f8,冉冉时光(皮市街60店),平江街道皮士街206-2号,江苏省,苏州市,姑苏区,17621638478,unknown,
baidu,cde9e2c7b373cfade81e9761,沁特时尚发艺,西北街57号,江苏省,苏州市,姑苏区,,unknown,
baidu,952c7beb923d279f5d0d0268,KAFA造型(苏州店),苏站路1279号,江苏省,苏州市,姑苏区,18068436636,unknown,
baidu,3b99bba837877f18bb17e736,壹见·HAIR SALON(中锐尚城花园店),苏站路1106号,江苏省,苏州市,姑苏区,19951314615,unknown,
baidu,33903b4ade20c80222f0173b,YAYA STUDIO美甲美睫,皮市街10号,江苏省,苏州市,姑苏区,15605679309,unknown,
baidu,b87de0c97bf87be03f9a5ef0,唯伊,荟春北街13号,江苏省,苏州市,姑苏区,,unknown,
baidu,9e5f39ad3851ed487402694b,亦时光(南浩街店),石路南浩街651号,江苏省,苏州市,姑苏区,,unknown,
baidu,dc0f0adcc793e45ff822136e,唐少傅白公祠,苏州市姑苏区山塘街18号白居易纪念苑内,江苏省,苏州市,姑苏区,,unknown,
baidu,efe397963d22ed186f4760f6,七里山塘千年古街,江苏省苏州市姑苏区山塘街,江苏省,苏州市,姑苏区,(0512)65314467,unknown,
baidu,9ee392b8d8fbe058babd6392,七里山塘景区,江苏省苏州市姑苏区山塘街177号,江苏省,苏州市,姑苏区,(0512)65314467,unknown,
baidu,d6df91c12af60a73f7b91657,阊门遗址,苏州市姑苏区阊胥路521号,江苏省,苏州市,姑苏区,,unknown,
baidu,28e700f1752e3f18095cb327,山塘雕花楼,江苏省苏州市广济路231号(七天优品酒店内),江苏省,苏州市,姑苏区,,unknown,
baidu,d006fe6d40fa0d5a04026f89,前塘河公园,江苏省苏州市姑苏区平川路南1号附近,江苏省,苏州市,姑苏区,,unknown,
baidu,24d055089a4bfbd213882495,城隍庙,苏州市姑苏区景德路94号,江苏省,苏州市,姑苏区,(0512)65155897,unknown,
baidu,77990ff6c983211acc06a46e,苏州七里山塘景区-百间楼,江苏省苏州市姑苏区北浩弄前小邾弄东侧约190米,江苏省,苏州市,姑苏区,(0512)65314467,unknown,
baidu,7aea43b754b598e17d29bdbc,留园,江苏省苏州市姑苏区阊门外留园路338号,江苏省,苏州市,姑苏区,"(0512)65337903,(0512)65579466",unknown,
baidu,57d29b5181088a407369d334,民国建筑群,江苏省苏州市姑苏区志仁里,江苏省,苏州市,姑苏区,,unknown,
baidu,c9b9f40a47481a058605bf74,平门,江苏省苏州市姑苏区桃花坞街道廖家巷路155弄近平四路,江苏省,苏州市,姑苏区,,unknown,
baidu,f9fd6062be39a01f0f0e6bdc,广济公园,江苏省苏州市姑苏区广济路与西杨安浜交叉口西150米,江苏省,苏州市,姑苏区,,unknown,
baidu,78bd50f7d64fa14230870af3,艺圃,江苏省苏州市姑苏区文衙弄5号,江苏省,苏州市,姑苏区,(0512)67271614,unknown,
baidu,85bf97896f976a8be115f990,浅塘思古,江苏省苏州市姑苏区梗子上1号,江苏省,苏州市,姑苏区,18344686053,unknown,
baidu,98d0e94cf803426b07026f7c,苏州山塘街,苏州市姑苏区北浩弄,江苏省,苏州市,姑苏区,,unknown,
baidu,9ee392b8b17db940bbbd6330,金门,江苏省苏州市姑苏区景德路596号,江苏省,苏州市,姑苏区,(0512)67703269,unknown,
baidu,060f5e533c6a0bd7081cc770,文山禅寺,江苏省苏州市姑苏区中街路文丞相弄30-1号,江苏省,苏州市,姑苏区,(0512)67276971,unknown,
baidu,95b116abf4b4e15de31103b5,苏州博物馆,江苏省苏州市姑苏区东北街204号,江苏省,苏州市,姑苏区,(0512)67575666,unknown,
baidu,4c3223ec52d40a10f942b219,苏州夜游护城河,江苏省苏州市姑苏区石路名人街25号万人码头,江苏省,苏州市,姑苏区,,unknown,
baidu,ce7925030cb80776bda240ea,罗汉堂,苏州市姑苏区西园弄戒幢律寺,江苏省,苏州市,姑苏区,,unknown,
baidu,8ff59326431180cfc72ba14d,唐寅故居遗址,苏州市姑苏区平门内西大营门双荷花池13号,江苏省,苏州市,姑苏区,,unknown,
baidu,925c550f2a9bb5cf5a3ac879,潮州会馆,苏州市姑苏区上塘街258号,江苏省,苏州市,姑苏区,,unknown,
baidu,b892d026e48f970f9a005092,寻梦山塘,江苏省苏州市姑苏区真趣园西北门(靠近广济路新民桥),江苏省,苏州市,姑苏区,15062338899,unknown,
baidu,0d750c56788df2cf04026f23,中国历史文化街区,江苏省苏州市姑苏区新民桥61号,江苏省,苏州市,姑苏区,,unknown,
baidu,fee5a12ab29d7b9a6f476022,文昌阁,苏州市姑苏区校场桥路桃坞才苑南侧约120米,江苏省,苏州市,姑苏区,,unknown,
baidu,a29a37613b6bac0dad045787,苏州园林曲园,江苏省苏州市姑苏区马医科巷43号,江苏省,苏州市,姑苏区,,unknown,
baidu,5340db2eb961138f9de3216f,陕西会馆(七里山塘景区),苏州市姑苏区山塘街508号,江苏省,苏州市,姑苏区,,unknown,
baidu,60ee18cd83f434efa204646e,通贵桥,江苏省苏州市姑苏区山塘街177号七里山塘景区内,江苏省,苏州市,姑苏区,,unknown,
baidu,503bcc08654100be83288a86,御碑亭,苏州市姑苏区山塘街133号,江苏省,苏州市,姑苏区,(0512)65314467,unknown,
baidu,d393d9603d0222e12fb90850,吴晓邦故居,苏州市姑苏区石路街道北浩弄2号,江苏省,苏州市,姑苏区,,unknown,
baidu,73e7343b41b489505bf6be24,新民桥雕花厅,苏州市姑苏区阊门外广济路新民桥北人民里2号,江苏省,苏州市,姑苏区,,unknown,
baidu,9832bbd55d0792a2d7b74e67,真趣园,江苏省苏州市姑苏区通贵桥下塘57号,江苏省,苏州市,姑苏区,,unknown,
baidu,72136468e96d67cd4f6d4644,唐寅祠,姑苏区廖家巷前新街10号,江苏省,苏州市,姑苏区,,unknown,
baidu,976c97462d7a2be11e1d1133,五峰园,江苏省苏州市姑苏区五峰园弄15号,江苏省,苏州市,姑苏区,(0512)67275866,unknown,
baidu,cb180b5100b0bb44d42ce275,山塘街道,苏州市姑苏区山塘街殳家墙门28号院西侧约130米,江苏省,苏州市,姑苏区,,unknown,
baidu,c7eca12bc67f5b2ee015f9b9,普福禅寺,苏州市姑苏区山塘街780号,江苏省,苏州市,姑苏区,,unknown,
baidu,0adce3e293f3eb6180a00c76,神仙庙,苏州市姑苏区南浩街666号,江苏省,苏州市,姑苏区,(0512)65583251,unknown,
baidu,36f263f9ac62d5132fe67b75,白姆桥,苏州市姑苏区广济路218号苏州七里山塘景区,江苏省,苏州市,姑苏区,,unknown,
baidu,8fe50e59530333d5a7da3986,桃花坞美术馆,江苏省苏州市姑苏区廖家巷28号11号楼,江苏省,苏州市,姑苏区,(0512)68667007,unknown,
baidu,a5097bfab2b7af7af13cbaad,怡园,江苏省苏州市姑苏区人民路1265号,江苏省,苏州市,姑苏区,(0512)65249317,unknown,
baidu,3726a5f432c0e420c3f1cf5c,汪氏义庄,苏州市姑苏区山塘街480号,江苏省,苏州市,姑苏区,,unknown,
baidu,22fb9b629d6f5a48f603b8d6,唐寅祠-唐伯虎故居,江苏省苏州市姑苏区桃花坞前新街附近,江苏省,苏州市,姑苏区,,unknown,
baidu,10fb14b705faccdc5f17c38b,创元桃花坞89文化坊,桃花坞大街89号,江苏省,苏州市,姑苏区,,unknown,
baidu,81d6a509a9382d3e6e20b9d9,泰伯庙,苏州市姑苏区官宰弄30号,江苏省,苏州市,姑苏区,,unknown,
baidu,bd5046e87abe5e3cd72ce279,苏州商会博物馆,江苏省苏州市姑苏区虎丘街道山塘街192号,江苏省,苏州市,姑苏区,(0512)67236980,unknown,
baidu,e47e2ad36c30bd77ebe582b0,苏州美术馆(人民路),江苏省苏州市姑苏区人民路2075号,江苏省,苏州市,姑苏区,(0512)65816230,unknown,
baidu,50f7d146c98922c472210b76,北塔报恩寺,江苏省苏州市姑苏区人民路1918号北塔,江苏省,苏州市,姑苏区,(0512)65623146,unknown,
baidu,396e188bc617c76cb5f42f88,西园戒幢律寺,江苏省苏州市姑苏区留园路西园弄18号,江苏省,苏州市,姑苏区,(0512)65349545,unknown,
baidu,ab413f0cdf0acfd44c3a5950,吴门四才子,苏州市姑苏区南浩街630号,江苏省,苏州市,姑苏区,,unknown,
baidu,f4e7a04b3dfef9bd0aa8d4ec,北寺塔,江苏省苏州市姑苏区人民路1918号,江苏省,苏州市,姑苏区,(0512)67226743,unknown,
baidu,79cceb36276d86891e580076,暖心园,南浩街606号,江苏省,苏州市,姑苏区,,unknown,
baidu,f73e328e060c433f2802e1c8,通贵狸,江苏省苏州市姑苏区山塘街155号,江苏省,苏州市,姑苏区,,unknown,
baidu,216a614a5a18b90e6cc02c0e,侵华日军宪兵司令部旧址,江苏省苏州市姑苏区广济路市立医院北区内,江苏省,苏州市,姑苏区,,unknown,
baidu,4afa1d104b13b49feddfca25,岭南会馆,苏州市姑苏区广济路218号七里山塘景区,江苏省,苏州市,姑苏区,,unknown,
baidu,61ed61af2d56245c31169bed,苏州古城之巅观景台,江苏省苏州市姑苏区上塘街1号6层(希岸酒店楼上),江苏省,苏州市,姑苏区,15158183550,unknown,
baidu,69fcd6dff4afd12fca291576,苏州丝绸博物馆,江苏省苏州市姑苏区人民路2001号,江苏省,苏州市,姑苏区,(0512)67535943,unknown,
baidu,cd9d05dd2131d4b685420e76,朴园,江苏省苏州市姑苏区校场桥路8号,江苏省,苏州市,姑苏区,(0512)67512397,unknown,
baidu,bece66c3aea94bc0d3ff238f,占鱼墩公园,苏州市姑苏区南浩街746号附近,江苏省,苏州市,姑苏区,,unknown,
baidu,25c9c6a42057ea9ab020a852,朝宗阁,山塘街832号（码头旁）,江苏省,苏州市,姑苏区,,unknown,
baidu,a7771d45bf5020f654bfffd2,武安会馆,苏州市姑苏区天库前10号,江苏省,苏州市,姑苏区,,unknown,
baidu,ad7f35e08fb92ae9d13ce30e,中国大运河遗产点,苏州市姑苏区广济路218号七里山塘景区内,江苏省,苏州市,姑苏区,,unknown,
baidu,4edf9fbf7171908dcc06a475,白居易纪念苑,苏州市姑苏区山塘街18号,江苏省,苏州市,姑苏区,,unknown,
baidu,56f2f69625ab89800aa8d47b,冠云峰,留园路338号,江苏省,苏州市,姑苏区,(0512)65337903,unknown,
baidu,9ad23f1db04cc8d6d42ce269,孙武纪念塔,苏州市姑苏区名人街与阊胥路交叉路口往东约110米,江苏省,苏州市,姑苏区,,unknown,
baidu,f8825f0fd474e5b2b23c8199,桐桥遗址,苏州市姑苏区山塘街576号,江苏省,苏州市,姑苏区,,unknown,
baidu,7bbbd4e84ed298c4e812e49d,苏州市名人馆,江苏省苏州市姑苏区人民路2075号,江苏省,苏州市,姑苏区,(0512)65816339,unknown,
baidu,5afd49f3c5f6fa28a4c756ca,山塘胜迹,苏州市姑苏区山塘街七里山塘景区,江苏省,苏州市,姑苏区,(0512)65314467,unknown,
baidu,7b03e682f94d2c1e3c9a5e8a,阊门寻根纪念地,苏州市姑苏区山塘街阊门寻根纪念地,江苏省,苏州市,姑苏区,,unknown,
baidu,fa743f9ef1a72d4a705e8054,蜗园遗址,苏州市姑苏区前同仁街29号,江苏省,苏州市,姑苏区,,unknown,
baidu,a9656df9b68db314246e98e7,绿水故园,苏州市姑苏区山塘街576号,江苏省,苏州市,姑苏区,,unknown,
baidu,e46967ac421efdc0b6f42f7f,苏州生肖邮票博物馆,苏州市姑苏区东杨安浜2号,江苏省,苏州市,姑苏区,(0512)68660201,unknown,
baidu,90c282162cc73a6788f15df2,福济观,苏州市姑苏区东中市江苏省东中市实验小学校西北侧约120米,江苏省,苏州市,姑苏区,,unknown,
baidu,1adf5070ab6214d9ac080fa3,三香公园,三香路108-1号,江苏省,苏州市,姑苏区,,unknown,
baidu,2889987b413d5d6603ff2d4f,延光阁,文衙弄5号艺圃,江苏省,苏州市,姑苏区,(0512)67271614,unknown,
baidu,7a236d38ded4ade0fa2d618c,鹤泉,江苏省苏州市姑苏区平四路与桃花桥二弄交叉口东南方向30米,江苏省,苏州市,姑苏区,,unknown,
baidu,6929cb189239734cf33cba01,火车站南广场小公园,苏州市姑苏区平四路37号,江苏省,苏州市,姑苏区,,unknown,
baidu,c11d5593a9ec850e5b3ac8ae,状元亭,苏州市姑苏区南浩街716号,江苏省,苏州市,姑苏区,,unknown,
baidu,090e4ac0eb7338498d77276e,行道阁,江苏省苏州市姑苏区山塘街318号,江苏省,苏州市,姑苏区,18061935187,unknown,
baidu,75036835b3c913af5e0d0276,白塔公园,江苏省苏州市姑苏区白塔西路47号,江苏省,苏州市,姑苏区,,unknown,
baidu,c7ba02550a39b9e94557262e,郁家祠堂,苏州市姑苏区山塘街502号,江苏省,苏州市,姑苏区,,unknown,
baidu,0c680f2b8db268154afd3f3c,观音阁,苏州市姑苏区山塘街578号,江苏省,苏州市,姑苏区,,unknown,
baidu,2c161c77e2b4cae963180984,山塘星湖,江苏省苏州市姑苏区北浩弄2号,江苏省,苏州市,姑苏区,,unknown,
baidu,5d38a56e24bbc854740269bf,泰伯圣像,苏州市姑苏区阊胥路赛风公寓北侧,江苏省,苏州市,姑苏区,,unknown,
baidu,4254993e5e80c5513ce23118,占鱼墩-盛宣怀,江苏省苏州市姑苏区上塘街与阊胥路交叉口东50米,江苏省,苏州市,姑苏区,,unknown,
baidu,0741011fba5ab54682288a77,七襄公所,文衙弄5号艺圃,江苏省,苏州市,姑苏区,(0512)67271614,unknown,
baidu,9e59297aa7a6f382a1d23034,山塘清风廊,苏州市姑苏区山塘街18号,江苏省,苏州市,姑苏区,,unknown,
baidu,2e89a8ec72479056631809c8,小邾弄碑记,苏州市姑苏区前小邾弄12-1号,江苏省,苏州市,姑苏区,(0512)65314467,unknown,
baidu,bac2f4ca937f8c0388fc06e5,西园古刹,苏州市姑苏区留园路西园弄18号,江苏省,苏州市,姑苏区,(0512)65313361,unknown,
baidu,398455f1cabd7729c7f50df7,博雅堂,文衙弄5号艺圃,江苏省,苏州市,姑苏区,(0512)67271614,unknown,
baidu,c13beb2f4a4bb1ef2bd7ab8b,谢家福故居,江苏省苏州市姑苏区桃花坞大街268号院2幢(桃花桥东北),江苏省,苏州市,姑苏区,,unknown,
baidu,d9f20b2b441dde36f4eafc7a,法治篆刻,广济路广济公园,江苏省,苏州市,姑苏区,,unknown,
baidu,7b1cd660515a4254b9bd6357,匝道公园,江苏省苏州市姑苏区金阊街道广济路27号,江苏省,苏州市,姑苏区,,unknown,
baidu,d72eac65fc1e38d922022096,东莱草堂,文衙弄5号艺圃,江苏省,苏州市,姑苏区,(0512)67271614,unknown,
baidu,da0dc632d9056008d33ce3f5,唐少傅白公祠-主厅堂,江苏省苏州市姑苏区山塘街18号白居易纪念苑内,江苏省,苏州市,姑苏区,,unknown,
baidu,648f81990351cce00aa8d4a0,生啸斋,江苏省苏州市姑苏区山塘街18号白居易纪念苑内,江苏省,苏州市,姑苏区,,unknown,
baidu,2c0bd6c54b8ba5a942ab9a84,环秀山庄(景德路),江苏省苏州市姑苏区景德路272号,江苏省,苏州市,姑苏区,,unknown,
baidu,254da6603f8dacaabd4842e6,兰晖玉暎,苏州市姑苏区东杨安浜2号,江苏省,苏州市,姑苏区,(0512)65314467,unknown,
baidu,0a15c7eccc14e1e5ec74f8b9,中国南社纪念馆,苏州市姑苏区山塘街800号,江苏省,苏州市,姑苏区,(0512)65508053,unknown,
baidu,1b3b14064dc25c2f40d63e58,爱莲窝,文衙弄5号艺圃,江苏省,苏州市,姑苏区,(0512)67271614,unknown,
baidu,33723552c2c3fda6c9fa5f87,李仲公故居,江苏省苏州市姑苏区宝城桥弄22-1号,江苏省,苏州市,姑苏区,(0512)65158512,unknown,
baidu,ffc7a57b6ffcf008631c6783,朝爽亭,江苏省苏州市文衙弄5号艺圃内,江苏省,苏州市,姑苏区,(0512)67271614,unknown,
baidu,7b292c4d9698c0f0725e8098,法治路苏州窗,广济路广济公园,江苏省,苏州市,姑苏区,,unknown,
baidu,17017ef41cdc6c2e17c8f63c,抱石园,苏州市姑苏区宝林寺前43号,江苏省,苏州市,姑苏区,,unknown,
baidu,bb5ce351238e13db4557267f,苏州法治人物,广济路广济公园,江苏省,苏州市,姑苏区,,unknown,
baidu,56f2f696d19a45810aa8d448,费仲琛故居,苏州市姑苏区桃花坞大街176号,江苏省,苏州市,姑苏区,,unknown,
baidu,01c016fb743af1be260bd0f6,气通阊阖,苏州市姑苏区西中市璞拾公馆东南侧约80米,江苏省,苏州市,姑苏区,,unknown,
baidu,5f4d5717c17a1e6f6949f34f,吴雨苍故居,江苏省苏州市姑苏区前同仁街29号,江苏省,苏州市,姑苏区,,unknown,
baidu,7ce95264e2c4be26077ce8f8,中国银行旧址,苏州市姑苏区西中市贻德里东北侧约50米,江苏省,苏州市,姑苏区,(0512)65158512,unknown,
baidu,f63c7715b60c9e4322022088,南斋,文衙弄5号艺圃,江苏省,苏州市,姑苏区,(0512)67271614,unknown,
baidu,a061f0f6d8b85595afee7a96,法治填词墙,广济路广济公园,江苏省,苏州市,姑苏区,,unknown,
baidu,a9cf6e8631d393516cc02cc3,思乡树,苏州市姑苏区广济路218号七里山塘景区内,江苏省,苏州市,姑苏区,,unknown,
baidu,114a2858f5e38967601c67f4,缇萦救父,广济路广济公园,江苏省,苏州市,姑苏区,,unknown,
baidu,af5715b8a1ba1355b21e367f,叶天士故居,江苏省苏州市姑苏区虎丘街道渡僧桥下塘48号,江苏省,苏州市,姑苏区,,unknown,
baidu,b3ef0fc64c343cd39de32167,法之相雕塑,广济路广济公园,江苏省,苏州市,姑苏区,,unknown,
baidu,ba50334197c7151784154165,香草居,文衙弄5号艺圃,江苏省,苏州市,姑苏区,(0512)67271614,unknown,
baidu,a02477cece4dd8a2a11de94b,法之廊,广济路广济公园,江苏省,苏州市,姑苏区,,unknown,
baidu,4ad24bd9d88b3676fa42b252,法之亭,广济路广济公园,江苏省,苏州市,姑苏区,,unknown,
baidu,82a8f35f985eade59868b467,苏州市基督教使徒堂,苏州市姑苏区养育巷130号,江苏省,苏州市,姑苏区,(0512)65227701,unknown,
baidu,180f0d3084dd2b3482a12ed7,义风园(五人墓),苏州市姑苏区阊门外山塘街775号,江苏省,苏州市,姑苏区,(0512)65337287,unknown,
baidu,9ce44e15de473a0b07fef5c8,生云轩,江苏省苏州市姑苏区山塘街18号白居易纪念苑内,江苏省,苏州市,姑苏区,,unknown,
baidu,7b785c66e2d59d6b2a02e1bc,思嗜轩,文衙弄5号艺圃,江苏省,苏州市,姑苏区,(0512)67271614,unknown,
baidu,b41f9fa6579211cd1ef74da2,鹤园,江苏省苏州市姑苏区韩家巷4号,江苏省,苏州市,姑苏区,,unknown,
baidu,836cb9f23f500f2a1d1d1198,贺壹美术馆,江苏省苏州市姑苏区廖家巷35号-1(龙兴桥小区东侧约30米),江苏省,苏州市,姑苏区,,unknown,
baidu,9c80180b95b0e5589868b464,青城美术馆,江苏省苏州市姑苏区福六圆梦空间2号楼2201室,江苏省,苏州市,姑苏区,(0512)65792000,unknown,
baidu,b3a369cff5f19e9cd7851fb1,林则徐禁烟处,苏州市姑苏区南浩街586号,江苏省,苏州市,姑苏区,,unknown,
baidu,95476c658d2380d10ab93afb,般若庵,苏州市姑苏区山塘街578号,江苏省,苏州市,姑苏区,,unknown,
baidu,21d410aaafea79d730169b90,畅园,江苏省苏州市姑苏区庙堂巷22-1号,江苏省,苏州市,姑苏区,(0512)65223377,unknown,
baidu,2fd2beabde745f2f7adbd21c,桃花坞里,江苏省苏州市姑苏区桃花坞大街158号,江苏省,苏州市,姑苏区,,unknown,
baidu,9973f95fd905bda79d9d6860,文星狸,苏州市姑苏区山塘街329号,江苏省,苏州市,姑苏区,,unknown,
baidu,f157adc0aa356fbd3310af71,广济公园-健身区,广济路广济公园,江苏省,苏州市,姑苏区,,unknown,
baidu,6af5770b587cdcc3f02d83d8,德馨里,江苏省苏州市姑苏区天库前30号后门,江苏省,苏州市,姑苏区,4006810320,unknown,
baidu,5099fc75fab8afd57bf79647,六如楼,苏州市平四路苏州市桃坞中心小学校,江苏省,苏州市,姑苏区,,unknown,
baidu,b0a5b9bb42e27d7e1c1d115c,山塘昆曲馆,虎丘街道山塘街通贵桥下塘45号(近玉涵堂),江苏省,苏州市,姑苏区,(0512)65313936,unknown,
baidu,844404285c56992a48cc4aa6,ECHO三毛酒吧,虎丘街道山塘街下塘三号(广济路新民桥),江苏省,苏州市,姑苏区,18251135635,unknown,
baidu,db9733de0cab91536fa3ccb5,苏韵足浴养生SPA,神仙街35号,江苏省,苏州市,姑苏区,,unknown,
baidu,41c96932ea5d346908ccdd6b,朝九晚酒,新风巷知音美甲美睫隔壁,江苏省,苏州市,姑苏区,,unknown,
baidu,69823867ffb36d904251c0c7,河西酒吧(东杨安浜店),山塘街东杨安浜12号通贵桥下200米,江苏省,苏州市,姑苏区,,unknown,
baidu,101f0339a5fb09376849f3aa,神韵雅舍,金阊街道老阊门北码头2号（民国风情街地下车库旁）,江苏省,苏州市,姑苏区,13812688847,unknown,
baidu,96338ecaa696f1d716c8f667,苏剧山海录舞台式沉浸剧本杀推理社,道石路88号太阳广场3楼309室,江苏省,苏州市,姑苏区,"13862403296,18551288896",unknown,
baidu,6850184387fdf598260bd045,金地泉都温泉,人民路1755号姑苏新天地一楼,江苏省,苏州市,姑苏区,,unknown,
baidu,1ac587c8ecf06c200f0a70c3,吴宅·太氏普洱古树茶空间·评弹,北浩弄2号,江苏省,苏州市,姑苏区,13771810893,unknown,
baidu,458f93e74586b72d6d20b9c8,三缘舍茶室,苏州市姑苏区山塘街367号,江苏省,苏州市,姑苏区,,unknown,
baidu,917c078a35c416b82806ce99,夜之幕剧本社(石路店),金座大厦20003,江苏省,苏州市,姑苏区,15365658261,unknown,
baidu,e56bf5e373cb10390782c27a,风云再起游乐汇(苏州观前街店),施相公弄24-36号粤海广场1号楼2楼,江苏省,苏州市,姑苏区,(0512)67777086,unknown,
baidu,e2c0ce3403fcf9e01811d59e,御宫国际汗蒸馆(江星广场店),城北东路1188号江星商业广场3幢,江苏省,苏州市,姑苏区,(0512)66531999,unknown,
baidu,22e3a718bd89d5bea8f0cd16,七星网吧(火车站店),广济北路苏锦二村2幢102室,江苏省,苏州市,姑苏区,,unknown,
baidu,9fde19f8de9d151f28d7ab35,利升艾灸馆,新风巷75号,江苏省,苏州市,姑苏区,,unknown,
baidu,5d02df1dd9378538364aaeba,牧歌PARTY KTV旗舰店,富仁坊巷68号四层,江苏省,苏州市,姑苏区,,unknown,
baidu,6f32c941c076a50d72455bfa,山塘街古戏台,山塘街176号,江苏省,苏州市,姑苏区,(0512)57201626,unknown,
baidu,03a19ac4d0f5e82f51e5c5c0,周文雍绘画工作室,山塘街187号七里山塘景区(西北角),江苏省,苏州市,姑苏区,13862557878,unknown,
baidu,d01fe7143d31e878283a9f67,蓝堡歌舞厅,石路步行街,江苏省,苏州市,姑苏区,,unknown,
baidu,3367e63ed5ab3bb7f4b9160f,龙池浴室,二弄6号,江苏省,苏州市,姑苏区,,unknown,
baidu,1a5eea840681b6a1eee4a504,左岸丽舍酒吧,广济路东杨安浜24号(通贵桥旁),江苏省,苏州市,姑苏区,18962131314,unknown,
baidu,e9257e1df2e39a5d1cf74d07,香洲茶馆,北码头64号,江苏省,苏州市,姑苏区,13862108226,unknown,
baidu,d8a3a2eaeef2fcdc35b06c5f,天库前棋牌室,江苏省苏州市姑苏区天库前24号,江苏省,苏州市,姑苏区,15995877244,unknown,
baidu,b38fba9ab085e84ceb56fa6e,怡泰SPA泰疗按摩(苏州石路国际店),石路29号8单元115室西北面,江苏省,苏州市,姑苏区,,unknown,
baidu,be1ea5efe34d88a615948eba,建新浴室(西中市店),西中市43号,江苏省,苏州市,姑苏区,,unknown,
baidu,b3b0a55a3776294016a19008,昆曲传习所,平门校场桥路9号,江苏省,苏州市,姑苏区,(0512)67520097,unknown,
baidu,2daff90a03c6a75ab21e3644,杰森精酿啤酒,西中市110号,江苏省,苏州市,姑苏区,18862536896,unknown,
baidu,cd1560cced0d758546e27496,玲玲足浴店,苏州市姑苏区吴趋坊大通花园西南侧约40米,江苏省,苏州市,姑苏区,,unknown,
baidu,a7088f49779f240dacb22ab3,骨正堂养生馆,石路南浩街614号,江苏省,苏州市,姑苏区,,unknown,
baidu,d789782ca56f9a5f77026919,山塘·雅乐小憩,江苏省苏州市姑苏区西叶家弄24号,江苏省,苏州市,姑苏区,,unknown,
baidu,4f911a3316f7e9d13f9a5e26,鑫乐棋牌(吴趋坊),江苏省苏州市姑苏区吴趋坊290号,江苏省,苏州市,姑苏区,13073308880,unknown,
baidu,5b657698b619d19b08ccdd6c,博天娱乐舞厅,苏州市姑苏区广济南路南兵营红星幼儿园南侧约60米,江苏省,苏州市,姑苏区,,unknown,
baidu,420d11a2b78c206fcae33c2a,金莎大舞厅,江苏省苏州市姑苏区阊胥路418号金洲大厦二层,江苏省,苏州市,姑苏区,,unknown,
baidu,eca7303e6cb9b76c715e80ff,清塘池浴室,长盛花园东南门旁,江苏省,苏州市,姑苏区,,unknown,
baidu,083503e1c301b95d990050c3,鹿栖(苏州石路店),广济南路288号金座大厦10楼10006室,江苏省,苏州市,姑苏区,18118132850,unknown,
baidu,c0cc0017bb7d1f3e213bf2ab,丽泰宾馆浴场,江苏省苏州市姑苏区西中市97号-2楼,江苏省,苏州市,姑苏区,(0512)67278869,unknown,
baidu,c2d41324a3ae6a369c09f78e,正雅理疗馆,苏州市姑苏区上塘街石路步行街,江苏省,苏州市,姑苏区,,unknown,
baidu,591d33188dbea9279ee32189,川清耳社,荟春南街65号,江苏省,苏州市,姑苏区,,unknown,
baidu,59ddef851e5eb26972210be5,山塘老街茶楼,广济路231号,江苏省,苏州市,姑苏区,,unknown,
baidu,9aa7b33efe6b91fa00ec01d6,醒AWAKE,荟春北街23号一层,江苏省,苏州市,姑苏区,18168711100,unknown,
baidu,56511c8a74cde2a3f423100b,盲人按摩(阊门山塘街店),西中市131号二楼（苏枕河对面）,江苏省,苏州市,姑苏区,,unknown,
baidu,762cab56f2ab3dfe77026966,耳闻养生,苏州市姑苏区上塘街111号苏州太阳广场F1,江苏省,苏州市,姑苏区,,unknown,
baidu,1fd34a289bbf94d8f4eafc50,春妍澜月汉服馆(山塘店),渡僧桥下塘6号,江苏省,苏州市,姑苏区,15298877168,unknown,
baidu,8fc4fed6f1ef01f3715e809e,宜佳网咖,苏州火车站北广场B1层地下商业街,江苏省,苏州市,姑苏区,,unknown,
baidu,60fea3e6738d2d95d13ce355,初见音乐酒吧,渡僧桥下塘21号,江苏省,苏州市,姑苏区,17506191779,unknown,
baidu,8c7cb4f8cfe1c4c840afe65a,风语湾3D影院式足道SPA(石路店),江苏省苏州市姑苏区阊胥路774号威尼斯大厦3楼(乘丽枫酒店电梯上3楼),江苏省,苏州市,姑苏区,,unknown,
baidu,7edb45278a6e7f3c40ab9a81,良相正骨推拿(石路店),南浩街681号二楼201、203（近南浩街神仙庙）,江苏省,苏州市,姑苏区,,unknown,
baidu,b89266a94619fc8eb13c812a,锋飞修脚(奥特莱斯石路店),苏州市姑苏区石路步行街8号奥特莱斯F1,江苏省,苏州市,姑苏区,,unknown,
baidu,8a956a0cb9717f2d4f3a5968,SUPER STAR STUDIO超级星声数字录音棚(石路店),南新路61号,江苏省,苏州市,姑苏区,13776001070,unknown,
baidu,6eb55d7e63cbb578c7f50d24,来客茂完美影城(全rgb三色激光影厅),桐泾北路218号来客茂时尚生活中心4层409号,江苏省,苏州市,姑苏区,(0512)65821272,unknown,
baidu,9c831a32a511d530ddee8ba9,富在知足养生馆,苏州市姑苏区新风巷石路步行街,江苏省,苏州市,姑苏区,,unknown,
baidu,2bd53b473ec5739ca0acc46d,双祥盲人推拿,江苏省苏州市姑苏区吴趋坊294号,江苏省,苏州市,姑苏区,,unknown,
baidu,4bd305906fbcc76e213bf22e,浪潮LIVE酒馆(石路店),石路永福桥浜15号（石路国际商城对面）,江苏省,苏州市,姑苏区,,unknown,
baidu,8d6a89a5a5883aefb05c6a65,艳艳养生足浴,苏州市姑苏区东中市大通花园东北侧约90米,江苏省,苏州市,姑苏区,,unknown,
baidu,1a0f6ae16bd1b78d3fe231ef,木棉茶室,江苏省苏州市姑苏区金阊街道桃花桥路廖家巷龙兴桥27-2号,江苏省,苏州市,姑苏区,15850020148,unknown,
baidu,d93d908de5aed80f1b11d5b8,艺圃茶室,苏州市姑苏区响月廊艺圃,江苏省,苏州市,姑苏区,,unknown,
baidu,f8c2e0bfd7ab5800c61b7514,敬贤茶吧,吴趋坊256号,江苏省,苏州市,姑苏区,,unknown,
baidu,ae34d2f8af17e73aeaf853f7,喜来乐养生馆,苏州市姑苏区吴趋坊大通花园西侧约40米,江苏省,苏州市,姑苏区,,unknown,
baidu,cc0f5133c93ed30fc41b753e,旅游饭店-康乐部,苏州市姑苏区留园路96号,江苏省,苏州市,姑苏区,,unknown,
baidu,5ebb7e5f1acc2078e01103ac,茶不莳语,江苏省苏州市姑苏区七里山塘景区,江苏省,苏州市,姑苏区,18200532479,unknown,
baidu,26c53f51901ae1393d9a5e89,桃花屋小酒馆(山塘街店),山塘街通关桥下塘55号,江苏省,苏州市,姑苏区,13706200425,unknown,
baidu,5508504d7684a3d2c7f02561,品味山塘评弹书苑(山塘街店),山塘街180号,江苏省,苏州市,姑苏区,13801548680,unknown,
baidu,189212ef079bd6370869d965,艺瑟汉服写真体验馆,金门路圆梦空间·福六3号楼2楼3201,江苏省,苏州市,姑苏区,"15850176185,18021640713",unknown,
baidu,bac62d8c976af195a11de99f,桃花屋小酒馆(观前街店),东中市27号姑苏IP创意产业园8号楼102室,江苏省,苏州市,姑苏区,15995479910,unknown,
baidu,aefc008c933b2aa1fb0cad85,靓肤阁美容养生(石路步行街店),石路时尚女性街新风巷72号,江苏省,苏州市,姑苏区,,unknown,
baidu,cd46e61497bd644100ec01aa,苏州雅轩酒店(石路山塘街店),山塘街29号,江苏省,苏州市,姑苏区,(0512)65338590,unknown,
baidu,5d7bf462a79c59fa16c90572,希岸酒店(苏州石路山塘街景区店),石路上塘街425号,江苏省,苏州市,姑苏区,(0512)87771777,unknown,
baidu,b3adfc89ef54badc2a02e1a6,背包十年青年旅舍(苏州山塘街店),江苏省苏州市姑苏区金阊街道苏州石路29号11楼(石路广场内),江苏省,苏州市,姑苏区,19962123111,unknown,
baidu,bfc808584c521c541894c6d2,维也纳国际酒店(苏州火车站北广场店),江苏省苏州市姑苏区苏站路1588号世界贸易中心A座,江苏省,苏州市,姑苏区,(0512)67508888,unknown,
baidu,a7c93206cfdffc872b02e1ad,苏州御隆居民宿(石路山塘街店),山塘街366号,江苏省,苏州市,姑苏区,15062553363,unknown,
baidu,62685dd47c5c1dbf6d20b9d8,丽呈别院(苏州山塘街园林文化店),西中市新马路阊门饭店（4号楼）,江苏省,苏州市,姑苏区,(0512)67777790,unknown,
baidu,285b8f1d00814f500d3dda65,铂怡电竞酒店(石路山塘街店),江苏省苏州市姑苏区上塘街59号,江苏省,苏州市,姑苏区,(0512)68239572,unknown,
baidu,b1b2bbc7890a6f48f623109a,如家商旅酒店(苏州观前街店),景德路73号,江苏省,苏州市,姑苏区,(0512)68019088,unknown,
baidu,3c5f540781313e070869d9ed,栖迟依城酒店(苏州山塘街店),阊门北码头69号,江苏省,苏州市,姑苏区,"(0512)67662828,17768005891",unknown,
baidu,5a46f2c2b8d8a51d6849f37b,野笙花园民宿,江苏省苏州市姑苏区尚义桥西92号,江苏省,苏州市,姑苏区,13962188837,unknown,
baidu,1db448e3445e4542167643db,如家酒店·neo(苏州阊门山塘街店),西中市127号,江苏省,苏州市,姑苏区,(0512)82205888,unknown,
baidu,a7439de31f9922a5a8059dbf,苏州山塘别苑,江苏省苏州市姑苏区石路山塘北浩弄23-2号2楼,江苏省,苏州市,姑苏区,,unknown,
baidu,92615e5c513437e6c9c3db7b,万信R酒店(苏州石路地铁站山塘街景区店),广济南路288号金座大厦2楼,江苏省,苏州市,姑苏区,(0512)88866887,unknown,
baidu,6532be9e67fbe563b320a8be,全季酒店(苏州观前街察院场地铁站店),江苏省苏州市姑苏区人民路1331号,江苏省,苏州市,姑苏区,(0512)68112666,unknown,
baidu,b155eca8cbb94e592e4733c7,所选酒店(苏州观前街七里山塘店),景德路461号,江苏省,苏州市,姑苏区,(0512)67301555,unknown,
baidu,63576b2e7f70973595f08c06,苏州火车站北广场博乐诗亚朵酒店,苏站路1398号A座6F，17F-27F,江苏省,苏州市,姑苏区,(0512)69168189,unknown,
baidu,affbe98434ecea601b11d5e7,汉庭优佳酒店(苏州观前街乐桥地铁站店),江苏省苏州市姑苏区人民路1264号,江苏省,苏州市,姑苏区,(0512)87779368,unknown,
baidu,a7c56ee0500842aaa2acc490,花筑·苏州山塘御苑精品酒店,江苏省苏州市姑苏区通贵桥下塘33号,江苏省,苏州市,姑苏区,"(0512)62969258,18550001188",unknown,
baidu,51d679ac98cf4ba79222e0d6,苏州沐心微酒店,山塘街石家弄4-1号,江苏省,苏州市,姑苏区,13584834334,unknown,
baidu,e3916fd6b7bee177e9f853d7,蘇舍·桨声民宿,虎丘街道山塘街渡僧桥下塘10号2室,江苏省,苏州市,姑苏区,18913121957,unknown,
baidu,cc788fde7cb3d69388fc0679,苏州华侨饭店(三香广场地铁站店),三香路178号,江苏省,苏州市,姑苏区,(0512)68261888,unknown,
baidu,d0a6a3ed1175c38af32d83f8,苏城澜庭酒店(苏州观前街平江路店),江苏省苏州市姑苏区人民路1607号,江苏省,苏州市,姑苏区,(0512)67702298,unknown,
baidu,64756bbddbd09abf2902e119,苏州AC酒店,江苏省苏州市姑苏区人民路1585号,江苏省,苏州市,姑苏区,(0512)69161666,unknown,
baidu,7a53cb92029e40c81b94c6ec,苏州观前街漫心酒店,江苏省苏州市姑苏区大井巷9号,江苏省,苏州市,姑苏区,"0512-69851666,18118475229",unknown,
baidu,628042846593efc6badf8f65,壹·ONE酒店(苏州观前步行街平江路店),因果巷49号,江苏省,苏州市,姑苏区,0512-65290199,unknown,
baidu,3c52fb862de9c59e0a1cc746,苏州茂苑绮罗·璞拾公馆,山塘街北码头,江苏省,苏州市,姑苏区,(0512)67950777,unknown,
baidu,fc7a55a4a81fe96df8dc85c2,安渡酒店(苏州观前街七里山塘店),景德路368号,江苏省,苏州市,姑苏区,"(0512)65247388,(0512)68282111",unknown,
baidu,06703d0a2c75aca28c1a8952,蘇舍·余荫民宿,虎丘街道山塘街殳家墙门12-2号,江苏省,苏州市,姑苏区,18020211696,unknown,
baidu,8d721c5a2488060ce81e97f4,山塘月客栈(前小邾弄分店),江苏省苏州市姑苏区前小邾弄11号,江苏省,苏州市,姑苏区,,unknown,
baidu,06450fb8db4146d5f60e77d6,一寻民宿,江苏省苏州市姑苏区丹阳码头8号,江苏省,苏州市,姑苏区,,unknown,
baidu,7baee31d298608e0ae31e51b,苏州声声曼民宿,江苏省苏州市姑苏区阊门内下塘街305号,江苏省,苏州市,姑苏区,18112559556,unknown,
baidu,981e3dab2910a027cae33c1d,苏州别苑客栈,江苏省苏州市姑苏区潭子里23-2号,江苏省,苏州市,姑苏区,,unknown,
baidu,e528bec7984062ebd12dd65f,民国五间房客栈(苏州阊门横街店),苏州市姑苏区宝城桥街苏州市第四中学南侧约120米,江苏省,苏州市,姑苏区,15370050172,unknown,
baidu,d4e5a26692d2abae29fc48d0,院子公寓(半边街分店),半边街畔山塘民宿贵门街15号,江苏省,苏州市,姑苏区,,unknown,
baidu,3faa88a7b8db0bdd24d2bb90,苏州草庐青年旅舍,桃花桥路2弄8号,江苏省,苏州市,姑苏区,15250419883,unknown,
baidu,1a2646a4cde6f3dbb6147f03,伊鹿象前公寓(前小邾弄分店),苏州市姑苏区前小邾弄花间堂山塘人家西侧约90米,江苏省,苏州市,姑苏区,,unknown,
baidu,ee0119f8c738880cddee8bc4,水星记公寓(山塘街分店),江苏省苏州市姑苏区虎丘街道山塘街242号,江苏省,苏州市,姑苏区,,unknown,
baidu,05f8d5b568989ac1260bd0e2,知家栈,江苏省苏州市姑苏区虎丘街道山塘街334号,江苏省,苏州市,姑苏区,,unknown,
baidu,33310ed6c5ca5bed2eb96d7a,房东晓亿1号客栈(山塘街分店),山塘街潭子里21号楼潭子里-21号楼,江苏省,苏州市,姑苏区,,unknown,
baidu,5e7850e290682985b35c6ac9,圆宝公寓(北浩弄分店),苏州市北浩弄柏玛头饭店,江苏省,苏州市,姑苏区,,unknown,
baidu,83f6e223f065c245b05c6a41,长城大厦,苏州市姑苏区广济路233号,江苏省,苏州市,姑苏区,(0512)67039933,unknown,
baidu,c04148fffccee3e8715e8047,六时客栈(北浩弄分店),北浩弄苏州70后大爷客栈渡僧桥下塘-61号,江苏省,苏州市,姑苏区,,unknown,
baidu,3656d414dc9a90efcac3dbfb,小丁10套房源公寓(上塘街分店),上塘街渡僧桥下塘,江苏省,苏州市,姑苏区,,unknown,
baidu,176cdd22b88bcac588b98817,隐塘居,苏州市上塘街江苏省苏州市金阊实验小学校东南侧约30米,江苏省,苏州市,姑苏区,,unknown,
baidu,ff148eef834845fe2fb96dd4,石家弄,苏州市姑苏区广济路218号七里山塘景区内,江苏省,苏州市,姑苏区,,unknown,
baidu,d305db1f6db7b643932ca379,广济公寓,江苏省苏州市姑苏区冰厂街8号,江苏省,苏州市,姑苏区,,unknown,
baidu,6cfc024124eebd427ec876bd,玖逢hostel,江苏省苏州市姑苏区官宰弄33号,江苏省,苏州市,姑苏区,18260130328,unknown,
baidu,cdef4edf37d9d35728d7ab56,苏州苏哥利酒店,乔司空巷27-33号观前粤海广场,江苏省,苏州市,姑苏区,"(0512)67770777,17761890781",unknown,
baidu,9ebb4de6efa7c0cdcbc3dbe2,苏州闲话一句客栈,苏州姑苏区渡僧桥下塘60号楼,江苏省,苏州市,姑苏区,,unknown,
baidu,fc596b079a2878b2a1d230a2,漫亭酒店(苏州山塘街店)-大堂,江苏省苏州市姑苏区内下塘外五泾弄6号阊门饭店内5号楼,江苏省,苏州市,姑苏区,,unknown,
baidu,63f62211f272c4300f0a70b5,丽呈别院(苏州山塘街店)-大堂,江苏省苏州市姑苏区西中市新马路阊门饭店(4号楼),江苏省,苏州市,姑苏区,(0512)67777790,unknown,
baidu,fcdb64076e119ea98bb98880,苏骏车业罗佳汽车维修部(优质门店),桃花桥路10号,江苏省,苏州市,姑苏区,"13013795999,13052895999,13115112751",unknown,
baidu,6496511229fbcd9140e192b3,车工匠一站式汽车服务连锁·3M(火车站店),苏站路1599号好百年商业广场地下停车场3号地库,江苏省,苏州市,姑苏区,15862523588,unknown,
baidu,bd1cb7c4ff4fdfd422f0173c,京盛汽车服务(百脑汇科技中心店),广济南路258号(石路地铁站9号口旁)百脑汇科技中心B3层,江苏省,苏州市,姑苏区,,unknown,
baidu,ffd3bbea6276879e0482c25d,苏州中凯汽车维修有限公司,江苏省苏州市姑苏区玻纤路295号,江苏省,苏州市,姑苏区,4001626998,unknown,
baidu,7fd72311bdd0eb9f5cbe86dd,苏州市公共交通公司修理厂,江苏省苏州市姑苏区桐泾北路418号,江苏省,苏州市,姑苏区,,unknown,
baidu,c1af93da200eb13914c8f6dc,汽车快修,苏州市姑苏区桃花坞大街-240号东侧约90米,江苏省,苏州市,姑苏区,,unknown,
baidu,71df33bfc60312ad49fd3f60,桭德养车,苏州世界贸易中心（火车站北广场正对面）,江苏省,苏州市,姑苏区,(0512)68855222,unknown,
baidu,e65fe72080d6187193114c4d,喜车XICHE,干将西路369-383号（魔匠咖啡隔壁）,江苏省,苏州市,姑苏区,"(0512)68850779,13913149888",unknown,
baidu,02e27aaac28810c2ab0dd8c4,大江汽车服务有限公司(汽车北站店),江苏省苏州市姑苏区西汇路29号,江苏省,苏州市,姑苏区,,unknown,
baidu,977a7cac432cd6a2abf7295b,蜂鸟豹汽车超市(婚纱国际商贸城店),苏站路1398号喜临门商业广场东门,江苏省,苏州市,姑苏区,18018103088,unknown,
baidu,f3e2ae31297b0c4d5a3ac89e,苏州驰然新能源汽车销售服务有限公司,苏州市姑苏区苏站路苏州好百年国际商业广场(苏站路店),江苏省,苏州市,姑苏区,,unknown,
baidu,17b45f3b8cb1c11281288ab7,一嗨租车(苏州站),苏州市姑苏区苏站路27号,江苏省,苏州市,姑苏区,18106131055,unknown,
baidu,4c9771180f94872fadb22a15,闪电虎租车(山塘街店),苏州市姑苏区女人街C街荟春北街6号,江苏省,苏州市,姑苏区,,unknown,
baidu,63cabb58197ee98c9f09f76b,比亚迪汽车海洋网(苏州盛世新景西汇店),江苏省苏州市姑苏区西汇路29号,江苏省,苏州市,姑苏区,(0512)65780666,unknown,
baidu,93b13b33478a68dc7369d362,亿泽汽车服务,江乾路58号,江苏省,苏州市,姑苏区,16651177685,unknown,
baidu,e8061af75d0db89715b54b7a,英明达装潢装饰,桃花坞街道吴趋坊264号,江苏省,苏州市,姑苏区,18915535358,unknown,
baidu,87ab4e93951408bc7702698c,虎麓汽车清洗服务部,江苏省苏州市姑苏区虎丘路328号,江苏省,苏州市,姑苏区,130-83013625,unknown,
baidu,ff9978eb881f74e4220262c9,洪宇汽车维修中心,桐泾北路511号,江苏省,苏州市,姑苏区,13861331809,unknown,
baidu,dccdcf6edd98459d7ab55c2b,捷驰汽车维修服务,平川路锦芳街苏锦一村小区东大门口停车场,江苏省,苏州市,姑苏区,"(0512)67210012,18014005753",unknown,
baidu,57b1229de648a7831b11d58d,车艺佳汽车一站式服务中心(银都广场店),城北东路1088号银都商务广场5幢113室115室,江苏省,苏州市,姑苏区,(0512)67517991,unknown,
baidu,3f90035fa49fb0f71b11d5b5,苏州洪一族汽车代驾服务有限公司苏州洪一族汽车代,江苏省苏州市姑苏区金阊街道沿田街8号,江苏省,苏州市,姑苏区,,unknown,
baidu,50c3e954bd2cf117715e8005,森宇汽车苏州分公司,江苏省苏州市姑苏区苏站路9号楼105森宇汽车,江苏省,苏州市,姑苏区,,unknown,
baidu,a20e226114a89496cf06a494,途虎养车,石曲街99号万通商务广场115,江苏省,苏州市,姑苏区,(0512)67774434,unknown,
baidu,9db0de84c66b1480e5e965d7,壳牌喜力(苏骏车业),江苏省苏州市姑苏区桃花桥弄10号北三间,江苏省,苏州市,姑苏区,,unknown,
baidu,0d661df3f484858caeb22a57,好佳邻汽车服务中心,江苏省苏州市姑苏区玻纤路3号,江苏省,苏州市,姑苏区,13862005811,unknown,
baidu,66e65db068c05e0a88fc060b,苏州市中信轿车维修有限公司,枫桥路605号,江苏省,苏州市,姑苏区,"15370345442,18913519968",unknown,
baidu,435f41a33c11b3931fe99979,苏州市汽车出租有限公司,江苏省苏州市姑苏区留园街道仁安街1号,江苏省,苏州市,姑苏区,,unknown,
baidu,2c984202d9145dd38605bfa8,爱益家汽修搭电补胎换电瓶救援,江苏省苏州市姑苏区清塘路333号虎阜花园西区85幢110室,江苏省,苏州市,姑苏区,18912986051,unknown,
baidu,804b9fe762467e9a85420ee7,飓风汽车修理服务有限公司,江苏省苏州市姑苏区枫桥路605号,江苏省,苏州市,姑苏区,13915555113,unknown,
baidu,dd1a6dbcd77c339e471a3276,一嗨租车(石路店),江苏省苏州市姑苏区广济南路268号,江苏省,苏州市,姑苏区,,unknown,
baidu,868908bbe4c6d5984c776e5b,姑苏区名车方程式汽车美容装饰部,桐泾北路11号西通道,江苏省,苏州市,姑苏区,18762869452,unknown,
baidu,b85a1b5d7c757d574f6d46b5,拓博养车(世贸店),苏州世界贸易中心(火车站北广场正对面),江苏省,苏州市,姑苏区,,unknown,
baidu,dd9dfe5ceeb104307bf79695,一嗨租车(寒山寺店),江苏省苏州市姑苏区和园路197号102室,江苏省,苏州市,姑苏区,,unknown,
baidu,611a43a357ef86486849f370,苏州凌盛汽车修理有限公司,江苏省苏州市姑苏区枫桥路605号,江苏省,苏州市,姑苏区,13915570434,unknown,
baidu,2a71c3c82482bf9b4207c1f8,苏州钰添富汽车销售服务有限公司,苏州市干将西路515号(佳福大厦)202室,江苏省,苏州市,姑苏区,,unknown,
baidu,f9381a2121ed7b584e2fdf8b,闪电虎租车(火车站北广场店),江苏省苏州市姑苏区苏站路8号,江苏省,苏州市,姑苏区,17625366653,unknown,
baidu,675f527c664d3255f6c59c63,闪电虎租车(景德路雅迪店),江苏省苏州市姑苏区景德路110号,江苏省,苏州市,姑苏区,15824388041,unknown,
baidu,084e0348e6a68e124251c073,车援汽修厂补胎搭电道路救援,江苏省苏州市姑苏区石曲街万通商务广场107室,江苏省,苏州市,姑苏区,"15862376139,15995715562,18351186315",unknown,
baidu,5011172590e1f0a201294feb,喜洗乐自助洗车,江苏省苏州市姑苏区平江街道人民路1536号,江苏省,苏州市,姑苏区,,unknown,
baidu,92a548a4ebf37efb0f0e6bd8,蕈味汽车维修,江苏省苏州市姑苏区西园弄18号,江苏省,苏州市,姑苏区,13913145189,unknown,
baidu,eea9ef537315c98e14b54b6e,轮胎保养维修车品,苏州市姑苏区江星路他她公馆,江苏省,苏州市,姑苏区,,unknown,
baidu,53d3cfc042be18dc3a04b13e,赤菟·租车,江苏省苏州市姑苏区G312(苏城大道),江苏省,苏州市,姑苏区,15370375678,unknown,
baidu,1b5f161283dfb12ce856fabf,LYNK&CO(人民路店),苏州市姑苏区人民路第一百货北侧约100米,江苏省,苏州市,姑苏区,,unknown,
baidu,72e84e7e1932b8d7902ca3d7,苏鲲汽车(人民路店),江苏省苏州市姑苏区人民路1421号,江苏省,苏州市,姑苏区,,unknown,
baidu,8d2b47f38b9c598e4e554747,精检细修,苏州市姑苏区半爿营街当代万国府ΜΟΜΛ东南侧约70米,江苏省,苏州市,姑苏区,,unknown,
baidu,725a95112609371914948e3e,驰车堂汽修服务部(翠园雅筑店),平川路1288号1幢113室,江苏省,苏州市,姑苏区,13818922638,unknown,
baidu,b17d9c5b268e7952250bd068,钟表修理,江苏省苏州市姑苏区三香路79号,江苏省,苏州市,姑苏区,,unknown,
baidu,b428450472f5b446c256ac5b,拉卡拉POS机官方授权直营店,江苏省苏州市姑苏区平江街道人民路1411,江苏省,苏州市,姑苏区,,unknown,
baidu,c331efc68d33f1a55abbbc14,怪兽车坊,广济南路288号金座大厦地下停车场负三层,江苏省,苏州市,姑苏区,17037845999,unknown,
baidu,d92f1f6852b464b4db131868,苏州钱万里桥出租车服务区,苏州市姑苏区冰厂街广济公寓东北侧约70米,江苏省,苏州市,姑苏区,,unknown,
baidu,73acb3fbbc3138992fe67bf0,闪电虎租车(因果巷店),江苏省苏州市姑苏区因果巷49号,江苏省,苏州市,姑苏区,17651210888,unknown,
baidu,649954f3430c16f113293570,神州租车(苏州火车站服务点),江苏省苏州市姑苏区苏站路与人民路交叉路口西南角(苏站停车场内),江苏省,苏州市,姑苏区,15312173672,unknown,
baidu,9d67a93f68cb19a3fda778ea,苏州苏寅机动车检测,苏州市姑苏区虎丘路489号A栋一楼、B栋,江苏省,苏州市,姑苏区,13732638808,unknown,
baidu,0735f7cc6a3bb5f44151c0f9,首汽瑞卡租车(苏州火车站店),江苏省苏州市姑苏区火车站(苏州站)北广场地下间空负二层B2-5室,江苏省,苏州市,姑苏区,,unknown,
baidu,1109127a4723113a0869d95a,苏州市立医院北区,广济路242号,江苏省,苏州市,姑苏区,(0512)62363800,unknown,
baidu,c0ff1d0221f1f092cac3db8a,珍泽堂,江苏省苏州市姑苏区金阊街道北码头75号,江苏省,苏州市,姑苏区,,unknown,
baidu,82d6f75c6895081eadb22a61,苏州市立医院北区-北楼,立医院(北区)1号楼,江苏省,苏州市,姑苏区,,unknown,
baidu,63b3b35194bc52a4250bd07f,虎丘街道桐星社区卫生服务中心,江苏省苏州市姑苏区山塘街302号,江苏省,苏州市,姑苏区,(0512)80815627,unknown,
baidu,c3d922f0166974272efaa7f5,苏州市康复医院,江苏省苏州市姑苏区广济路286号,江苏省,苏州市,姑苏区,(0512)62365800,unknown,
baidu,77546ff91c9dbcc91811d560,苏州市立医院北区病案室,江苏省苏州市姑苏区苏州市立医院(北区),江苏省,苏州市,姑苏区,,unknown,
baidu,cc0849a0430acb5094031970,固生堂(桃花坞中医门诊部),江苏省苏州市姑苏区金阊街道阊门西街94号,江苏省,苏州市,姑苏区,(0512)67270981,unknown,
baidu,34f68ab0b2a7a9138f55ec55,苏州来恩骨伤科门诊部,江苏省苏州市姑苏区留园路218号,江苏省,苏州市,姑苏区,(0512)65322012,unknown,
baidu,ee2e34e6b0fe8d9d4d776efa,西中市诊所,江苏省苏州市姑苏区西中市117号,江苏省,苏州市,姑苏区,,unknown,
baidu,e7ffac22272ecc41bda240e3,石路献血屋,苏州市姑苏区石路太阳广场淮阳河东侧(石路国际商场西北面),江苏省,苏州市,姑苏区,(0512)65515829,unknown,
baidu,adb79edeed4d7d4e97031945,阊门社区卫生服务中心石幢社区家庭医生工作室,江苏省苏州市姑苏区前新街桃坞中学旧址,江苏省,苏州市,姑苏区,,unknown,
baidu,e47cf47ab4202c595a3ac89b,固生堂中医(石路诊所),江苏省苏州市姑苏区阊胥路611号,江苏省,苏州市,姑苏区,(0512)67662422,unknown,
baidu,654e6d70779e57a83517dc84,苏州姑苏春语医疗美容诊所有限公司,江苏省苏州市姑苏区苏站路1599号好百年商业广场4号楼5楼509室,江苏省,苏州市,姑苏区,,unknown,
baidu,66b9b5ec495670ddbbbd6309,苏州卫康医疗美容,江苏省苏州市姑苏区干将西路637号1~2号线广济南路地铁站1号口旁,江苏省,苏州市,姑苏区,(0512)68667777,unknown,
baidu,2b4cb7891089d0269d95de3d,石幢社区健康一条街,苏州市姑苏区宝城桥弄苏州市第四中学西北侧,江苏省,苏州市,姑苏区,,unknown,
baidu,697fa1f46e5eb30489fc06ab,苏州市立医院北区-健康管理中心,立医院(北区)8号楼,江苏省,苏州市,姑苏区,,unknown,
baidu,1164ab1b6a26dcec7702697d,苏州大学附属儿童医院(景德路院区),江苏省苏州市姑苏区景德路303号,江苏省,苏州市,姑苏区,(0512)80695102,unknown,
baidu,f7e4bd9d3f5615402fb17e0e,苏州市中医医院(景德路门诊部),江苏省苏州市姑苏区景德路330号,江苏省,苏州市,姑苏区,(0512)67872024,unknown,
baidu,e1838e7a358b1b58c42ba18d,苏州大学附属儿童医院(景德路院区)-急诊,景德路303号,江苏省,苏州市,姑苏区,,unknown,
baidu,d4d0bb17284ce9cf4afd3fe1,雍禾植发全国连锁(苏州分院),江苏省苏州市姑苏区世界贸易中心B座2楼,江苏省,苏州市,姑苏区,19333734665,unknown,
baidu,fe3aa1d6e217ef55b1077d07,苏州口腔医院(观前街院区),江苏省苏州市姑苏区人民路1505号,江苏省,苏州市,姑苏区,"(0512)67275765,(0512)67770696",unknown,
baidu,5c036d2c4562cf3632870ad2,李良济国医馆(姑苏店),江苏省苏州市广济北路388号(汉庭酒店旁),江苏省,苏州市,姑苏区,(0512)69168388,unknown,
baidu,d305db1fa78c0027922ca3a0,苏州平江医院,苏州市姑苏区平川路1166号,江苏省,苏州市,姑苏区,(0512)33331166,unknown,
baidu,d7fd2ad3810526540bccddde,苏州市姑苏区留园街道社区卫生服务中心,苏州市姑苏区虎丘路210号,江苏省,苏州市,姑苏区,(0512)65837139,unknown,
baidu,249471a40021da175e17c39b,苏州口腔医院(苏站路总院),苏州市姑苏区苏站路1366号,江苏省,苏州市,姑苏区,"(0512)67774930,(0512)69290908",unknown,
baidu,05dd7d5f30644718ad080f4e,雷允上沐泰山老药铺(石路店),江苏省苏州市姑苏区阊胥路801号,江苏省,苏州市,姑苏区,(0512)65334449,unknown,
baidu,358f339f9ad492914afd3ff0,苏州天易西园护理院(瑞园),江苏省苏州市姑苏区西园路171号,江苏省,苏州市,姑苏区,4001932626,unknown,
baidu,bd3a8296d183cd99a11de941,金门中医诊所,江苏省苏州市姑苏区景德路359号,江苏省,苏州市,姑苏区,(0512)65159040,unknown,
baidu,dffd631c2f27c0bc38221c70,针灸诊所,江苏省苏州市姑苏区平四路83号平江新城银都广场5幢122号,江苏省,苏州市,姑苏区,,unknown,
baidu,1b42e8874a26d10ef72310d9,医肤堂皮肤病研究所,江苏省苏州市姑苏区西中市142号,江苏省,苏州市,姑苏区,,unknown,
baidu,6deee308c06bdf1428fc48bb,苏州市立医院(东区),苏州市姑苏区白塔西路16号,江苏省,苏州市,姑苏区,(0512)62364155,unknown,
baidu,531d54fcaa9cb570b6f42f69,苏州金阊医院-门诊部,苏州市姑苏区石路老街坊远东大厦西侧约40米,江苏省,苏州市,姑苏区,,unknown,
baidu,30a9a87049735cab7dc876bd,北塔诊所,平江街道皮市街敬文里3-102号(西北街与皮市街交叉口北口),江苏省,苏州市,姑苏区,,unknown,
baidu,eeb8112f50523b9e901fc91b,臻晟源诊所,江苏省苏州市姑苏区苏站路1862号,江苏省,苏州市,姑苏区,,unknown,
baidu,76bb1bf1b77028924c3a5998,姑苏区金阊街道彩香一村社区卫生服务中心,苏州市姑苏区彩香路彩香新村-二区南侧约30米,江苏省,苏州市,姑苏区,,unknown,
baidu,9f4a790637e6b0796fc02c15,苏州星健康复医院,江苏省苏州市姑苏区总官堂路1188号2号幢,江苏省,苏州市,姑苏区,(0512)80190606,unknown,
baidu,fcd719dc380854a4d13ce3f3,苏州大学附属儿童医院(景德路院区)-门诊,景德路303号苏州大学附属儿童医院(景德路院区),江苏省,苏州市,姑苏区,,unknown,
baidu,68309e6dc511b0d86fc02cbf,姑苏区石路街道朱家庄社区卫生服务站,江苏省苏州市姑苏区金门路152号,江苏省,苏州市,姑苏区,(0512)80815562,unknown,
baidu,71e6b1518dc423de21f017c8,清禾堂药房(清塘店),江苏省苏州市姑苏区清塘路28号,江苏省,苏州市,姑苏区,15051550108,unknown,
baidu,a1898122551d595bd5b74e88,留园-医务室,苏州市姑苏区阊门外留园路338号留园内,江苏省,苏州市,姑苏区,,unknown,
baidu,ca9f467dbfafbce64e2fdf46,苏州金阊医院-碎石科,江苏省苏州市姑苏区爱河桥路9号,江苏省,苏州市,姑苏区,13771757169,unknown,
baidu,017e881e43370a8a9fec2b17,雷允上(西中市店),江苏省苏州市姑苏区西中市134号,江苏省,苏州市,姑苏区,(0512)67298931,unknown,
baidu,329f81b3c09408e80782c2cd,慧智康健康管理中心,江苏省苏州市姑苏区景德路422号,江苏省,苏州市,姑苏区,18550165068,unknown,
baidu,c03a8ca1168391f20bf5eb88,海王星辰健康药房(西中市店),苏州市姑苏区西中市66号,江苏省,苏州市,姑苏区,(0512)57872290,unknown,
baidu,78f9857f94b02ac49e82ea53,维顺药房(留园路店),江苏省苏州市姑苏区留园路1-15号,江苏省,苏州市,姑苏区,13073318278,unknown,
baidu,8ed8834f7618a59bcf06a4c8,天和药铺,苏州市姑苏区山塘街177号七里山塘景区,江苏省,苏州市,姑苏区,,unknown,
baidu,14b06b835e734493d3ff23b7,九州大药房(清塘店),江苏省苏州市姑苏区泾浜路39号店面-夹层号店面夹层,江苏省,苏州市,姑苏区,(0512)69389187,unknown,
baidu,0a2207e712bf4eeb81288a45,健生源医药连锁(石路店),江苏省苏州市姑苏区阊胥路699号文化用品大厦一楼,江苏省,苏州市,姑苏区,19951305057,unknown,
baidu,20f46cf6443cc5643262124f,同仁堂健康(苏州石路国际商城店),苏州市姑苏区石路18号石路国际商城B1,江苏省,苏州市,姑苏区,13862002765,unknown,
baidu,a0943b489e0c8c439cf7792a,苏州大学附属儿童医院康复科(景德路院区),苏州市姑苏区景德路303号急诊3楼,江苏省,苏州市,姑苏区,,unknown,
baidu,fb9b4d28962beae74d5547a3,苏州大学附属儿童医院(景德路院区)-发热门诊,景德路303号苏州大学附属儿童医院(景德路院区),江苏省,苏州市,姑苏区,(0512)80695419,unknown,
baidu,88f90d509dc92372a8175a5a,苏州姑苏磁恩堂中医诊所,苏州市姑苏区平四路平门楼宾馆,江苏省,苏州市,姑苏区,,unknown,
baidu,9f10e6fa1f70ac8f441a32a3,常本草呼吸健康科技馆,苏州市姑苏区名人街南浩花园南侧,江苏省,苏州市,姑苏区,,unknown,
baidu,729c2119d6fb440428b97c67,AED(留园),留园路338号留园,江苏省,苏州市,姑苏区,,unknown,
baidu,9129b93ae1a786bdf822132f,城中休养所,苏州市姑苏区中街路42号,江苏省,苏州市,姑苏区,,unknown,
baidu,3347cd90f872eea10e3dda78,苏州大学附属儿童医院(景德路院区)-仁爱楼,江苏省苏州市姑苏区景德路303号,江苏省,苏州市,姑苏区,,unknown,
baidu,4435ddeefdc60ce683a12e5a,苏州赛诺秀医疗器械有限公司,江苏省苏州市姑苏区阊胥路575号远东大厦5楼,江苏省,苏州市,姑苏区,(0512)65517051,unknown,
baidu,e5468a5e250759f9734b87df,干眼SPA(石路天虹CC MALL店),江苏省苏州市姑苏区广济南路219号天虹CC MALLF9,江苏省,苏州市,姑苏区,,unknown,
baidu,f5afc14f93b4d25fd13ce3ed,生幼堂,江苏省苏州市姑苏区廖家巷17号,江苏省,苏州市,姑苏区,,unknown,
baidu,f47ef8cbd36818fc54bfffba,意龙健康管理服务中心,江苏省苏州市姑苏区留园路41号,江苏省,苏州市,姑苏区,(0512)65567944,unknown,
baidu,febd4239b194ee90a21de97c,粤海大药房(粤海商场店),江苏省苏州市姑苏区平江街道施相公弄38-52号,江苏省,苏州市,姑苏区,(0512)67281129,unknown,
baidu,5e0814df52d7797a6fc02c80,苏州大学附属儿童医院(景德路院区)-感染性疾病科,景德路303号苏州大学附属儿童医院(景德路院区),江苏省,苏州市,姑苏区,,unknown,
baidu,df181899f9febb7ac51b75ba,德济堂药房(苏站路店),江苏省苏州市姑苏区苏站路1803号新天地家园南区,江苏省,苏州市,姑苏区,18962529601,unknown,
baidu,2f80fda09575fad3b426559c,九州大药房(人民路店),江苏省苏州市姑苏区人民路1939号,江苏省,苏州市,姑苏区,(0512)67515068,unknown,
baidu,3903ceb519562e3009b93af8,健生源医药连锁(观前街粤海店),江苏省苏州市姑苏区乔司空巷27-33号平安坊18-38号,江苏省,苏州市,姑苏区,19951305059,unknown,
baidu,4c3c7ecc2d7c8785ed74f83b,采芝灵药房24小时营业(吴趋坊店),江苏省苏州市姑苏区吴趋坊43号,江苏省,苏州市,姑苏区,(0512)67873511,unknown,
baidu,37adc1ed18fb0f13018972c0,海王星辰健康药房(朱家庄新村店),江苏省苏州市姑苏区金门路152号,江苏省,苏州市,姑苏区,4006626365,unknown,
baidu,d96b9b1aa0fb8a604207c194,长寿堂药房,苏州市姑苏区苏站路新天地家园-南区北侧,江苏省,苏州市,姑苏区,18913599769,unknown,
baidu,c2213268734fdf6c5fbe8646,故明郝将军卖药处,苏州市姑苏区枫桥路姑苏人家东南侧约30米,江苏省,苏州市,姑苏区,,unknown,
baidu,7f8e951b66c180e8ef74f878,东云堂,苏州市姑苏区桃花坞大街百时快捷酒店(苏州火车站北寺塔店)西南侧约140米,江苏省,苏州市,姑苏区,,unknown,
baidu,6fddd7fd778613663417dca7,葆宁医药商店,江苏省苏州市姑苏区金门路502号,江苏省,苏州市,姑苏区,(0512)67230950,unknown,
baidu,f4e159da93473256cc06a485,采艺灵药房(虎阜花园店),苏州市姑苏区塔影路虎阜花园东区-南区,江苏省,苏州市,姑苏区,13812687795,unknown,
baidu,b5f87e64683f32dfc27da22d,顺芳保健,江苏省苏州市姑苏区清塘路虎阜花园东区十幢105室,江苏省,苏州市,姑苏区,18151076980,unknown,
baidu,927c66f483903969fbf0cb03,七里山塘景区-玉涵堂,江苏省苏州市姑苏区阊门外广济路东杨安浜16号,江苏省,苏州市,姑苏区,(0512)65314467,unknown,
baidu,3078f8b00d65096408ccdd41,英博口腔(苏州姑苏店),江苏省苏州市姑苏区人民路3118号,江苏省,苏州市,姑苏区,19951290275,unknown,
baidu,ebbf8e3a82f7a3a9df1e52c6,建新口腔诊所,江苏省苏州市姑苏区中街路190号,江苏省,苏州市,姑苏区,15195698323,unknown,
baidu,4766f085d12a02903f9a5e3f,晓平口腔诊所,江苏省苏州市姑苏区景德路254号,江苏省,苏州市,姑苏区,,unknown,
baidu,e5033dd9b4642787d72ce2e4,听觉有道助听器(苏州景德路店),江苏省苏州市姑苏区景德路250号,江苏省,苏州市,姑苏区,"(0512)65811198,18114514559",unknown,
baidu,064b9a7186dee4793be4a6c0,枫杨书院,江苏省苏州市姑苏区北浩弄68号(山塘街地铁站4号口步行230米),江苏省,苏州市,姑苏区,(0512)62363880,unknown,
baidu,20e5f6557f43efa7dc1e52d2,精正跆拳道武术俱乐部(清塘店),江苏省苏州市姑苏区清塘路36号,江苏省,苏州市,姑苏区,13812607319,unknown,
baidu,c8a76063c903d3afede4a576,小银星艺术团(石路中心),苏州市姑苏区上塘街111号苏州太阳广场商场一楼（星巴克斜对面）,江苏省,苏州市,姑苏区,"(0512)65167562,17326169036",unknown,
baidu,12c9a3ae2822ec717069d382,苏州市财会发展中心,苏州市姑苏区西中市璞拾公馆东南侧约150米,江苏省,苏州市,姑苏区,"(0512)82205999,(0512)87676976",unknown,
baidu,f63ed143da24c84a38221cbc,正社诗书艺苑,苏州市姑苏区山塘街七里山塘景区,江苏省,苏州市,姑苏区,,unknown,
baidu,74d7e74734765c870869d970,苏州思学堂中高考复读学校,江苏省苏州市姑苏区周王庙弄24号,江苏省,苏州市,姑苏区,"(0512)67275483,18913152857",unknown,
baidu,64ee286132d99457c6effb97,金乐梦儿童培训(田英章书院金阊校区),江苏省苏州市姑苏区留园路7号(石路地铁站1号口步行380米),江苏省,苏州市,姑苏区,"18120057837,18913126760",unknown,
baidu,744f6764c353d7152cb96d32,苏州创元教育培训中心,江苏省苏州市姑苏区景德路545号,江苏省,苏州市,姑苏区,(0512)65202249,unknown,
baidu,1ec020e5156e0d062902e178,书房养心,山塘街207号,江苏省,苏州市,姑苏区,,unknown,
baidu,7191cb31d4182059441a329f,学之韵艺术培训中心,江苏省苏州市姑苏区清塘路161号清塘新村门口第一家门面,江苏省,苏州市,姑苏区,,unknown,
baidu,5cc6d3574a2d38441ef74dee,大颂画室,江苏省苏州市姑苏区广济南路199号全景大厦写字楼B座3楼,江苏省,苏州市,姑苏区,17506169116,unknown,
baidu,471e19a39a77cd05ca1b953d,吴门书道馆,江苏省苏州市姑苏区下塘街256号,江苏省,苏州市,姑苏区,(0512)67576162,unknown,
baidu,2bb3797f003c7e63cf06a41a,书中悦教育培训中心(苏州太阳广场店),苏州市姑苏区上塘街111号苏州太阳广场F2,江苏省,苏州市,姑苏区,,unknown,
baidu,56e88cba6f28a764a4c7560b,苏州市桃坞高级中学,江苏省苏州市姑苏区宝城桥街8号,江苏省,苏州市,姑苏区,(0512)67273118,unknown,
baidu,b1c556e8a9cba50cb4265573,苏州市财会教育中心,江苏省苏州市姑苏区西中市127号,江苏省,苏州市,姑苏区,,unknown,
baidu,18165334af927c04fb2d6173,苏州工艺美术研究所,江苏省苏州市姑苏区中街路154号2楼,江苏省,苏州市,姑苏区,,unknown,
baidu,9ee392b8fda0fd3fbbbd6368,苏州市电子信息技师学院(南校区),江苏省苏州市姑苏区仁安街8号,江苏省,苏州市,姑苏区,(0512)65561801,unknown,
baidu,a264cc6c4e498562fe0eb0d4,苏州苏钢技工学校,江苏省苏州市姑苏区木耳场6-1号(市立医院北区对面),江苏省,苏州市,姑苏区,,unknown,
baidu,567f158f9e016fe88433040f,六艺塾日本留学日语培训,江苏省苏州市姑苏区景德路367号慈济置业大院内大爱楼4楼,江苏省,苏州市,姑苏区,"18361048661,19962121198",unknown,
baidu,8d2289fb8a0a4a20c6effb61,苏州新时代文化经济研究中心,江苏省苏州市姑苏区广济路229号,江苏省,苏州市,姑苏区,,unknown,
baidu,d8873484f4b29d226140a95c,乐林琴苑古琴馆(市区店),江苏省苏州市姑苏区爱河桥路31-3号苏州国展中心宝座8层802室,江苏省,苏州市,姑苏区,18862111422,unknown,
baidu,0733306a872d271583a00cad,苏州华正策培训中心,江苏省苏州市姑苏区苏站路1398号苏州婚纱国际商贸城b区5楼,江苏省,苏州市,姑苏区,,unknown,
baidu,8dbeaf2c1d6900da40afe6df,苏州市桃坞中心小学校,江苏省苏州市姑苏区石幢弄34号,江苏省,苏州市,姑苏区,(0512)67275075,unknown,
baidu,60a004c4811e468bd42ce20a,少寒艺术工作室,苏州市姑苏区山塘街18号白居易纪念苑内,江苏省,苏州市,姑苏区,13375190779,unknown,
baidu,0c31a4f95de52494132935ce,苏州市电子信息技师学院(北校区),江苏省苏州市姑苏区玻纤路3号,江苏省,苏州市,姑苏区,(0512)67231768,unknown,
baidu,3810c87939c6078b9c09f7d9,苏州市留园中心小学校,苏州市姑苏区大悲庵弄11号106室,江苏省,苏州市,姑苏区,,unknown,
baidu,ef706eb8a72cd0fabbbd63c7,苏州市教师发展学院(苏州教师书院),江苏省苏州市姑苏区学士街389号(近干将路),江苏省,苏州市,姑苏区,(0512)65213049,unknown,
baidu,c879fa012bf08f4ac909f0d9,江苏省苏州市金阊实验小学校,江苏省苏州市姑苏区广济路86号,江苏省,苏州市,姑苏区,(0512)65334937,unknown,
baidu,74c933fb4244b25e9e82ead9,清塘幼儿园(木场头),苏州市姑苏区清塘路清塘新村1幢,江苏省,苏州市,姑苏区,(0512)65337948,unknown,
baidu,9f6aa34e56ba23f99e82eaf3,艺丰音培中心,江苏省苏州市姑苏区中街路123号4楼,江苏省,苏州市,姑苏区,"(0512)65241655,13771782082",unknown,
baidu,3d03c23db9ccf7206949f37c,学习成果采集服务中心(苏州),江苏省苏州市姑苏区桃花桥路101号,江苏省,苏州市,姑苏区,,unknown,
baidu,7202104240db05524251c051,苏州蓝色地平线文化创意有限公司,江苏省苏州市姑苏区南新园11号福六圆梦空间2号楼2201室,江苏省,苏州市,姑苏区,(0512)65792000,unknown,
baidu,0a15c7ec6bec44fced74f8d9,苏州市第三十中学,江苏省苏州市姑苏区路西街16号,江苏省,苏州市,姑苏区,"(0512)65324153,(0512)65561101",unknown,
baidu,184de32c5bf13aa5901fc92a,正社文化研究院,江苏省苏州市姑苏区山塘街146号,江苏省,苏州市,姑苏区,,unknown,
baidu,8ab0dfc42b719c16d8ecedd9,苏州市留园幼儿园,江苏省苏州市姑苏区留园路28号,江苏省,苏州市,姑苏区,,unknown,
baidu,e4babe8adecde745e81e974a,创元驾校(观山二部桃坞大街店),江苏省苏州市姑苏区桃花坞大街158号,江苏省,苏州市,姑苏区,13771992933,unknown,
baidu,e0a02faa5099a4e63110af9e,A+培优,江苏省苏州市姑苏区桐泾北路11号工商行政管理大楼2楼,江苏省,苏州市,姑苏区,(0512)61236668,unknown,
baidu,e20ed98d7a87fa1b9d82ea61,苏州市姑苏区书中悦校外托管有限公司(苏州太阳广场店),苏州市姑苏区上塘街111号苏州太阳广场F2,江苏省,苏州市,姑苏区,,unknown,
baidu,844a750ea83b9bc46268587d,苏州技师学院(北校区),江苏省苏州市姑苏区阊胥路277号,江苏省,苏州市,姑苏区,(0512)65267470,unknown,
baidu,f758cfd041faa6b43b221c8e,苏州市普通话培训测试站,江苏苏州市姑苏区学士街389号,江苏省,苏州市,姑苏区,(0512)67283619,unknown,
baidu,0523a1415f73611db23c81d9,志新机动车驾驶员培训有限公司,江苏省苏州市姑苏区虎丘路69号,江苏省,苏州市,姑苏区,,unknown,
baidu,24ec191706d7b618a2d230ec,苏州五二六厂技工学校(东校区),江苏省苏州市姑苏区下塘北大弄35号,江苏省,苏州市,姑苏区,(0512)67528310,unknown,
baidu,ba2d6a0e2d42a3b538e4a632,苏州市姑苏区老年大学,江苏省苏州市姑苏区庆元坊99号,江苏省,苏州市,姑苏区,(0512)65225740,unknown,
baidu,d4c1038b27fa771b2fb96d68,大胖虎驾考(石路门店),苏州市姑苏区长船湾金门阅读宾馆(石路山塘街店),江苏省,苏州市,姑苏区,17715541036,unknown,
baidu,2c637cb854969bd60bf5ebae,苏州市电子信息技师学院实训基地,苏州市姑苏区玻纤路苏州市电子信息技师学院(北校区),江苏省,苏州市,姑苏区,,unknown,
baidu,161a0ed2c6d229505cd4fed9,苏州市第五中学,江苏省苏州市姑苏区义慈巷15号,江苏省,苏州市,姑苏区,(0512)65576516,unknown,
baidu,b83c42f2f023376fab059dc3,苏州市信息电子技师学院(金门校区),江苏省苏州市姑苏区金阊街道景德路545号,江苏省,苏州市,姑苏区,,unknown,
baidu,34167ffb62f78ed03586f490,萝卜英语,江苏省苏州市姑苏区玻纤路81号,江苏省,苏州市,姑苏区,"13862113342,15851669477",unknown,
baidu,82fbbf6f33a678063c9a5e74,苏州市山塘中心小学校,江苏省苏州市姑苏区山塘街508号,江苏省,苏州市,姑苏区,(0512)65334135,unknown,
baidu,c792bc8f5462c3147adbd2a8,苏州市电子信息技师学院教学楼,江苏省苏州市姑苏区仁安街8号,江苏省,苏州市,姑苏区,,unknown,
baidu,c2b1a7883ea4d2be3b221cce,苏州市第十六中学校,江苏省苏州市姑苏区景德路303号11号,江苏省,苏州市,姑苏区,(0512)65224090,unknown,
baidu,00586108db0c79a447e27486,苏州市景范中学,江苏省苏州市姑苏区平江街道范庄前32号,江苏省,苏州市,姑苏区,(0512)67201571,unknown,
baidu,fcc61eaee68b4ef18936ee43,恩伟画室(石路校区),江苏省苏州市姑苏区广济南路172号国展中心B座1135-1136石路天虹,江苏省,苏州市,姑苏区,15358811124,unknown,
baidu,c3edeb128d4a884795ca078e,苏州市光华中学,江苏省苏州市姑苏区东中市久福里7号,江苏省,苏州市,姑苏区,(0512)82112804,unknown,
baidu,0a758b1368690f29f603b877,苏州市商贸职业培训学校育婴师培训中西式面点师培训咖啡师培训,砂皮巷42号,江苏省,苏州市,姑苏区,18013522755,unknown,
baidu,aa328ef2ac3def8493114c1f,好学自习室,中街路105号创元科技创业园2号楼4楼2416室,江苏省,苏州市,姑苏区,,unknown,
baidu,15e1e85efa5550a258109372,苏州市第三中学(谢衙前街校区),江苏省苏州市姑苏区临顿路谢衙前14号,江苏省,苏州市,姑苏区,(0512)87771333,unknown,
baidu,d8a2dae23a39e4d542d63e47,江苏联合职业技术学院苏州旅游与财经分院(留园路校区),江苏省苏州市姑苏区留园路88号,江苏省,苏州市,姑苏区,,unknown,
baidu,d166c396571c81653904b18f,苏州市善耕实验小学,江苏省苏州市姑苏区文里街168号,江苏省,苏州市,姑苏区,(0512)67223105,unknown,
baidu,e76d4d258aa369de4bcc4a7a,苏州市虹桥幼儿园,江苏省苏州市姑苏区中桥路20号久福里长鎏村20号,江苏省,苏州市,姑苏区,(0512)67275530,unknown,
baidu,593850fb448ed55ddf1e5273,江苏省东中市实验小学校,江苏省苏州市姑苏区中街路203号,江苏省,苏州市,姑苏区,(0512)67273136,unknown,
baidu,26d4386903669f2a4207c186,新技能,苏州市姑苏区玻纤路苏州市电子信息技师学院(北校区),江苏省,苏州市,姑苏区,,unknown,
baidu,a5ef680fcc87a7ceb9df8f74,中国苏州刺绣研究所(景德路),江苏省苏州市姑苏区景德路272号,江苏省,苏州市,姑苏区,(0512)65113219,unknown,
baidu,acbc99257ac8994cb1077dea,苏州山外山教育,金门路158号协和大厦7层702,江苏省,苏州市,姑苏区,,unknown,
baidu,b5f4c60805075c0d2ee67bc1,苏州农业职业技术学院,江苏省苏州市姑苏区西园路279号,江苏省,苏州市,姑苏区,"(0512)66098505,(0512)67655012",unknown,
baidu,3055c004f035a7920869d946,小蚕职业培训中心,江苏省苏州市姑苏区好百年商业广场3号楼401室,江苏省,苏州市,姑苏区,13253836523,unknown,
baidu,a3f21eee991ca2442fb17e4a,学士中心小学校,江苏省苏州市姑苏区景德路403号,江苏省,苏州市,姑苏区,(0512)65815909,unknown,
baidu,d92b6111f70f2e33246e98a5,格美音乐培训,江苏省苏州市姑苏区平川路翠园雅筑1288号格美琴行,江苏省,苏州市,姑苏区,15358806678,unknown,
baidu,50e862ded8507eea14a19090,一米记忆,江苏省苏州市姑苏区月星家居二楼,江苏省,苏州市,姑苏区,,unknown,
baidu,ed0a696413e6db7c16a19084,二小松书院,江苏省苏州市姑苏区桃花坞大街158号,江苏省,苏州市,姑苏区,,unknown,
baidu,b388f9fdfd1d003cb35c6a1c,苏州市敬文实验小学校,江苏省苏州市姑苏区皮市街341号,江苏省,苏州市,姑苏区,(0512)67271143,unknown,
baidu,1654284aed986563c92915d5,苏州勤惜实验小学校,江苏省苏州市姑苏区江天路128号(苏锦地铁站4号西北口步行400米),江苏省,苏州市,姑苏区,(0512)66096818,unknown,
baidu,fa01e937a031da4a774ff1d9,苏州市八一小学校,江苏省苏州市姑苏区桐泾北路291号,江苏省,苏州市,姑苏区,(0512)65334154,unknown,
baidu,3c734c52c9e9be9640e192ca,苏州市平江新城七色花实验幼儿园,江苏省苏州市姑苏区江天路138号,江苏省,苏州市,姑苏区,(0512)66096268,unknown,
baidu,93a60531c7877ea9c91b95af,苏州市尚德实验小学校,江苏省苏州市姑苏区培德堂街61号,江苏省,苏州市,姑苏区,,unknown,
baidu,4f42115db8191e224c3a590a,苏州市轻工业学校(北环路),江苏省苏州市姑苏区北环西路985号,江苏省,苏州市,姑苏区,,unknown,
baidu,8fa14fc3d8dde06ef7eafcd9,苏州市金阊外国语实验学校,江苏省苏州市姑苏区桐泾北路10号,江苏省,苏州市,姑苏区,(0512)68276661,unknown,
baidu,878a82c0ac59f76c32f71d64,苏州市姑苏区明星小学校,江苏省苏州市姑苏区山塘街696号(原虎丘第一中心小学内),江苏省,苏州市,姑苏区,(0512)67213496,unknown,
baidu,22e11407719f0db4d5b74e73,北塔幼儿园(官库巷),江苏省苏州市姑苏区桃花坞大街38号5幢,江苏省,苏州市,姑苏区,(0512)67287915,unknown,
baidu,0ed20a150c2b4f9757bfffd9,苏州市第十二中学校,江苏省苏州市姑苏区西园路29号,江苏省,苏州市,姑苏区,(0512)83957007,unknown,
baidu,3212cedd4302fe13c52ba1bf,中国领导干部书写研究院(苏州分院),虎丘街道北浩弄2号,江苏省,苏州市,姑苏区,,unknown,
baidu,59033f23f1d2e36babf7294b,董老师文化,江苏省苏州市姑苏区东中市实验小学校东北门旁,江苏省,苏州市,姑苏区,13962189179,unknown,
baidu,849353df7c342df5df1e52f2,公共教育科,江苏省苏州市姑苏区人民路2075号,江苏省,苏州市,姑苏区,,unknown,
baidu,ca3a2ecc9d9d5fe1fb2d61a0,清华大学女子学堂招生办公室,江苏省苏州市姑苏区桐泾北路8号红星商务楼F3,江苏省,苏州市,姑苏区,,unknown,
baidu,9ee7cc789580500e16c9057d,江苏联合职业技术学院苏州分院,江苏省苏州市姑苏区爱河桥路18号,江苏省,苏州市,姑苏区,(0512)68242338,unknown,
baidu,db30b462b541b07deedfca0a,澳大利亚蓝山酒店管理学院(中国校区),江苏苏州市姑苏区留园路88号(石路地铁站1号口步行420米),江苏省,苏州市,姑苏区,(0512)65325272,unknown,
baidu,7d747084003316d7adcb668b,苏州珍妮太湖珍珠研究院,江苏省苏州市姑苏区虎丘路69号,江苏省,苏州市,姑苏区,(0512)65315174,unknown,
baidu,7524cb4f71393a4904026f1c,苏州市留园中心小学校北区,江苏省苏州市姑苏区莲花斗24号,江苏省,苏州市,姑苏区,,unknown,
baidu,ae9b41d090c819ee8605bff1,旸谷书堂,文衙弄5号艺圃,江苏省,苏州市,姑苏区,(0512)67271614,unknown,
baidu,3cec8626be7cc18f7369d30a,金莎摄影培训学校(苏州总校),江苏省苏州市姑苏区苏站路1599号好百年广场4号楼,江苏省,苏州市,姑苏区,18120058082,unknown,
baidu,53349ee3a2c9e86e22026273,中国建筑材料科学研究总院苏州防水研究院,江苏省苏州市姑苏区广济路284号,江苏省,苏州市,姑苏区,(0512)65570377,unknown,
baidu,7c4a734af90eb483f503b871,美即装饰学院,江苏省苏州市姑苏区爱河桥路18号江苏联合职业技术学院苏州分院艺术系实训楼一楼,江苏省,苏州市,姑苏区,(0512)65810630,unknown,
baidu,3a6395c93b09475ec0364476,医院感染管理科临床微生物实验室,苏州市姑苏区广济路苏州市立医院北区,江苏省,苏州市,姑苏区,,unknown,
baidu,abcb6d493296143f88b98871,江苏省苏州纺织工业设计研究院,江苏省苏州市姑苏区廖家巷35号,江苏省,苏州市,姑苏区,(0512)67778812,unknown,
baidu,bc7495f6f5bd91eaf5c59c5a,清风里陶艺·银饰·石膏娃娃手作,石路步行街荟春南街67号1楼,江苏省,苏州市,姑苏区,18112623009,unknown,
baidu,643257e90606937000ff2d17,苏州姑苏区百晟幼儿园,江苏省苏州市姑苏区文里街188号,江苏省,苏州市,姑苏区,(0512)67311311,unknown,
baidu,3be122e1097683521ef74d73,苏州市曹家巷幼儿园,江苏省苏州市姑苏区193号,江苏省,苏州市,姑苏区,(0512)67273931,unknown,
baidu,c7214c84e55df119246e9891,山塘街,地铁2号线,江苏省,苏州市,姑苏区,,unknown,
baidu,e2e6f49d791f8b8b3904b16d,长城大厦-停车场,苏州市姑苏区广济路237号长城大厦广济路,江苏省,苏州市,姑苏区,,unknown,
baidu,e2a57ae05fe25d3376e5b6d1,市立医院北区,7路;34路;34路长线;54路;204路;304路;317路;318路;406路;415路;522路;816路;921路;949路;970路东线;970路西线;980路东线;980路西线;9037路社区巴士;9040路社区巴士;夜5路,江苏省,苏州市,姑苏区,,unknown,
baidu,14781635251bf3884c6d464e,苏州市立医院北区-地上停车场,江苏省苏州市姑苏区广济路242号,江苏省,苏州市,姑苏区,,unknown,
baidu,45eb761c2cc91885e81e97c5,山塘街,7路;34路;34路长线;46路;54路;204路;304路;317路;318路;406路;415路;522路;816路;921路;949路;970路东线;970路西线;980路东线;980路西线;9037路社区巴士;9040路社区巴士;姑苏旅游定制公交58号[虎丘寒山寺线];姑苏,江苏省,苏州市,姑苏区,,unknown,
baidu,e82e27e3acf4796241d63e5e,苏州七里山塘景区百间楼-地上停车场,江苏省苏州市姑苏区山塘街73号苏州七里山塘景区百间楼地上停车场,江苏省,苏州市,姑苏区,,unknown,
baidu,c38a9a3c206e3e6aa8f0cdf6,惠济桥,32路;32路中市桥区间,江苏省,苏州市,姑苏区,,unknown,
baidu,b1bf1b30ec5a845ff603b887,苏州茂苑绮罗·璞拾公馆-地下停车场,江苏省苏州市姑苏区北码头10号附近,江苏省,苏州市,姑苏区,,unknown,
baidu,55c65f84031e5a1b6849f36d,白居易码头,江苏省苏州市姑苏区山塘街方基巷58号白居易纪念苑旁,江苏省,苏州市,姑苏区,(0512)65355503,unknown,
baidu,76607aa9bd2bc3a5343a7113,北码头,苏州市姑苏区西中市167号,江苏省,苏州市,姑苏区,,unknown,
baidu,0005dff7e15e4206b13c8133,姑苏区公共自行车(广济路店),苏州市姑苏区广济路石路步行街,江苏省,苏州市,姑苏区,,unknown,
baidu,3aa76c23055d025d734b87dd,桃花坞,31路;32路;32路中市桥区间;915路,江苏省,苏州市,姑苏区,,unknown,
baidu,db483add3b3e84efbadf8f66,市立医院站北区城市公共自行车租赁点,苏州市姑苏区广济路238号院西侧约60米,江苏省,苏州市,姑苏区,,unknown,
baidu,8afe2117450a89de93114ce0,苏州太阳广场-地下停车场,江苏省苏州市姑苏区上塘街111号,江苏省,苏州市,姑苏区,,unknown,
baidu,9e7bc637b5139c2f10293508,苏州站-南广场西侧地上停车场,江苏省苏州市姑苏区苏站路27号,江苏省,苏州市,姑苏区,,unknown,
baidu,e4ab6a642af18a219c09f7bd,石路,地铁2号线,江苏省,苏州市,姑苏区,,unknown,
baidu,e356f1bdf4366c02f72310ed,石路中心广场停车场,苏州市姑苏区阊胥路761号石路中心广场B1,江苏省,苏州市,姑苏区,,unknown,
baidu,de223fbda5ae210b71455bfc,停车场,苏州市姑苏区清塘路石幢弄西侧约50米,江苏省,苏州市,姑苏区,,unknown,
baidu,8cf26c2b2be32776d91318ff,苏州太阳广场-非机动车停车场,苏州市姑苏区上塘街111号苏州太阳广场B2,江苏省,苏州市,姑苏区,,unknown,
baidu,ef38be9c8ca69b8c223bf25b,留园-南门地上停车场,江苏省苏州市姑苏区阊门外留园路338号,江苏省,苏州市,姑苏区,,unknown,
baidu,9d448c976527d38b71455bd5,苏州站-南广场,江苏省苏州市姑苏区苏站路27号,江苏省,苏州市,姑苏区,,unknown,
baidu,09f9037f7128fb95eddfca88,阊门新故里商务大楼-地上停车场,苏州市姑苏区西中市81-83号阊门·新故里商务大楼,江苏省,苏州市,姑苏区,,unknown,
baidu,f4145dcbdaa51c3533621234,新风巷7879号院-地上停车场,苏州市姑苏区新风巷石路步行街,江苏省,苏州市,姑苏区,,unknown,
baidu,a359a90f323cdbddab175a56,茅山塘换乘停车场,姑苏旅游定制公交[茅山塘停车场西园线],江苏省,苏州市,姑苏区,,unknown,
baidu,4274839aa5ee74b9b1077d8d,苏州火车站,地铁2号线;地铁4号线,江苏省,苏州市,姑苏区,,unknown,
baidu,08c601b908d7dfe5d8ecedf8,苏州站-P1地下停车场,江苏省苏州市姑苏区苏站路256号,江苏省,苏州市,姑苏区,"(0512)69338397,(0512)69338399",unknown,
baidu,72d5bd88b0194d4a740269fd,苏州站-P4地上停车场,苏州市姑苏区北环快速路苏州站南广场,江苏省,苏州市,姑苏区,(0512)69338399,unknown,
baidu,b8c3ade88d7d7d8b940319de,苏州站,江苏省苏州市姑苏区苏站路27号,江苏省,苏州市,姑苏区,(0512)12306,unknown,
baidu,991a6de2e3dcb582f50e77ac,苏州北广场汽车客运站,江苏省苏州市姑苏区苏站路1455号,江苏省,苏州市,姑苏区,(0512)69355916,unknown,
baidu,f78b2d1849568e2c85420e56,清塘新村,32路;32路中市桥区间;318路;522路;816路;921路;949路;970路东线;970路西线;980路东线;980路西线;9025路社区巴士;夜5路,江苏省,苏州市,姑苏区,,unknown,
baidu,3c51987b0088b904c056aca1,苏州市康复医院,7路;10路东线;10路西线;34路;34路长线;46路;54路;204路;304路;406路;415路;501路;9025路社区巴士;9037路社区巴士;9040路社区巴士,江苏省,苏州市,姑苏区,,unknown,
baidu,4eec226300adb33ec17da2a6,阊门横街,31路;204路;501路;9020路社区巴士A线;9029路社区巴士,江苏省,苏州市,姑苏区,,unknown,
baidu,0b3a8cdfc94bf048d518b713,苏州站-北广场,江苏省苏州市姑苏区苏站路1398号,江苏省,苏州市,姑苏区,,unknown,
baidu,afe8721741b2adbe40afe6de,钱万里桥北,10路东线;10路西线;40路东线;40路西线;85路;303路;9040路社区巴士,江苏省,苏州市,姑苏区,,unknown,
baidu,a3f1bcf31b0c6bff81a00cae,桃花桥,苏州市姑苏区桃花坞下塘27号附近,江苏省,苏州市,姑苏区,,unknown,
baidu,c8e8f633caa25e6cab0dd8d8,钱万里桥,江苏省苏州市姑苏区钱万里桥(广济路),江苏省,苏州市,姑苏区,,unknown,
baidu,69cea8416fa8fe343617dc1f,上塘街,31路;9020路社区巴士A线;9029路社区巴士,江苏省,苏州市,姑苏区,,unknown,
baidu,e844c9b02ab5a65252e5c5ac,威尼斯大厦南侧临时停车点,苏州市姑苏区阊胥路威尼斯大厦西南侧,江苏省,苏州市,姑苏区,,unknown,
baidu,cef116c18a1a37027c29bd36,广济桥码头,江苏省苏州市姑苏区苏州太阳广场酒店西北(上塘街北),江苏省,苏州市,姑苏区,,unknown,
baidu,1ec8ba547e27dd0d46e2746a,渡轮港,阊胥路407、409号附近,江苏省,苏州市,姑苏区,,unknown,
baidu,b0a699416f6d7e528d772714,石幢弄北侧停车场,苏州市姑苏区清塘路石幢弄,江苏省,苏州市,姑苏区,,unknown,
baidu,5b34934155f40c38c8213d17,初心码头,江苏省苏州市姑苏区广济路195号,江苏省,苏州市,姑苏区,,unknown,
baidu,6a8e7a16d1f3dec7f03cbac6,姑苏巡特警大队-停车场,苏州市姑苏区广济路广济公寓东南侧,江苏省,苏州市,姑苏区,,unknown,
baidu,2f579a1f854e0145ae080f55,北寺塔,地铁4号线,江苏省,苏州市,姑苏区,,unknown,
baidu,d84354e31af116083f9a5e7c,金阊实验小学,7路;34路;34路长线;54路;204路;304路;317路;318路;406路;415路;522路;816路;921路;949路;970路东线;970路西线;980路东线;980路西线;9037路社区巴士;9040路社区巴士;夜5路,江苏省,苏州市,姑苏区,,unknown,
baidu,544a59179786063bf42310cd,广济公园南侧-停车场,苏州市姑苏区留园路锦江之星(留园山塘古街店),江苏省,苏州市,姑苏区,,unknown,
baidu,2df17c9c98c32c404e776e8e,广济南路,地铁1号线;地铁2号线,江苏省,苏州市,姑苏区,,unknown,
baidu,594befcf5818380fca09f074,民肴故事湘赣菜-停车场,苏州市姑苏区留园路6号,江苏省,苏州市,姑苏区,,unknown,
baidu,fa6be620df4728442ad7ab6f,清塘新村北,10路东线;10路西线;40路东线;40路西线;85路;303路;9040路社区巴士,江苏省,苏州市,姑苏区,,unknown,
baidu,dcdc3ac9cd42c43f1fe99940,广济公寓苏州市公共自行车,江苏省苏州市姑苏区广济路295号-9幢,江苏省,苏州市,姑苏区,,unknown,
baidu,6abb1614cfebbcc73062122b,苏锦,地铁4号线;地铁6号线,江苏省,苏州市,姑苏区,,unknown,
baidu,8fdf34247bfe0a12873304ed,冰厂街-停车场,苏州市姑苏区冰厂街广济公寓,江苏省,苏州市,姑苏区,,unknown,
baidu,d014215c531ebf39744ff165,苏州钱万里桥出租车服务区南侧停车场,苏州市姑苏区冰厂街广济公寓东北侧约40米,江苏省,苏州市,姑苏区,,unknown,
baidu,13017d804589860a0bf5ebbd,共享单车停放点,江苏省苏州市姑苏区人民路1545号,江苏省,苏州市,姑苏区,,unknown,
baidu,9a2e900484b1cb899d82ead8,察院场,地铁4号线,江苏省,苏州市,姑苏区,,unknown,
baidu,c8ae7ba8a616e9644154d71c,养育巷,地铁1号线,江苏省,苏州市,姑苏区,,unknown,
baidu,1025c3a0c4a6394a25e0a0f9,江苏省苏州市金阊实验小学校-地下停车场,苏州市姑苏区广济路94号,江苏省,苏州市,姑苏区,,unknown,
baidu,2ad8cf269a02e2199cf779e9,苏州钱万里桥出租车服务区-停车场,苏州市姑苏区冰厂街广济公寓东北侧约70米,江苏省,苏州市,姑苏区,,unknown,
baidu,9cc46b2800282f1fc92915fb,渡口,爱河桥路295-297号附近,江苏省,苏州市,姑苏区,,unknown,
baidu,373cf75704aa80134354d75b,十字洋河桥,江苏省苏州市姑苏区十字洋河桥,江苏省,苏州市,姑苏区,,unknown,
baidu,f4a33da9c790e1773010af78,阊门新故里商务大楼-地下停车场,苏州市姑苏区西中市81-83号阊门·新故里商务大楼,江苏省,苏州市,姑苏区,,unknown,
baidu,b3bfed835ea181950869d912,南浩花园-中区-停车场,苏州市姑苏区葫芦街南浩花园,江苏省,苏州市,姑苏区,,unknown,
baidu,f7057f3d77c431e11911d51c,桐泾北路,地铁1号线,江苏省,苏州市,姑苏区,,unknown,
baidu,62fd929e2ddef02eda2f285a,平河路,地铁2号线;地铁6号线,江苏省,苏州市,姑苏区,,unknown,
baidu,cee0184a1eab88471e1d11de,北五泾浜20号小区-停车场,苏州市姑苏区北五泾浜20号,江苏省,苏州市,姑苏区,,unknown,
baidu,1500e4d1388fe8e3932ca3cd,广济公寓公共自行车站点,苏州市姑苏区清塘路广济公寓,江苏省,苏州市,姑苏区,,unknown,
baidu,b850ceef6acf45090f0a7017,南五泾浜7号,苏州市姑苏区北五泾浜7号附近,江苏省,苏州市,姑苏区,,unknown,
baidu,4c7294727d459fdef60e7738,栖霞栖园-停车场,清塘街99号,江苏省,苏州市,姑苏区,,unknown,
baidu,c47901fe604fcc0cb34c498d,桃坞小筑-停车场,苏州市姑苏区桃花桥路100号,江苏省,苏州市,姑苏区,,unknown,
baidu,61a358087a8aed86ca2915c5,清塘新村公共自行车站点,苏州市姑苏区清塘路清塘新村东门,江苏省,苏州市,姑苏区,,unknown,
baidu,09e0634263776fc2f8f0cbb2,苏州市财会教育中心-停车场,江苏省苏州市姑苏区西中市127号,江苏省,苏州市,姑苏区,,unknown,
baidu,122be5ae81eeb351e81e97d2,上塘街路南侧临时停车点,苏州市姑苏区上塘街苏州太阳广场西北侧,江苏省,苏州市,姑苏区,,unknown,
baidu,e7fbe201f491487752e5c55d,城市公共自行车,清塘路159号2幢附近,江苏省,苏州市,姑苏区,,unknown,
baidu,4514e91f5da161cd16a190f8,桃坞小筑-接送点,苏州市姑苏区桃坞小筑附近,江苏省,苏州市,姑苏区,,unknown,
baidu,39f88148db175516364aae89,钱塘家园-停车场,苏州市姑苏区清塘路钱塘家园,江苏省,苏州市,姑苏区,,unknown,
baidu,837c9f775df006ab7369d355,阊门遗址-接送点,苏州市姑苏区阊门遗址附近,江苏省,苏州市,姑苏区,,unknown,
baidu,9b1140ea55658a983f9a5e06,苏州市康复医院-地下停车场,苏州市姑苏区广济北路南一村南侧约50米,江苏省,苏州市,姑苏区,,unknown,
baidu,ce1c8a5b1308e4e9a20464b5,南五泾浜18号小区-停车场,江苏省苏州市姑苏区南五泾浜18号小区,江苏省,苏州市,姑苏区,,unknown,
baidu,1bf4b268af71174a2dfaa777,长盛花园-停车场,江苏省苏州市姑苏区北环西路899号长盛花园,江苏省,苏州市,姑苏区,,unknown,
baidu,02d225c612574cd9d22dd61e,平门-地上停车场,苏州市姑苏区平四路苏州中企燕回平门里北侧约40米,江苏省,苏州市,姑苏区,,unknown,
baidu,831312380e096db740ab9a0d,停车场,苏州市姑苏区清洁路钱塘家园东北侧约50米,江苏省,苏州市,姑苏区,,unknown,
baidu,eda31b00c34594dcc16c145e,澳大利亚蓝山酒店管理学院(中国校区)-停车场,苏州市姑苏区留园路江苏联合职业技术学院苏州旅游与财经分院(留园路校区),江苏省,苏州市,姑苏区,,unknown,
baidu,1646256a6fac62ef4557261d,渡僧桥下塘20号,上塘街20号附近,江苏省,苏州市,姑苏区,,unknown,
baidu,530213b7f4b4055502294f65,留茗花园-地下停车场,苏州市姑苏区留园路1—49号,江苏省,苏州市,姑苏区,,unknown,
baidu,783a11fabc5f99b2d518b7e1,占鱼墩公园-停车场,苏州市姑苏区西中市占鱼墩,江苏省,苏州市,姑苏区,,unknown,
baidu,683f5a91aa7537f554bfffb4,南一村-停车场,姑苏区广济路上广济医院南面,江苏省,苏州市,姑苏区,,unknown,
baidu,4d15dc99755b30e600ec0133,苏州市第三十中学-停车场,江苏省苏州市姑苏区路西街16号,江苏省,苏州市,姑苏区,,unknown,
baidu,32b7aea65db96dc771210b62,浅塘·仓桥,江苏省苏州市姑苏区下塘街294号,江苏省,苏州市,姑苏区,,unknown,
baidu,e8dcc8d962aa7af089b98862,龙兴桥小区-停车场,苏州市姑苏区桃花桥路龙兴桥小区,江苏省,苏州市,姑苏区,,unknown,
baidu,12a54aec3936a1dcdb1318c7,桃花坞大街-240号地上停车场,苏州市姑苏区桃花坞大街240号,江苏省,苏州市,姑苏区,,unknown,
baidu,200c1cb0065aae982fb17e87,江苏省苏州纺织工业设计研究院-停车场,江苏省苏州市姑苏区廖家巷35号,江苏省,苏州市,姑苏区,,unknown,
baidu,694e5ff48031a20c931fc90a,苏州市体检中心(苏州市立医院北区)-地上停车场,苏州市姑苏区广济路苏州市立医院北区西南侧约50米,江苏省,苏州市,姑苏区,,unknown,
baidu,d53718b1f402b6dea6da39f4,七里山塘-古戏台码头,江苏省苏州市姑苏区山塘街171号,江苏省,苏州市,姑苏区,(0512)67236980,unknown,
baidu,8d4486856041c23ab120a870,山塘桥,江苏省苏州市姑苏区山塘街177号七里山塘景区内,江苏省,苏州市,姑苏区,,unknown,
baidu,61085211789832dcc51b751e,水关桥,江苏省苏州市姑苏区阊门北码头,江苏省,苏州市,姑苏区,,unknown,
baidu,e18234bd5526bc86e9f853b6,西园戒幢律寺-南侧地上停车场,江苏省苏州市姑苏区枫桥路380号,江苏省,苏州市,姑苏区,,unknown,
baidu,d1ec4c45d66ac8fdd13ce33f,鸭黛桥,石路步行街1号,江苏省,苏州市,姑苏区,,unknown,
