source,bd_uid,name,address,province,city,area,tel,poi_type,tag
baidu,524a5e13c175d9cf9968b446,江南名宴·创意江浙菜(解放路店),"解放路131号西湖金座二楼（酒店电梯二楼直达门店,楼下有停车场）",浙江省,杭州市,上城区,"(0571)86083788,(0571)86808088",unknown,
baidu,c529d193267b83841fe9991d,杭州中维香溢大酒店·满庭芳中餐厅,解放路108号中维香溢大酒店22楼,浙江省,杭州市,上城区,17858830773,unknown,
baidu,c81a23f54ccc9ec56d3e1b99,昌强餐饮大食堂,解放路131号西湖金座1楼大厅,浙江省,杭州市,上城区,17767174076,unknown,
baidu,28b30812837749a1b75f1e17,小白餐馆,光复路122号附近日新桥弄2号,浙江省,杭州市,上城区,13858107672,unknown,
baidu,b533ea4ad1a4a8404f6d4676,忆杭餐厅(茅廊巷社区店),小营街道佑圣观路丰禾巷55号,浙江省,杭州市,上城区,(0571)86830935,unknown,
baidu,6b1c4ab9e00d6add0782c2c6,新白鹿餐厅(天工艺苑店),解放路91号汇和城3楼,浙江省,杭州市,上城区,(0571)88268899,unknown,
baidu,d5335bcf4a0daae1bb17e792,牛表哥潮汕牛肉·火锅·烤肉(解放路店),"解放路131号（艺龙玺程国际酒店一楼,工商银行斜对面）",浙江省,杭州市,上城区,"(0571)86937586,18030122056",unknown,
baidu,5e35c6ea9233d81494ec8430,宝中宝食府(清泰街店),清泰街224号,浙江省,杭州市,上城区,(0571)87810887,unknown,
baidu,7adbf47299fd0ca28f55ec60,吉祥馄饨(解放路店),解放路96-2号,浙江省,杭州市,上城区,(0571)85384871,unknown,
baidu,bb3112ff60c44fb9bea2403b,一家素·创意料理自助(解放路店),"解放路99号二楼（浙二医院斜对面,老百姓大药房隔壁）",浙江省,杭州市,上城区,(0571)86732159,unknown,
baidu,434cebaccd62c1402902e1fb,南山人家(中财店),解放路187号中河中路辅路与缸儿巷交叉口80米,浙江省,杭州市,上城区,(0571)88158377,unknown,
baidu,fb71868b1ca88ec8e215f934,丹粤閣·顺德菜,清泰街456号,浙江省,杭州市,上城区,(0571)85302181,unknown,
baidu,7fc1e9af95a3b3ea9b68b488,luckincoffee瑞幸咖啡(西湖金座店),解放路131号西湖金座大酒店底商,浙江省,杭州市,上城区,4000100100,unknown,
baidu,a596f6670e5826e4b04c4918,小钵头甜酒酿(丰乐苑店),上城区佑圣观路茅廊巷农贸市场78号摊位,浙江省,杭州市,上城区,13357152596,unknown,
baidu,2a74c7697975021a72210bf5,嵊州小笼包牛肉面,杭州市上城区解放路金钱大厦北侧约30米,浙江省,杭州市,上城区,,unknown,
baidu,859f75e75b5e637fcac3dbb7,黄记老厨·老杭帮私房菜(清泰街店),清泰街527-6号（方便停车）,浙江省,杭州市,上城区,13758202230,unknown,
baidu,e6c9942eed2db5b21811d51f,九芝斋(解放路店),佑圣观路218号（解放路109号）,浙江省,杭州市,上城区,(0571)87064572,unknown,
baidu,afd264968a258145931fc9a4,知味观(天工艺苑店),小营街道解放路91-93号(天工艺苑旁),浙江省,杭州市,上城区,(0571)56758051,unknown,
baidu,fc4e5b99be540d41e31103e8,锅美丽水煮鱼(清泰街店),清泰街527号,浙江省,杭州市,上城区,13482818617,unknown,
baidu,d07331341cedeaa2c61b7508,别饮居餐厅(邮电路店),湖滨街道邮电路46-1号(近浣纱路),浙江省,杭州市,上城区,(0571)87035122,unknown,
baidu,af24f87b0c8c6a44081cc747,严陵嫂·建德豆腐包(解放路店),解放路96号,浙江省,杭州市,上城区,18698578858,unknown,
baidu,e5d402d1a2100dfa1b11d56d,新开元(解放路店),浙江省杭州市上城区解放路142号,浙江省,杭州市,上城区,"(0571)87016868,(0571)87022222",unknown,
baidu,686b1eb41d08107386420e6d,农家手擀面(皮市巷店),小营街道皮市巷27号(近解放路),浙江省,杭州市,上城区,13184213405,unknown,
baidu,c8dd3ea1e8b4bb93fb0cadce,杭州馄饨,浙江省杭州市上城区解放路131号,浙江省,杭州市,上城区,,unknown,
baidu,ba3dc7a410d19042b72655fe,语辰小吃(佑圣观路店),小营街道佑圣观路212号(浙二医院旁),浙江省,杭州市,上城区,18258488605,unknown,
baidu,4a9b8928af1365fef6c59c62,禾英小吃(茅廊巷社区北区店),丰禾巷55号102室,浙江省,杭州市,上城区,18867506640,unknown,
baidu,58bde997f99713b39222e091,Hat Hat Cafe(佑圣观路店),佑圣观路214号hathat咖啡店,浙江省,杭州市,上城区,19521538940,unknown,
baidu,45a54ef3c3c0a20b2fb17eb2,麦当劳(杭州星河商务大厦店),解放路89号大华星河商务大厦1层,浙江省,杭州市,上城区,(0571)87913551,unknown,
baidu,0a63d07583a2f9709868b45a,鸭司令鸭鸭,杭州市上城区丰家兜丰乐苑,浙江省,杭州市,上城区,13777592474,unknown,
baidu,7e492a6a4bd3f62082288a9a,瑞客盛大食堂(东河家园店),解放路99-3号99-4一楼,浙江省,杭州市,上城区,13615718686,unknown,
baidu,25f9397a82553eb4373a710c,越英核桃酒(城站火车站店),清泰街517号,浙江省,杭州市,上城区,18069862815,unknown,
baidu,60c8d63f7bc129d941d63e2c,杭州丰乐桥,浙江省杭州市上城区中河中路166号,浙江省,杭州市,上城区,,unknown,
baidu,6eda2b0fa9ff235fc3364425,杭城流芳面馆(上城清泰街店),民生路1号,浙江省,杭州市,上城区,19906781658,unknown,
baidu,63cb9cb6fd3352a5d6b74e3a,川马小吃(马市街店),马市街15号（万安桥地铁站E口步行300米）,浙江省,杭州市,上城区,13989897707,unknown,
baidu,1223367853431d02c8c3db49,石居酒场,浙江省杭州市上城区解放路108号杭州中维香溢大酒店2层,浙江省,杭州市,上城区,,unknown,
baidu,a999a01717da06aebe4842c9,鱼你在一起(天工艺苑店),小营街道解放路91、93号新天工艺苑1F07-2,浙江省,杭州市,上城区,15336889630,unknown,
baidu,3220231cebe6a1984bfc8df7,luckincoffee瑞幸咖啡(佑圣观路店),清泰街438号三和园底商,浙江省,杭州市,上城区,4000100100,unknown,
baidu,811f5b2eb0adc368a5da3954,星巴克(杭州新天工艺苑店),解放路91、93号天工艺苑一层01号商铺,浙江省,杭州市,上城区,(0571)87202736,unknown,
baidu,274419acbcf6e9aec26c14cc,杭州老酸奶(马市街店),浙江省杭州市上城区解放路马市街8号,浙江省,杭州市,上城区,,unknown,
baidu,6c62e220d8a01e15eedfca78,缙云烧饼(马市街店),浙江省杭州市上城区马市街99-2号(近浙一-浙二医院),浙江省,杭州市,上城区,,unknown,
baidu,fb9fa3ff22c8123888b98815,鲁员外地锅鸡地锅鱼(清泰街店),清泰街527号-5号,浙江省,杭州市,上城区,"(0571)87203363,13034218390",unknown,
baidu,e71457efe88869be940319ed,百家鸡味馆(清泰店),清泰街571号金泰商务大厦裙楼（中河中路与西湖大道交叉口）,浙江省,杭州市,上城区,(0571)87818054,unknown,
baidu,7ec15d6dcdf29154c9fa5f84,大川日本料理·烧鸟居酒屋(解放路店),浙江省杭州市上城区金鸡岭路46号,浙江省,杭州市,上城区,(0571)87099633,unknown,
baidu,e3ca83d0a3b2da300869d985,素清香(解放路店),解放路大华·星河商务大厦负一楼食堂,浙江省,杭州市,上城区,17767091017,unknown,
baidu,4d6ae8ea0238c2c76b49f319,三料冒菜(清泰街店),清泰街527,浙江省,杭州市,上城区,13681889635,unknown,
baidu,ef888936b660eeed38e4a675,小弄堂川湘菜干锅土鸡酸菜鱼(清泰街店),清泰街515号,浙江省,杭州市,上城区,15268524448,unknown,
baidu,35e9349efa589c1281288a0a,食不食货·台州小馆·宵夜食档(西湖大道店),清泰街金泰商务大厦一楼101室C（亚朵X酒店隔壁）,浙江省,杭州市,上城区,13372551157,unknown,
baidu,c56130b9215470a81811d587,江南春(中山中路店),中山中路356号(邮电路口),浙江省,杭州市,上城区,(0571)85300046,unknown,
baidu,c8116a53ecd5af7cd92f28d8,无名氏面馆(邮电路店),邮电路17-1号,浙江省,杭州市,上城区,18767177503,unknown,
baidu,5f946ee4468cbf9204fef50e,贵姑娘贵州羊肉粉·火锅·贵州菜(清泰街店),清泰街城建综合大楼清泰街557号,浙江省,杭州市,上城区,18258186211,unknown,
baidu,b5302695da076e42c41e510c,庆鱼年蒸汽石锅鱼·美蛙·汽锅鸡(天工艺苑汇和城店),解放路91-93号天工艺苑汇和城三楼,浙江省,杭州市,上城区,(0571)87210655,unknown,
baidu,8f562d94918212ab400245e5,车记片皮烤鸭卷(解放店),和颐至尚酒店(杭州西湖解放路店)汇和美食城二楼w08,浙江省,杭州市,上城区,18859563787,unknown,
baidu,93df0dc3600f5d32892fb59a,清真·西北人家风味馆(中山中路店),中山中路257号（清泰街与开元路交叉口）,浙江省,杭州市,上城区,18072812233,unknown,
baidu,a32baeb2f07268ca0b1cc74d,佰佳旺(天工艺苑店),解放路91、93号2F08,浙江省,杭州市,上城区,17307427049,unknown,
baidu,ff93d353970988672efaa7a9,达美乐比萨(惠兴路店),解放路174-2号,浙江省,杭州市,上城区,(0571)86985389,unknown,
baidu,c7eca12bd69d2b2ee115f9df,福华园过桥米线(光复路店),李博士桥6号（中山中路和邮电路交叉口）,浙江省,杭州市,上城区,(0571)87073028,unknown,
baidu,617a95da6106dbcdbadf8f4a,芳明小吃(光复路店),光复路169号,浙江省,杭州市,上城区,(0571)87031479,unknown,
baidu,32660667797056e9b04c4972,食号地锅鸡·家常小炒,邮电路10号,浙江省,杭州市,上城区,(0571)87024569,unknown,
baidu,ad14f68babbb57dc7369d3d1,清真兰州拉面(金鸡岭路店),金鸡岭路54号,浙江省,杭州市,上城区,17557288063,unknown,
baidu,cd1984f0089c33fb43ab9a1e,库迪咖啡(杭州天工艺苑店),解放路91-93号一层1F16,浙江省,杭州市,上城区,18308163310,unknown,
baidu,c15b31a0d683645ab45f1e00,大塔儿巷老阿姨炸串串,大塔儿巷与小塔儿巷交叉口东20米,浙江省,杭州市,上城区,,unknown,
baidu,ffd6d403f1f2f39616b54bba,小小馄饨店(清泰街店),小营街道清泰街559-1号(东来顺对面),浙江省,杭州市,上城区,13777807870,unknown,
baidu,fc77c7ee8e5ba41fa11de994,兰州拉面(茅廊巷社区店),清泰街与民生路交叉路口东侧(茅廊巷-北区),浙江省,杭州市,上城区,17767252006,unknown,
baidu,02b0381a98eb7337a21de966,钱江小院·地道杭帮菜(清泰街店),清泰街527号,浙江省,杭州市,上城区,17300980882,unknown,
baidu,6a4e710b618455e8d72ce22d,杨先生糕点(清泰店),清泰街478号,浙江省,杭州市,上城区,15557104439,unknown,
baidu,3b007770d744374f41d63e5d,黑鱼面馆(雪峰·清泰花苑店),金鸡岭路78号,浙江省,杭州市,上城区,15779993990,unknown,
baidu,7a58fadad848352de812e42c,旗开兰溪手擀面(杭州一店),清泰街561号,浙江省,杭州市,上城区,(0571)87815036,unknown,
baidu,b37253b52cbc0f6cd4851f01,吴山拌川(雪峰·清泰花苑店),金鸡岭44号,浙江省,杭州市,上城区,13345816730,unknown,
baidu,05bfb32af715ee297ab55c09,GREEN EATS多国料理,杭州市上城区解放路天清城市酒店,浙江省,杭州市,上城区,,unknown,
baidu,3e469b0da5839fa90b1cc75e,肥叔锅贴(金鸡岭店),金鸡岭58号,浙江省,杭州市,上城区,4006117117,unknown,
baidu,d71ab68aa260474c283a9f01,豫杭滋补烩面(雪峰·清泰花苑店),金鸡岭72号,浙江省,杭州市,上城区,18201858802,unknown,
baidu,b240295e5c2ba4b2c336441f,筷顺客·邻里食堂(大华·星河商务大厦店),解放路89大华·星河商务大厦F1层,浙江省,杭州市,上城区,18368273902,unknown,
baidu,cc788fde8ed3a09389fc0698,GANSO元祖食品(清泰店),清泰街503号,浙江省,杭州市,上城区,(0571)87083654,unknown,
baidu,58fd6b3adec204379a0050aa,浙江大学医学院附属第二医院(解放路院区)-营养食堂,浙江省杭州市上城区解放路88号浙二医院1号楼,浙江省,杭州市,上城区,,unknown,
baidu,fb1785171a5752bf260bd08e,金鸡岭特色水饺店,解放路895号,浙江省,杭州市,上城区,15168428245,unknown,
baidu,c6922936930fcb8343afe601,隆江老尾猪脚饭(解放路店),小营街道金鸡岭64号,浙江省,杭州市,上城区,15384855329,unknown,
baidu,f2828cbbebd8c1724c6d4619,老台门(雪峰·清泰花苑店),金鸡岭56号,浙江省,杭州市,上城区,18368100886,unknown,
baidu,8ecf1b46edd5ce3c8705bfdc,伍子面馆(浣纱路店),湖滨街道吴山浣纱路116号-2,浙江省,杭州市,上城区,18334375200,unknown,
baidu,df9d66ded00a50bc2b06ce56,楠哥煎饺(建国中路店),建国中路130号(万安桥地铁站E口步行50米),浙江省,杭州市,上城区,18267607198,unknown,
baidu,090743ddd2879c5c3f9a5ee7,赵宝美点心店,城头巷108号-3,浙江省,杭州市,上城区,"13357106391,15888809952",unknown,
baidu,f9c0c1e5d31019ae9cec2ba0,鲜汁肉包,杭州市上城区清泰街城建综合大楼,浙江省,杭州市,上城区,,unknown,
baidu,c14654ffcb964e5cb13c8119,君儿面馆(马市街店),马市街22-17号(万安桥地铁站D口步行460米),浙江省,杭州市,上城区,13819190377,unknown,
baidu,0b8ceaeac1d6c9e2601c677a,网红蛋饼小吃(城建综合大楼店),城建综合大楼东门旁,浙江省,杭州市,上城区,,unknown,
baidu,bbe5fb3cdeba4fc1e5e96560,厨匠美食广场,杭州市上城区解放路如家精选酒店(解放路店),浙江省,杭州市,上城区,15168666829,unknown,
baidu,9c6513dd21e3405f49fd3f5f,正宗东海海鲜,杭州市上城区光复路尼可精品酒店(中山中路店),浙江省,杭州市,上城区,15988850352,unknown,
baidu,26dfaf5e0f5063c2abf0cd4c,吴山路夜市,湖滨街道仁和路（龙翔桥地铁站D口步行490米）,浙江省,杭州市,上城区,,unknown,
baidu,9f4619da8785dbbaa80dd8af,水果鲜花百货,杭州市上城区马市街浙江大学医学院附属第二医院(解放路院区)西侧,浙江省,杭州市,上城区,,unknown,
baidu,34f68ab084b3c7138f55ec41,联华超市(清泰店),清泰街503号(近佑圣观路),浙江省,杭州市,上城区,(0571)87832503,unknown,
baidu,ba8bc7c71b9e0ff46cc02c14,杭州亿人健特色农产品配送中心,杭州市上城区丰家兜丰乐苑,浙江省,杭州市,上城区,,unknown,
baidu,5479d49a4c722b244d2fdfe1,西湖龙井(佑圣观路店),浙江省杭州市上城区佑圣观路188号,浙江省,杭州市,上城区,15967163933,unknown,
baidu,7524cb4f3cb88f2d04026ff9,联华超市(杭州马市街店),马市街98号,浙江省,杭州市,上城区,"(0571)87132017,(0571)87132197,(0571)87132270",unknown,
baidu,8c4b9dff4ce4694bf4e73b42,梅家坞龙井(直销部),浙江省杭州市上城区佑圣观路257号,浙江省,杭州市,上城区,15336874068,unknown,
baidu,9e3a5e3810e6eacbfadc85c3,杭州特产(佑圣观路店),佑圣观路265号,浙江省,杭州市,上城区,13905716169,unknown,
baidu,e3a7fd13859d085328b97c71,杭州解放路副食品茶叶市场,浙江省杭州市上城区小营街道佑圣观路178号,浙江省,杭州市,上城区,(0571)87809225,unknown,
baidu,6ed3083a96953ab62b3a9f71,茅廊巷农贸市场,茅廊巷农贸市场69号(茅廊巷农贸市场二楼),浙江省,杭州市,上城区,18867136069,unknown,
baidu,52e78c56a39cfc78e215f905,凯汇茶叶有限公司,严衙弄与佑圣观路交叉口东南20米,浙江省,杭州市,上城区,15267488728,unknown,
baidu,7c57934a25c50ac209b93ab6,鸿辉烟酒超市(凯恩·西湖金座店),解放路111号,浙江省,杭州市,上城区,,unknown,
baidu,feb7e239b1f59cadeb1e974f,杭州丝绸特卖场(解放路店),浙江省杭州市上城区解放路120号,浙江省,杭州市,上城区,,unknown,
baidu,9e2e089d665afaf876e5b6ce,西湖金店,杭州市上城区皮市巷杭州中维香溢大酒店东南侧,浙江省,杭州市,上城区,,unknown,
baidu,1e7c56d24a0d6d0b4251c01a,全家便利店(皮巷店),皮市巷6号（近解放路）,浙江省,杭州市,上城区,4008200996,unknown,
baidu,b46cb8466eb1666ed8131878,茅廊巷农贸市场蔬菜水果批发,解放路茅廊巷农贸市场2楼33号摊位,浙江省,杭州市,上城区,17816186686,unknown,
baidu,e60fb3e4dfaaeb716c3e1bde,新天工艺苑,浙江省杭州市上城区解放路91-93号,浙江省,杭州市,上城区,15988877741,unknown,
baidu,8409b6c46e36a808a7c756e5,叶记炒货,杭州市上城区佑圣观路176-4号,浙江省,杭州市,上城区,15988829448,unknown,
baidu,063f52c80c603fb2f1193792,菜老蛙生鲜集市(茅廊巷农贸市场店),浙江省杭州市上城区茅廊巷农贸市场122号,浙江省,杭州市,上城区,13867137465,unknown,
baidu,170ed57143273c37fe0eb015,梅园茶行,浙江省杭州市上城区解放路副食品茶叶市场4号门北50米,浙江省,杭州市,上城区,13616511817,unknown,
baidu,7ffc39c34f51b7b4b75f1eea,姚生记(解放路店),杭州市上城区解放路茶叶市场2区2号,浙江省,杭州市,上城区,13906500876,unknown,
baidu,2fbbfd6633cef58e6c476044,重庆鲜面店,杭州市上城区丰家兜丰乐苑,浙江省,杭州市,上城区,,unknown,
baidu,0bf98e4e5a83205040afe688,你的便利店(解放路店),浙江省杭州市上城区解放路119号,浙江省,杭州市,上城区,18072934093,unknown,
baidu,a8c05bdd66326c7421026238,临安小核桃,浙江省杭州市上城区佑圣观路解放路茶叶市场2~6号,浙江省,杭州市,上城区,15988891453,unknown,
baidu,b2b601afb3b205eb29d7abad,逸羽茶叶,解放路茶叶市场2区43号,浙江省,杭州市,上城区,13588253658,unknown,
baidu,079f269175c001262b11d1ae,杭州古玩城,仁和路1号,浙江省,杭州市,上城区,(0571)87883555,unknown,
baidu,8e85ee94af3d423a734b87eb,天目仁生杭州特产,浙江省杭州市上城区佑圣观路261号,浙江省,杭州市,上城区,,unknown,
baidu,79d1d9b55446cf322efaa791,旺记山核桃,佑圣观路231号,浙江省,杭州市,上城区,,unknown,
baidu,7bfa08fc4cab1b7e25d2bb6c,杭州市棚桥农贸市场,中河中路203号,浙江省,杭州市,上城区,13606628898,unknown,
baidu,abc4388712ad9f54b64f5494,全家便利店(解放路店),解放路148号（解放路与中山中路交叉口东20米路南）,浙江省,杭州市,上城区,4008200996,unknown,
baidu,0fb924b6f3583f247069d351,YOYKOO VINTAGE(中古店),浣纱路146号,浙江省,杭州市,上城区,15658162719,unknown,
baidu,a9d821ccc718daf848cc4a4f,梅宏骥茶叶商行,浙江省杭州市上城区佑圣观路178号,浙江省,杭州市,上城区,"(0571)87818377,13606801769",unknown,
baidu,52e00ee16d56e69aa8175ad6,Studio1till8 SFM,保佑桥西弄1-2号,浙江省,杭州市,上城区,15869166438,unknown,
baidu,8516fb71c3e31f3af40e77cc,罗森便利店(杭州清泰街2店),清泰街481号,浙江省,杭州市,上城区,4008206390,unknown,
baidu,62ab2b97064adde89ee321e6,平中商滩,浙江省杭州市上城区小营街道大塔儿巷6号(香益大酒店后面),浙江省,杭州市,上城区,(0571)87068368,unknown,
baidu,adac9a79ea3b00ef6cc02c41,梅家坞茶行专卖店,佑圣观路205号,浙江省,杭州市,上城区,"(0571)87916230,13588108756",unknown,
baidu,f696f3c26125caf21a11d5e3,豫丰祥(东方金座店),中山中路403号,浙江省,杭州市,上城区,(0571)87029128,unknown,
baidu,fa899e4c136f15fef723108d,高品茶行,佑圣观路205号,浙江省,杭州市,上城区,13906515855,unknown,
baidu,435d7aeaa5d8fe345abbbc71,青年路通讯市场,杭州市上城区青年路60号,浙江省,杭州市,上城区,,unknown,
baidu,3a7410590750e77a76e5b6c0,官方授权店,杭州市上城区严衙弄金钱巷社区,浙江省,杭州市,上城区,,unknown,
baidu,55d6c23921d1483fcd06a497,佑万家便利店(皮市巷店),皮市巷27号,浙江省,杭州市,上城区,18668005230,unknown,
baidu,6cc1cc21d6e8a6ab4f6d468b,八一便利店,浙江省杭州市上城区解放路99-1号,浙江省,杭州市,上城区,,unknown,
baidu,6835e3a7da7cb54fe3110371,杭州中茗茶叶有限公司门市部,浙江省杭州市上城区佑圣观路146号7号,浙江省,杭州市,上城区,13606804261,unknown,
baidu,6356abf844c55342c8213d9d,月剑便利店(马市街店),浙江省杭州市上城区马市街17号,浙江省,杭州市,上城区,15868844083,unknown,
baidu,63bc479dda5bd579734b87b1,云蚂蚁(解放路八一便利店),浙江省杭州市上城区小营街道解放路99-1号,浙江省,杭州市,上城区,15068861809,unknown,
baidu,fc767524119c81e34e776e24,宝丽眼镜(解放路店),小营街道解放路116号(香溢大酒店旁),浙江省,杭州市,上城区,(0571)88932151,unknown,
baidu,c7742f37c5bebd3695f08cee,启丰茶业,佑圣观路259号,浙江省,杭州市,上城区,13858129976,unknown,
baidu,516fec50ccf89a965e0d02eb,包必成果业炒货(茅廊巷店),"茅廊巷农贸市场259,260号",浙江省,杭州市,上城区,(0571)87234586,unknown,
baidu,e0e4ee30c438f8efb5f42f08,果君淑菜(茅廊巷店),茅廊巷市场二楼蔬菜摊位7号,浙江省,杭州市,上城区,,unknown,
baidu,bdb719c1b6700af58505bf3b,罗氏果业(丰乐巷店),解放路丰乐巷54号,浙江省,杭州市,上城区,(0571)87814484,unknown,
baidu,eb367503415af51a00ec0171,卢正浩(解放路店),佑圣观路190号,浙江省,杭州市,上城区,"(0571)87020070,18072700055",unknown,
baidu,5e833e4b4d67a64ee6073892,狮峰龙井茶(官方授权店),杭州市上城区小营街道佑圣观路192号,浙江省,杭州市,上城区,18158138178,unknown,
baidu,b58321348b432ec342024511,叶氏兄弟(解放路店),解放路99号浙二医院对面,浙江省,杭州市,上城区,"(0571)87807133,4008133133",unknown,
baidu,28212acbf208bb5249fc8d7d,忆祖手工坊,丰家兜8、10、12号丰乐苑,浙江省,杭州市,上城区,13588342791,unknown,
baidu,df7333486554c9c5ce06a46a,希希茶行,浙江省杭州市上城区佑圣观路198号,浙江省,杭州市,上城区,18805763177,unknown,
baidu,a5f88504eae73c60a4c756bd,杭州茅廊巷菜市场牛肉铺,杭州市上城区丰家兜丰乐苑,浙江省,杭州市,上城区,18758293351,unknown,
baidu,7f1f896a7b617b75b45f1eb0,龙印茶庄(茅廊巷农贸市场茶叶区),丰家兜8-10号茅廊巷农贸市场茶叶区19号,浙江省,杭州市,上城区,13858027860,unknown,
baidu,4e66c3f67598521601ff2d84,新鲜牛羊肉(茅廊巷农贸市场店),茅廊巷农贸市场肉类区154号,浙江省,杭州市,上城区,13867480361,unknown,
baidu,1780235e91ceb3d91e1d1168,西湖龙井茶园(佑圣观路),浙江省杭州市上城区佑圣观路,浙江省,杭州市,上城区,"13805722915,13957164121",unknown,
baidu,cc8f3bd6069b052115a19090,禄臻堂,浙江省杭州市上城区佑圣观路269号,浙江省,杭州市,上城区,15990033301,unknown,
baidu,1e29f2b3c1e6608ad0ff239a,梅坞茶园,浙江省杭州市上城区佑圣观路186号,浙江省,杭州市,上城区,,unknown,
baidu,8a10add0337b14a0f723102a,双雁茶行,佑圣观路茶叶市场3区1号,浙江省,杭州市,上城区,18858269883,unknown,
baidu,57a6fc56c4a49162354aaef2,龙程茶行(佑圣观路店),解放路副食品茶叶市场一区4号,浙江省,杭州市,上城区,"13516819858,13758251613,13905716169",unknown,
baidu,2848ffd6ade9c37248cc4af1,茗陶轩(丰乐巷分店),佑圣观路207号丰乐公寓,浙江省,杭州市,上城区,13306818221,unknown,
baidu,beb0d99248e915ca2e473367,汇茗茶行(佑圣观路店),浙江省杭州市上城区佑圣观路202号,浙江省,杭州市,上城区,13606621500,unknown,
baidu,75405f42d229f7ce932ca3b0,陈正水果店,马市街8号101室,浙江省,杭州市,上城区,15958188606,unknown,
baidu,5300d318f8d7defdd6b74e6d,群梅茶行,小营街道佑圣观路253号,浙江省,杭州市,上城区,13606622106,unknown,
baidu,4f4ea82a7898ef5182a12e6a,乾隆御茶,浙江省杭州市上城区佑圣观路140号,浙江省,杭州市,上城区,15167116699,unknown,
baidu,d250cdb6ab2a1449f7231085,香叶茶庄,杭州市上城区丰家兜丰乐苑,浙江省,杭州市,上城区,(0571)87804408,unknown,
baidu,5116b78e0331469debe582dd,毅峰茶业,浙江省杭州市上城区佑圣观路211号店,浙江省,杭州市,上城区,13588838784,unknown,
baidu,53cebd50253453782a02e1dc,新华书店(解放路店),解放路225号,浙江省,杭州市,上城区,"(0571)87078523,(0571)87924823",unknown,
baidu,9a04e731d95bf8a5f8f0cb1d,华勋茶业,小营街道佑圣观路解放路茶叶市场2区16号(4号通道),浙江省,杭州市,上城区,13588101219,unknown,
baidu,5a95116f47830dcea8f0cd32,香烟,浙江省杭州市上城区中山中路312号1单元,浙江省,杭州市,上城区,,unknown,
baidu,1d67732d67f34d644354d7f4,婉家茶老白茶·西湖龙井,浙江省杭州市上城区佑圣观路223-1号,浙江省,杭州市,上城区,15990077888,unknown,
baidu,1d585ed4f9feedd22fb96de5,安溪润珍茶厂直销店,浙江省杭州市上城区佑圣观路219号,浙江省,杭州市,上城区,,unknown,
baidu,6d8dbc98fde26015d5b74e6b,傅盛茶庄,浙江省杭州市上城区佑圣观路150号,浙江省,杭州市,上城区,"(0571)87810749,13906509660",unknown,
baidu,de94c5f132d17ee9cb213d7a,中国冠军香榧(佑圣观路店),佑圣观路227号正对面,浙江省,杭州市,上城区,13957166345,unknown,
baidu,9bc7637dd736f079eb56fa26,电动自行车充电区,浙江省杭州市上城区青年路小区,浙江省,杭州市,上城区,,unknown,
baidu,4e08370ee1d6980edeee8b20,冉冉茶行,杭州市上城区佑圣观路茅廊巷社区-北区,浙江省,杭州市,上城区,13867102455,unknown,
baidu,c1754c58f43cf467715e806f,凌云茶行,浙江省杭州市上城区佑圣观路197号,浙江省,杭州市,上城区,13957127157,unknown,
baidu,482e5bff3fd30b27afcb66a8,茗龙茶行(佑圣观路店),浙江杭州市上城区佑圣观路223号,浙江省,杭州市,上城区,,unknown,
baidu,c0718e34f1f2f07240e1920d,道春五金店,浙江省杭州市上城区民生路9号,浙江省,杭州市,上城区,,unknown,
baidu,7efe8ff03044b3969f09f703,福林茶行(严衙弄店),佑圣观路172-3号茶叶市场区8号,浙江省,杭州市,上城区,"(0571)87818782,15990017075",unknown,
baidu,34c890f2b76ea0f91f3894d5,欣诚茶行,杭州市上城区南班巷,浙江省,杭州市,上城区,,unknown,
baidu,8addc17d45c2ca3ec2f1cf5d,慧慧通讯(青年路店),浙江省杭州市上城区青年路52-3号,浙江省,杭州市,上城区,,unknown,
baidu,c7050de1dd47e2c82fb908dd,恩韵茶行,浙江省杭州市上城区佑圣观路160号,浙江省,杭州市,上城区,18758899088,unknown,
baidu,73e74a7fa265b98e36b06cd6,厅机关洗衣房,浙江省杭州市上城区民生路64-6厅,浙江省,杭州市,上城区,,unknown,
baidu,f2da612b147bde49c9fa5fc1,妈咪小屋(浙江省机械设备进出口有限责任公司站),杭州市解放路111号20楼2003,浙江省,杭州市,上城区,,unknown,
baidu,bbdd78054d9322fa4afd3f32,杭州西湖晶座酒店大堂,浙江省杭州市上城区解放路131号,浙江省,杭州市,上城区,,unknown,
baidu,ef47265b0e16a9469d9d68dd,顺丰速运(杭州财税大楼店),浙江省杭州市上城区小营街道民权路9号,浙江省,杭州市,上城区,,unknown,
baidu,472468036dd75c55f4eafcc7,申奇回收连锁(解放路店),大塔儿巷13号,浙江省,杭州市,上城区,(0571)28180307,unknown,
baidu,bec89c53f3b80493da2f2894,金秋志愿驿站,杭州市上城区解放路杭州老干部大学,浙江省,杭州市,上城区,,unknown,
baidu,e226eb10f8f394536fc02c47,杭州兰源数码摄影有限公司,民生路5-5号,浙江省,杭州市,上城区,(0571)87228305,unknown,
baidu,e8835178814a10f0ce04efc7,便民服务,杭州市上城区皮市巷小营巷社区,浙江省,杭州市,上城区,,unknown,
baidu,9cf9f1f1337c6b7dd13ce333,妈咪小屋(浙江大学医学院附属第一医院站),杭州市浙江大学医学院附属第一医院9号楼洗消中心三楼浙一9号楼洗消中心三楼,浙江省,杭州市,上城区,,unknown,
baidu,9d90d84587cf00aa8a36ee3b,女洗手间,杭州市上城区南班巷如家精选酒店(解放路店),浙江省,杭州市,上城区,,unknown,
baidu,411d04223dd552d840ab9a4c,中国邮政(清泰街邮政所),浙江省杭州市上城区清泰街501-1号,浙江省,杭州市,上城区,"(0571)87819049,(0571)88174652",unknown,
baidu,470595d32aac1dfa2fb96df9,中国福利彩票(佑圣观路店),浙江省杭州市上城区佑圣观路191号,浙江省,杭州市,上城区,954168,unknown,
baidu,4a8442b20b8cecfb17c8f6e2,小营街道党群服务中心,小营巷57号,浙江省,杭州市,上城区,,unknown,
baidu,e1206de0793d71b5921fc9b0,小营江南红巷景区-游客中心,杭州市上城区小营巷浙江大学医学院附属第一医院(庆春院区)西南侧约130米,浙江省,杭州市,上城区,,unknown,
baidu,46fbb421e0926bd62202629d,圣视觉摄影,光复路108号,浙江省,杭州市,上城区,,unknown,
baidu,dcbc1ef9e29d84dd583ac853,幸缘婚庆(金鸡领分店),浙江杭州上城区南班巷2-1-103室,浙江省,杭州市,上城区,,unknown,
baidu,dbab2b0cb91bf62646e2741f,残障洗手间,杭州市上城区南班巷如家精选酒店(解放路店),浙江省,杭州市,上城区,,unknown,
baidu,1149b0e402e25537364aae17,中国邮政(中山中路邮政网点店),浙江省杭州市上城区中山中路313号,浙江省,杭州市,上城区,(0571)87026590,unknown,
baidu,9d3be1e9d97b09468bb988c8,Queen Hera Photo Studio,解放路89号星河商务大厦10楼1001室,浙江省,杭州市,上城区,,unknown,
baidu,aa6329e9d61ca31643ab9a7f,中国电信集团黄页信息有限公司(杭州市分公司店),杭州市上城区湖滨街道中河中路149号,浙江省,杭州市,上城区,18958160341,unknown,
baidu,c328d28150419910cf06a47c,杭州金闰婚庆礼仪有限公司,浙江省杭州市上城区中河中路168号浙江国贸大厦8楼,浙江省,杭州市,上城区,,unknown,
baidu,ea2581b96e4709a1a8f72997,庆春老字号修拉链,清吟街143号,浙江省,杭州市,上城区,18368809764,unknown,
baidu,b049757e476c6ac95fbe862a,小营江南红巷景区物业服务中心,浙江省杭州市上城区解放路88号6号楼1楼,浙江省,杭州市,上城区,,unknown,
baidu,6c0b08e22c9cbbef7dc876fe,中国电信(解放路营业厅),浙江省杭州市上城区解放路116号,浙江省,杭州市,上城区,(0571)10000,unknown,
baidu,51c511ad6f40466e0bf5eb7f,万宝缝纫设备公司,中山中路293号(定安路地铁站A口步行460米),浙江省,杭州市,上城区,(0571)87034642,unknown,
baidu,13aa76322fc7e5ae0bf5eba6,小营印章,中河中路188号,浙江省,杭州市,上城区,"(0571)87026761,13666622761",unknown,
baidu,6b85a0fb34836e54f7b9167a,殡葬一条龙服务,杭州市上城区崔家巷邮电路小区东南侧约60米,浙江省,杭州市,上城区,,unknown,
baidu,9addb401c0360b9ec42ba1c8,杭州照相馆(国货路店),国货路1号,浙江省,杭州市,上城区,(0571)87081036,unknown,
baidu,db087d458d7ebfbc49fd3f32,茅廊巷社区党群服务中心,杭州市上城区涌金立交桥义井巷小区(佑圣观路),浙江省,杭州市,上城区,,unknown,
baidu,a8e7608a2eb80789acee7a31,杭州市总工会职工服务中心,岳王路3-5号,浙江省,杭州市,上城区,(0571)87161079,unknown,
baidu,6ade66df3ae2baa3120daaa8,杭州锦炫开锁公司,浙江省杭州市上城区清泰街346号雪峰大厦5楼,浙江省,杭州市,上城区,,unknown,
baidu,9902a9fd58e7177833621250,无障碍洗手间(清泰街),杭州市上城区清泰街杭州市第三人民医院,浙江省,杭州市,上城区,,unknown,
baidu,de1ac8fa4e7eb9c92efaa730,复印,浙江省杭州市上城区光复路109号,浙江省,杭州市,上城区,,unknown,
baidu,f8fca4d72235e55c3586f4c3,妈咪小屋(上城区浙江天虹百货有限公司站),杭州市上城区四季青街道新塘路108号B座4楼,浙江省,杭州市,上城区,,unknown,
baidu,81dd9b75d04550770bccddb0,来拍照叭(仁和路14-4),浙江省杭州市上城区仁和路14-4号,浙江省,杭州市,上城区,18657820927,unknown,
baidu,593850fb9c952d5cdf1e5275,中国邮政(城站邮政支局),小营街道环城东路10号(近城站火车站),浙江省,杭州市,上城区,(0571)87806184,unknown,
baidu,58dd36d0ce4662ec0bb93a12,杭州站-售票处,环城东路1号城站广场杭州站F2,浙江省,杭州市,上城区,13357155070,unknown,
baidu,f52c76573ffa967d43ab9acc,对外开放卫生间(杭州慢享酒店管理有限公司),浙江省杭州市上城区解放路131号,浙江省,杭州市,上城区,,unknown,
baidu,680fb703d286c9e18bb988f3,中国电信(上城水漾桥营业厅),浙江省杭州市上城区中河中路151号,浙江省,杭州市,上城区,"(0571)87644195,(0571)87823001",unknown,
baidu,7402b94c3f86de1b3be4a689,昊昊文印制作中心,佑圣观路214-1号,浙江省,杭州市,上城区,,unknown,
baidu,25fc1b16679f9a84a8059d9b,中国体育彩票(佑圣观路店),浙江省杭州市上城区佑圣观路191号,浙江省,杭州市,上城区,95086,unknown,
baidu,d7104d0139993b7b95f08ccd,公共厕所,佑圣观路275号1楼(近茅廊巷农贸市场),浙江省,杭州市,上城区,,unknown,
baidu,96f38abdabc6d0bfc36c14a4,修表上门开锁,杭州市上城区南班巷,浙江省,杭州市,上城区,18814822670,unknown,
baidu,9cfcc24b27af9953cd04efdf,轩益房产,浙江省杭州市上城区皮市巷27号,浙江省,杭州市,上城区,,unknown,
baidu,bbf8492af6edb3ad80a00c93,庆华饭店-洗手间,杭州市上城区清泰街民生路58号(清泰街与民生路交叉口北侧),浙江省,杭州市,上城区,,unknown,
baidu,5451c7eb51667e34ca09f07b,公厕,解放路132号思澄堂,浙江省,杭州市,上城区,,unknown,
baidu,63c36f3705a7ae8e7369d37d,杭州中维香溢大酒店-洗手间,杭州市上城区解放路108号(近中河路),浙江省,杭州市,上城区,,unknown,
baidu,5a6d83cec0623d65f82d6188,公共厕所(丰乐桥南),浙江省杭州市上城区解放路141号,浙江省,杭州市,上城区,,unknown,
baidu,424e8255afece0c8ebe58214,公共厕所,杭州市上城区小塔儿巷航天通信大厦东北侧约70米,浙江省,杭州市,上城区,,unknown,
baidu,3dd4785afa4900f02dfaa783,公共厕所(茅廊巷农贸市场店),浙江省杭州市上城区严衙弄雪峰大厦西北侧约120米,浙江省,杭州市,上城区,,unknown,
baidu,27dfc8e6995c6aa0e9f85360,无障碍洗手间(小塔儿巷),浙江省杭州市上城区小营街道大塔儿巷19号,浙江省,杭州市,上城区,,unknown,
baidu,d9bf2ba7676df4fcc26c14c2,公厕,杭州市上城区马市街小营公园,浙江省,杭州市,上城区,,unknown,
baidu,e1432d1b826b2e1e41d63e34,公共卫生间,杭州市上城区马市街浙江大学医学院附属第二医院(解放路院区)西北侧约80米,浙江省,杭州市,上城区,,unknown,
baidu,37e81c5a6c10f87da2d23085,东红图文(民生路店),民生路5-1号,浙江省,杭州市,上城区,13575757474,unknown,
baidu,4567e572e3ee16b5c8213d03,中国体育彩票(金鸡岭路店),杭州市上城区望江路68号,浙江省,杭州市,上城区,15382366677,unknown,
baidu,d98ff5b4d5db81a771210bdb,桔子水晶酒店(杭州西湖湖滨银泰店)-大堂,浙江省杭州市上城区解放路总店解放路142号,浙江省,杭州市,上城区,,unknown,
baidu,550fd5f95552b907931fc943,公共厕所(官巷口),浙江省杭州市上城区解放路189号,浙江省,杭州市,上城区,,unknown,
baidu,b92d3af0f755b6e3fbdc8578,杭州西湖帕瑞思酒店大堂,杭州市上城区中河中路航天通信大厦,浙江省,杭州市,上城区,,unknown,
baidu,271d9835b26e5a8cfda778ec,无为图文广告,金鸡岭路67号,浙江省,杭州市,上城区,18692488860,unknown,
baidu,12cd65d012b78addad080fe0,中国体育彩票(解放路沿线店),浙江省杭州市上城区中山中路313-2号,浙江省,杭州市,上城区,95086,unknown,
baidu,ba0f6b066e28c222abf0cd1c,红巷长青颐养园,浙江省杭州市上城区小营公园8号红巷,浙江省,杭州市,上城区,(0571)88361988,unknown,
baidu,d2e8cbe19cd34a7b7fc87602,知格图文广告,"马市街97-1,97-2",浙江省,杭州市,上城区,"(0571)86992576,15336888039,18142019886",unknown,
baidu,8e933e8bc3b442ddaeb22ad5,迪航手机维修回收(南班巷店),浙江省杭州市上城区金鸡岭69号,浙江省,杭州市,上城区,18228903377,unknown,
baidu,2ca31e2d60cc5d6af4b916d8,公共厕所(水漾桥),光复路100号,浙江省,杭州市,上城区,,unknown,
baidu,0f55c62cccf3ca6debe582f0,中国移动手机维修(创基社区店),浙江省杭州市上城区清泰街406号,浙江省,杭州市,上城区,,unknown,
baidu,231d8c6f7d59686feedfca2f,国广图文,浙江省杭州市上城区清泰街551号,浙江省,杭州市,上城区,(0571)86824096,unknown,
baidu,9c698d66b58362a39ee321c2,彬彬文印,浙江省杭州市上城区光复路132-103号,浙江省,杭州市,上城区,,unknown,
baidu,6d72164bcf8c2f0002897262,街电(庆鱼年蒸汽石锅鱼天工艺苑汇和城店),浙江省杭州市上城区解放路91-93号天工艺苑3楼07号,浙江省,杭州市,上城区,4006868588,unknown,
baidu,ce4e5f1708864e563686f465,新开元大酒店·宴会厅,湖滨街道解放路142号(近中河路高架桥),浙江省,杭州市,上城区,"(0571)87016868,(0571)87017878",unknown,
baidu,c8b5cdef8732827d130daaf2,公共厕所(清吟街),杭州市上城区清吟街森仁里社区西南侧约40米,浙江省,杭州市,上城区,,unknown,
baidu,ed0219c57474850dca1b9550,街电(糯雅芳粥清泰街店),清泰街555号,浙江省,杭州市,上城区,4006868588,unknown,
baidu,01dc3cad789ecf811188244a,红巷生活馆,小营巷57号(万安桥地铁站D口步行360米),浙江省,杭州市,上城区,"(0571)85333110,(0571)89960188",unknown,
baidu,0113aaed0212961c0d0e6b73,我爱我家(佑圣观路店),浙江省杭州市上城区佑圣观路179-2号,浙江省,杭州市,上城区,18758291011,unknown,
baidu,0c4be5033e4f98cec51b75dd,公共厕所,光复路100号,浙江省,杭州市,上城区,,unknown,
baidu,9b9ca68a8b16f428873304f1,真彩图文数码印刷(中河店),中河中路153号迪佛大楼1楼（近电信水漾桥营业厅）,浙江省,杭州市,上城区,"(0571)87025543,(0571)87031175",unknown,
baidu,09157687f54fcbe6b020a86e,建群电动车修理部,杭州市上城区皮市巷杭州市小营小学东南侧约30米,浙江省,杭州市,上城区,18158422085,unknown,
baidu,d0168a8668786acfce04ef63,链家(马市街店),浙江省杭州市上城区马市街99-3号,浙江省,杭州市,上城区,10109666,unknown,
baidu,26ff9bcacb413e58b9df8f11,怪兽充电(越英核桃酒),浙江省杭州市上城区清泰街509号,浙江省,杭州市,上城区,4006703303,unknown,
baidu,fc61df27a27ca2a60782c2a3,新开元大酒店解放路总店-洗手间,"杭州市上城区解放路142号(解放路中河路路口,近浙二医院)",浙江省,杭州市,上城区,,unknown,
baidu,f12cb986380501047c29bd98,中国福利彩票(中山中路店),杭州市上城区东平巷尼可精品酒店(中山中路店)西侧,浙江省,杭州市,上城区,,unknown,
baidu,35b9b88fda3d314597ec84f5,嘉亿图文(清吟街店),清吟街107-1号,浙江省,杭州市,上城区,(0571)87041019,unknown,
baidu,8b9c7fd0f6790bf9da2f28d0,洁祥洗衣(光复路),光复路149号1-3（解放路新开元大酒店右侧）,浙江省,杭州市,上城区,18267180709,unknown,
baidu,4077fc0b68c86e2743ab9a88,长江刻字工艺坊,中山中路300号,浙江省,杭州市,上城区,(0571)87026635,unknown,
baidu,5259e5f3a3c159145bf6bef2,小营巷,杭州市上城区小营巷小营公园,浙江省,杭州市,上城区,,unknown,
baidu,669775d05efe3225fd0eb0fb,公共厕所(清泰街),杭州市上城区清泰街杭州市第三人民医院,浙江省,杭州市,上城区,,unknown,
baidu,5a88d73475cb39ed1df74d52,红鑫图文(西湖大道店),西湖大道90号,浙江省,杭州市,上城区,15088677103,unknown,
baidu,df913229dc14f38e00ec0141,清泰街锁行,浙江省杭州市上城区小营街道清泰街527-5号,浙江省,杭州市,上城区,13588829250,unknown,
baidu,3c16035df55d3cb7223bf2dd,湘科图文,中河中路186号,浙江省,杭州市,上城区,15906606983,unknown,
baidu,3b60596e0544dbf14354d739,中国电信股份有限公司(中河中路营业厅),浙江省杭州市上城区中河中路149号,浙江省,杭州市,上城区,15372052608,unknown,
baidu,6fcabe7006bb99c39d9d6873,正圆图文(西湖大道店),西湖大道84号义井小区,浙江省,杭州市,上城区,,unknown,
baidu,3d032c6a331e8b52e8e5822f,祥龙图文广告,金鸡岭9号,浙江省,杭州市,上城区,13735523967,unknown,
baidu,444599a597e8c39bc7f50d87,金星奢侈品皮具护理,中河中路190号金星奢侈品皮具护理,浙江省,杭州市,上城区,13067879059,unknown,
baidu,0cef04a567fe1e1ef6c59cf6,中国电信(惠兴路营业厅),浙江省杭州市上城区惠兴路9号,浙江省,杭州市,上城区,(0571)87089082,unknown,
baidu,d9c20232bccd55db250bd05f,豪世华邦(马市街店),浙江省杭州市上城区马市街99-3号,浙江省,杭州市,上城区,,unknown,
baidu,0111bd2f5b887d8709a8d4ff,易居房友(西湖大道店),浙江省杭州市上城区西湖大道108~110号,浙江省,杭州市,上城区,15988868065,unknown,
baidu,c7673082da3ae5598433040d,众兴房产(皮市巷店),皮市巷192号众兴中介,浙江省,杭州市,上城区,18072878719,unknown,
baidu,74f9c34e7d9377edab059d4c,紫金社区居家养老服务照料中心,浙江省杭州市上城区清吟街108号,浙江省,杭州市,上城区,,unknown,
baidu,253aaa67130b73b0932ca394,大井巷棕棚,杭州市上城区中河中路182号,浙江省,杭州市,上城区,13357145796,unknown,
baidu,770b334e752e60f6220262f5,街电(芭宝莉护肤造型),杭州市上城区清吟街82号,浙江省,杭州市,上城区,15857167397,unknown,
baidu,c27dd1cd163d5c1b08f5eb47,街电(原来你在这里),杭州市上城区湖滨街道中山中路295号,浙江省,杭州市,上城区,4006868588,unknown,
baidu,c22d62e3dd45d426b35c6a9a,街电(泽川创作料理西湖大道店),杭州市上城区西湖大道146号,浙江省,杭州市,上城区,4006868588,unknown,
baidu,3db7a456a13b41781f38943a,公共厕所,杭州市上城区光复路南宋御街,浙江省,杭州市,上城区,,unknown,
baidu,f9fd6062833955610f0e6bdb,公共厕所,布丁酒店(庆春路店)附近,浙江省,杭州市,上城区,,unknown,
baidu,922c033989e058d08af15d5c,中国电信(庆春路营业厅),上城区庆春路91号,浙江省,杭州市,上城区,(0571)87237062,unknown,
baidu,7ed1e8c659f06f324c6d4625,珑首房产,浙江省杭州市上城区小营街道中河中路198号绿都大厦10楼,浙江省,杭州市,上城区,,unknown,
baidu,8e990fb5e8855826d12dd622,杭州安诺新程国际康养中心,浙江省杭州市上城区解放路40号,浙江省,杭州市,上城区,17505810513,unknown,
baidu,ff3026dd32ad70e9e315f97f,行李寄存(杭州站店),浙江省杭州市上城区环城东路1号杭州站F1,浙江省,杭州市,上城区,15715762572,unknown,
baidu,fa835ce2e90becc8e812e465,公共厕所(浣纱路),杭州市上城区岳王路浙江大学医学院附属妇产科医院,浙江省,杭州市,上城区,,unknown,
baidu,35debf29d6700d45a6da3972,国家电网(杭州城南供电营业厅),建国南路158号(江城路地铁站D口步行290米),浙江省,杭州市,上城区,95598,unknown,
baidu,d3a74f1c0c0e9853100daa9f,公共厕所(吴山路),浙江省杭州市上城区湖滨街道湖滨商圈平海路69号,浙江省,杭州市,上城区,,unknown,
baidu,7b452a14750733ee29fc480d,权心权意,香溢大酒店二楼,浙江省,杭州市,上城区,13777864844,unknown,
baidu,0e4376ab1236dee7f60e77e9,蕾蕾美颜美容美体(天工艺苑店),小营街道解放路91号天工艺苑3楼(浙二医院对面汇和城3楼),浙江省,杭州市,上城区,4006060890,unknown,
baidu,9d2f66c57b2eb912990050e1,青木造型HAIR·あおき髪を刈る潮人店(青木造型あおき潮人店),清泰街470号（省公安厅附近，清泰街与民生路交叉口）,浙江省,杭州市,上城区,,unknown,
baidu,a24f2afb3fab26e1fca778a0,九樱美甲美瞳,光复路146号,浙江省,杭州市,上城区,15867101708,unknown,
baidu,bcdc98bf4aefae3af50e77dd,梵贝形象设计(富春大厦店),清泰街佑圣观路181号,浙江省,杭州市,上城区,(0571)86799212,unknown,
baidu,5211d2194f2a06417cc87680,克丽缇娜(梅花三胜店),佑圣观路119号,浙江省,杭州市,上城区,,unknown,
baidu,36f949e7811033119e82ea8e,色古美业(中山中路店),中山中路383号（一点点斜对面）,浙江省,杭州市,上城区,13067783761,unknown,
baidu,48ee0a1881862102f703b85d,美艺造型(清吟街店),清吟街30号,浙江省,杭州市,上城区,13588446853,unknown,
baidu,62044d78ab12ffd83310af9a,蕾蕾美颜美容美体(解百新世纪商厦店),解放路249号101室A1F-103（肯德基进来上2楼右拐）,浙江省,杭州市,上城区,4006060890,unknown,
baidu,0a510a557afb0500acb22afc,寇氏减肥(望江路店),清泰街346号雪峰大厦828室,浙江省,杭州市,上城区,,unknown,
baidu,5b25f4463c0262f3112935e2,蕾蕾美颜美容美体(越都荟店),庆春路89号越都荟2楼（浙一医院西侧）,浙江省,杭州市,上城区,4006060890,unknown,
baidu,edd64ce1271218883fe231c4,姿柏莉美容(平海店),湖滨街道中山中路495号(近平海公寓),浙江省,杭州市,上城区,(0571)87024717,unknown,
baidu,3225586e1fc61a0b96ca07ca,自然美(建国中路店),建国中路138号,浙江省,杭州市,上城区,13732250288,unknown,
baidu,a4440400a319aa93d0ff23c8,伊植美女子美容会所(瑞丰店),中河中路258号瑞丰国际商务大厦8楼F座（嘉德广场对面）,浙江省,杭州市,上城区,"(0571)87078551,(0571)87248026",unknown,
baidu,dc0c0ce98a7c0c8108ccdd09,琴琴美发店(后市街店),后市街88号,浙江省,杭州市,上城区,,unknown,
baidu,8790cc4914501bc7cf06a485,壹间理发店,紫金观巷2号楼,浙江省,杭州市,上城区,18258919097,unknown,
baidu,2bb3e1abd7c4d4cc33169b46,candyNail,浙江省杭州市上城区解放路192-2号,浙江省,杭州市,上城区,,unknown,
baidu,e305b0854a0834b5aeb22add,魔秀健康管理工作室,凤起路双牛大厦24楼24p号（近建国北路地铁站E2口）,浙江省,杭州市,上城区,"13656645499,13758277413",unknown,
baidu,3bbe790e3735c48f95ca07ee,CK·Hair造型(清泰街店),清泰街168号（火车城站）,浙江省,杭州市,上城区,18258812260,unknown,
baidu,752bf0686ed90bca42d63eed,本松hair salon(浙一浙二马市街店),马市街132-4号,浙江省,杭州市,上城区,15967144164,unknown,
baidu,21c3f397fdf7638088b988c1,简发,开元路33号,浙江省,杭州市,上城区,17530436646,unknown,
baidu,0e24a0000676ed5b2cb908a3,亮靓发艺(马市街店),马市街阿玉服饰旁边,浙江省,杭州市,上城区,13018997534,unknown,
baidu,5ede637690a5caa34251c055,零度·男士发型设计(浣纱路店),浣纱路38号青年路社区西门,浙江省,杭州市,上城区,13764457628,unknown,
baidu,4f56ec1729b1118d80a00ca1,大唐辣妈东方塑身(东方金座店),岳王路1号东方金座B座2010室,浙江省,杭州市,上城区,13588331325,unknown,
baidu,87a8fe924551d26e6f476096,苑苑发型设计(庆春路店),庆春路87号越都荟2楼,浙江省,杭州市,上城区,"(0571)87087498,18667044384",unknown,
baidu,3cea7d707d86ae98441a328f,墨墨告白·养发·健发·白发(解放店),解放路108号二楼204（香溢大酒店2楼）,浙江省,杭州市,上城区,,unknown,
baidu,c728d14ef10bc07a4e776e14,陈强发艺,光复路148号,浙江省,杭州市,上城区,,unknown,
baidu,e3b3161bd0565b33eee4a563,星东美业(青年路店),浙江省杭州市上城区青年路48号,浙江省,杭州市,上城区,(0571)87919188,unknown,
baidu,4da393d6598cd08801294f7e,倩颜,浙江省杭州市上城区清吟街14号,浙江省,杭州市,上城区,,unknown,
baidu,5284e6cea1e2b8c078b55ca1,会宾理发,浙江省杭州市上城区光复路小区北侧,浙江省,杭州市,上城区,,unknown,
baidu,c879fa0189193153c809f08e,自由天地,清吟街109号,浙江省,杭州市,上城区,13600513512,unknown,
baidu,9769145fe176e5f5c9fa5f17,西子疗愈,清波街道西湖大道196号(定安路地铁站A口东100米),浙江省,杭州市,上城区,,unknown,
baidu,c7fc3f2d66a94e77f82d6142,星东美容(解放路店),解放路198号,浙江省,杭州市,上城区,(0571)87919188,unknown,
baidu,e3cbfb6d896b09db8bdb7372,古品美发工作室,青年路东平巷34号,浙江省,杭州市,上城区,13989812063,unknown,
baidu,bffe3e8b905d966321026297,发艺术,浙江省杭州市上城区解放路75号,浙江省,杭州市,上城区,13777889543,unknown,
baidu,acaa9ee68f8446947c29bd2d,城头理发,城头巷74号(城站地铁站D口步行420米),浙江省,杭州市,上城区,,unknown,
baidu,90e60555754451d10b69d991,红辣椒专业理发店,浙江省杭州市上城区五柳巷16号,浙江省,杭州市,上城区,13868042985,unknown,
baidu,eb2e7510b8bfbb8632870a88,精品造型,浙江省杭州市上城区龙华巷社区,浙江省,杭州市,上城区,,unknown,
baidu,8a38284c6b6017411b11d5ed,法海理发室(长明寺巷社区店),长明寺巷22号5-6单元,浙江省,杭州市,上城区,18067907836,unknown,
baidu,45220ef90ccfc089fda77817,InSevev美发美甲沙龙(建国店),浙江省杭州市上城区建国中路181号,浙江省,杭州市,上城区,"(0571)87086206,13777495013",unknown,
baidu,98c06cdeeb0dcc7585420e6e,HOMIE·逅觅造型,浙江省杭州市上城区岳王路1号东方金座3楼观光电梯直达,浙江省,杭州市,上城区,15888835591,unknown,
baidu,2f747679640eb87ddbd89149,华晨发艺,杭州市上城区城站地铁c口200米市三医院大门斜对面,浙江省,杭州市,上城区,13588856905,unknown,
baidu,69130523d3bdc011725e80fc,缪斯造型(解百新世纪店),解放路249号解百A座商厦F1（入口在星巴克侧边侧门）,浙江省,杭州市,上城区,(0571)87802000,unknown,
baidu,bdb6f432578b7295ee74f8a5,SE GU造型工作室,杭州市上城区中山中路J.S美宿公馆酒店(杭州西湖店)西北侧约40米,浙江省,杭州市,上城区,,unknown,
baidu,e8e027982b8d21ce4bcc4a59,孔雀手美甲美睫护理(解百新世纪商厦店),解放路251号解百新世纪商厦F1（蕾蕾美颜内）,浙江省,杭州市,上城区,17767105335,unknown,
baidu,bd5046e8e7a8c140d72ce26f,麦剪造型,邮电路21-9号,浙江省,杭州市,上城区,13306515188,unknown,
baidu,b13b5b1c01c68b219d9d68a7,普云皮肤管理养生日式美睫美甲,开元路33-1号,浙江省,杭州市,上城区,13157139073,unknown,
baidu,4a03751894c7535cfbf0cbd2,Triple Dapper男士理发馆BARBERSHOP(湖滨店),石贯子巷5号,浙江省,杭州市,上城区,15397151066,unknown,
baidu,8ae25d566ea28d30abf72929,喜乐发型,建国中路226号,浙江省,杭州市,上城区,15058121550,unknown,
baidu,e46745cc0bab4774e81e9738,伟东理发店,浙江省杭州市上城区小营街道水亭址福利新村5-1-602-小区门口,浙江省,杭州市,上城区,,unknown,
baidu,ba42f022d4a9f9d84151c01a,欣龙发艺,大学路30号(万安桥地铁站E口步行260米),浙江省,杭州市,上城区,15158020303,unknown,
baidu,71d72bc6acd19f344d2fdfd9,田源美发,仁和路8-2号,浙江省,杭州市,上城区,17816181639,unknown,
baidu,14076deeb44b9a8902294f58,年华似锦形象美业(梅花三胜店),河坊街28号八佰伴,浙江省,杭州市,上城区,13958158171,unknown,
baidu,01ec6a0d7a0e701ed92f281b,特秀减肥养生会所(万安城市花园东苑店),建国中路151号,浙江省,杭州市,上城区,,unknown,
baidu,8ff51697bcc8585486154124,意点工作室(平海公寓店),中山中路525号,浙江省,杭州市,上城区,13958197263,unknown,
baidu,eaa90a22e910f6da46e274bc,靓淇美发(浣纱路店),浣纱路14号(近二盅酒家),浙江省,杭州市,上城区,13757125040,unknown,
baidu,1ff00dd6d3f129dcd1f49e34,和正养生会所,浙江省杭州市上城区定安路126号西湖创意谷6号楼4楼4022室,浙江省,杭州市,上城区,"0571-88033299,13388428842",unknown,
baidu,f7ab293242f7eb904d776edf,天上人间造型(新华店),新华路11-3号,浙江省,杭州市,拱墅区,(0571)87213158,unknown,
baidu,813e54fd0b3f0a2926d2bbcd,英英理发店,中河中路82号浙江人寿大厦对面,浙江省,杭州市,上城区,15168233607,unknown,
baidu,9a58eb5d35b679b7f03cbaf6,IN SEVEN·hairsalon(建国中路店),建国中路181号,浙江省,杭州市,上城区,15258805394,unknown,
baidu,41df60bd2be5985f8836ee9e,My-美甲美睫皮肤管理(金峰大厦店),中河中路金峰大厦906室,浙江省,杭州市,上城区,18626895203,unknown,
baidu,c9884eefaba0be8575e5b6c6,麦古专业烫染,浙江省杭州市上城区皮市巷紫金观巷102号,浙江省,杭州市,上城区,,unknown,
baidu,6afa0062f05a62072fb17eed,XIZI西子美睫美甲半永久,开元路25-2号,浙江省,杭州市,上城区,"13575459983,18768418669",unknown,
baidu,07dc0876120e539b6e20b9b8,张向平发型工作室,皮市巷129号,浙江省,杭州市,上城区,,unknown,
baidu,5ff3cecc764916f4f7b9166b,索乐形象(永丰巷住宅小区店),中山北路63号,浙江省,杭州市,拱墅区,"(0571)87077666,13575741459",unknown,
baidu,121130eed3d5a59d03ec016d,有间熹美美甲,小营街道庆春路87号越都荟二楼(苑苑形象设计),浙江省,杭州市,上城区,,unknown,
baidu,c1d600e5da0aa6c002294f35,莎蔓莉莎美容会所(明星店),凤起路446-8号与凤凰街交叉口西40米,浙江省,杭州市,拱墅区,(0571)87240531,unknown,
baidu,da4f77d6f9510e33f4e73b3b,欢喜美美(湖滨店),龙翔桥站c口东坡路27号名珏公寓4楼423室,浙江省,杭州市,上城区,13646871114,unknown,
baidu,7db6a40618252e80c3364410,谷雨(锦花苑店),大学路75-1号,浙江省,杭州市,上城区,13732243597,unknown,
baidu,047bcc7fa78bab5ceddfcaa2,章增文发型烫染,杭州市上城区皮市巷马市街社区-北区,浙江省,杭州市,上城区,,unknown,
baidu,7c125880305a5a51b5f42f89,小米理发,浙江省杭州市上城区长明寺巷小米巷21号108室,浙江省,杭州市,上城区,,unknown,
baidu,3f826ed394046b5fd0f49ebe,永琪美容美发(新华店),新华路171号（近凤起路）,浙江省,杭州市,拱墅区,"(0571)86095197,(0571)87032795",unknown,
baidu,c74e197e1b0ea48572455b32,藤野造型(杭州嘉里中心店),"武林路鸿鼎商务楼5层506室（武林夜市,距地铁凤起路站D2出口170米）",浙江省,杭州市,拱墅区,(0571)87153983,unknown,
baidu,e0f4e6759c10850caecb66bf,沐森·美学(云雀苑店),江城路562号中国银行旁边,浙江省,杭州市,上城区,18357126207,unknown,
baidu,173ee152ffc43a2c220220e5,HQ发季(凤起路店),凤起路377号1楼,浙江省,杭州市,拱墅区,(0571)85165995,unknown,
baidu,4e821be3fb6433951f3894eb,杜尚发型(凤起潮鸣店),潮鸣街道凤起路21号(近刀茅巷),浙江省,杭州市,拱墅区,(0571)85068641,unknown,
baidu,7c0a45d90fef1c092ce67b3f,杜尚发型(建国北路店),建国北路359号（河滨公寓旁）,浙江省,杭州市,拱墅区,"(0571)85068641,(0571)85287236",unknown,
baidu,f5e3bcae80bec4d85f17c3b6,泼仔发型&纹绣美睫(体育场路店),潮鸣街道大树路90号艮园44幢3单元(东园街大树路交界),浙江省,杭州市,拱墅区,"(0571)85284057,15005813720",unknown,
baidu,7a2dbced343dd164715e8004,YY,杭州市上城区佑圣观路丰乐公寓,浙江省,杭州市,上城区,,unknown,
baidu,7959e889e2da482890114c27,杭州圣玺私密抗衰中心,中河北路63号一层,浙江省,杭州市,拱墅区,13023609093,unknown,
baidu,f0d1b5ab41bce2e5f7eafcea,小营江南红巷景区,杭州市上城区小营公园26号,浙江省,杭州市,上城区,(0571)85333110,unknown,
baidu,97091868d5c01b4cae080f95,河坊街景区,浙江省杭州市上城区河坊街180号,浙江省,杭州市,上城区,(0571)86927218,unknown,
baidu,a66ffddc30d8d45dd4851f62,五柳巷历史街区,浙江省杭州市上城区城头巷与梅花碑交叉路口往南约50米(杭州五洋公馆西北侧),浙江省,杭州市,上城区,,unknown,
baidu,63b20e3995e349362b06ce63,王文韶大学士府,浙江省杭州市上城区清吟街125号,浙江省,杭州市,上城区,,unknown,
baidu,fd007c5ee1699a6ca8f72942,集贤亭,浙江省杭州市西湖区龙井路1号杭州西湖风景名胜区一公园内,浙江省,杭州市,西湖区,,unknown,
baidu,8833f02cb20ca1675cd4fe90,杭州西湖风景名胜区-一公园,南山路189号,浙江省,杭州市,上城区,,unknown,
baidu,49a02a7a65877f412b201a75,吴山天风,杭州市上城区城隍山吴山3号,浙江省,杭州市,上城区,(0571)87035091,unknown,
baidu,b75843da4e953a35901fc95a,小营公园,杭州市上城区马市街401号,浙江省,杭州市,上城区,,unknown,
baidu,5508504d2c78f9cac7f02575,杭州博物馆,杭州市上城区粮道山18号,浙江省,杭州市,上城区,(0571)87555637,unknown,
baidu,c5ddcc080bcb3cc7d8131875,西湖天地,杭州市上城区南山路147号,浙江省,杭州市,上城区,"(0571)87026161,(0571)87027070",unknown,
baidu,6f456d54085a1574e856faaf,凤凰寺,浙江省杭州市上城区中山中路227号,浙江省,杭州市,上城区,,unknown,
baidu,844a750e0c447fa06368589a,城隍阁景区,浙江省杭州市上城区吴山3号,浙江省,杭州市,上城区,(0571)87922788,unknown,
baidu,05a03b79ecfc62764207c198,胡雪岩故居,杭州市上城区元宝街18号,浙江省,杭州市,上城区,(0571)86064752,unknown,
baidu,d6ee8724f8e384e1a8f0cd6f,思澄堂,浙江省杭州市上城区解放路132号,浙江省,杭州市,上城区,(0571)87024262,unknown,
baidu,7d63ab16ce68e24c26d2bb97,柳浪闻莺公园,杭州市上城区清波桥河下4号,浙江省,杭州市,上城区,(0571)87065684,unknown,
baidu,a1ac8b66fd554e249d82eac2,十五奎巷历史文化街区,杭州市上城区十五奎巷观湖假日酒店(西湖河坊街店),浙江省,杭州市,上城区,,unknown,
baidu,8a098874a8567389b34c4914,六公园,浙江省杭州市西湖区湖滨路47号,浙江省,杭州市,西湖区,,unknown,
baidu,1da21101df7930e57ab55c44,西湖-音乐喷泉,浙江省杭州市西湖区东坡路27号,浙江省,杭州市,西湖区,(0571)87027884,unknown,
baidu,d5fc8ea54611cf0f94ec84bd,金牛出水,浙江省杭州市上城区龙井路1号杭州西湖风景名胜区内,浙江省,杭州市,上城区,,unknown,
baidu,735737d0d4a4d8fedeee8b25,南宋德寿宫遗址博物馆,浙江省杭州市上城区望江路228~264号,浙江省,杭州市,上城区,(0571)86521875,unknown,
baidu,dc8480e2edd1a0f1932ca3aa,小八千卷楼,浙江省杭州市上城区小营街道直大方伯92号,浙江省,杭州市,上城区,,unknown,
baidu,3a0fbba83ae3c9409ee32175,中国美术学院-美术馆,浙江省杭州市上城区南山路218号,浙江省,杭州市,上城区,(0571)87164633,unknown,
baidu,669775d02d3b6342fc0eb09b,古涌金门,浙江省杭州市上城区南山路127号,浙江省,杭州市,上城区,,unknown,
baidu,8c4b649ecae24bee1c38947d,钱学森故居,浙江省杭州市上城区方谷园2号,浙江省,杭州市,上城区,"(0571)85333110,021-64960218",unknown,
baidu,04fa956f394da48c59bbbc71,涌金桥,杭州市西湖区涌金公园内,浙江省,杭州市,西湖区,,unknown,
baidu,5729963eb38c09687bf79671,湖滨晴雨,湖滨路15号二公园内,浙江省,杭州市,上城区,,unknown,
baidu,5c0b63940d5581d4dbd89197,新横河桥,杭州市上城区清波桥河下4号柳浪闻莺公园内,浙江省,杭州市,上城区,,unknown,
baidu,f6640c656c2ee4e5ab0dd801,四世同堂人家,杭州市上城区中山中路247号,浙江省,杭州市,上城区,,unknown,
baidu,cd06b6c13440eb4d9d95dea2,中兴东岳庙,杭州市上城区吴山15号,浙江省,杭州市,上城区,(0571)87035091,unknown,
baidu,7f44dab35e35fdd046572691,杭州孔庙,浙江省杭州市上城区府学巷8号,浙江省,杭州市,上城区,"(0571)87012922,(0571)87062125,0571-87015011,0571-87016605",unknown,
baidu,003f0cac791326ad6140a909,三昧庵巷8号建筑,杭州市上城区三昧庵巷8号,浙江省,杭州市,上城区,,unknown,
baidu,550fd5f9c5c02978931fc9d1,梅石园,杭州市上城区佑圣观路93号,浙江省,杭州市,上城区,,unknown,
baidu,eaf6454b5762c0bcc6effb49,南宋钱币博物馆,浙江省杭州市上城区小营巷酱园弄12号,浙江省,杭州市,上城区,(0571)88319943,unknown,
baidu,ba5e687078938989ebe5823c,吴山大观,杭州市上城区吴山3号,浙江省,杭州市,上城区,(0571)87179539,unknown,
baidu,3623da3fad4636f42b201a21,古清波门,杭州市上城区南山路61号学士公园内,浙江省,杭州市,上城区,(0571)87179539,unknown,
baidu,b60711f12677cfb309a8d4fe,横河公园,杭州市上城区环城东路22-13号,浙江省,杭州市,上城区,,unknown,
baidu,41572e00d51186adb45f1e2c,望仙阁,杭州市上城区中山南路468号,浙江省,杭州市,上城区,,unknown,
baidu,643228fbf5f5a6e01fe99904,惠兴里建筑群,杭州市上城区惠兴路1号,浙江省,杭州市,上城区,,unknown,
baidu,b3aa435dbbae7f12147643b7,鼓楼,杭州市上城区中山南路501号,浙江省,杭州市,上城区,(0571)86927218,unknown,
baidu,e374b62d63a6f973e856face,风雨茅庐,杭州市上城区大学路场官弄63号,浙江省,杭州市,上城区,,unknown,
baidu,4cf8d24eb0e93ffd9df779f5,钱王祠,浙江省杭州市上城区南山路11号,浙江省,杭州市,上城区,"(0571)87027884,(0571)87068289",unknown,
baidu,cc0849a0c5184d519403197d,风波亭,环城西路杭州西湖风景名胜区内,浙江省,杭州市,西湖区,"(0571)87179539,0571-87977767",unknown,
baidu,a7c43d925b7757043be4a6c3,杭州天主教堂,浙江省杭州市天水街道中山北路415号(近银泰),浙江省,杭州市,拱墅区,(0571)85101803,unknown,
baidu,7865e5797f99523c41d63e4c,觉苑寺巷19号建筑,浙江省杭州市上城区小营街道觉苑寺巷19号,浙江省,杭州市,上城区,,unknown,
baidu,bc59b7640c9ae57acd04efa7,中共杭州小组纪念馆,杭州市上城区小营巷61号,浙江省,杭州市,上城区,(0571)85333110,unknown,
baidu,668b7eddf5ef65b0f7e73b2d,中山中路历史文化街区,杭州市上城区南宋御街北京银行(杭州中山支行)南侧约250米,浙江省,杭州市,上城区,,unknown,
baidu,1bdbc724466943463686f468,二公园,湖滨路15号,浙江省,杭州市,上城区,,unknown,
baidu,89fd4ea32ad0145ee4e9659a,太平天国听王府旧址,杭州市上城区小营巷61号,浙江省,杭州市,上城区,,unknown,
baidu,3d51b34262d8c396704b8739,音乐喷泉观赏区,杭州市西湖区湖滨路25号,浙江省,杭州市,西湖区,,unknown,
baidu,05739b9ec2f74cf2901fc948,逸庐,杭州市上城区里仁坊巷17号,浙江省,杭州市,上城区,,unknown,
baidu,99db3509eca853cf49fc8d46,杭州市历史文化街区(历史地段),浙江省杭州市上城区惠兴路杭州科技大厦,浙江省,杭州市,上城区,,unknown,
baidu,fa01e937083d7253774ff12d,鼓楼堂,中河中路1号(近鼓楼),浙江省,杭州市,上城区,(0571)87807697,unknown,
baidu,36070488b626069dfbdc855a,翠光亭,浙江省杭州市西湖区柳浪闻莺4号,浙江省,杭州市,西湖区,,unknown,
baidu,764672e5d02236ac94ec84ef,陆游纪念馆,杭州市拱墅区孩儿巷98号,浙江省,杭州市,拱墅区,,unknown,
baidu,9024968c73097456220262eb,杭州绸业会馆,浙江省杭州市上城区庆春路79号浙江省第一医院,浙江省,杭州市,上城区,,unknown,
baidu,77918eee30c348b358f6be27,于谦故居,杭州市上城区祠堂巷42号,浙江省,杭州市,上城区,(0571)87034807,unknown,
baidu,5f062f5c070aaf3359bbbcd5,吴山景区-江湖汇观,浙江省杭州市上城区吴山3号吴山景区内,浙江省,杭州市,上城区,,unknown,
baidu,c3d5ff7bf4a85053ddee8b59,古清泰门,杭州市上城区环城东路小米园南侧约40米,浙江省,杭州市,上城区,,unknown,
baidu,ec23dd67d159adb9e812e4a0,古崇新门,杭州市上城区城头巷泰地万新大厦东侧约30米,浙江省,杭州市,上城区,,unknown,
baidu,6f4ec0dfcb3c2ffa49cc4ac5,湖滨三公园,上城区龙井路1号杭州西湖风景名胜区内湖滨景区,浙江省,杭州市,上城区,,unknown,
baidu,c55384db31f229b78f55ec14,龚自珍纪念馆,浙江省杭州市上城区马坡巷16号,浙江省,杭州市,上城区,(0571)86912911,unknown,
baidu,dc5b431932ce37722e473300,杭州西湖博物馆(总馆),浙江省杭州市上城区南山路89号,浙江省,杭州市,上城区,"(0571)87882279,(0571)87882333",unknown,
baidu,4932d776c15638192afc4814,相国井,浙江省杭州市上城区解放路222号如家快捷酒店(杭州解放路店)附近(解百商厦对面),浙江省,杭州市,上城区,,unknown,
baidu,ed6f359dafb67e9b2202626f,柳浪闻莺碑亭,杭州市上城区清波桥河下4号柳浪闻莺公园内,浙江省,杭州市,上城区,,unknown,
baidu,ae7dca31763cd8500d3ddad0,朱炳仁铜雕艺术博物馆,河坊街西湖边207-221号,浙江省,杭州市,上城区,"(0571)87808229,(0571)87814565",unknown,
baidu,5747ea360e4964d14e2fdfc5,杭州市旅游形象推广中心,浙江省杭州市上城区延安路228号,浙江省,杭州市,上城区,(0571)87221979,unknown,
baidu,efc21fb3fc7a217b990050fd,中国财税博物馆,杭州市上城区吴山广场28号,浙江省,杭州市,上城区,(0571)87835356,unknown,
baidu,8c12ae51c77ca5f8cd04ef1c,中国共产党杭州党小组旧址,杭州市上城区解放路108号杭州香溢大酒店,浙江省,杭州市,上城区,,unknown,
baidu,d528a2ee8dcad47af4eafc6d,丁家花园,杭州市上城区西湖大道216号,浙江省,杭州市,上城区,,unknown,
baidu,88000b6466b81d718bf15dff,临安城遗址,杭州市上城区紫阳街道察院前巷50号,浙江省,杭州市,上城区,(0571)87809951,unknown,
baidu,24d055081e2677ae12882475,胡庆余堂中药博物馆,杭州市上城区大井巷95号,浙江省,杭州市,上城区,(0571)87839108,unknown,
baidu,a3081a23334e226d4657264f,上城区文化馆宋韵美术馆,浙江省杭州市上城区惠民路20号,浙江省,杭州市,上城区,(0571)87830684,unknown,
baidu,f0535913b7c524392b3a9f46,清泰站,浙江省杭州市上城区小营街道解放路金衙庄公园,浙江省,杭州市,上城区,,unknown,
baidu,b780c67e56191e279d82ea72,郁达夫杭州故居,杭州市上城区场官弄63号,浙江省,杭州市,上城区,,unknown,
baidu,6d7f2731afa10e66adb22a66,浙江兴业银行旧址,杭州市上城区中山中路261号,浙江省,杭州市,上城区,,unknown,
baidu,6fef0825387435a232f71d04,西河下1号建筑,浙江省杭州市上城区城头巷与梅花碑交叉路口往南约50米,浙江省,杭州市,上城区,,unknown,
baidu,c78b7923a96490a92102204b,马叙伦公园,浙江省杭州市上城区建国南路239-2号,浙江省,杭州市,上城区,,unknown,
baidu,3381c19e71ee772517948e45,三昧庵,杭州市上城区小营街道建国南路217号,浙江省,杭州市,上城区,,unknown,
baidu,1f7fd517f35e3d9595f08c50,城头巷79号建筑,杭州市上城区城头巷与梅花碑交叉路口往南约50米(杭州五洋公馆西北侧)五柳巷历史街区,浙江省,杭州市,上城区,,unknown,
baidu,be1d52260fc8cd1dca09f02a,太庙遗址广场,大马弄1303号,浙江省,杭州市,上城区,(0571)87809951,unknown,
baidu,1270f8f1165092d06d20b928,五洲大药房旧址,杭州市上城区中山中路90号,浙江省,杭州市,上城区,,unknown,
baidu,42786f9c8f9f35ff88fc063c,斗富二桥33号建筑,杭州市上城区城头巷与梅花碑交叉路口往南约50米(杭州五洋公馆西北侧)五柳巷历史街区,浙江省,杭州市,上城区,,unknown,
baidu,d574d8a12846e225fda7783e,大韩民国临时政府杭州旧址纪念馆,浙江省杭州市上城区长生路55号,浙江省,杭州市,上城区,(0571)87064305,unknown,
baidu,d9d8fe19eaf0a4e917b54b1b,浙江实业银行旧址,杭州市上城区中山中路193-3号,浙江省,杭州市,上城区,,unknown,
baidu,0c74734bb565fd5a46e2747a,万源绸庄旧址,杭州市上城区中山中路202号,浙江省,杭州市,上城区,,unknown,
baidu,7046dbcc2b7039c36240a9b7,浙江援青-大美青海·柴达木城市会客厅,浙江省杭州市上城区解放路196号,浙江省,杭州市,上城区,13758261573,unknown,
baidu,a60fd96f2041b7ccb5f42f81,九之斋旧址,杭州市上城区中山中路232号,浙江省,杭州市,上城区,,unknown,
baidu,ebe156c0826bb3791e1d1195,胡宅旧址,浙江省杭州市上城区方谷园8号,浙江省,杭州市,上城区,,unknown,
baidu,1ffcacd484c0e845210220c0,吴山景区-药王庙,杭州市上城区茶啾弄77号,浙江省,杭州市,上城区,,unknown,
baidu,4b515696729e354ec5effbd7,中华书局杭州分局旧址,浙江省杭州市上城区解放路209号,浙江省,杭州市,上城区,,unknown,
baidu,bcae3df8106eba82d7851f03,杭州旅游集散中心/杭州旅游咨询中心,浙江省杭州市上城区环城东路1号杭州站F1,浙江省,杭州市,上城区,,unknown,
baidu,6419fa4755a712b42db908ac,浙江地方银行旧址,浙江省杭州市上城区中山中路106号南宋御街内,浙江省,杭州市,上城区,,unknown,
baidu,e1c16e5ae95d2b842811d143,中山中路229号建筑,杭州市上城区光复路南宋御街南宋皇城小镇(清河坊历史文化特色街区),浙江省,杭州市,上城区,,unknown,
baidu,d6df91c139647b73f7b916c1,毛主席视察小营巷纪念馆,杭州市上城区小营巷56号,浙江省,杭州市,上城区,,unknown,
baidu,748c5d0d3ea805c017948ebd,吴山景区-宝成禅寺,浙江省杭州市上城区丁衙巷2号,浙江省,杭州市,上城区,,unknown,
baidu,d19c90f2a5e6d3171df74d30,孙中山纪念雕像,浙江省杭州市上城区湖滨街道平海路杭州维景国际大酒店,浙江省,杭州市,上城区,,unknown,
baidu,277af5205c58c9c5d72ce2ed,庆余亭,浙江省杭州市拱墅区长庆中河北路中河(广利大厦东50米),浙江省,杭州市,拱墅区,,unknown,
baidu,6bdb114675fa30afa1a934a7,全国爱国卫生运动(小营巷)纪念馆,杭州市上城区马市街小营公园26号,浙江省,杭州市,上城区,,unknown,
baidu,87b57363762ceaf8f82d6156,王锦培旧居,杭州市上城区清波街道火药局弄1号,浙江省,杭州市,上城区,,unknown,
baidu,1b2c03051a48bef6c92915c7,刘宅旧址,杭州市上城区银枪班巷3号,浙江省,杭州市,上城区,,unknown,
baidu,b56e8c1537a472eb260bd0b6,泗水新村建筑群,浙江省杭州市上城区湖滨将军路泗水新邨南门,浙江省,杭州市,上城区,,unknown,
baidu,7cf9666df577a00de6e9650d,王文韶故居,浙江省杭州市上城区小营街道清吟街127号,浙江省,杭州市,上城区,,unknown,
baidu,db5ff1b3e91ff4d1eb56fa65,比胜庙巷4号建筑,浙江省杭州市上城区西湖大道比胜庙巷4号(定安路地铁站A口旁),浙江省,杭州市,上城区,,unknown,
baidu,5804239cb9abc5f5e5e965ff,南宋名人园,杭州市上城区清泰街627号,浙江省,杭州市,上城区,,unknown,
baidu,b1220e31be1de37a97ec8432,兴安里历史地段,杭州市上城区奎垣巷天源商务楼西侧约50米,浙江省,杭州市,上城区,,unknown,
baidu,b21b53b080ce3b974f6d46c8,浙江矿业公司旧址,杭州市上城区城头巷123号,浙江省,杭州市,上城区,,unknown,
baidu,36bc622d0bc1d8872fb96dde,杭州中美友谊民间纪念馆,杭州市上城区清吟街127号,浙江省,杭州市,上城区,,unknown,
baidu,49c4f081030da43694ec84b5,岳官巷吴宅,浙江省杭州市拱墅区岳官巷4号,浙江省,杭州市,拱墅区,,unknown,
baidu,a0b09c163d8a99115a3ac8c4,渤海医庐,杭州市上城区东平巷11号,浙江省,杭州市,上城区,,unknown,
baidu,f91e772bdac4bbef5d17c30c,浙江兴业银行旧址,杭州市上城区三元坊巷中国工商银行(杭州羊坝头支行本级业务部),浙江省,杭州市,上城区,,unknown,
baidu,62cbe7b6d3a17528a3acc453,张载阳旧居,"浙江省杭州市上城区浣纱路159号,169号",浙江省,杭州市,上城区,,unknown,
baidu,fa01e937fb03214b774ff1ef,卧霞公园,杭州市拱墅区青春坊10幢1单元104号,浙江省,杭州市,拱墅区,,unknown,
baidu,9f4e4bbde8053c230ab93a76,浙江省邮务管理局旧址,杭州市上城区环城东路10号,浙江省,杭州市,上城区,,unknown,
baidu,956682bab63baf129cec2b31,社会主义青年团支部建立旧址,杭州市上城区解放路108号杭州香溢大酒店,浙江省,杭州市,上城区,,unknown,
baidu,9f97b1c534d23e7bb74f54a1,广合顺保佑坊分号旧址,杭州市上城区中山中路217号,浙江省,杭州市,上城区,(0571)87029095,unknown,
baidu,4ffe1a3adecbdc7db04c4959,钱塘许积厚轩老屋原址纪念碑,杭州市上城区大河下华藏寺巷,浙江省,杭州市,上城区,,unknown,
baidu,0025d37cebdb9aecf4eafc19,杭州市轻工局旧址,浙江省杭州市上城区湖滨街道国货路5号,浙江省,杭州市,上城区,,unknown,
baidu,1c0ecb9769e64e42eee4a5fd,华德药房旧址,杭州市上城区中山中路186号,浙江省,杭州市,上城区,,unknown,
baidu,42b451b72172c8862ce67b3d,复泰钱庄旧址,杭州市上城区清波街道中山中路170号,浙江省,杭州市,上城区,,unknown,
baidu,3f00d82d14db806ad23ce3e4,咸章绸庄旧址,杭州市上城区中山中路86号,浙江省,杭州市,上城区,,unknown,
baidu,13f36a05635e8b792dfaa722,西华大楼,"杭州市上城区解放路212号,214号",浙江省,杭州市,上城区,,unknown,
baidu,99cdfccdd7a5ab9445e274c0,徐宅,杭州市上城区东平巷2号,浙江省,杭州市,上城区,,unknown,
baidu,400b565431423845f33cba54,春荷杭州丝绸(解放路店),杭州市上城区解放路湖滨君亭酒店北侧约40米,浙江省,杭州市,上城区,,unknown,
baidu,bd5eb2fa3712f76a6140a9ed,开元路78号民居建筑,浙江省杭州市上城区吴山商圈开元路76号,浙江省,杭州市,上城区,,unknown,
baidu,5f4b57a176c04d5071455b1e,杭州国画院,杭州市上城区建国南路河水弄20号,浙江省,杭州市,上城区,(0571)87815910,unknown,
baidu,25bf0c095f49e33bb020a8bd,学士路3号民居建筑,学士路3号,浙江省,杭州市,上城区,,unknown,
baidu,ce6f6257551e6c3b0482c270,浙江省文化产业学会艺术品鉴定评估专委会交流中心,浙江省杭州市上城区惠兴路12(仁和大厦),浙江省,杭州市,上城区,,unknown,
baidu,979515d89cedf22a36b06c75,晨鸣网吧,上清泰街456号,浙江省,杭州市,上城区,(0571)85785837,unknown,
baidu,7a27ba1ce81b138340afe6e9,NEXT视界娱乐沉浸式超级密室,解放路140号,浙江省,杭州市,上城区,18072866866,unknown,
baidu,7a87c932aedc251f09b93a63,SEINE塞纳·日式汤泉·沐足·SPA(解放路店),解放路108号中维香溢大酒店二楼,浙江省,杭州市,上城区,19521618589,unknown,
baidu,0f367ea464eedcfce856fa23,养鱼·Young Boss Bar,中山中路308号-2,浙江省,杭州市,上城区,17681858434,unknown,
baidu,6fe5b0f45928a601343a71cf,红Lounge Bar(中山中路店),崔家巷1号中山中路解放路口路口,浙江省,杭州市,上城区,,unknown,
baidu,90552fa55f3b086fb11e36aa,夏雪薇安Bar,解放路215号,浙江省,杭州市,上城区,19857415701,unknown,
baidu,19eb23fb8ef213f58e55ecbf,合盛堂影视足道SPA(平海店),平海路3-1号（近平海路）,浙江省,杭州市,上城区,,unknown,
baidu,51fb2f705b451663e9e58259,Love Story爱情故事·养生SPA会所(新侨店),解放路226号新侨饭店西侧1-3楼,浙江省,杭州市,上城区,0571-87018323,unknown,
baidu,a80b13d0e62d52281894c6e1,金禧足道·SPA(中山中路店),中山中路287-1号近开元路（羊坝头北公交站斜对面）,浙江省,杭州市,上城区,,unknown,
baidu,e5bd0685844b0cb77f29bd62,颜灸苑,光复路109-1号（定安路地铁站A口步行400米）,浙江省,杭州市,上城区,,unknown,
baidu,ed72549877b2e91a6240a98f,不误正夜·狼人杀·清吧,小营孝友里5号113、114室,浙江省,杭州市,上城区,19106856550,unknown,
baidu,5e15bd29bd25e0c026d2bb9f,雲熹嘉人美容养生(城建综合大楼店),小营街道清泰街563号3楼(近水漾桥车站),浙江省,杭州市,上城区,,unknown,
baidu,6e32c4690d0fb04c15c90564,伊植美女子美容会所(西湖院),湖滨街道解放路176-178号杭州科技大厦10层C室(解百斜对面),浙江省,杭州市,上城区,(0571)87824868,unknown,
baidu,1122fbf4a4420eaf43ab9aba,喜乐会棋牌(新东方大厦b座店),西湖大道18号新东方大厦B座10楼,浙江省,杭州市,上城区,,unknown,
baidu,e20fd14670d0df68f4e73bb2,春又回茶吧,皮市巷115号,浙江省,杭州市,上城区,19817411799,unknown,
baidu,e288f5292c7f6e1072455ba2,轻奢问世影院足道SPA,浙江省杭州市上城区解放路131号艺龙玺程国际酒店3楼,浙江省,杭州市,上城区,,unknown,
baidu,e802b30601b04702c06c1440,郑远元专业修脚房(解放路店),解放路148号,浙江省,杭州市,上城区,,unknown,
baidu,8dc177506844a2b02fe67b7c,笑海相声会馆,青年路48号大华书场2楼,浙江省,杭州市,上城区,0571-86839218,unknown,
baidu,0f56b34cb93885db3de23159,逸致雅情按摩推拿馆,浙江省杭州市上城区清泰街571-573号金泰商务大厦14楼1410室,浙江省,杭州市,上城区,,unknown,
baidu,690d00fdf3b096ff455726bb,御街足道养生会所,杭州市上城区中山中路尼可精品酒店(中山中路店),浙江省,杭州市,上城区,,unknown,
baidu,0d66521c480b8238eb12e4d1,郑远元专业修脚房(金鸡岭店),金鸡岭8号,浙江省,杭州市,上城区,15332677719,unknown,
baidu,e32e47f15e0be45248fd3f59,东河Taproom,湖滨街道中山中路238-1号(近地铁1号线定安路A出口),浙江省,杭州市,上城区,(0571)86759199,unknown,
baidu,5ed5d0122cbbd907a10464e8,品Xanadu,中山中路255号2楼（定安路地铁站A口步行220米）,浙江省,杭州市,上城区,(0571)86916283,unknown,
baidu,c78aacef971a9a30213bf21e,DCO城市派对空间,国货路2号,浙江省,杭州市,上城区,18858295673,unknown,
baidu,cc611341c68d032fb54f542b,宇丰棋牌,皮市巷108号,浙江省,杭州市,上城区,13082829168,unknown,
baidu,a950f1181e4d6d9cd23ce323,赵氏盲人按摩(光复路店),"光复路166号-103室(中山中路400号,中国人保公司大楼楼后)",浙江省,杭州市,上城区,13934715849,unknown,
baidu,5341147167bf4d0343e19282,专业修脚,杭州市上城区清泰街建国中路小区,浙江省,杭州市,上城区,,unknown,
baidu,b9941daf99535ade93114c1b,禧悦棋牌(岳王路店),岳王路1号东方金座B座F3层,浙江省,杭州市,上城区,(0571)87785168,unknown,
baidu,9eebc65a344982d1b5f42fcf,PASSWORD BAR,邮电路16号101室,浙江省,杭州市,上城区,15068717993,unknown,
baidu,fd13a3f2e303ebe3b1077dce,2号公馆,浙江省杭州市上城区平海路2号,浙江省,杭州市,上城区,15501122659,unknown,
baidu,7d8e1bda44a4c8c3118824b7,沁闻茶舍,佑圣观路解放路茶叶市场2-23、24,浙江省,杭州市,上城区,18072897518,unknown,
baidu,246642be4831cb647bf7965c,艾灸人家(马市街店),浙江省杭州市上城区马市街109-2-3号,浙江省,杭州市,上城区,,unknown,
baidu,90f1f9055c976ffe26e0a0f2,浙江省钓鱼协会海钓俱乐部,杭州市上城区光复路杭州五洋公馆(西湖店)东北侧约60米,浙江省,杭州市,上城区,,unknown,
baidu,089742724b1a7a494251c014,西湖会KTV(庆春路店),浙江省杭州市拱墅区庆春路38号金龙财富中心B105~106、B205~206室,浙江省,杭州市,拱墅区,15255553680,unknown,
baidu,793426b0b40a13e5631809b0,美乐订,杭州市上城区中山中路J.S美宿公馆酒店(杭州西湖店)西北侧,浙江省,杭州市,上城区,,unknown,
baidu,33fbfa83d39275c00bf5eb70,黄楼爵士俱乐部(南山路文化艺术休闲特色街区店),柳营路6号,浙江省,杭州市,上城区,(0571)87028298,unknown,
baidu,3a4966944ca466cc4354d7fc,少年宫广场,浙江省杭州市西湖区北山街与环城西路交汇处西150米,浙江省,杭州市,西湖区,,unknown,
baidu,be22b6ed1160c74e1188243e,小营公园-休息亭,杭州市上城区马市街401号小营公园,浙江省,杭州市,上城区,,unknown,
baidu,3a0a78bd619cc7fb63180975,吴山广场,杭州市上城区河坊街与劳动路交叉路口往东南约50米(西湖风景区),浙江省,杭州市,上城区,,unknown,
baidu,6e36c4bccf34da4b43afe63d,赞成宾馆·棋牌室,佑圣观路与馆驿后交叉口东南约60米,浙江省,杭州市,上城区,(0571)87806666,unknown,
baidu,f2b92091869d30009e9d68bc,唯雅集(义井小区店),西湖大道104号,浙江省,杭州市,上城区,(0571)87016441,unknown,
baidu,46438c1dc800b5eb46e27468,莫提庵,浙江省杭州市上城区小营街道西湖大道100号,浙江省,杭州市,上城区,15990160773,unknown,
baidu,5b25f446c85aee9710293559,杭州演艺·红星剧院,小营街道建国南路280号(近火车站),浙江省,杭州市,上城区,(0571)87013507,unknown,
baidu,1aca19d004d0a8436b49f317,喝茶棋牌,浙江省杭州市上城区仁和路11号古玩城2楼b45,浙江省,杭州市,上城区,15067509699,unknown,
baidu,3cab7b003464408a7ab55c15,指上功夫(梅花三胜店),浙江省杭州市上城区佑圣观路125号,浙江省,杭州市,上城区,,unknown,
baidu,f13dba78c1ad8fcaa0acc4b9,至潮影城(庆春路锦和大厦店),浙江省杭州市上城区庆春路87号锦和大厦越都荟5楼,浙江省,杭州市,上城区,(0571)87706118,unknown,
baidu,719201d46306ed3b76e5b69a,杭州维景国际大酒店-娱乐会所,浙江省杭州市上城区平海路2号,浙江省,杭州市,上城区,(0571)87088088,unknown,
baidu,cc9bf8a4d3b6fb1496f08cb1,乐逍遥超级沉浸式密室,杭州市上城区南宋御街御街壹号酒店,浙江省,杭州市,上城区,,unknown,
baidu,abdfdde9d59d3bd53913fd7d,AMG海上明珠影城(杭州西湖银泰城店),延安路98号银泰五层,浙江省,杭州市,上城区,(0571)87002038,unknown,
baidu,24d055081e2177ae12882474,浙江胜利剧院,延安路279号,浙江省,杭州市,上城区,,unknown,
baidu,4265fe18f0f10d865bf6be35,杭州钱塘戏社,青年路48号大华书场二楼,浙江省,杭州市,上城区,,unknown,
baidu,d710ed2df159798722f017bc,舍精中玄,浙江省杭州市上城区光复路小区东侧,浙江省,杭州市,上城区,,unknown,
baidu,3b7f25acee71f0fd9868b424,湖畔居茶楼(湖滨店),圣塘景区1号(望湖宾馆对面),浙江省,杭州市,西湖区,(0571)87020701,unknown,
baidu,2ab8eb8cf94c1b5352e5c514,足道,浙江省杭州市上城区高银街spa2楼,浙江省,杭州市,上城区,,unknown,
baidu,70f6b8c03cb2081df60e7710,仁艾缘堂艾灸调理馆,浙江省杭州市上城区东平巷41号,浙江省,杭州市,上城区,13272420725,unknown,
baidu,676cd08091461b2e3310af17,元季解忧体验馆,杭州市馆驿后10号905室,浙江省,杭州市,上城区,,unknown,
baidu,0a303b19a380f9bccafa5f73,YOGO(清泰街店),杭州市上城区清泰街金钱巷社区,浙江省,杭州市,上城区,,unknown,
baidu,27d9d50e284386e16f20b9b0,大华书场,湖滨街道青年路48号(近浣纱路),浙江省,杭州市,上城区,"(0571)86839218,13336111432",unknown,
baidu,c7eca12b03c71e4ae115f915,静博士养生美容(解放路店),解放路108号香溢大酒店2楼,浙江省,杭州市,上城区,(0571)87830012,unknown,
baidu,e02639ad268d73b7b75f1e72,湖滨家园,浙江省杭州市上城区崔家巷4号,浙江省,杭州市,上城区,,unknown,
baidu,b9597d954e12b7db02294fd5,隔壁酒馆(中山中路店),中山中路365号,浙江省,杭州市,上城区,"(0571)86031972,18701660952",unknown,
baidu,9334a6fa8a86a12ff50e77d2,红巷同心筑,银枪班巷与小营巷交叉口西南约20米,浙江省,杭州市,上城区,(0571)89960188,unknown,
baidu,c4c5fa47523e180e3d9a5eee,BONBON VINTAGE中古店X小口良新茶饮,清泰街591号,浙江省,杭州市,上城区,15057119297,unknown,
baidu,2c1ba66c69051a426f3e1b25,TAPDOG咖啡·精酿·热狗,中山中路188号,浙江省,杭州市,上城区,13588452912,unknown,
baidu,23e164a5502be5d8b817e7fc,静如茶(义井小区店),西湖大道92号,浙江省,杭州市,上城区,18267113578,unknown,
baidu,e3e2cd9d09e242fac6f50db9,青藤茶馆(南山路店),南山路278号（一公园对面）,浙江省,杭州市,上城区,(0571)87022777,unknown,
baidu,2ae445f746e814102806ceab,Club Puff泡福俱乐部,惠民路79号负一楼,浙江省,杭州市,上城区,17799837911,unknown,
baidu,919dd6f0f3f556332cb17e51,茶事(西湖大道店),西湖大道112号,浙江省,杭州市,上城区,(0571)87807102,unknown,
baidu,cb29a4cb07fb624679dbd249,维景国际五号公馆,浙江省杭州市上城区平海路2号,浙江省,杭州市,上城区,(0571)82481416,unknown,
baidu,0c24125dc31388b3b7265519,Parking coffee(孩儿巷店),孩儿巷51号,浙江省,杭州市,拱墅区,15168254994,unknown,
baidu,f5b59a5bc1d998173ae4a6ba,Beer瓶子小酒馆,浙江省杭州市上城区解放路51号,浙江省,杭州市,上城区,13735598802,unknown,
baidu,56f11fd903a5e2418733042e,梅云阁茶行,浙江省杭州市上城区佑圣观路158号,浙江省,杭州市,上城区,13958080613,unknown,
baidu,10b8eee3ab6ca852246e98c7,又点咖啡馆,浙江省杭州市上城区惠兴路16号,浙江省,杭州市,上城区,18468286503,unknown,
baidu,cec28a19241309259d82ea1b,乐咖啡自助,浙江省杭州市上城区平海路2号,浙江省,杭州市,上城区,,unknown,
baidu,637df60a70966e6b40afe67d,亚琦商务酒店(西湖清泰街店),清泰街456-1号,浙江省,杭州市,上城区,(0571)87812201,unknown,
baidu,a0addda5ad174e88f6eafc87,杭州西湖云漫酒店,湖滨街道解放路凯恩西湖金座AA层3A09室,浙江省,杭州市,上城区,17367061848,unknown,
baidu,0d70af73640fd4dc60180986,美希沫优选酒店(湖滨浙二医院店),解放路133号,浙江省,杭州市,上城区,15968845387,unknown,
baidu,79e07f0140dba1e671455bf7,如家精选酒店(杭州西湖解放路店),解放路91-93号（浙二医院对面）,浙江省,杭州市,上城区,(0571)86088599,unknown,
baidu,b5e4a4cb9a88afcb283a9f01,悦胜酒店(杭州清泰街店),清泰街495号,浙江省,杭州市,上城区,(0571)85027819,unknown,
baidu,be8b4e59eb81d57aeee4a551,海友酒店(杭州西湖大道店),清泰街486号,浙江省,杭州市,上城区,(0571)87920818,unknown,
baidu,81d6a509c19f35596e20b957,杭州欣苑时尚酒店,浙江省杭州市上城区金鸡岭28号,浙江省,杭州市,上城区,13758136027,unknown,
baidu,0405d5896f8fb5f051e5c5ee,記憶旅行酒店(西湖店),中山中路306号,浙江省,杭州市,上城区,"(0571)87176708,19957136018",unknown,
baidu,b260c59685117f85e60738d8,如家酒店·neo (杭州西湖解放路中河中路店),中河中路168号国贸大厦2楼,浙江省,杭州市,上城区,(0571)86999998,unknown,
baidu,be54cde977a8094178f79649,尼可精品酒店(中山中路店),浙江省杭州市上城区中山中路288-1号,浙江省,杭州市,上城区,(0571)85390982,unknown,
baidu,86ab67bb427923fcb5f42fe9,智尚酒店(杭州西湖湖滨解放路店),浙江省杭州市上城区解放路89号大华星河大厦二层,浙江省,杭州市,上城区,(0571)56561828,unknown,
baidu,1dad0aa838ba8a638f55ec9a,汉庭酒店(杭州西湖湖滨解放路店),丰家兜1号,浙江省,杭州市,上城区,(0571)86508788,unknown,
baidu,cd525452d2b7fb6fc7f0256b,杭州栖岳酒店(杭州西湖湖滨in77店),中河中路207号,浙江省,杭州市,上城区,(0571)88389797,unknown,
baidu,87248d96df2568aa2806ce43,杭州西湖中维香溢大酒店,浙江省杭州市上城区解放路108号,浙江省,杭州市,上城区,(0571)87218899,unknown,
baidu,b46b842871828323c5effb9c,宜必思酒店(杭州西湖解放路店),解放路91-93号,浙江省,杭州市,上城区,(0571)56303388,unknown,
baidu,4d9746b702f020f616c905f4,杭州古耐精品青年旅社,金隆花园金梅轩第十七层,浙江省,杭州市,上城区,15967177045,unknown,
baidu,c72e9fe8360a67780d0e6b6c,杭州丽园旅馆,金鸡岭52号,浙江省,杭州市,上城区,(0571)87857186,unknown,
baidu,30e429cddec593a2cb29153c,汉庭酒店(杭州西湖解放路店),中河中路175号,浙江省,杭州市,上城区,(0571)28139771,unknown,
baidu,7a7a8a54ee5ed9644151c06e,杭州青如玉酒店,浙江省杭州市上城区中河中路168号3层,浙江省,杭州市,上城区,"057187801771,057187811711",unknown,
baidu,2a72a528d5deefda5b10939a,度美酒店(清泰街店),清泰街346号雪峰大厦,浙江省,杭州市,上城区,(0571)87177977,unknown,
baidu,5e218026c4fe43b187420e48,杭州华敏酒店(浙二医院店),解放路95号,浙江省,杭州市,上城区,(0571)88373708,unknown,
baidu,fbe4e055b802d7ea61180924,花田赞酒店(西湖浙一医院店),中河中路168号国贸大厦7楼,浙江省,杭州市,上城区,(0571)86080086,unknown,
baidu,9bec194f689c9d7bc8213d7e,帕瑞思酒店(杭州西湖店),解放路138号（停车在航天通信入口）,浙江省,杭州市,上城区,(0571)88198998,unknown,
baidu,a84f97ad2ca3553e100daa67,美乐汀青年旅舍(西湖龙翔桥店),光复路159号,浙江省,杭州市,上城区,(0571)87028043,unknown,
baidu,c6f82d809c09feb80b1cc7ec,西湖金座大饭堂,浙江省杭州市上城区小营街道解放路131号1楼,浙江省,杭州市,上城区,,unknown,
baidu,fc7675242628ece34e776e50,杭州天清城市酒店,解放路99号,浙江省,杭州市,上城区,(0571)87886818,unknown,
baidu,49d95938828b595ac61e514b,浙江庆华饭店,清泰街民生路58号,浙江省,杭州市,上城区,(0571)87810788,unknown,
baidu,4b5e4c3546db8529dc1e527c,杭州优居酒店(西湖店),杭州市佑圣观路128号华顺大厦23楼(近西湖河坊街，距浙二医院800米),浙江省,杭州市,上城区,13376815526,unknown,
baidu,28112a39aa52730a601c677b,繁星青年酒店(杭州站店),富春大厦写字楼1803室,浙江省,杭州市,上城区,17758032979,unknown,
baidu,d141e973e32021770d3ddade,云江宾馆(杭州西湖大道店),浙江省杭州市上城区金鸡岭路32号,浙江省,杭州市,上城区,(0571)87113026,unknown,
baidu,34f68ab0ae19ad138f55ecdf,都市云端酒店(杭州西湖湖滨店),中山中路310号,浙江省,杭州市,上城区,(0571)87185788,unknown,
baidu,7e70ed429089686083a00c43,杭州维景国际大酒店,浙江省杭州市上城区平海路2号(中河中路与平海路交汇口),浙江省,杭州市,上城区,(0571)87088088,unknown,
baidu,5feb8715ec8bfa5821f01773,艾筑艺术酒店(西湖南宋御街店),中山中路299号,浙江省,杭州市,上城区,(0571)87166288,unknown,
baidu,9ce8ccb6daade7d58bfc0660,杭州富营酒店,浙江省杭州市上城区清泰街507号,浙江省,杭州市,上城区,15990893681,unknown,
baidu,ef773a0f98f64e2d2202205e,杭州华辰国际饭店(西湖湖滨店),浙江省杭州市上城区平海路25号,浙江省,杭州市,上城区,(0571)87652222,unknown,
baidu,24d0550877345cb612882443,赞成宾馆(杭州国际店),佑圣观路74-6号（近西湖大道、浙二眼科医院）,浙江省,杭州市,上城区,(0571)87806666,unknown,
baidu,0c6fefb94cca44ae7ab55c3a,全季酒店(杭州西湖龙翔桥地铁站店),平海路26号地铁龙翔桥D2出口,浙江省,杭州市,上城区,(0571)28220088,unknown,
baidu,7dd2b3f04fe6da4a51e5c558,和颐至尊酒店(杭州西湖湖滨步行街店),菩提寺路15号兴合大厦3楼(龙翔桥地铁站A口步行130米),浙江省,杭州市,上城区,"(0571)28999996,17326051144",unknown,
baidu,262754ac8ebf216b28d7ab88,全季酒店(杭州西湖湖滨店),浙江省杭州市上城区湖滨街道开元路66号,浙江省,杭州市,上城区,(0571)87086088,unknown,
baidu,b5ca0013404137897702698d,杭州莱克精品客栈,金隆花园金梅轩18楼D区,浙江省,杭州市,上城区,15397178255,unknown,
baidu,83605d43c25caa35a6c75601,杭州汉尚酒店(河坊街浙二医院店),佑圣观路128号华顺大厦17楼,浙江省,杭州市,上城区,(0571)56306089,unknown,
baidu,25ffa67b97abf90cf6c59cc4,鹿头社智能酒店(西湖浙二医院店),浙江省杭州市上城区解放路85号伟星世纪大厦北楼4楼,浙江省,杭州市,上城区,17357175509,unknown,
baidu,9c8f9ce414439f203586f470,杭州西湖银泰定安路亚朵X酒店(杭州西湖银泰定安路店),清泰街571号金泰商务大厦101室A,浙江省,杭州市,上城区,(0571)87831881,unknown,
baidu,2264d50137eb8be6fda7788d,星语雅居酒店,浙江省杭州市上城区小营街道城站商圈清泰街509号富春大厦写字楼(一楼前台),浙江省,杭州市,上城区,(0571)85399953,unknown,
baidu,2a7a25ec7188eb7a6c3e1b44,杭州西湖湖滨金苑宾馆,中山北路46号,浙江省,杭州市,拱墅区,(0571)87065500,unknown,
baidu,eb3675036a4ade0200ec0179,杭州华侨饭店,浙江省杭州市上城区湖滨路39号,浙江省,杭州市,上城区,(0571)87685555,unknown,
baidu,56e88cba9ec0747ca4c7564b,杭州中山西子湖酒店,浙江省杭州市上城区平海路15号,浙江省,杭州市,上城区,(0571)88888899,unknown,
baidu,18de6697900c5eb69fec2b41,SOS酒店(杭州西湖浙二店),小营街道金鸡岭路12号,浙江省,杭州市,上城区,18957101189,unknown,
baidu,8096547489322e347f29bd36,和昉·五洋公馆(杭州西湖湖滨in77店),解放路199号,浙江省,杭州市,上城区,"(0571)86532800,(0571)86532888",unknown,
baidu,452b387e23bc3e63373a71a0,杭州西湖东智选假日酒店,浙江省杭州市上城区西湖大道2号,浙江省,杭州市,上城区,(0571)56111666,unknown,
baidu,24af624ab8b0e5331e5800c7,樱思酒店(富春大厦店),清泰街507号富春大厦15楼,浙江省,杭州市,上城区,15068128782,unknown,
baidu,7cbc30f6d4c1823381a12e87,洋诗酒店(西湖湖滨店),清泰街438号,浙江省,杭州市,上城区,"(0571)87808988,17706526801",unknown,
baidu,55f84ae0d6faf2a7b52655c3,杭州友好饭店,浙江省杭州市上城区平海路53号,浙江省,杭州市,上城区,(0571)87077888,unknown,
baidu,43b7e8891a39bc7358f6be7f,杭州西湖五洋宾馆,浙江省杭州市下城区庆春路48号(近建国中路),浙江省,杭州市,下城区,(0571)87218888,unknown,
baidu,cac5fc769b5df6ea2cb96d42,杭州中维歌德大酒店,杭州市上城区西湖大道19号,浙江省,杭州市,上城区,(0571)87188888,unknown,
baidu,39cd872659c4410f3ae4a6c2,尚优居酒店(浙二医院店),佑圣观路120号华顺大厦第二十三层23,浙江省,杭州市,上城区,13376815526,unknown,
baidu,60ebecab9d1a34a31ff74d9d,昊颐酒店(杭州西湖南宋御街店),中山中路190号,浙江省,杭州市,上城区,(0571)87767666,unknown,
baidu,251374c95980c726a11de97d,杭州马可波罗假日酒店(西湖店),"浙江省杭州市上城区平海路38号(近浣纱路,距龙翔桥站约395米)",浙江省,杭州市,上城区,(0571)87018888,unknown,
baidu,9095b2629bab0837fe0eb06b,下一站·无限青年旅舍,清泰街507号富春大厦706,浙江省,杭州市,上城区,17799806806,unknown,
baidu,b2b9b05f0ed5ab60f119376c,赛博朋克电竞酒店,浙江省杭州市上城区中河中路168号9楼,浙江省,杭州市,上城区,"(0571)85163070,18157160788",unknown,
baidu,d7657823595c2564a8f0cdcb,遇柒酒店(杭州西湖湖滨店),浙江省杭州市上城区皮市巷86-1号,浙江省,杭州市,上城区,(0571)56928100,unknown,
baidu,2fc2a361ff0bb0e62102206b,杭州西湖宾享酒店,杭州市凯恩西湖金座解放路131号AA层3A09号,浙江省,杭州市,上城区,17367061848,unknown,
baidu,01b667758e8770e10d3dda32,暄和·吴山居(杭州河坊街店),十五奎巷58号,浙江省,杭州市,上城区,19106730671,unknown,
baidu,3a3bdbb22da97d1c3b221ccd,慢享酒店大饭堂,浙江省杭州市上城区小营街道解放路131号,浙江省,杭州市,上城区,,unknown,
baidu,7ffe8dad2c4defd56b49f32f,左邻右舍(佑圣观路店),杭州市上城区佑圣观路南班巷,浙江省,杭州市,上城区,,unknown,
baidu,27f7248d0f0e33d87ab55c60,杭州中维香溢大酒店-大堂,浙江省杭州市上城区解放路108号,浙江省,杭州市,上城区,,unknown,
baidu,cf8889a41290bb8ae81e97e7,小陈诺之家,杭州市小营街道金隆花园金梅轩402号,浙江省,杭州市,上城区,13175297770,unknown,
baidu,4edf9fbf67058e95cc06a4e9,东方金座,浙江省杭州市岳王路1号,浙江省,杭州市,上城区,(0571)87299908,unknown,
baidu,d4dfe52a5963daa51288244a,普利司通轮胎车之翼(杭州鑫星汽车服务有限公司),望江路88号,浙江省,杭州市,上城区,"(0571)86432496,15868869344,18042489411",unknown,
baidu,17cd82ab472c945721f0170c,途虎养车工场店(杭州西湖大道店),城站商圈西湖大道50-52号,浙江省,杭州市,上城区,(0571)85122612,unknown,
baidu,61143ec617010dea102935da,金乐汽车装饰养护,建国南路239号一1号,浙江省,杭州市,上城区,,unknown,
baidu,4aa58e01f00411790f0a7007,极氪中心(杭州南山路),杭州市上城区南山路262号4号楼,浙江省,杭州市,上城区,18667083168,unknown,
baidu,fcb4c52c2d85f4fdce04ef0e,车缘汽车服务(姚园寺巷),建国南路110号,浙江省,杭州市,上城区,13735872232,unknown,
baidu,140dcc32ab76eacdf02d8387,杭州小专佳汽车养护店,老浙大横路31号格林公馆一楼,浙江省,杭州市,上城区,18258269089,unknown,
baidu,53cebd50cf8279602a02e17a,杭州腾飞汽车服务有限公司,杭州市上城区南山路218号,浙江省,杭州市,上城区,(0571)87088911,unknown,
baidu,026b5f8e075ba01f0a5cb313,百诚车辆修理店,浙江省杭州市上城区佑圣观路21号,浙江省,杭州市,上城区,13073646228,unknown,
baidu,62bbd17b92b0404628b97c32,小拇指汽车快修轮胎,浙江省杭州市拱墅区中河北路71号,浙江省,杭州市,拱墅区,13094812313,unknown,
baidu,da2ff7c712490d929ee3219c,一嗨租车(杭州火车城站店),浙江省杭州市上城区江城路810号,浙江省,杭州市,上城区,,unknown,
baidu,efb93a86bc118cf254bfff88,杭州浔旅汽车租赁有限公司,浙江省杭州市上城区中河中路102号2层101室,浙江省,杭州市,上城区,15372058752,unknown,
baidu,66291ab05813cddc95031991,弯湾爱生活汽车生活馆(金牛坊店),凯旋路137号,浙江省,杭州市,上城区,(0571)87655920,unknown,
baidu,119458a4966159be9e9d68b6,宝跃汽车服务,浙江省杭州市上城区紫阳街道望江门外直街18号,浙江省,杭州市,上城区,,unknown,
baidu,b1dbd523b49909c317b54b14,魔派丨INTIME365车服务中心(西湖店),延安路98号（西湖银泰地下二楼）,浙江省,杭州市,上城区,18268146492,unknown,
baidu,c5ddcc08ef9a98bbd91318a1,洁轩驿站洗车场(凯旋路店),凯旋路55号,浙江省,杭州市,上城区,13588770377,unknown,
baidu,e1c6124987c7120d3a04b1db,领克品牌用户中心(西湖中心),浙江省杭州市上城区南山路勾山商务中心15幢,浙江省,杭州市,上城区,,unknown,
baidu,4725ec2ae592a65ad2f49eb7,特斯拉(杭州嘉里中心体验店),浙江省杭州市拱墅区延安路385号杭州嘉里中心F1,浙江省,杭州市,拱墅区,(0571)82624314,unknown,
baidu,d9b76bf758ab7fd70782c27b,迈道夫精致养车(凯旋路店),凯旋路157号金牛坊底层商铺,浙江省,杭州市,上城区,"(0571)88319129,4006180571",unknown,
baidu,58bc198a20fdf3e29fec2beb,smart汽车(杭州旗舰中心),浙江省杭州市上城区南山路101-7号,浙江省,杭州市,上城区,15657123195,unknown,
baidu,e6ebd9fb4ee7e7999e09f74f,杭州骏意汽车销售服务有限公司,浙江省杭州市上城区南山路176-1号,浙江省,杭州市,上城区,(0571)87706458,unknown,
baidu,d82d6697c644b6bfd518b764,五星汽车装修,浙江省杭州市江干区清江路17号,浙江省,杭州市,上城区,"(0571)81960489,(0571)86520290",unknown,
baidu,1180d867eb2fa4be3ce23166,汽车维修保养,浙江省杭州市上城区凯旋路与清江路交叉口西60米,浙江省,杭州市,上城区,,unknown,
baidu,750098fcd5be42c19d9d6820,中山西子,杭州市上城区平海路中山国际大酒店,浙江省,杭州市,上城区,,unknown,
baidu,675fba3df03fc9b426d2bbe3,蔚来空间(杭州嘉里中心),浙江省杭州市拱墅区延安路353号杭州嘉里中心F1,浙江省,杭州市,拱墅区,13162661990,unknown,
baidu,ac76b963210a7c11b6147f4d,杭州阿张汽车服务有限公司,望江新园一园4号楼底商映霞街35号,浙江省,杭州市,上城区,13588830375,unknown,
baidu,4b6c790ad4be7a784354d7f5,台湾华丰轮胎,浙江省杭州市拱墅区长庆街15号附近,浙江省,杭州市,拱墅区,15990001450,unknown,
baidu,7dc1c659dbc36aeefbdc85df,小拇指汽车维修保养轮胎(海潮寺巷店),浙江省杭州市上城区海潮寺巷71号,浙江省,杭州市,上城区,13857122518,unknown,
baidu,86151bc32920847415a190ea,鼓楼汽车养护(太庙巷店),浙江省杭州市上城区中山南路305-2号鼓楼汽车养护,浙江省,杭州市,上城区,13018912321,unknown,
baidu,a4f63cfd920c9c1e0bccdda2,九来租车,浙江省杭州市拱墅区二圣庙前45号,浙江省,杭州市,拱墅区,4001100889,unknown,
baidu,5c7516a3350463d7f7eafc05,修补轮胎,杭州市上城区清江路清泰南苑东北侧约70米,浙江省,杭州市,上城区,,unknown,
baidu,6e105fb9b8c37680aecb6696,钣金油漆,杭州市上城区清江路清泰南苑东北侧约70米,浙江省,杭州市,上城区,13957145739,unknown,
baidu,b1c556e872465e0db42655e7,GAG中泰汽车装饰(凤起路分部),浙江省杭州市拱墅区凤起路38号(春丰苑),浙江省,杭州市,拱墅区,(0571)85186999,unknown,
baidu,f3c2373c91eaca2cd22dd622,浙江省对外贸易服务中心,浙江省杭州市拱墅区延安路468号浙江经贸大楼南楼8层805号,浙江省,杭州市,拱墅区,,unknown,
baidu,35ca7dceb974195037b06c9f,流动补胎拖车搭电,浙江省杭州市上城区紫阳街道望江路65号,浙江省,杭州市,上城区,15008533330,unknown,
baidu,606c8291a73876537c29bd28,车元素(东宝路店),浙江省杭州市上城区东宝路53号,浙江省,杭州市,上城区,,unknown,
baidu,f0a1ab2aa37a4829d5b74e78,邓禄普轮胎(抚宁巷店),浙江省杭州市上城区抚宁巷55号,浙江省,杭州市,上城区,13758149115,unknown,
baidu,94d8eff589b72ec25fbe8627,杭州迅杭新能源汽车租赁有限公司,浙江省杭州市上城区经济开发区北沙东路5号6幢132室,浙江省,杭州市,上城区,,unknown,
baidu,34b2fcbbd38ee228f22d83fc,滨江基地御品销售中心,杭州市上城区东宝路滨江金地御品,浙江省,杭州市,上城区,,unknown,
baidu,bc3551d6b3c0ba15c5effbe4,朝阳轮胎(中策车空间海潮路店),浙江省杭州市上城区紫阳街道大通桥里街6号,浙江省,杭州市,上城区,4008889870,unknown,
baidu,1c1e314913acbe68fb2d61f8,杭州商务包车旅游租车,浙江省杭州市上城区湖滨街道开元路19-2号天源商务楼2楼,浙江省,杭州市,上城区,13738254261,unknown,
baidu,572d5c95f98a9dfc871541c6,杭州熬烧租车,西湖大道2号2楼206号商铺,浙江省,杭州市,上城区,,unknown,
baidu,252547ac943c4afa88b98856,潮鸣修车,浙江省杭州市拱墅区潮鸣苑15幢(潮鸣寺巷南),浙江省,杭州市,拱墅区,,unknown,
baidu,0f37691a1f51857308ccdd9c,神州租车(凤起潮鸣自助点),浙江省杭州市拱墅区凤起路11号潮鸣月映阁黄龙饭店北门下二层车库社会车辆停车位,浙江省,杭州市,拱墅区,18413215360,unknown,
baidu,fb5baf763bd6897e25e0a004,吉链叉车吊车出租公司,浙江省杭州市上城区中河中路281号1302室,浙江省,杭州市,上城区,18134553174,unknown,
baidu,414e85953d8df1342e47339e,Jac(西湖银泰百货店),清波街道延安路98号西湖银泰二楼L2-26号商铺,浙江省,杭州市,上城区,(0571)87002327,unknown,
baidu,2da437406e61787f100daa1d,GENESIS,杭州市上城区南山路桔子水晶酒店(西湖店),浙江省,杭州市,上城区,,unknown,
baidu,33fbfa83d38e75c00bf5eb74,浙江中医药大学-中医门诊部,杭州市上城区皮市巷6号,浙江省,杭州市,上城区,(0571)87686890,unknown,
baidu,ded7474a623565db9fec2b17,浙江大学医学院附属第二医院(解放路院区),杭州市上城区解放路88号,浙江省,杭州市,上城区,(0571)87783777,unknown,
baidu,764672e5d1a735ac94ec8470,上城区小营街道社区卫生服务中心,杭州市上城区民生路13号,浙江省,杭州市,上城区,,unknown,
baidu,56f2f696a6b208990aa8d448,九洲大药房(泰和店),杭州市解放路121-123号,浙江省,杭州市,上城区,"(0571)87807301,13282037870",unknown,
baidu,1c785f03df97a7e916c905d7,浙江大学医学院附属第二医院(解放路院区)-门诊楼,浙江省杭州市上城区解放路88号,浙江省,杭州市,上城区,,unknown,
baidu,618413e6e70a49f888db73ba,杭州喜鹊综合门诊部,浙江省杭州市上城区中河中路162号,浙江省,杭州市,上城区,(0571)28036868,unknown,
baidu,44dd45e8e509a15d6dc02cea,杭州医博医院,浙江省杭州市上城区中河中路166号,浙江省,杭州市,上城区,,unknown,
baidu,e6c7bf6cd5cd19a76fa3cc8d,浙江大学医学院附属第二医院(解放路院区)-发热门诊,上城区解放路88号,浙江省,杭州市,上城区,,unknown,
baidu,b12b2a7868af7f2ccf06a443,浙江大学医学院附属第二医院2号病房大楼,浙江省杭州市上城区华藏寺巷钱学森故居东南,浙江省,杭州市,上城区,,unknown,
baidu,823949e86e11b2464d2fdf17,上城区湖滨街道社区卫生服务中心,杭州市上城区东平巷4号,浙江省,杭州市,上城区,(0571)87064485,unknown,
baidu,ccdc380e3689a2273c9a5e06,杭州汤养元中医门诊部有限公司,浙江省杭州市上城区中山中路323号,浙江省,杭州市,上城区,"(0571)87026570,(0571)88180811",unknown,
baidu,939d3e12a42fc9b2ae045716,思澄堂-医务室,解放路132号思澄堂,浙江省,杭州市,上城区,,unknown,
baidu,93df0dc3bec6eb56882fb5f1,小营街道社区卫生服务中心金钱巷社区卫生服务站,杭州市上城区南班巷15幢底层,浙江省,杭州市,上城区,(0571)87829856,unknown,
baidu,bb1d38e49a5c1e4c0c0a7075,杭州市第三人民医院,杭州市上城区西湖大道38号,浙江省,杭州市,上城区,(0571)87823126,unknown,
baidu,8707e85d3c46c120a8f72914,浙江大学医学院附属第二医院(解放路院区)-放射科,浙江省杭州市小营街道解放路88号浙江大学医学院附属第二医院3号楼,浙江省,杭州市,上城区,,unknown,
baidu,606ab0d0b2ba44570e3dda57,杭州市血管外科中心,浙江省杭州市上城区西湖大道38号,浙江省,杭州市,上城区,(0571)87823197,unknown,
baidu,0d73e4d105e834e54f5547bd,杭州鑫瑞综合门诊部,浙江省杭州市上城区建国中路21号,浙江省,杭州市,上城区,,unknown,
baidu,43b7e8891c14be7359f6bea8,浙江大学医学院附属第一医院(庆春院区),浙江省杭州市上城区庆春路79号,浙江省,杭州市,上城区,"(0571)87236114,(0571)87236666",unknown,
baidu,97143c0572fa5b97b6147f47,上城区 小营街道社区卫生服务中心小营巷社区卫生服务站,杭州市上城区小营街道银枪班巷7号,浙江省,杭州市,上城区,(0571)87020672,unknown,
baidu,55c9358931ef93d5f60e770f,杭州市第一人民医院(小营分院),杭州市上城区民生路13号,浙江省,杭州市,上城区,,unknown,
baidu,c5051ea7c555160aa7c75699,康源堂,浙江省杭州市上城区光复路101号,浙江省,杭州市,上城区,,unknown,
baidu,063f2ecbcde47d4f3913fd03,杭州薇琳医疗美容医院,浙江省杭州市上城区清泰街2号,浙江省,杭州市,上城区,"(0571)87296161,(0571)87828888",unknown,
baidu,64f5dd14b176eb2ea8175a32,杭州上城区丁新民口腔诊所,浙江省杭州市上城区清吟街52号,浙江省,杭州市,上城区,(0571)87229298,unknown,
baidu,fc62624a8b9154a8d12dd67e,浙江大学医学院附属第二医院(解放路院区)-血液净化中心,浙江省杭州市上城区解放路88号,浙江省,杭州市,上城区,,unknown,
baidu,ecd7b0483f4317c895f08c20,杭州市第三人民医院-肠道门诊,城头巷56号,浙江省,杭州市,上城区,(0571)87823116,unknown,
baidu,4ce10ce6737efdb8451a32a5,杭州口腔医院(平海院区),杭州市上城区平海路1号,浙江省,杭州市,上城区,4000600763,unknown,
baidu,54a1f73398666faad618b7c5,臻呼吸睡眠管理中心,浙江省杭州市上城区解放路89号星河商务大厦305室,浙江省,杭州市,上城区,18658190032,unknown,
baidu,a1282abd2ef35679a8f0cdb6,浙江省杭州市上城区小营街道残疾人之家,杭州市上城区小营巷红巷生活广场,浙江省,杭州市,上城区,,unknown,
baidu,709b1f106412d4b7c3364406,浙江中医药大学附属第三医院(庆春院区),浙江省杭州市上城区庆春路23号1楼,浙江省,杭州市,上城区,(0571)87238121,unknown,
baidu,5659eb1f6635946fae31e582,杭州临湖门诊部,杭州市上城区邮电路小区,浙江省,杭州市,上城区,,unknown,
baidu,792549021043f9367dc876dc,杭州艺星整形医院,浙江省杭州市上城区庆春路199号Yestar大楼,浙江省,杭州市,上城区,13248337405,unknown,
baidu,d7cc73232ce75796a8059dc7,浙江大学医学院杭州滨江跟腱损伤专科医院,浙江省杭州市上城区解放路88号,浙江省,杭州市,上城区,,unknown,
baidu,188e7d77893e795ec356acd1,浙江省中医院-体检中心(湖滨院区),杭州市仁和路10号,浙江省,杭州市,上城区,"(0571)87068001,(0571)87652766",unknown,
baidu,70a730b976216f00e912e4bb,浙江大学眼科医院,浙江省杭州市上城区西湖大道1号外海西湖国贸大厦裙楼,浙江省,杭州市,上城区,(0571)87783907,unknown,
baidu,5a25b6d8eff622a2aeb22a7d,浙江大学医学院附属第一医院(城站院区),浙江省杭州市上城区城站路58号,浙江省,杭州市,上城区,(0571)87236114,unknown,
baidu,2e00c5ddd66f7605d7851f51,浙江大学医学院附属儿童医院(湖滨院区),浙江省杭州市拱墅区竹竿巷57号,浙江省,杭州市,拱墅区,(0571)88873263,unknown,
baidu,435d7aeafee7d72c5bbbbca8,浙江大学医学院附属妇产科医院(湖滨院区),浙江省杭州市上城区学士路1号,浙江省,杭州市,上城区,(0571)87061501,unknown,
baidu,ad079c29913b426cc1f1cf8d,杭州仁爱家园上城区小营街道工疗站(一),杭州市上城区小营巷红巷生活广场,浙江省,杭州市,上城区,,unknown,
baidu,e32bf655cc42cd28dbecedfe,张击医健康管理,浙江省杭州市上城区马市街122-3号,浙江省,杭州市,上城区,15397156973,unknown,
baidu,90a1b08e49c7de9c80a00cdb,浙江省中医院,浙江省杭州市上城区邮电路54号,浙江省,杭州市,上城区,(0571)87073761,unknown,
baidu,3305157bf7dcb5c14254d7f6,杭州市第三人民医院-西区,杭州市上城区西湖大道38号,浙江省,杭州市,上城区,,unknown,
baidu,a28854584541c4aafa42b20f,广兴堂国医馆,浙江省杭州市上城区中山中路143、149号,浙江省,杭州市,上城区,(0571)87881600,unknown,
baidu,4fc3161a728e35b03a13fd5c,西湖大学医学院附属杭州市第一人民医院(湖滨院区),浙江省杭州市上城区浣纱路261号,浙江省,杭州市,上城区,(0571)56005600,unknown,
baidu,829fbcdbaaf858d3badf8fa5,杭州前进中医门诊部,杭州市上城区庆春路219号5楼,浙江省,杭州市,上城区,(0571)87218996,unknown,
baidu,87fcf89974775ed91f38940d,佰兴医疗器械,浙江省杭州市上城区清吟街2号,浙江省,杭州市,上城区,18768489581,unknown,
baidu,94962244ff5ef0548b2fb55b,杭州万承志堂国药馆,浙江省杭州市上城区高银街103号,浙江省,杭州市,上城区,"(0571)87177111,(0571)87808591,19157782055",unknown,
baidu,b910921969be7e4f6e20b990,釜星医疗美容,浙江省杭州市上城区清吟街165绿都大厦F1,浙江省,杭州市,上城区,(0571)87777078,unknown,
baidu,eb11946226ed34ea40e19240,杭州胡庆余堂第一中医门诊部,杭州市上城区安荣巷11号,浙江省,杭州市,上城区,,unknown,
baidu,ad235e1256ba54bb922ca386,海王星辰健康药房(解放路二店),浙江省杭州市上城区解放路99-5号,浙江省,杭州市,上城区,4006626365,unknown,
baidu,78644a5b96ce43ac6c3e1b21,杭州胡庆余堂第三中医门诊部,杭州市上城区大井巷86号,浙江省,杭州市,上城区,(0571)87886330,unknown,
baidu,4707a14c9560e80de115f9a4,岐黄正传,杭州市上城区中山中路杭州五洋公馆(西湖店)东南侧,浙江省,杭州市,上城区,,unknown,
baidu,0c27a971624df357d6b74e62,柒月中医诊所,杭州市上城区建国中路万安城市花园-南苑南侧,浙江省,杭州市,上城区,,unknown,
baidu,b5932738383d72b4b11e369e,杭州市红十字会医院,浙江省杭州市拱墅区环城东路208号,浙江省,杭州市,拱墅区,"(0571)56108701,(0571)56109588,(0571)56109809",unknown,
baidu,dc80b8a0bba6b54d6d20b950,华东大药房(长春药店),浙江省杭州市上城区清泰街565号,浙江省,杭州市,上城区,,unknown,
baidu,4b91fb96de71aefc354aae14,瑞慈体检(杭州延安店),浙江省杭州市拱墅区凤起路438号401室,浙江省,杭州市,拱墅区,4001688188,unknown,
baidu,5dd54bfc6449685361685848,海王星辰健康药房(清泰店),浙江省杭州市上城区清泰街496号,浙江省,杭州市,上城区,(0571)88382387,unknown,
baidu,c40d76572eb177ecabf0cd72,九洲大药房(清泰街二店),浙江省杭州市上城区小营街道清泰街348号1层103室,浙江省,杭州市,上城区,(0571)87219273,unknown,
baidu,96d642432280224341d63ecd,杭州上城泰仁堂中医门诊部,浙江省杭州市上城区四宜路28号,浙江省,杭州市,上城区,(0571)87563308,unknown,
baidu,adc0bb2be108f1ee0c3dda45,杭州聋康医疗器械有限公司,杭州市上城区直大方伯小区,浙江省,杭州市,上城区,(0571)81912633,unknown,
baidu,fbf8c7dbf7ee55c0b5147f04,浙投大药房(清泰街店),浙江省杭州市上城区清泰街489号,浙江省,杭州市,上城区,18969914515,unknown,
baidu,1c1648f0e37da4437069d3e1,华东健康馆(清泰街店),浙江省杭州市上城区清泰街360号,浙江省,杭州市,上城区,,unknown,
baidu,9bec1025c2ed8f4ac2f1cfd4,杭州健康药业,杭州市上城区中河中路168号浙江国贸大厦F13,浙江省,杭州市,上城区,,unknown,
baidu,a654c1ad0839eb56c9291584,海王星辰健康药房(解放路店),浙江省杭州市上城区解放路148-6号,浙江省,杭州市,上城区,(0571)87829101,unknown,
baidu,092a85c094d0b9e10b1cc750,杭州国控大药房(直大方伯店),浙江省杭州市上城区直大方伯57号,浙江省,杭州市,上城区,(0571)87793550,unknown,
baidu,363616f2f76ef5b98bf15d49,民生路13号对面核酸采样点,杭州市民生路13号对面,浙江省,杭州市,上城区,,unknown,
baidu,b0d13e4ebcb5e3332cb908fd,延庆堂,浙江省杭州市上城区湖滨街道中山中路405号,浙江省,杭州市,上城区,(0571)87025598,unknown,
baidu,b9c8908adbd893179a0050c7,天天好大药房(清吟街店),浙江省杭州市上城区清吟街86号,浙江省,杭州市,上城区,(0571)87989916,unknown,
baidu,b08892a44828b0cb3904b17d,全球首批JCI国际学术医学中心,浙江省杭州市上城区解放路88号1号楼8楼,浙江省,杭州市,上城区,,unknown,
baidu,90bb7caf6cff3103704b87d8,华东医药听力中心,浙江省杭州市上城区清泰街366号,浙江省,杭州市,上城区,(0571)87981651,unknown,
baidu,02aec8099fb3c4f6715e8041,海王星辰健康药房(马市街店),浙江省杭州市上城区清吟街90号,浙江省,杭州市,上城区,4006626365,unknown,
baidu,35a4af89289f504af72310e8,瑞声达助听器(直大方伯),浙江省杭州市上城区清吟街1号,浙江省,杭州市,上城区,4008882440,unknown,
baidu,17399c6e5785d1ec40e19235,惠耳听力助听器(杭州解放路店),浙江省杭州市上城区解放路168号,浙江省,杭州市,上城区,0571-85027318,unknown,
baidu,2cc3c8e8a40e27cf4c2fdfbf,杭州方回春堂国药馆(河坊街馆),浙江省杭州市上城区河坊街117号,浙江省,杭州市,上城区,(0571)87808117,unknown,
baidu,1da83e8c0eb679848bdb7364,明德堂,杭州市上城区中山中路J.S美宿公馆酒店(杭州西湖店)西侧,浙江省,杭州市,上城区,,unknown,
baidu,061f9d971414310eefdfca1d,中科灵芝(浙江旗舰店),浙江省杭州市上城区解放路89-1号星河商务大厦1f,浙江省,杭州市,上城区,(0571)87229522,unknown,
baidu,510ff7a6b9c309cc354aae3d,新生派药局,杭州市上城区直大方伯万安城市花园-西苑,浙江省,杭州市,上城区,,unknown,
baidu,ce7c046743c650903686f429,俊轶健康医养谷,杭州市上城区邮电路小区东北侧,浙江省,杭州市,上城区,"18757122013,19157835498",unknown,
baidu,cfd2e8d47102415c9cf779ef,浙江省异地就医联网结算机构,杭州市上城区皮市巷浙江中医药大学中医门诊部,浙江省,杭州市,上城区,,unknown,
baidu,13c709dd0a9aefebc62ba16b,杭州冰美医疗美容,浙江省杭州市上城区湖滨街道中山中路238号二楼,浙江省,杭州市,上城区,(0571)87014149,unknown,
baidu,3434c12acf1a2737ab059d02,众意口腔,浙江省杭州市上城区中河中路170号,浙江省,杭州市,上城区,(0571)28061717,unknown,
baidu,cea7aef8fbd14fda03ec01b2,祐圣口腔,杭州市上城区佑圣观路132号,浙江省,杭州市,上城区,(0571)87155969,unknown,
baidu,a9327dce68d7933de8e5823e,消防控制中心(浙江大学医学院附属第二医院门诊楼),浙江省杭州市上城区解放路88号F1层104,浙江省,杭州市,上城区,,unknown,
baidu,1ad6216d395947cdfd0eb031,亚尔口腔(清泰街门诊部),浙江省杭州市上城区清泰街491号,浙江省,杭州市,上城区,(0571)88238277,unknown,
baidu,d9379bc7f2d4e304b020a842,浙江大学医学院附属第二医院-消毒供应中心,浙江省杭州市上城区解放路88号浙一医院6号楼,浙江省,杭州市,上城区,,unknown,
baidu,ccf0375a16a8c0d9704b8713,好牙口腔(杭州总院),杭州市上城区建国中路43、47、49、55号,浙江省,杭州市,上城区,,unknown,
baidu,290062eebea45eebf92213a2,浙江省健康服务业促进会医学专家工作站,杭州市上城区中河中路浙江林业大厦,浙江省,杭州市,上城区,,unknown,
baidu,163724ff0b581c922fb908f5,浙江省杭州市急救中心杭州市第三人民医院急救点,浙江省杭州市上城区杭州市第三人民医院,浙江省,杭州市,上城区,,unknown,
baidu,14460e751f2a9db74e55479b,李赢宝堂(解放店),浙江杭州市上城区解放路109号,浙江省,杭州市,上城区,,unknown,
baidu,b8cefe38e61c62a2b54f5439,杭州斯达克助听器有限公司分公司(直大方伯),浙江省杭州市上城区直大方伯26-1号,浙江省,杭州市,上城区,(0571)87047969,unknown,
baidu,a880b10c9b38023f09ccdd6d,夏加儿艺术(杭州上城校区),浙江省杭州市上城区皮市巷39-2号,浙江省,杭州市,上城区,(0571)86821281,unknown,
baidu,7dcbf4bc8741fb7c4c2fdfb8,杭州市上城区教育学院,浙江省杭州市上城区西湖大道107号,浙江省,杭州市,上城区,(0571)87077222,unknown,
baidu,760b9264767844871188244c,浙江省家庭教育指导中心,浙江省杭州市上城区中河中路215号,浙江省,杭州市,上城区,,unknown,
baidu,2216805e07955e17306212bd,蓝点咖啡培训学院,浙江省杭州市上城区清吟街145号,浙江省,杭州市,上城区,15879993509,unknown,
baidu,91c13f93a8ecb88720f017a1,中国工商银行杭州分行培训中心(开元路),浙江省杭州市上城区开元路32号,浙江省,杭州市,上城区,,unknown,
baidu,95f206d6b2cb7eefaecb66f9,追马艺术培训,浙江省杭州市上城区西湖大道41号万事利丝绸2楼,浙江省,杭州市,上城区,(0571)86976225,unknown,
baidu,58aa2102344c184e5810933e,杭州维思得英语培训学校,浙江省杭州市上城区梅花碑8号6号楼1-5楼,浙江省,杭州市,上城区,(0571)87812282,unknown,
baidu,ddcb74b42d18d53daeb22a0f,汇众教育(杭州校区),浙江省杭州市上城区解放路138号航天通信大厦1号楼11层,浙江省,杭州市,上城区,,unknown,
baidu,cf6b648093e1ef373586f4e6,杜特体育青少年篮球训练营(孝友里校区),孝友里巷孝友里五号,浙江省,杭州市,上城区,18258425753,unknown,
baidu,680fb7035b19529d8bb98872,浙江省杭州第六中学,浙江省杭州市上城区佑圣观路161号,浙江省,杭州市,上城区,(0571)87802399,unknown,
baidu,f514ef7bda57a036fb2d61c8,理想绘·美院系统教学画室,西湖大道1号西湖国贸大厦405室,浙江省,杭州市,上城区,19357553566,unknown,
baidu,696b59fceb034a1cf21937b2,乐达作文阅读科学,浙江省杭州市上城区马市街210号3楼,浙江省,杭州市,上城区,(0571)87167976,unknown,
baidu,f3c43c63c1ba04cbb5147f44,奥腾舞艺舞蹈培训(金峰校区),浙江省杭州市上城区中河中路281号金峰大厦17楼,浙江省,杭州市,上城区,,unknown,
baidu,e6a5d81d14ffa1ea5e17c3c5,炼武功夫会馆,浙江省杭州市上城区孝友里5号,浙江省,杭州市,上城区,18698570506,unknown,
baidu,4cf92d4bc37b4eed2fb17e5e,浙江省人事考试办公室,杭州市上城区佑圣观路74-1号,浙江省,杭州市,上城区,(0571)88394516,unknown,
baidu,bb08ee1539d515431029353e,浙江中医药大学中药鉴定实践基地,浙江省杭州市上城区皮市巷4号,浙江省,杭州市,上城区,,unknown,
baidu,bf29b7027b8e4d9809b93a6e,杭州退休干部职工大学(清吟街),浙江省杭州市上城区大塔儿巷15号,浙江省,杭州市,上城区,"(0571)87804647,(0571)88081670",unknown,
baidu,2f39d7346c783990d82f28a1,宸彩画室,浙江省杭州市上城区中山中路381号,浙江省,杭州市,上城区,,unknown,
baidu,d64ea0acf3e28438715e8041,杭州市上城区社区学院,浙江省杭州市上城区清泰街严衙路7号,浙江省,杭州市,上城区,(0571)87835719,unknown,
baidu,fba925c26a4727745d0d02b7,步青书苑,浙江省杭州市上城区孝友里5号,浙江省,杭州市,上城区,,unknown,
baidu,9eba173c4c408dc45cbe8688,吉他教学零售维修(周末吉他工作室),浙江省杭州市拱墅区庆春路118号2402B室,浙江省,杭州市,拱墅区,"15336536326,17366613856",unknown,
baidu,472bbd2776264d2d1fe999c0,省妇保产科门诊孕妇学校,学士路1号2楼(近湖滨),浙江省,杭州市,上城区,,unknown,
baidu,2c0bd6c519e3f7ab43ab9a72,杭州钱江业余学校,浙江省杭州市上城区定安路126号,浙江省,杭州市,上城区,(0571)87069111,unknown,
baidu,acb382c576de2469b5147f72,铭舞工作室国标舞,杭州市上城区西湖大道1号,浙江省,杭州市,上城区,15958199602,unknown,
baidu,45c7ad2cbb43b8fc2bd7ab7b,纯四度钢琴工作室,浙江省杭州市上城区中河大厦301室,浙江省,杭州市,上城区,"18077507072,18457174787",unknown,
baidu,56f2f6969b781bfe0aa8d421,新航道(浙江总部),浙江省杭州市拱墅区延安路328号恒通大厦,浙江省,杭州市,拱墅区,"17757149597,4009696968",unknown,
baidu,02f3b5e4202255471e1d11cc,YM音乐工作室,浙江省杭州市上城区孝友里5号,浙江省,杭州市,上城区,13291805899,unknown,
baidu,b8ab9e79a0d92c022e473313,浙江理工大学夜大函授中心,浙江省杭州市上城区中河中路281号金峰大厦9-10楼,浙江省,杭州市,上城区,(0571)87165617,unknown,
baidu,6ee01020d746ec9252e5c556,杭州市机动车驾驶员考试服务中心,浙江省杭州市小营街道河坊街33号,浙江省,杭州市,上城区,(0571)87281583,unknown,
baidu,139079f612384c7c4f3a5906,清荷幼儿园(严衙弄),浙江省杭州市上城区严衙弄8号,浙江省,杭州市,上城区,"(0571)87829525,15988168695",unknown,
baidu,960ee6c6abd69367f4e73b3d,行知幼儿园小塔儿园区,浙江省杭州市上城区大塔儿巷10号,浙江省,杭州市,上城区,,unknown,
baidu,81d6a5098c0f08426e20b9ee,杭州市胜利幼儿园,浙江省杭州市上城区义井巷5号,浙江省,杭州市,上城区,(0571)87805113,unknown,
baidu,eb4ca46e29ddcd4017c8f617,炼武少儿武术·散打·体适能(庆春店),孝友里5号,浙江省,杭州市,上城区,,unknown,
baidu,8389654f861f7bca72455b3f,钱江继续教育培训中心,浙江省杭州市上城区西湖大道220号(定安路地铁站B口旁),浙江省,杭州市,上城区,(0571)86968772,unknown,
baidu,e0a3facc0efac381f5c59cc2,杭州第二中学(东河校区),浙江省杭州市上城区建国中路36号,浙江省,杭州市,上城区,"(0571)87023505,(0571)87071331",unknown,
baidu,ef773a0ff1de65352202206e,杭州市五星幼儿园,浙江省杭州市上城区紫金观巷28-1号,浙江省,杭州市,上城区,(0571)87029092,unknown,
baidu,cc5058e88b204e28fb221356,杭州市建兰中学杭州市惠兴中学集群发展联盟,浙江省杭州市上城区邮电路22号,浙江省,杭州市,上城区,,unknown,
baidu,5211d219a96d18267dc8766f,杭州市行知幼儿园(邮电路),浙江省杭州市上城区邮电路20号,浙江省,杭州市,上城区,(0571)87029755,unknown,
baidu,55a232ad1d30c62ab13c8120,杭州市小营巷小学,浙江省杭州市上城区皮市巷99号,浙江省,杭州市,上城区,(0571)87019891,unknown,
baidu,1bf85b25a1c616daa1a9341f,杭州第十中学,浙江省杭州市上城区皮市巷158号,浙江省,杭州市,上城区,(0571)56235161,unknown,
baidu,6bcafa6cdf9866b0bfa82205,浙江省新思维教育科学研究院,浙江省杭州市上城区枝头巷17号南楼2楼,浙江省,杭州市,上城区,,unknown,
baidu,94349f626e679a3a1994c68b,杭州新世纪外国语学校(湖畔校区),浙江省杭州市上城区清吟街128号,浙江省,杭州市,上城区,(0571)87036310,unknown,
baidu,abd814da9ba4c0aabca8228f,杭州修言子墨·少儿书法国画工作室(庆春校区),杭州市上城区庆春路139号庆联大厦701号,浙江省,杭州市,上城区,"15858129000,18658890188",unknown,
baidu,6ec37bcfdfc6c860d1f49ea9,小乐手音乐培训,杭州市上城区大学路锦花苑,浙江省,杭州市,上城区,,unknown,
baidu,9d706a7808012ab8cb213d46,浙江大学急救医学研究所,解放路88-4号楼附近,浙江省,杭州市,上城区,,unknown,
baidu,b0fe299931ac845ccc06a446,OVERGROUND地上练习室(外海店),浙江省杭州市上城区外海·西湖国贸大厦16层1601室,浙江省,杭州市,上城区,,unknown,
baidu,b66896de896e38b95cd4fe0d,杭州市时代小学,浙江省杭州市上城区建国中路锅子弄37号,浙江省,杭州市,上城区,(0571)87063811,unknown,
baidu,c7fb04bd21a22b14fb0cade3,大成岳家湾实验学校,浙江省杭州市拱墅区凤起路新华坊岳家湾5号,浙江省,杭州市,拱墅区,(0571)87183301,unknown,
baidu,d0961f361a96500572455b2b,浙江省杭州第七中学(解放路校区),浙江省杭州市上城区解放路50号,浙江省,杭州市,上城区,(0571)87073818,unknown,
baidu,5c2dc21def93c6056fc02c6e,杭州市惠兴中学,浙江省杭州市上城区惠兴路11号,浙江省,杭州市,上城区,(0571)87067545,unknown,
baidu,f201f0c0aa3d0ea57702694a,杭州小世小界国际幼儿园,浙江省杭州市上城区火药局弄31号,浙江省,杭州市,上城区,(0571)86898899,unknown,
baidu,4f5437a16cb2f47814948e8c,杭州园林图书馆,浙江省杭州市上城区湖滨商圈邮电路18号,浙江省,杭州市,上城区,,unknown,
baidu,26226d7bcfd7d0d7ab0dd885,起航国际游泳培训(杭州站店),浙江省杭州市上城区西湖大道19号,浙江省,杭州市,上城区,,unknown,
baidu,18383e35509b2f8ce115f98b,杭州市旅游职业学校(葵巷校区),浙江省杭州市上城区大学路大河下103号,浙江省,杭州市,上城区,"(0571)86625289,(0571)86625313,(0571)87137932",unknown,
baidu,ee6f1c7a4583fa1c6c3e1bb3,浙江公安科技研究所,民生路66号,浙江省,杭州市,上城区,,unknown,
baidu,f404d018b485a9139d82eaf4,杭州市勇进实验学校,杭州市上城区华藏寺巷,浙江省,杭州市,上城区,,unknown,
baidu,55aebb4287e043e425e0a0d0,杭州市胜利东河幼儿园大塔儿园区,浙江省杭州市上城区清吟街113号,浙江省,杭州市,上城区,(0571)87025664,unknown,
baidu,0850bde95942594f48cc4ac8,浙江大学肿瘤研究所,浙江省杭州市上城区解放路88号,浙江省,杭州市,上城区,,unknown,
baidu,7af86ebb6579a78826e0a0cc,杭州市上城区图书馆湖滨街道分馆,浙江省杭州市上城区湖滨街道崔家巷3号,浙江省,杭州市,上城区,,unknown,
baidu,85c274ed067707635cbe86eb,杭州图书馆(生活主题分馆),浙江省杭州市上城区浣纱路254号,浙江省,杭州市,上城区,"(0571)86535100,(0571)87065679",unknown,
baidu,20c5a62229a8b9978733043e,浙江图书馆,浙江省杭州市上城区大学路102号,浙江省,杭州市,上城区,(0571)87988700,unknown,
baidu,0816cd1f99b3c962ab059d44,杭州第四中学(吴山校区),浙江省杭州市上城区延安路吴山名楼对面,浙江省,杭州市,上城区,"(0571)85385879,(0571)89730256",unknown,
baidu,b9dfd5c764aebe56f603b85d,浙江省退役军人教育中心,杭州市上城区解放路7号浙江省军供大厦,浙江省,杭州市,上城区,,unknown,
baidu,0810683f0c9ab84859bbbc4d,杭州市大学路小学,浙江省杭州市上城区大学路54号,浙江省,杭州市,上城区,(0571)56060586,unknown,
baidu,5e2f67ac3751d2e3e9f85387,浙江当代建筑设计研究院(浙江国贸大厦),浙江省杭州市上城区中河中路168号浙江国贸大厦19楼,浙江省,杭州市,上城区,(0571)81022798,unknown,
baidu,ccc50146d368a79a2bd7ab5f,浙江省机电产品质量检测所理化检测室,中河中路175,浙江省,杭州市,上城区,,unknown,
baidu,9e501a0b87bb1c32d8d89122,浙江现代人才测评技术研究院,浙江省杭州市上城区清泰街571号金泰商务大厦11楼,浙江省,杭州市,上城区,,unknown,
baidu,74489ce6a128274b931fc946,杭州天长小学,浙江省杭州市上城区孝女路4号,浙江省,杭州市,上城区,(0571)87911991,unknown,
baidu,2fc3ceda5aaadcb07069d332,中国美术学院(南山校区),浙江省杭州市上城区南山路218号,浙江省,杭州市,上城区,(0571)87164609,unknown,
baidu,744b49eabc6d5ae8b35c6a5c,杭州市人民职业学校,浙江省杭州市拱墅区建国北路回龙庙前32-1号,浙江省,杭州市,拱墅区,(0571)87290762,unknown,
baidu,669775d0521b3e5afc0eb0e3,杭州市青蓝小学,浙江省杭州市拱墅区东清巷66号,浙江省,杭州市,拱墅区,(0571)88890063,unknown,
baidu,724bce75ec644bbcf4b916f6,临床科研中心,浙江省杭州市上城区老浙大直路17省号,浙江省,杭州市,上城区,,unknown,
baidu,222f8576189bcf654c3a5998,杭州启正中学(孩儿巷校区),浙江省杭州市拱墅区孩儿巷52号,浙江省,杭州市,拱墅区,(0571)85837701,unknown,
baidu,aa74d702a31d0641cae33c83,钱塘书画研究社,杭州市上城区中山中路466-2号,浙江省,杭州市,上城区,(0571)87081809,unknown,
baidu,6343ee19e50a7d1a2bb97c86,建兰中学,浙江省杭州市上城区抚宁巷58号,浙江省,杭州市,上城区,(0571)86817053,unknown,
baidu,36d899ad04527b16b9df8ff4,浙江省工业设计研究院综合三所,浙江省杭州市上城区小营街道中河中路168号浙江国贸大厦14层,浙江省,杭州市,上城区,,unknown,
baidu,e6e92697bde234ef5f17c3ad,浙江应用工程材料研究所,浙江省杭州市上城区中河中路175号602室,浙江省,杭州市,上城区,(0571)87896631,unknown,
baidu,3c0029233febe549611c6718,杭州市蒋筑英学校,浙江省杭州市上城区江城路金狮苑20号,浙江省,杭州市,上城区,(0571)86778773,unknown,
baidu,9f97b1c5a9449907b64f5437,杭州市采荷第二小学,浙江省杭州市上城区凯旋路58-1号,浙江省,杭州市,上城区,(0571)86989133,unknown,
baidu,e6af31426915a3bc6f3e1b8d,杭州图书馆24小时微型图书馆(浣纱路),浙江省杭州市上城区浣纱路254号,浙江省,杭州市,上城区,(0571)86021000,unknown,
baidu,2af2b05e5a038b67c8fa5f89,浙江天长差异教育研究院,杭州市上城区枝头巷,浙江省,杭州市,上城区,,unknown,
baidu,d6ee8724e15f8d9ea8f0cdd6,浙江省杭州第十四中学(凤起校区),浙江省杭州市拱墅区凤起路580号,浙江省,杭州市,拱墅区,"(0571)85061809,(0571)85151909",unknown,
baidu,1eeb1397fab1e9556168583d,定安国际幼儿园-火药局,清波街道杭州市上城区小世界定安国际幼儿园-火药局,浙江省,杭州市,上城区,,unknown,
baidu,fc4dbc46145f55dda0acc4dd,浙江汉林设计院,浙江省杭州市上城区中河中路258号杭州瑞丰国际商务大厦F21层,浙江省,杭州市,上城区,(0571)87243615,unknown,
baidu,3faedeccc7ea8ca1354aae45,杭州市崇文未来学校,浙江省杭州市上城区甘王路2号,浙江省,杭州市,上城区,,unknown,
baidu,ec15738674053ea47f29bdc0,浙江国贸大厦-第五建筑设计研究所,浙江省杭州市上城区中河中路168号浙江国贸大厦8楼,浙江省,杭州市,上城区,(0571)87234157,unknown,
baidu,03c6b5ef76d5405e0aa8d47a,浙江国贸大厦-第四民用建筑设计研究所,浙江省杭州市上城区中河中路168号浙江国贸大厦10楼,浙江省,杭州市,上城区,,unknown,
baidu,a434c3cc5314dcc4c1f1cfd7,杭州左右培优学校有限公司,浙江省杭州市上城区中河中路168号浙江国贸大厦,浙江省,杭州市,上城区,,unknown,
baidu,46be981517dc33612d47338a,西湖云谷,杭州市上城区定安路68号定安名都商务大厦A座,浙江省,杭州市,上城区,,unknown,
baidu,9f7ac4acd718e7a7afee7a31,杭州采荷第二小学教育集团未来学校,杭州市上城区张家河弄荷花塘社区东侧,浙江省,杭州市,上城区,,unknown,
baidu,ef1878b0f8594ce1ebe58225,杭州市城建设计研究院市政三所,浙江省杭州市上城区清泰街571金泰商务大厦14楼,浙江省,杭州市,上城区,,unknown,
baidu,aa893d34f4f95e4c9a0050fd,浙江理工大学函授站,浙江省杭州市上城区湖滨商圈祖庙巷33号,浙江省,杭州市,上城区,"(0571)86052865,13357101519",unknown,
baidu,4787323fdd0317485810931e,上海市城市建设设计研究院(杭州分院),浙江省杭州市上城区清泰街571-573号金泰商务大厦14层,浙江省,杭州市,上城区,,unknown,
baidu,b4cef6f62949b757bca822b8,杭州市安吉路实验学校(武林校部),浙江省杭州市拱墅区武林路255号,浙江省,杭州市,拱墅区,(0571)85151059,unknown,
baidu,3c9b2dc784ac169807026f1e,浙江理工大学(夜大中河路教学部),浙江省杭州市上城区湖滨街道中河中路281号金峰大厦9层901-902室,浙江省,杭州市,上城区,(0571)86052865,unknown,
baidu,75c281968e834d82d0ff2377,杭州生活品质研究与评价中心,浙江省杭州市上城区国货路2-3,浙江省,杭州市,上城区,,unknown,
baidu,d909f7c9a06ec5a0601c6765,杭州市建筑设计研究院有限公司(郭东园巷),浙江省杭州市上城区郭东国巷8号,浙江省,杭州市,上城区,,unknown,
baidu,e3f3c69e3055338eabf7292d,浙江科技大学函授站,杭州市上城区中河中路281号金峰大厦9号、10号楼,浙江省,杭州市,上城区,"(0571)86052865,18958010605",unknown,
baidu,fe0fc1d035e089f5ad31e5c3,浙江省女性生殖健康研究重点实验室,浙江省杭州市上城区学士路1号浙江大学医学院附属妇产科医院1号楼17楼,浙江省,杭州市,上城区,,unknown,
baidu,f8fcd3f109150ab2f9dc85b8,广西国佑电子科学与技术研究院,浙江省杭州市上城区小营街道梅花碑8号,浙江省,杭州市,上城区,,unknown,
baidu,2aa09528d43bff725cbe8676,杭州老干部大学(解放路),浙江省杭州市上城区解放路101号,浙江省,杭州市,上城区,(0571)87787706,unknown,
baidu,24d055081e3b77ae1288246e,杭州市胜利东河幼儿园,浙江省杭州市上城区清吟街113号,浙江省,杭州市,上城区,"(0571)87699318,(0571)87793681",unknown,
baidu,07f3c8b51c9d58626240a972,浙江省水利水电勘测设计院,浙江省杭州市上城区抚宁巷66号,浙江省,杭州市,上城区,(0571)86827186,unknown,
baidu,5bd6f1177e209d331ce9998d,浙江省医学分子影像重点实验室,浙江省杭州市上城区小营街道解放路88号浙二医院6号楼2楼207211号,浙江省,杭州市,上城区,,unknown,
baidu,02344d95d67483222e4733e7,湖江省工业设计研究院第十建筑设计所,浙江省杭州市上城区中河中路168号浙江国贸大厦10楼,浙江省,杭州市,上城区,(0571)87234157,unknown,
baidu,8346be004dc324359b68b4ef,茅廊巷农贸市场-地下停车场,杭州市上城区佑圣观路275号,浙江省,杭州市,上城区,,unknown,
baidu,150aea7bfb84683777026953,解放路佑圣观路口自行车租赁点,浙江省杭州市上城区小营解放路浙江省公安厅北门,浙江省,杭州市,上城区,15657123839,unknown,
baidu,c082e6b5d14ce5e68505bfd8,凯恩西湖金座-停车场,杭州市上城区湖滨街道解放路131号,浙江省,杭州市,上城区,,unknown,
baidu,5287c9cdb7fbd0eb4f6d46d8,浙医二院,39路;39路大站快线;42路;49路;55路;56路;92路;96路;96路大站快线;115路;183路;283路;287路;305路;305路快线;525路;8251路;杭州萧山机场大巴武林门线,浙江省,杭州市,上城区,,unknown,
baidu,dc62f9eed1cd6efec4f0252b,杭州中维香溢大酒店南侧临时停车点,杭州市上城区解放路杭州中维香溢大酒店南侧,浙江省,杭州市,上城区,,unknown,
baidu,a085cb3b6a583fa6eaf85319,杭州财政局自行车租赁点,浙江省杭州市上城区小营民权路16号(杭州市财政局北),浙江省,杭州市,上城区,,unknown,
baidu,9f5d123c4dcc7f12eb56fa6f,金钱大厦-地下停车场,杭州市上城区解放路91-93号,浙江省,杭州市,上城区,,unknown,
baidu,53cccdb6f89dac8703ff2d5f,浙江大学医学院附属第二医院(解放路院区)-地上停车场,杭州市上城区解放路88号,浙江省,杭州市,上城区,,unknown,
baidu,839ae5e3856cb97021f017e0,浙医二院·马市街①,30路;62路,浙江省,杭州市,上城区,,unknown,
baidu,07eafa042407fd57dd1e52dc,丰乐桥南,3路;3路区间;13路;13路区间;39路;39路大站快线;71路;115路;151路;198路;283路;287路;308路;7280路;K155路[工作日走向];K155路[双休日节假日走向],浙江省,杭州市,上城区,,unknown,
baidu,c9a1d59883028550b9df8f7f,新天工艺苑-地下停车场,上城区解放路91-93号,浙江省,杭州市,上城区,15998877741,unknown,
baidu,58734cd2668d9e1a45572652,水漾桥,3路;3路区间;66路;108路;151路;290路[工作日走向];290路[双休日节假日走向];1014路;K155路[工作日走向];K155路[双休日节假日走向],浙江省,杭州市,上城区,,unknown,
baidu,64c0dffc28cd251102ec01f8,市三医院北,3路;3路区间;66路;108路;115路;151路;183路;290路[工作日走向];290路[双休日节假日走向];1014路;K155路[工作日走向];K155路[双休日节假日走向],浙江省,杭州市,上城区,,unknown,
baidu,c7ac0be5ad4e9b74bca822d3,金泰商务大厦-停车场,杭州市上城区清泰街571号,浙江省,杭州市,上城区,,unknown,
baidu,ea82dccc9238a337102935e9,小营民居-停车场,杭州市上城区清吟街13-3号,浙江省,杭州市,上城区,,unknown,
baidu,5cc22eae69225208fd0eb0a6,新开元大酒店(解放路店)-立体停车场,杭州市上城区光复路016号,浙江省,杭州市,上城区,,unknown,
baidu,87c673b56a9fb94fc61e519f,万安桥,地铁5号线,浙江省,杭州市,上城区,,unknown,
baidu,037494f0b2c0086ad8d89183,浙医二院正门,1008M路,浙江省,杭州市,上城区,,unknown,
baidu,484caba475eddca7465726a1,航天通信大厦-停车场,浙江省杭州市上城区解放路138号,浙江省,杭州市,上城区,,unknown,
baidu,d3ccf496c3c88d17fa0cadd1,浙医二院·马市街②,525路;1008M路;昌化健康专线,浙江省,杭州市,上城区,,unknown,
baidu,c6a6d8ec713e65e476e5b65e,金钱大厦-接送点,杭州市上城区金钱大厦附近,浙江省,杭州市,上城区,,unknown,
baidu,28b32dbece4c4917b03c8163,定安路,地铁1号线,浙江省,杭州市,上城区,,unknown,
baidu,66823f9262b144dbfa0cad70,城站,地铁1号线;地铁5号线,浙江省,杭州市,上城区,,unknown,
baidu,e18432d4012dd52b48cc4aca,浙江大学眼科医院-地上停车场,杭州市上城区西湖大道1号,浙江省,杭州市,上城区,,unknown,
baidu,4af4a05d44b8816d40afe684,水上巴士梅花碑站,水上巴士7号线,浙江省,杭州市,上城区,,unknown,
baidu,5f0fb372fbbd217522f01712,龙翔桥,4路;4路快线;31路[工作日走向];31路[双休日节假日走向];277路;308路;312B路;514路快线;7280路;K155路[工作日走向];龙翔桥至灵隐专线,浙江省,杭州市,上城区,,unknown,
baidu,e918849da4aabd5b5fbe86d3,丰乐桥北,13路;13路区间;55路;56路;151路,浙江省,杭州市,上城区,,unknown,
baidu,57cd4b0aae64fd260bf5ebff,杭州站-北地下停车场,浙江省杭州市上城区环城东路7号,浙江省,杭州市,上城区,4008036888,unknown,
baidu,88896f88cee88c7a88fc06e4,浙二医院南自行车租赁点,浙江省杭州市上城区解放路杭州老干部大学北门,浙江省,杭州市,上城区,15657123839,unknown,
baidu,1a9926327600b14da8f0cd6b,站前汽车客运站,浙江省杭州市环城东路12-8号,浙江省,杭州市,上城区,(0571)87068785,unknown,
baidu,0a232c5b0a6d75b16849f388,羊坝头,71路;108路;290路[工作日走向];290路[双休日节假日走向];1014路,浙江省,杭州市,上城区,,unknown,
baidu,37dd97f57ba0ebd5f423106f,航天通信大厦-地下停车场,杭州市上城区解放路138号航天通信大厦,浙江省,杭州市,上城区,(0571)28032803,unknown,
baidu,03921e9b95f51ab0f7e73be6,杭州站,浙江省杭州市上城区环城东路1号,浙江省,杭州市,上城区,(0571)56720222,unknown,
baidu,43ad51f7346717b3c056ac0e,大华星河商务大厦-地下停车场,浙江省杭州市上城区解放路89-1大华·星河商务大厦,浙江省,杭州市,上城区,,unknown,
baidu,8dd1024bcf598975e9e58263,龙翔桥,地铁1号线,浙江省,杭州市,上城区,,unknown,
baidu,8600237ccac60c48601c679b,中河中路辅路西侧临时停车点,杭州市上城区中河中路航天通信大厦西侧约60米,浙江省,杭州市,上城区,,unknown,
baidu,1b18e95349e983222ce67b49,南班巷-地上停车场,杭州市上城区南班巷,浙江省,杭州市,上城区,,unknown,
baidu,0c9deccbe0612b91f7b916da,全季酒店(西湖解放路店)西侧停车场,杭州市上城区中河中路166号,浙江省,杭州市,上城区,,unknown,
baidu,ccc13f6f9dd63e18b2077d5a,航天通信大厦-立体停车场,杭州市上城区解放路138号航天通信大厦,浙江省,杭州市,上城区,,unknown,
baidu,007273415b9b342d3617dcff,大华星河商务大厦-接送点,杭州市上城区·星河商务大厦附近,浙江省,杭州市,上城区,,unknown,
baidu,9b19759519a5b31fa4c756a3,丰乐公寓-停车场,杭州市上城区佑圣观路207号,浙江省,杭州市,上城区,,unknown,
baidu,4657123659783b82d618b701,解放路八十九号公共自行车租赁点,浙江省杭州市上城区解放路89号,浙江省,杭州市,上城区,,unknown,
baidu,0758756c948e663416764351,雪峰大厦-停车场,杭州市上城区金鸡岭雪峰大厦,浙江省,杭州市,上城区,,unknown,
baidu,7ec610db9d27a48fc26c14c5,觉苑寺巷19号建筑-停车场,杭州市上城区小塔儿巷觉苑寺巷19号建筑,浙江省,杭州市,上城区,,unknown,
baidu,cc5766aa368e03c1d13ce3e1,富春公寓楼-地下停车场,浙江省杭州市上城区佑圣观路富春大厦,浙江省,杭州市,上城区,,unknown,
baidu,31d1931a42657bf4a1d230b7,陆位,浙江省杭州市上城区中山中路280号,浙江省,杭州市,上城区,,unknown,
baidu,79bd44316865f5c1dc1e5257,天工艺苑股份有限公司-接送点,杭州市上城区杭州天工艺苑有限公司附近,浙江省,杭州市,上城区,,unknown,
baidu,60e065fa7e460ffbf7e73b5b,江城路,地铁5号线;地铁7号线,浙江省,杭州市,上城区,,unknown,
baidu,9c99165740d241e01d580003,水上巴士浙二医院站,水上巴士7号线,浙江省,杭州市,上城区,,unknown,
baidu,ee5c4e8558e4f7fe5cd4fefc,胜利剧院,7W路/西湖地铁接驳7线;7路[工作日走向];7路[双休日节假日走向];12路;12路[工作日走向];12路[双休日节假日走向];12路区间;12路区间[工作日走向];12路区间[双休日节假日走向];31路;188路;188路[工作日走,浙江省,杭州市,上城区,,unknown,
baidu,15b641b1758a860714c8f6e7,义井巷小区(佑圣观路)-停车场,杭州市上城区清泰街517号,浙江省,杭州市,上城区,,unknown,
baidu,63f110dcaed2c55a17948e07,金泰商务大厦-接送点,杭州市上城区金泰商务大厦附近,浙江省,杭州市,上城区,,unknown,
baidu,653aff6c58f552794207c14b,茅廊巷,30路;183路,浙江省,杭州市,上城区,,unknown,
baidu,bd9cdab82574938f1d58004c,永宁院小区-停车场,杭州市上城区马市街97号,浙江省,杭州市,上城区,,unknown,
baidu,3ed27ce8b46a811c2811d17d,新开元(解放路店)东南侧临时停车点,杭州市上城区解放路航天通信大厦西南侧约90米,浙江省,杭州市,上城区,,unknown,
baidu,09b36ae0f9877cdc223bf224,杭州市棚桥农贸市场-地上停车场,杭州市上城区枝头巷J.S美宿公馆酒店(杭州西湖店)东侧约70米,浙江省,杭州市,上城区,,unknown,
baidu,15c8e5cd77243fae9b68b4ec,浙江国贸大厦-地上停车场,杭州市上城区中河中路168号,浙江省,杭州市,上城区,,unknown,
baidu,b2e7f9ff3a2c2fe46d20b948,丰乐桥南自行车租赁点,浙江省杭州市上城区中河中路中国机械科学研究院浙江分院,浙江省,杭州市,上城区,15657134262,unknown,
baidu,e4a087bf38e39698715e8043,浙二医院西侧公共自行车租赁点,浙江省杭州市上城区马市街小营巷社区旁,浙江省,杭州市,上城区,15657123839,unknown,
baidu,b915b1f3c558430a8a36ee7f,雪峰大厦-接送点,杭州市上城区雪峰大厦附近,浙江省,杭州市,上城区,,unknown,
baidu,c5213ba8b724517a0a5cb39b,浙江林业大厦-接送点,杭州市上城区浙江林业大厦附近,浙江省,杭州市,上城区,,unknown,
baidu,313e29db34aad480deee8b3f,1101号自行车租赁点,杭州市上城区中河中路,浙江省,杭州市,上城区,,unknown,
baidu,8ca4ae731526f149a7c75660,金钱巷社区-停车场,浙江省杭州市上城区佑圣观路172号,浙江省,杭州市,上城区,,unknown,
baidu,fce3888894f46d1ca9059dcd,浙江省公安厅-地上停车场,杭州市上城区民权路浙江省公安厅,浙江省,杭州市,上城区,,unknown,
baidu,7940887d9fc802aa31f71d9a,雪峰清泰花苑-地上停车场,浙江省杭州市上城区小营金鸡岭雪峰·清泰花苑西门,浙江省,杭州市,上城区,,unknown,
baidu,f65d9b87557686babbbd63b4,马市街社区西区-停车场,浙江省杭州市上城区清吟街84号马市街社区西区,浙江省,杭州市,上城区,,unknown,
baidu,c8901b76fa06a7499cec2b08,社保大楼-停车场,杭州市上城区清吟街123号社保大楼,浙江省,杭州市,上城区,,unknown,
baidu,cba5c7ffa299b3f6cafa5f95,保康巷,1014路,浙江省,杭州市,上城区,,unknown,
baidu,fb24ddac8847c3050869d931,金钱巷社区-停车场,杭州市上城区严衙弄金钱巷社区,浙江省,杭州市,上城区,,unknown,
baidu,0c2856752eb1c4d04f6d465c,李博士桥,1014路,浙江省,杭州市,上城区,,unknown,
baidu,9042b79e3e9df90735b06c7f,吴山广场,地铁7号线,浙江省,杭州市,上城区,,unknown,
baidu,b9ace98475ce1e7a6240a90a,中河北路,地铁2号线,浙江省,杭州市,拱墅区,,unknown,
baidu,8823f96f979a078a04026f5a,建国北路,地铁2号线;地铁5号线,浙江省,杭州市,拱墅区,,unknown,
baidu,ba0a0ecfeec9e9d1e6073886,佑圣观路东侧临时停车点,杭州市上城区佑圣观路富春大厦东侧,浙江省,杭州市,上城区,,unknown,
baidu,587dfc86335755fea4c756bd,紫金社区西侧停车场,杭州市上城区清吟街小营街道文化活动中心,浙江省,杭州市,上城区,,unknown,
baidu,3c4b802c6c3b0e5e09ccdd38,小车桥,7W路/西湖地铁接驳7线;7路[工作日走向];7路[双休日节假日走向];10路;16路;16路夜间;25路;27B路;27路;27路[绕行龙井村];45路;49路;103路;186路;龙翔桥至灵隐专线;西湖外环线,浙江省,杭州市,上城区,,unknown,
baidu,eb469d25a3d51e4b28201a6a,富春大厦-接送点,杭州市上城区富春大厦附近,浙江省,杭州市,上城区,,unknown,
baidu,d313b7387fd6652ffbf0cb3d,中河中路东侧临时停车点,杭州市上城区中河中路浙江林业大厦西侧,浙江省,杭州市,上城区,,unknown,
baidu,c7d40429b70f0a3508ccdd90,凤起路,地铁1号线;地铁2号线,浙江省,杭州市,拱墅区,,unknown,
baidu,90c626b429ea373ecd04ef23,城建综合大楼-停车场,杭州市上城区清泰街549号城建综合大楼,浙江省,杭州市,上城区,,unknown,
baidu,7c770669d04bdd22eb1e977a,汉庭酒店杭州中山中路店-停车场,杭州市上城区积善坊巷10号,浙江省,杭州市,上城区,,unknown,
baidu,9e44f810a44dce25c2f1cf60,华顺大厦-接送点,杭州市上城区华顺大厦附近,浙江省,杭州市,上城区,,unknown,
baidu,bc9a368b1b7dad5cabf7292f,庆菱路,地铁2号线,浙江省,杭州市,上城区,,unknown,
baidu,ee174e9fb6c96f43d8d8918c,小营公园-自行车租赁点,浙江省杭州市上城区小营公园西门(浙江大学附属第一医院南),浙江省,杭州市,上城区,,unknown,
baidu,734add0c257b1270f02d8393,金隆花园金竹轩-地上停车场,杭州市上城区清泰街481号,浙江省,杭州市,上城区,,unknown,
baidu,0ed7b57690b9fbbf1188247a,忠孝巷路东侧临时停车点,杭州市上城区忠孝巷杭州市第一人民医院(小营分院)西南侧约50米,浙江省,杭州市,上城区,,unknown,
baidu,13e75513e0a985258b2fb562,龙华巷-停车场,浙江省杭州市上城区龙华巷经济普查办公室,浙江省,杭州市,上城区,,unknown,
baidu,08d2b7171677f7eb8bdb7308,浙江林业大厦西北侧临时停车点,杭州市上城区大塔儿巷浙江林业大厦,浙江省,杭州市,上城区,,unknown,
baidu,19580b16c1973475c27da2dd,丰乐大厦西南侧临时停车点,杭州市上城区枝头巷杭州伊麟酒店式公寓东侧约100米,浙江省,杭州市,上城区,,unknown,
baidu,840091631bf41a83bfa82260,浙江国贸大厦-内部专用地下停车场,杭州市上城区中河中路168-172号,浙江省,杭州市,上城区,,unknown,
baidu,eb49cb363d68efa440ab9abc,雪峰清泰花苑-地下停车场,杭州市上城区金鸡岭30号雪峰·清泰花苑,浙江省,杭州市,上城区,,unknown,
baidu,0c81e5ec45db67f7714b8763,婺江路,地铁1号线,浙江省,杭州市,上城区,,unknown,
baidu,d073b30a3c21c6e29ff77908,银枪新村-地上停车场,杭州市上城区银枪班巷银枪新村,浙江省,杭州市,上城区,,unknown,
baidu,dff7c607531f8458f8dc8560,义井巷,30路,浙江省,杭州市,上城区,,unknown,
baidu,b12226258b8b232e57bfffd0,浙江中医药大学中医门诊部-停车场,杭州市上城区皮市巷6号,浙江省,杭州市,上城区,,unknown,
baidu,00ad06dde4f078353a13fd25,浙江中医药大学中医门诊部北侧-地上停车场,杭州市上城区皮市巷杭州中维香溢大酒店东侧约40米,浙江省,杭州市,上城区,,unknown,
baidu,7e33b2fddaa9314479b55c4b,杭州市森林病虫防治检疫站-停车场,杭州市上城区忠孝巷杭州市第一人民医院(小营分院)西南侧约30米,浙江省,杭州市,上城区,,unknown,
baidu,b359e1a35ec6bc005abbbc15,杭州退休干部职工大学(清吟街)南侧-停车场,浙江省杭州市上城区大塔儿巷15号,浙江省,杭州市,上城区,,unknown,
