source,bd_uid,name,address,province,city,area,tel,poi_type,tag
baidu,9144f1d0ffcc8d0b0aa8d41f,永州市零陵古城韵味形象店(古城路店),东风大桥河东桥头旁新走廊118-121号,湖南省,永州市,零陵区,(0746)6777979,unknown,
baidu,c83ef2e3a22479390c0e6be5,老渔翁(零陵古城店),古城A区,湖南省,永州市,零陵区,"(0746)6663179,15575254913",unknown,
baidu,3482941db50da86f38221c11,翟记汤圆,前进街副食广场105号,湖南省,永州市,零陵区,17674675137,unknown,
baidu,bf3f3473d6425497f119370a,佬佬卤粉(古城店),零陵古城A区A3-12号,湖南省,永州市,零陵区,18174618528,unknown,
baidu,f28d60e59ff4e186e9f85353,芋小然·现熬糖水铺(古城店),零陵古城B6-8号,湖南省,永州市,零陵区,17307477763,unknown,
baidu,f4105f1dec0c8d03b54f54a3,书亦烧仙草(古城店),萍阳南路零陵古城B6-6商铺,湖南省,永州市,零陵区,"15367501913,15399850630",unknown,
baidu,cf436f3e5a9d032c15c90552,食美味早餐店,人民路8号5号门面,湖南省,永州市,零陵区,18974636222,unknown,
baidu,1e89604cb5d308a7ab175a80,大西门凉拌卤粉店(大西门店),新街与解放路交叉口北20米路西,湖南省,永州市,零陵区,15907462516,unknown,
baidu,2c94f08430e7b7824afc8dbe,河沿之家土菜馆,湖南省永州市零陵区解放路90号(祁剧园内后北栋),湖南省,永州市,零陵区,"13762965492,18374150677",unknown,
baidu,5057844a2f3d3f18d8131891,寒野柴火鸡(262分店),湘江东路古城新走廊106-108号,湖南省,永州市,零陵区,19958283199,unknown,
baidu,faf25a3bbe801a35b13c8148,永州庭旺湘血鸭店,愚溪南路柳宗元文化旅游区,湖南省,永州市,零陵区,(0746)6558777,unknown,
baidu,41f3d9abb79236eb1f3894b5,醉永州(零陵古城店),西山路河西零陵古城c区a8栋,湖南省,永州市,零陵区,"(0746)6666677,18674640222",unknown,
baidu,c021f9d8ea3803359b68b4a4,夜宵烧烤,湖南省永州市零陵区南津渡街道外河街26号,湖南省,永州市,零陵区,,unknown,
baidu,cdf44daabb901e308e55eca5,唐记土菜馆,湖南省永州市零陵区萍阳南路158号,湖南省,永州市,零陵区,18975782990,unknown,
baidu,814e3c365933fe909d9d68c6,广芳园·香港潮饮店(古城店),萍阳南路古城食货后街B7-2号,湖南省,永州市,零陵区,19918203478,unknown,
baidu,e1436cda217fdadaf4e73b07,CUPID丘比特甜品(零陵古城分店),愚溪南路零陵古城二期B3-4,湖南省,永州市,零陵区,15774111030,unknown,
baidu,8b9f1aecc15df7a194031904,椿山小院,萍阳南路86号,湖南省,永州市,零陵区,18074695981,unknown,
baidu,c542991635ca9d00bc484252,半岛茶食,萍阳南路零陵古城国宴鸡对面,湖南省,永州市,零陵区,16674608056,unknown,
baidu,2577d3845b1521288bb988db,美然阁私房菜,零陵古城愚溪悦来客栈对面C5-6号,湖南省,永州市,零陵区,19967651868,unknown,
baidu,ffe1d04f5bf0f0d33c9a5e9f,肯德基(永州芝山路店),永州市零陵区芝山路永州垠地广场一层肯德基餐厅,湖南省,永州市,零陵区,(0746)6313101,unknown,
baidu,f882aef6b047dec5eedfca46,毛老粉店,湖南省永州市零陵区朝阳街道柳子街7号,湖南省,永州市,零陵区,18974657511,unknown,
baidu,e7137251eb63c0a33913fdd9,陕西粉面馆(零陵古城店),萍阳南路158号零陵古城(东北角),湖南省,永州市,零陵区,15016816429,unknown,
baidu,c01a8758e6d669c3f423102b,珠山餐馆,湖南省永州市零陵区南津渡街道前进街385号,湖南省,永州市,零陵区,18074655668,unknown,
baidu,9672e773718439889e82eaeb,满秀早餐店,三多坊正大街293号,湖南省,永州市,零陵区,,unknown,
baidu,acb86744c39eb8b1d5b74e9a,柳州螺蛳粉,永州市零陵区萍阳南路零陵古城,湖南省,永州市,零陵区,,unknown,
baidu,37616987f54a91fc5fbe86d8,姐妹餐馆(潇水中路店),潇水中路296号,湖南省,永州市,零陵区,15116639009,unknown,
baidu,d0a1ec20bb6a8c90cafa5ff5,豆花小姐姐(古城店),零陵古城(食货后街)B8-1号,湖南省,永州市,零陵区,17307462929,unknown,
baidu,1a4707bd683d7a987dc876c5,桥头砂锅饭,湖南省永州市零陵区前进街41号,湖南省,永州市,零陵区,13187128145,unknown,
baidu,556885ca7a5f8506e8e58231,美食流粉面馆,湖南省永州市零陵区南津渡街道正大街237号,湖南省,永州市,零陵区,15674641628,unknown,
baidu,90f3d49b30c70f4330169b74,派乐汉堡·炸鸡(零陵古城店),朝阳街道零陵古城A5-4一层商铺,湖南省,永州市,零陵区,18797700666,unknown,
baidu,4372e41a4ca521a5e9f853aa,书亦烧仙草(零陵古城二店),柳子街84号,湖南省,永州市,零陵区,"15367501913,4000857085",unknown,
baidu,e83a8f929e541bf6b13c8179,达记猪肚鸡,萍阳南路零陵古城C区C4-5号,湖南省,永州市,零陵区,(0746)6627058,unknown,
baidu,715b889ac9815579a1d23004,冰糖葫芦(萍阳南路店),湖南省永州市零陵区萍阳南路158号零陵古城A区食货后街B8-1号,湖南省,永州市,零陵区,13874370213,unknown,
baidu,30e058212dd8db71363a7195,正宗珠山血鸭,湖南省永州市零陵区萍阳北路3号,湖南省,永州市,零陵区,18797707558,unknown,
baidu,724b5ad343ad1c1a6140a97b,忘忧草量贩式小酒馆,永州市零陵区萍阳南路158号零陵古城A区食货北街A4-16号,湖南省,永州市,零陵区,13574619548,unknown,
baidu,7103580b43769c804c3a595b,武林烧烤(府正街店),"中山路与人民路交叉口西南方向32米,地上1层店门口",湖南省,永州市,零陵区,13085429208,unknown,
baidu,a15dc4c3f00f056015948e8e,海南纯椰奶清补凉(柳子街店),零陵古城B5-2号,湖南省,永州市,零陵区,,unknown,
baidu,8efe7956d23ab3e3770269bd,新家味酒楼,永州市零陵区人民路永州市第四人民医院西侧约170米,湖南省,永州市,零陵区,13789229539,unknown,
baidu,64e32304d8d1839af50e77aa,何记重庆小面,永州市零陵区萍阳南路永州云溪上民宿南侧,湖南省,永州市,零陵区,13518885185,unknown,
baidu,e12716fa86cbc6b00f0e6be1,回到零陵音乐酒吧,萍阳南路零陵古城溪街C2-1栋,湖南省,永州市,零陵区,18374173612,unknown,
baidu,6c25076e651636f4c1f1cf50,家庭厨房,清水塘1号,湖南省,永州市,零陵区,18075827977,unknown,
baidu,2286bd2fa1200bc9c4f50df6,厦门特香面包屋,湖南省永州市零陵区正大街第四人民医院西南侧约80米,湖南省,永州市,零陵区,13974632708,unknown,
baidu,3c47c8b2164e184488db73e1,老九饺子馆(零陵古城店),朝阳街道零陵古城A区B8-8号,湖南省,永州市,零陵区,18797748208,unknown,
baidu,3aa309e890cdd84101897237,糖油粑粑冰凉粉,永州市零陵区人民路永州市第四人民医院西南侧约50米,湖南省,永州市,零陵区,17700735935,unknown,
baidu,d4c154b165042b78d618b715,川妹火锅(永州直营店),芝山路公交大厦63号,湖南省,永州市,零陵区,(0746)6225561,unknown,
baidu,4935f11103054f4435b06c34,革命小串(零陵古城C区店),湖南省永州市零陵区朝阳街道萍阳南路158号,湖南省,永州市,零陵区,,unknown,
baidu,0b215399799b65899868b47d,西西里手工披萨,零陵古城食货北街A6,湖南省,永州市,零陵区,18579598538,unknown,
baidu,d553155c0009b0d0b6147f35,千喜宴,永州市零陵区愚溪南路零陵公安分局水上派出所南侧约130米,湖南省,永州市,零陵区,,unknown,
baidu,96424de1aa1ddc8751e5c516,老巷子长沙臭豆腐,零陵古城B8-3商铺,湖南省,永州市,零陵区,13037466668,unknown,
baidu,06b631de9d13adcbd42ce27f,佛跳墙早鲜店,永州市零陵区前进街永州市第四人民医院西南侧约40米,湖南省,永州市,零陵区,18974628663,unknown,
baidu,e178de6d0eb193545a3ac877,阿良烤鸭(零陵店),七层坡巷1号,湖南省,永州市,零陵区,"13100226388,18569361192",unknown,
baidu,31cea4c345cc5d945fd4fe6a,小丸子披萨,食货后街B7-2号,湖南省,永州市,零陵区,,unknown,
baidu,3d2fbcf782b810d008f5eb0d,老巷子老长沙臭豆腐(古城店),永州市零陵区萍阳南路158号零陵古城A区食货后街B8-3号,湖南省,永州市,零陵区,13037466668,unknown,
baidu,853760a6a1147fca95031987,东山徐记糕点(东山景区店),南津渡街道人民路2号(近东山景区),湖南省,永州市,零陵区,17579563999,unknown,
baidu,5bc324994d4988b917948e09,古城驴当家私房菜,永州市零陵区珍珠岭路永州沐兰风尚酒店东南侧约120米,湖南省,永州市,零陵区,,unknown,
baidu,4198d8758000e24f0c0e6b3a,广芳园·香港潮饮店(东山景区店),东山景区游客中心对面,湖南省,永州市,零陵区,15507462730,unknown,
baidu,275225ebe00982a02902e1ea,豫福香酥鸡烧饼,南津渡街道中山南路9号(东山景区瞎子炒饭隔壁),湖南省,永州市,零陵区,19146786155,unknown,
baidu,aa7807c55e875c1707026f14,原味血鸭馆,人民路20-2号,湖南省,永州市,零陵区,15274602155,unknown,
baidu,223d81d53593eae56d20b917,二师兄铁板鱿鱼(古城分店),永州市零陵区萍阳南路158号零陵古城A区斗酒巷,湖南省,永州市,零陵区,,unknown,
baidu,8b999ddc664190642fb17e1f,新街快餐店,湖南省永州市零陵区新街20号,湖南省,永州市,零陵区,18274935297,unknown,
baidu,64ef5f2db7910c1bf4231039,谁是喝酒大神,湖南省永州市零陵区朝阳街道萍阳南路55号,湖南省,永州市,零陵区,,unknown,
baidu,64c8dc8ef9e26071400245c4,乌龙山风味小吃,永州市零陵区零陵古城C区B6-4,湖南省,永州市,零陵区,14789908158,unknown,
baidu,7fd65b10b0bd59aa29fc489e,雪媚娘(愚溪南路店),永州市零陵区愚溪南路柳宗元文化旅游区,湖南省,永州市,零陵区,18166270886,unknown,
baidu,50ecfd9f66534a0228201ab2,湘零早餐,湖南省永州市零陵区中山南路127号,湖南省,永州市,零陵区,16675555995,unknown,
baidu,077d4e10068160f8220262fc,益禾堂(零陵古城C区店),萍阳南路158号零陵古城C区B1-8,湖南省,永州市,零陵区,4008555288,unknown,
baidu,86de77669a7ae141f4eafc45,乐宝鲜肉粉,七层坡路与新街交叉口,湖南省,永州市,零陵区,,unknown,
baidu,c9cf2159e7a6b6b65d17c310,花花油茶火锅,永州市零陵区愚溪南路柳宗元文化旅游区,湖南省,永州市,零陵区,,unknown,
baidu,a71f41ca274dcdd7f403b8b4,三毛凉拌粉,前进街永州市第四人民医院西北侧约120米,湖南省,永州市,零陵区,13187128145,unknown,
baidu,89d2f19dd21120f6f7231082,8023小炉小串,永州市零陵区朝阳街道零陵古城c区溪街,湖南省,永州市,零陵区,18074607155,unknown,
baidu,1404dd3854068a1202294f1e,李师傅牛杂馆,永州市零陵区新街零陵七层坡小学东北侧,湖南省,永州市,零陵区,,unknown,
baidu,5a951ff954cd21135fbe8665,李品记,永州市零陵区萍阳南路158号零陵古城A区食货北街A3-5号,湖南省,永州市,零陵区,15111699829,unknown,
baidu,7b951f50903b7399744ff164,骚鸡公酒店,七层坡路中山佳园东南侧约30米,湖南省,永州市,零陵区,,unknown,
baidu,f2177431b2b5b9a540e19200,全州牛排牛蛙店,永州市零陵区新街零陵七层坡小学东侧约70米,湖南省,永州市,零陵区,,unknown,
baidu,2e147e90b55b4e3214c8f6ce,高小刀烤猪蹄,湖南省永州市零陵区朝阳街道零陵古城C区C2-14号铺,湖南省,永州市,零陵区,15989343401,unknown,
baidu,ae81e003e54944d46849f32a,鲜味饺子汤圆馆,前进街50号,湖南省,永州市,零陵区,,unknown,
baidu,0e359d21dc2ca29d40e19277,成都小酒馆(柳宗元文化旅游区店),湖南省永州市零陵区萍阳南路零陵古城c8567号,湖南省,永州市,零陵区,13037466668,unknown,
baidu,cf3793f16b4da67a58f6bef3,健宏密卤,永州市零陵区潇水西路永州市第四人民医院西北侧约120米,湖南省,永州市,零陵区,,unknown,
baidu,31c29e294188b1de7dc87689,古德摩里早餐店,湖南省永州市零陵区新街25号,湖南省,永州市,零陵区,15907492518,unknown,
baidu,305cf6f88267c348e70738a2,老长沙臭豆腐(前进街店),前进街人民金行往河边方向50米垠地广场对面,湖南省,永州市,零陵区,,unknown,
baidu,84a6da1c306814b40d3dda0b,艾叶粑粑,柳子街85号(柳宗元文化旅游区),湖南省,永州市,零陵区,18907462576,unknown,
baidu,dd77ff7c92d33f97922ca3ac,街角,永州市零陵区前进街永州市第四人民医院西北侧,湖南省,永州市,零陵区,,unknown,
baidu,b9adccd09e8175cff6eafc85,街角遇见,正大街397号(四医院旁),湖南省,永州市,零陵区,18107467633,unknown,
baidu,4fc5274fc5005fd097ec849b,再来一碗辣椒粉,湖南省永州市零陵区中山南路98号,湖南省,永州市,零陵区,15575399289,unknown,
baidu,bc90aeffd3b051b14457260d,安徽胜子豆腐,永州市零陵区七层坡路零陵七层坡小学东南侧约30米,湖南省,永州市,零陵区,,unknown,
baidu,42c485b0468aec2aa2d2306d,夏埠村糕点(零陵商业城店),芝山路30号,湖南省,永州市,零陵区,(0746)6231170,unknown,
baidu,86e60e1d64c36bfae856fade,宴南湘(南津中路店),南津中路4号,湖南省,永州市,零陵区,(0746)6777879,unknown,
baidu,fea31e0b215b19d04f6d46cf,田丰豆业,永州市零陵区七层坡路中山佳园,湖南省,永州市,零陵区,13212669629,unknown,
baidu,b3e060005b7c31a149fc8d75,桂琴嫂,永州市零陵区中山南路七层坡安置小区东北侧约30米,湖南省,永州市,零陵区,13874737175,unknown,
baidu,3f5b9d7b6ca352d5cac3db3f,卷卷烧饼(愚溪南路店),永州市零陵区愚溪南路柳宗元文化旅游区,湖南省,永州市,零陵区,,unknown,
baidu,b9c3ef3a5d22ec72ad080f21,烧烤口味虾,永州市零陵区人民路零陵东山景区-广场西北侧约40米,湖南省,永州市,零陵区,15111647211,unknown,
baidu,15416506fc00874ab6265575,客来旺早餐店,湖南省永州市零陵区新街32号,湖南省,永州市,零陵区,13574607213,unknown,
baidu,c27e5f596e178a4e220220bb,橙季,永州市零陵区愚溪南路柳宗元文化旅游区,湖南省,永州市,零陵区,,unknown,
baidu,d3bf1391fc465b5790114cf4,桂林手撕鸡,湖南省永州市零陵区城南七层坡15号,湖南省,永州市,零陵区,17307466068,unknown,
baidu,c6e8427dca381a26c1f1cfea,聚湘客早餐,永州市零陵区新街零陵七层坡小学东南侧约40米,湖南省,永州市,零陵区,,unknown,
baidu,2b3597e6603b33eb45e27424,瑶湘兄弟,永州市零陵区愚溪南路柳宗元文化旅游区,湖南省,永州市,零陵区,,unknown,
baidu,99531665ffb410228e7727c7,御厨·自助烤肉火锅(科技学院店),科技学院东大门广场(校外)二楼零食很忙楼上,湖南省,永州市,零陵区,"13135279847,15575281409",unknown,
baidu,f8f94c2a50af2b750869d94c,品一品软香包点,永州市零陵区前进街太谷酒店西北侧约100米,湖南省,永州市,零陵区,13574696011,unknown,
baidu,370bc4d7954c9cbd130daad1,正宗芦洪市东安鸡,新街15号附近,湖南省,永州市,零陵区,15897484003,unknown,
baidu,5aef6b81cac4631abb17e7fa,食货南街,永州市零陵区萍阳南路158号零陵古城A区,湖南省,永州市,零陵区,,unknown,
baidu,e8b777530f0ebd22c356ac7e,永州中意国际广场,湖南省永州市零陵区芝山路11号,湖南省,永州市,零陵区,,unknown,
baidu,289221b803bfc6de7bdbd292,湖南省永州市柳子街,永州市零陵区柳子街86号柳宗元文化旅游区,湖南省,永州市,零陵区,,unknown,
baidu,f44609186f38d269b11e3670,正大便民店,永州市零陵区人民路48号,湖南省,永州市,零陵区,13874635588,unknown,
baidu,42eb04b656e1bcdfd5b74eff,小盛超市,永州市零陵区正大街永州市第四人民医院西南侧约100米,湖南省,永州市,零陵区,15581128889,unknown,
baidu,3ade33fddcf4900257bfff68,家家谊超市(中意国际广场店),湖南省永州市零陵区芝山路11号永州中意国际广场F1,湖南省,永州市,零陵区,"(0746)6667992,17357239495",unknown,
baidu,8fe736fe9f6fec8cdf1e52b9,晏全惠民超市,永州市零陵区新街零陵七层坡小学西北侧约80米,湖南省,永州市,零陵区,,unknown,
baidu,44fef39af02057bf250bd078,永州河西农贸市场,潇水西路35号,湖南省,永州市,零陵区,,unknown,
baidu,d9ea70a506537353a4c756cd,三福(芝山路店),时代旺角步行街沿街门面(原信佳百货一楼局部),湖南省,永州市,零陵区,(0746)6222343,unknown,
baidu,9ad0c69bfa6d7569c17da2c5,月光宝盒古装,永州市零陵区柳子街89号,湖南省,永州市,零陵区,18682285281,unknown,
baidu,653f008d7cb763e1ede4a5e5,七层坡市场,湖南省永州市零陵区中山南路255号,湖南省,永州市,零陵区,,unknown,
baidu,1844f9598b09fbd2e607388d,梦缘花艺(桥头店),湖南省永州市零陵区前进街桥头2号门面,湖南省,永州市,零陵区,"15211636738,15226373405",unknown,
baidu,aa7f6bf0a6dd95fd2e473312,一品香炒货(人民路店),永州市零陵区人民路永州市第四人民医院西南侧约30米,湖南省,永州市,零陵区,13037480015,unknown,
baidu,4dd100b2e4b9873d047ce80e,怀庄陈酒,永州市零陵区萍阳南路零陵古城,湖南省,永州市,零陵区,,unknown,
baidu,30bebc4703182b67e0110350,晏全商行,湖南省永州市零陵区南津渡街道新街38号,湖南省,永州市,零陵区,13411198205,unknown,
baidu,719e7b3a375c6152e0110364,汉风唐韵,湖南省永州市零陵区零陵古城萍阳南路食货北街A8-3号,湖南省,永州市,零陵区,18022040437,unknown,
baidu,7dd1e39aadab5f2488b98866,贵夫人服装店,永州市零陵区正大街永州市第四人民医院西南侧约70米,湖南省,永州市,零陵区,,unknown,
baidu,9f3d52ce8f0a675db020a81e,汉未央,永州市零陵区柳子街59号,湖南省,永州市,零陵区,17374679696,unknown,
baidu,8758340680aadaf3f5c59c3f,圆梦古装,永州市零陵区柳子街柳宗元文化旅游区,湖南省,永州市,零陵区,,unknown,
baidu,ebe29740a8c13d0d1e5800fd,国正云器堂,永州市零陵区正大街零陵七层坡小学西北侧约120米,湖南省,永州市,零陵区,4006620598,unknown,
baidu,a3be7df69aa306df3fe231ea,正大副食,湖南省永州市零陵区人民路48号,湖南省,永州市,零陵区,13307462853,unknown,
baidu,0ac461a1cb9ed11df6c59c61,汉铭轩,永州市零陵区柳子街45号,湖南省,永州市,零陵区,,unknown,
baidu,dddd667d458f63e528b97c2f,艳萍花店(艳萍分店),湖南省永州市零陵区潇水西路第四人民医院西北侧约60米,湖南省,永州市,零陵区,13574696586,unknown,
baidu,90025f8f28738df271210b83,泓运副食店,永州市零陵区柳子街31号,湖南省,永州市,零陵区,,unknown,
baidu,8e1b281252e7fd93e115f9ac,蒋氏棉鞋店,永州市零陵区正大街永州市第四人民医院西南侧约90米,湖南省,永州市,零陵区,15974081198,unknown,
baidu,4a779ab9ab0edb9c9868b432,秦记开心副食水果店,湖南省永州市零陵区解放路195号,湖南省,永州市,零陵区,13789229828,unknown,
baidu,244742bdfff96a448715410a,洪家大院百货店,永州市零陵区人民路永州市第四人民医院西南侧约70米,湖南省,永州市,零陵区,,unknown,
baidu,a94f0fd4a9b8bb17931fc9aa,纯手工特产店,永州市零陵区萍阳南路158号零陵古城A区斗酒巷C6-7号,湖南省,永州市,零陵区,,unknown,
baidu,55983d2604d3b766b320a8ab,高兴水果副食店,永州市零陵区人民路永州市第四人民医院西南侧约50米,湖南省,永州市,零陵区,,unknown,
baidu,0c955cbc29f74bff60685842,角落边,永州市零陵区柳子街柳宗元文化旅游区,湖南省,永州市,零陵区,,unknown,
baidu,93cc4bf6a6d39cccce04efc1,老万鞋草店,永州市零陵区人民路永州市第四人民医院西侧约80米,湖南省,永州市,零陵区,13107160355,unknown,
baidu,937370c4bd52b70d14b54bd0,正斌小卖部,永州市零陵区正大街永州市第四人民医院西南侧约140米,湖南省,永州市,零陵区,,unknown,
baidu,60fa523c61fb9d78740269ce,张姐副食店,永州市零陵区萍阳南路柳宗元文化旅游区,湖南省,永州市,零陵区,,unknown,
baidu,8382779c8de2a7808bf15d40,民族风十元店,永州市零陵区萍阳南路158号零陵古城A区斗酒巷C6-4号,湖南省,永州市,零陵区,,unknown,
baidu,5d395a33c7e4ae78471a3281,临妙轩,永州市零陵区柳子街永州云溪上民宿西侧约50米,湖南省,永州市,零陵区,,unknown,
baidu,8403f64d372511b89968b450,王师傅传统食品铺,前进街永州市第四人民医院西南侧约30米,湖南省,永州市,零陵区,17375973511,unknown,
baidu,ccd7f0b7c580793ebbbd6307,邓氏商铺,永州市零陵区柳子街57号,湖南省,永州市,零陵区,13789209349,unknown,
baidu,bda458ed55b0e9a7a3acc4fa,多年以后好酒不见,柳子街62号零陵古城c4-1,湖南省,永州市,零陵区,,unknown,
baidu,592c3e81731a5f9717c8f64d,永富商店,永州市零陵区解放路零陵七层坡小学西北侧约110米,湖南省,永州市,零陵区,,unknown,
baidu,df5e65a270558421441a32e5,天天鲜水果商行,永州市零陵区萍阳南路158号零陵古城A区食货北街A3-14号,湖南省,永州市,零陵区,"13874796726,18874634543",unknown,
baidu,b6feb28d463d2cda250bd030,罗友娣商店,永州市零陵区人民路永州市第四人民医院西南侧约50米,湖南省,永州市,零陵区,13874631233,unknown,
baidu,d89093f1ce11a61ca1a934c4,石岩头百货店,永州市零陵区前进街永州市第四人民医院西侧约30米,湖南省,永州市,零陵区,18229450116,unknown,
baidu,39a615d9999e6d20095cb336,孙氏商铺,永州市零陵区柳子街62号,湖南省,永州市,零陵区,,unknown,
baidu,ff3407855fe50f794354d7cf,邓氏商铺,永州市零陵区萍阳南路158号零陵古城A区食货北街A4-8号,湖南省,永州市,零陵区,13789209349,unknown,
baidu,60b49098d6255d7bd23ce37f,九龙服饰广场(芝山路店),湖南省永州市零陵区芝山路11号,湖南省,永州市,零陵区,13107261897,unknown,
baidu,21255b97d686f1bbdbd891f0,食货北街,永州市零陵区萍阳南路158号零陵古城A区,湖南省,永州市,零陵区,,unknown,
baidu,cc5ce724c1db4f9940e19200,国龙便利店,永州市零陵区正大街零陵七层坡小学西北侧约130米,湖南省,永州市,零陵区,,unknown,
baidu,fe36afe2899def9d7ec87640,八十三号商店,永州市零陵区柳子街83号,湖南省,永州市,零陵区,,unknown,
baidu,f59079e833279ac5631c67ca,瑞气盈门,永州市零陵区人民路永州市第四人民医院西南侧约100米,湖南省,永州市,零陵区,,unknown,
baidu,06acb7b45407e3daddee8b33,冬姣便利店,永州市零陵区萍阳南路柳宗元文化旅游区,湖南省,永州市,零陵区,15575255486,unknown,
baidu,ed3c2b7e33dac05d96ca07bd,波波新天地商业步行街,湖南省永州市零陵区芝山路21号,湖南省,永州市,零陵区,18648906707,unknown,
baidu,64a93ad420d56fa79222e06e,大西门李氏棉絮加工老店,湖南省永州市零陵区解放路171号,湖南省,永州市,零陵区,,unknown,
baidu,b5efe1c477bd05fa223bf2fd,云裳羽衣阁,湖南省永州市零陵区朝阳街道萍阳南路零陵古城A9-5号,湖南省,永州市,零陵区,18312026539,unknown,
baidu,9fa1582f735549abaeb22a11,香耳木农特产·购物中心,永州市零陵区萍阳南路零陵古城,湖南省,永州市,零陵区,,unknown,
baidu,76b09dbbab8a6021740269b9,青青子衿悠悠我心,永州市零陵区柳子街13号,湖南省,永州市,零陵区,,unknown,
baidu,3391d586768b6f6a9122e07f,正宗北京布鞋,永州市零陵区正大街永州市第四人民医院西南侧约50米,湖南省,永州市,零陵区,,unknown,
baidu,8812687d93e190b617c8f625,零食很忙(永州中山南路店),新街1号,湖南省,永州市,零陵区,4009998082,unknown,
baidu,cf788676abec21ae97031942,古颜尚品,湖南省永州市零陵区萍阳南路158号,湖南省,永州市,零陵区,18075792738,unknown,
baidu,4ab9c4d7f4d01b616240a9f4,穿越古韵坊,永州市零陵区萍阳南路158号零陵古城A区斗酒巷C9-4门面,湖南省,永州市,零陵区,15581384633,unknown,
baidu,22bbd6a4cbfe6bb825d2bb6b,苏杭真丝羊绒系列专卖店,湖南省永州市零陵区正大街380号,湖南省,永州市,零陵区,,unknown,
baidu,ae2541416af2742e08f5eb59,柒月手工花艺坊,永州市零陵区柳子街25号,湖南省,永州市,零陵区,,unknown,
baidu,07ce0a5905c01d668b2fb5d7,迎宾水果店,永州市零陵区人民路永州市第四人民医院西南侧约50米,湖南省,永州市,零陵区,15274619920,unknown,
baidu,806ecfc6c77c5ba390114ca1,御果园水果副食店,永州市零陵区人民路永州市第四人民医院西南侧约50米,湖南省,永州市,零陵区,18374603688,unknown,
baidu,f68713c5713a8104c41e5144,依依中老年服装店,永州市零陵区正大街永州市第四人民医院西南侧约100米,湖南省,永州市,零陵区,,unknown,
baidu,11155ffea2ff2c55db131813,衣拾汉服,永州市零陵区萍阳南路158号零陵古城A区食货北街A9-2号,湖南省,永州市,零陵区,15774163122,unknown,
baidu,e26135b438dd9c77a5da3991,付家棉鞋店,永州市零陵区正大街462号,湖南省,永州市,零陵区,,unknown,
baidu,819b717b84566b0b73455b5f,百年三利羊绒艺术定制馆(人民路店),湖南省永州市零陵区南津渡街道人民路15号,湖南省,永州市,零陵区,13517466996,unknown,
baidu,3a1636d6382cf547940319ca,愚溪烟酒商行,永州市零陵区萍阳南路158号零陵古城A区斗酒巷C9-8号,湖南省,永州市,零陵区,17700244247,unknown,
baidu,4626157336bef1135fbe866c,朝夕汉服,永州市零陵区萍阳南路永州云溪上民宿北侧约150米,湖南省,永州市,零陵区,,unknown,
baidu,5133cc7fe65b03f149fd3fc3,台仙子,永州市零陵区人民路永州市第四人民医院西南侧约70米,湖南省,永州市,零陵区,,unknown,
baidu,1c283963595ac9cd96ca07bc,中老年精品服饰,永州市零陵区正大街永州市第四人民医院西南侧约60米,湖南省,永州市,零陵区,,unknown,
baidu,fd3e8e942ca472f5734b87ae,大江鑫旺鞋帽店,永州市零陵区正大街永州市第四人民医院西南侧约100米,湖南省,永州市,零陵区,,unknown,
baidu,4760a3617a9153e01ce99997,匠银饰家,永州市零陵区柳子街柳宗元文化旅游区,湖南省,永州市,零陵区,,unknown,
baidu,50476c22e2eea42a4354d7b4,陈阿姨的店,永州市零陵区萍阳南路零陵古城,湖南省,永州市,零陵区,,unknown,
baidu,48a7f7998d757526e5e965aa,木之林,永州市零陵区萍阳南路零陵古城,湖南省,永州市,零陵区,,unknown,
baidu,d0fe5ef2bad42ba3990050e2,张丽便利店,永州市零陵区萍阳南路158号零陵古城A区食货后街B3-2号,湖南省,永州市,零陵区,,unknown,
baidu,4abaccbae9d4aceaa8175a4f,华服霓裳汉服馆,永州市零陵区萍阳南路158号零陵古城A区食货北街A4-15号,湖南省,永州市,零陵区,15575245627,unknown,
baidu,8936e97fa4f4682bf40e77e2,三样一百乐天品牌儿童玩具,永州市零陵区萍阳南路158号零陵古城A区食货后街,湖南省,永州市,零陵区,,unknown,
baidu,23e60b8e4ccb29e43686f47a,翠竹粮店,永州市零陵区新街零陵七层坡小学西北侧约70米,湖南省,永州市,零陵区,,unknown,
baidu,fe755841c8035c9938e4a630,江西钓友店,永州市零陵区前进街永州市第四人民医院西南侧约30米,湖南省,永州市,零陵区,13874778951,unknown,
baidu,c67ca1a3447b2aa0f02d8361,精品服饰厂价直销,永州市零陵区正大街永州市第四人民医院西南侧约70米,湖南省,永州市,零陵区,17674688998,unknown,
baidu,e3c9fcd65d5a8f01ad31e549,韵之纺服装店,永州市零陵区新街零陵七层坡小学西北侧约70米,湖南省,永州市,零陵区,,unknown,
baidu,8d43c0d7a3bb97085e17c38f,玉粹轩,永州市零陵区萍阳南路158号零陵古城A区食货北街A4-11号,湖南省,永州市,零陵区,18507462586,unknown,
baidu,45cd3fe9be7db86dd618b7de,琢木堂,永州市零陵区柳子街43号,湖南省,永州市,零陵区,,unknown,
baidu,22158ce4ef23efaebadf8f96,怀汐阁汉服体验馆,永州市零陵区柳子街永州云溪上民宿西侧,湖南省,永州市,零陵区,18674652635,unknown,
baidu,6190db5e47d708706f3e1b25,老吴老姜糖,永州市零陵区柳子街柳宗元文化旅游区,湖南省,永州市,零陵区,,unknown,
baidu,4e4fdc52242d0127e856fab7,爱眼城眼镜(时代旺角店),芝山路4号时代旺角步行街2楼2018-2048号,湖南省,永州市,零陵区,(0746)6662125,unknown,
baidu,0addeaf5c91f330e4007c15f,余姐手工棉鞋老店,永州市零陵区人民路永州市第四人民医院南侧约40米,湖南省,永州市,零陵区,17673420798,unknown,
baidu,771e3e4f392cf10c38221ce2,华为授权体验店(中山北路),湖南省永州市零陵区中山北路69号,湖南省,永州市,零陵区,19146880808,unknown,
baidu,4f111b1b2d277be5eaf853c4,永州顺隆绸庄,湖南省永州市零陵区人民路13号,湖南省,永州市,零陵区,18907463351,unknown,
baidu,88933727027b0bfc41d63e1a,少恩副食店,永州市零陵区人民路永州市第四人民医院西南侧约100米,湖南省,永州市,零陵区,,unknown,
baidu,e1bcfd3dcd4d7ed101294f33,康哥电子YAN,永州市零陵区萍阳南路零陵古城,湖南省,永州市,零陵区,,unknown,
baidu,87b950c823e5299114b54b69,柳子古装,永州市零陵区柳子街68号,湖南省,永州市,零陵区,,unknown,
baidu,45985702ad6299c141ab9a78,刘哥食杂店,湖南省永州市零陵区正大街289号,湖南省,永州市,零陵区,15897490288,unknown,
baidu,6a25408d76c744ed17948e08,姣姣副食店,永州市零陵区柳子街73号,湖南省,永州市,零陵区,,unknown,
baidu,a7cc1ed6c8e48c81932ca39a,公共厕所,湖南省永州市零陵区人民路242号,湖南省,永州市,零陵区,,unknown,
baidu,ce961dd425b199ea9222e027,公厕,永州市零陵区柳子街永州愚溪悦来客栈东南侧,湖南省,永州市,零陵区,,unknown,
baidu,789313a2983eab03b9df8f92,公厕,永州市零陵区萍阳南路141号,湖南省,永州市,零陵区,,unknown,
baidu,fa456d3c605fb242a0acc474,公厕,永州市零陵区萍阳南路永州愚溪悦来客栈东北侧约160米,湖南省,永州市,零陵区,,unknown,
baidu,95d1eab21ba077c017c8f6eb,公厕,永州市零陵区萍阳南路112号,湖南省,永州市,零陵区,,unknown,
baidu,171a4fe2cadd03c931870adb,红妆旅拍,湖南省永州市零陵区零陵古城(柳子街北50米),湖南省,永州市,零陵区,15581384633,unknown,
baidu,f2f85f501b543d5c081cc7dc,华仔维修部,湖南省永州市零陵区正大街340号,湖南省,永州市,零陵区,13549691880,unknown,
baidu,d3a07789537c6a3b57bfffed,蒋荣寿衣老店,永州市零陵区正大街零陵七层坡小学西北侧约130米,湖南省,永州市,零陵区,"13517461667,15116511851",unknown,
baidu,34b0f0013cfd5ffc725e8096,仁义饮用水桶装水,永州市零陵区正大街零陵七层坡小学西北侧约120米,湖南省,永州市,零陵区,,unknown,
baidu,72750a706d258377f4231035,柳子庙-售票处,萍阳南路141号柳子庙(东南角),湖南省,永州市,零陵区,,unknown,
baidu,48072c4f1570e146bca2400d,中国体育彩票(正大街店),湖南省永州市零陵区正大街353号,湖南省,永州市,零陵区,95086,unknown,
baidu,cbe3fd22dd7bf7f2095cb3f5,学车信息咨询部,永州市零陵区水晶巷永州市第四人民医院西南侧约150米,湖南省,永州市,零陵区,15211690532,unknown,
baidu,0d57e824642b5abb6140a900,公厕,永州市零陵区柳子街86号柳宗元纪念馆,湖南省,永州市,零陵区,,unknown,
baidu,8480627f902db57c631c6727,焦糖摄影,湖南省永州市零陵区潇水西路26号,湖南省,永州市,零陵区,15577111454,unknown,
baidu,2b205a2d5877ccd0990050a2,老字号寿衣店,永州市零陵区正大街永州市第四人民医院西南侧约90米,湖南省,永州市,零陵区,,unknown,
baidu,4faef54cc30ae8d072455bd2,公厕,永州市零陵区愚溪南路柳宗元文化旅游区零陵古城C区,湖南省,永州市,零陵区,,unknown,
baidu,32348cf53afd91cbf842b220,柳宗元文化旅游区-游客中心,永州市零陵区愚溪南路柳宗元文化旅游区,湖南省,永州市,零陵区,,unknown,
baidu,8263455055e04affb11e3610,永州古映画古装艺术摄影馆(零陵古城旗舰店),萍阳南路零陵古城C区A6-3（冉溪广场、柳子庙正对面）,湖南省,永州市,零陵区,17374629009,unknown,
baidu,3a15515314607d5bcf06a4e0,彩票之家,永州市零陵区解放路零陵七层坡小学西北侧约70米,湖南省,永州市,零陵区,,unknown,
baidu,baff0f20f1345ebbf7e73bb9,公厕,永州市零陵区柳子街柳宗元文化旅游区,湖南省,永州市,零陵区,,unknown,
baidu,45e4f6638ed430c6d4851fb8,零陵古城-母婴室,永州市零陵区萍阳南路158号零陵古城,湖南省,永州市,零陵区,,unknown,
baidu,903a2a0365215b8fbda24091,大西门一条龙服务部,永州市零陵区新街零陵七层坡小学西北侧约100米,湖南省,永州市,零陵区,"13117462583,15116643966",unknown,
baidu,a0e53cebc06ff3d8a6da39d1,公共厕所,永州市零陵区愚溪南路柳宗元文化旅游区,湖南省,永州市,零陵区,,unknown,
baidu,cfc76e105f5a145acc06a4be,莫影摄影工作室,永州市零陵区柳子街永州云溪上民宿西侧约50米,湖南省,永州市,零陵区,,unknown,
baidu,d03540cefe7175885cd4fe48,公厕,永州市零陵区萍阳南路158号零陵古城A区,湖南省,永州市,零陵区,,unknown,
baidu,e70bbeada036b0bbeb56fa41,汉忆亭,湖南省永州市零陵区零陵古城食货北街A3一13号,湖南省,永州市,零陵区,,unknown,
baidu,b74eb7d844d1d21e76e5b6ca,汉宫裳影汉服文化体验馆,朝阳街道零陵古城(柳子街),湖南省,永州市,零陵区,17673642006,unknown,
baidu,52f3b95e94e19858b05c6a15,齐氏寿衣30年老店,永州市零陵区正大街零陵七层坡小学西北侧约150米,湖南省,永州市,零陵区,,unknown,
baidu,11ee9350035a9b6abfa82263,快递代办点,永州市零陵区正大街永州市第四人民医院西南侧约100米,湖南省,永州市,零陵区,15574612228,unknown,
baidu,6f7622029d19876f72455b30,公厕,永州市零陵区萍阳南路103号,湖南省,永州市,零陵区,,unknown,
baidu,0ef34abfe47b497fb14c4940,青茉古风摄影,湖南省永州市零陵区朝阳街道柳子街82号,湖南省,永州市,零陵区,13874356185,unknown,
baidu,4bf1a587a9eab14f354aae2d,壹诺婚礼,食货北街A6-2号（零陵古城）,湖南省,永州市,零陵区,13732520777,unknown,
baidu,74909a2bf6c82f9738221c81,沐遥摄影工作室,湖南省永州市零陵区古城A7-6,湖南省,永州市,零陵区,19374698689,unknown,
baidu,42ae4311435fe16f52e5c551,龙氏锁业,湖南省永州市零陵区第四人民医院旧大门对面(出口),湖南省,永州市,零陵区,,unknown,
baidu,6b985517ff890df6d5b74ead,寿兴寿衣店,永州市零陵区前进街永州市第四人民医院西北侧,湖南省,永州市,零陵区,13574683068,unknown,
baidu,6423f2d98c9ff6cdca09f04b,捷迅手机维修,湖南省永州市零陵区前进街38号,湖南省,永州市,零陵区,,unknown,
baidu,e23fafb001a2fd5ce6073821,公共厕所,湖南省永州市零陵区新街51号,湖南省,永州市,零陵区,,unknown,
baidu,bf716eef90c40bc6b45f1ea3,公厕,永州市零陵区柳子街柳宗元文化旅游区,湖南省,永州市,零陵区,,unknown,
baidu,0a0c38204ab8b85d1811d551,锦鲤堂,永州市零陵区柳子街柳宗元文化旅游区,湖南省,永州市,零陵区,,unknown,
baidu,34bd399b6409df5b8936eece,公厕,永州市零陵区柳子街小学东侧约240米,湖南省,永州市,零陵区,,unknown,
baidu,565eb9b01840f264210220e3,安童一母婴体质调理中心,人民路15号,湖南省,永州市,零陵区,4009927085,unknown,
baidu,9ed69cbd9a70f01cf4e73b94,永州照相馆,湖南省永州市零陵区中山北路53号,湖南省,永州市,零陵区,15274623220,unknown,
baidu,8208716cc357a77bdbd89170,便民服务点,永州市零陵区潇水中路永州市第四人民医院北侧约30米,湖南省,永州市,零陵区,,unknown,
baidu,ecedd5aec55fc24c36b06c48,永州干洗店,湖南省永州市零陵区中山南路98号,湖南省,永州市,零陵区,15869989920,unknown,
baidu,cc102c7092b46a6dbd484293,轻罗汉服租赁·摄影,永州市零陵区柳子街74号,湖南省,永州市,零陵区,18907462576,unknown,
baidu,d50bfd69f32791a18a36eeb3,美维干洗店,湖南省永州市零陵区中山南路62号西南方向100米,湖南省,永州市,零陵区,15897489111,unknown,
baidu,6b35c4e593e4b76878f79640,旧货回收,永州市零陵区七层坡路中山佳园,湖南省,永州市,零陵区,13085441827,unknown,
baidu,04e0f1ace81a9273ae080f4d,大明礼仪庆典,人民路7-8号附近,湖南省,永州市,零陵区,13204964507,unknown,
baidu,3fbee6fda067de765d0d02f6,零陵古城C区-休息亭,永州市零陵区愚溪南路柳宗元文化旅游区零陵古城C区,湖南省,永州市,零陵区,,unknown,
baidu,d2efd171297c9ae03be4a6ab,东山景区西游客中心,永州市零陵区中山南路295-2号,湖南省,永州市,零陵区,,unknown,
baidu,3cc83afc696632427ec876bc,公共厕所,永州市零陵区七层坡路中山佳园西侧约110米,湖南省,永州市,零陵区,,unknown,
baidu,007b66358715023104026fba,兴达家电维修中心,永州市零陵区七层坡路中山佳园西北侧,湖南省,永州市,零陵区,13974635885,unknown,
baidu,ba6bcc6e488515d9774ff138,老周棉被加工店,湖南省永州市零陵区珍珠岭9号,湖南省,永州市,零陵区,18174677985,unknown,
baidu,5824c6c56d4e039e8bdb7327,生肖流年转运阁,永州市零陵区前进街永州市第四人民医院西北侧约130米,湖南省,永州市,零陵区,13874783617,unknown,
baidu,ae0e801ff3e4c9ea6318093a,公共厕所,湖南省永州市零陵区中山北路34号,湖南省,永州市,零陵区,,unknown,
baidu,26bc7a232f38b682882fb532,柳子庙-公共厕所,永州市零陵区柳子街小学东侧约190米,湖南省,永州市,零陵区,,unknown,
baidu,df3e711f2aabe46617948e47,中国移动(中山北路店),湖南省永州市零陵区中山北路12号,湖南省,永州市,零陵区,15111691758,unknown,
baidu,b632b7ac132b97d2f4b9164a,许愿屋,永州市零陵区萍阳南路158号零陵古城A区食货北街火神广场,湖南省,永州市,零陵区,,unknown,
baidu,228633b2bbba3d808bfc06c4,公厕,永州市零陵区东山路零陵东山景区广场东南侧约110米高山寺,湖南省,永州市,零陵区,,unknown,
baidu,e0f2a76683ecfaa9b6f42fda,公共厕所,湖南省永州市零陵区七层坡路与中山南路交叉口西北方向110米,湖南省,永州市,零陵区,,unknown,
baidu,501c8b5c1ee1f84cc81b95fb,环球手机维修中心,永州市零陵区中山北路12号,湖南省,永州市,零陵区,,unknown,
baidu,f1607e102a251466cb213d10,艳飞服装加工修改店,永州市零陵区中山南路永州市零陵区中医院西南侧约30米,湖南省,永州市,零陵区,,unknown,
baidu,0cc0b84b4d846efa80a00c5b,美好时代个性定制复印,湖南省永州市零陵区南津渡街道中山南路215号,湖南省,永州市,零陵区,15575319375,unknown,
baidu,39cbde28de6950d458f6be10,曙光影视工作室,永州市零陵区萍阳北路朝阳嘉园东南侧约240米,湖南省,永州市,零陵区,"13974616758,18974618251",unknown,
baidu,aad1c2661d46e8eb0482c266,东山景区-母婴室,永州市零陵区人民路9号东山景区,湖南省,永州市,零陵区,,unknown,
baidu,97aa5551c874ce7b0a5cb31e,维修中心,永州市零陵区中山北路太谷酒店东侧约130米,湖南省,永州市,零陵区,,unknown,
baidu,963e8f2194132b2d81a12e93,公共厕所,湖南省永州市零陵区萍阳北路58号,湖南省,永州市,零陵区,,unknown,
baidu,9be41002dbe0b9a83010af7e,工会驿站·家家旺超市驿站,湖南省永州市零陵区朝阳街道潇水西路35,湖南省,永州市,零陵区,,unknown,
baidu,bec574eedfdf82c9c17da2fa,东山公园-休息亭,永州市零陵区人民路9号东山景区东山公园,湖南省,永州市,零陵区,,unknown,
baidu,feae6534af1a49a4d23ce3d3,灰影像空间,永州市零陵区柳子街133号,湖南省,永州市,零陵区,,unknown,
baidu,d25970466691a0f7b33c81a3,中国体育彩票(前进街店),湖南省永州市零陵区芝山路11号中意国际广场B1,湖南省,永州市,零陵区,95086,unknown,
baidu,e02c79284c630525bca822a1,东山公园-直饮水,永州市零陵区人民路9号东山景区东山公园,湖南省,永州市,零陵区,,unknown,
baidu,2d4e3669fd2b793b091cc7a0,有你生活馆,湖南省永州市零陵区徐家井街道前进街86号,湖南省,永州市,零陵区,,unknown,
baidu,799cbb6d0c16ee144107c160,河西家电维修中心,永州市零陵区萍阳北路大拇指幼儿园东侧约210米,湖南省,永州市,零陵区,,unknown,
baidu,19aae4fbda7dc88db04c49cd,公共厕所,永州市零陵区中山南路七层坡安置小区东南侧,湖南省,永州市,零陵区,,unknown,
baidu,8d21c883bc970878e6073889,爆屏修复刷机解锁,永州市零陵区中山北路太谷酒店东侧约110米,湖南省,永州市,零陵区,,unknown,
baidu,b410f21e03bb3914fbdc852d,甜一婚纱,湖南省永州市零陵区芝山路11号永州中意国际广场F1,湖南省,永州市,零陵区,,unknown,
baidu,515630b877b2926ca80dd883,农情暖域工会驿站(中国农业银行永州潇湘支行),湖南省永州市零陵区中山北路19号,湖南省,永州市,零陵区,,unknown,
baidu,0d91b55a454156417dc8769b,回售网,永州市零陵区中山北路财记大酒店东南侧约80米,湖南省,永州市,零陵区,,unknown,
baidu,bad45fd32e385ba1931fc9fc,顺丰速运(红豆路店),湖南省永州市零陵区红豆路30号(卷烟厂老大门),湖南省,永州市,零陵区,,unknown,
baidu,58b60efe57248b672d473382,公共厕所,永州市零陵区司马塘路永州商业城,湖南省,永州市,零陵区,,unknown,
baidu,6a7d89c83488c6ce704b87df,富生快印,湖南省永州市零陵区杨梓塘路123号,湖南省,永州市,零陵区,18274916898,unknown,
baidu,86587c5807ced2a00b1cc75f,永州零陵汽车站-售票处,芝山路115号,湖南省,永州市,零陵区,,unknown,
baidu,9c93458d0b958afab21e3607,一木各照相馆(永州零陵店),湖南省永州市零陵区迴龙小区29栋一楼,湖南省,永州市,零陵区,"15111477161,18528526330",unknown,
baidu,bc01963acca9b528adb22a71,零陵区自来水公司营业收费大厅,永州市零陵区黄古山中路永州零陵汽车站东侧约130米,湖南省,永州市,零陵区,,unknown,
baidu,f05451aaa7b660fdf4eafc67,公共厕所,永州市零陵区市政府大院,湖南省,永州市,零陵区,,unknown,
baidu,50bd850f94b7993a0d3ddaf5,美澜广告,永州市零陵区萍阳南路永州云溪上民宿北侧约180米,湖南省,永州市,零陵区,18169228266,unknown,
baidu,c60fed90bcbb5a7f87154175,如初见古装出租,永州市零陵区柳子街87号,湖南省,永州市,零陵区,,unknown,
baidu,21edb4b59085995489db73e2,明溪阁古装出租,永州市零陵区柳子街61号,湖南省,永州市,零陵区,,unknown,
baidu,bf89c1dd6d0628c5a20464bb,银点子广告,永州市零陵区潇水中路太谷酒店南侧,湖南省,永州市,零陵区,(0746)6319221,unknown,
baidu,858a5800e2e141e1363a7191,鑫万寄卖,永州市零陵区潇水西路西江苑东南侧约200米,湖南省,永州市,零陵区,,unknown,
baidu,7413d21a3aaa3bf8d72ce2ee,总督广告,湖南省永州市零陵区中山北路73号,湖南省,永州市,零陵区,13187117339,unknown,
baidu,4eea89aafa16ca2a7ab55c42,平安摩托车维修部,永州市零陵区工农路一巷大拇指幼儿园东侧约200米,湖南省,永州市,零陵区,13574615958,unknown,
baidu,d08000b00916c73fb9df8fc5,奇绘广告,湖南省永州市零陵区中山南路197号,湖南省,永州市,零陵区,"17375616372,17375619631",unknown,
baidu,d2580005d133edd6167643db,街电(湘蜀地老火锅),永州市零陵区前进街38号,湖南省,永州市,零陵区,4006868588,unknown,
baidu,e981d6cfcdc387e128b97c1e,东山广场-休息亭,永州市零陵区人民路与中山北路交叉路口往东南约60米东山广场,湖南省,永州市,零陵区,,unknown,
baidu,cdd603f6b02b3a149b68b42b,杰欢图文广告,永州市零陵区中山南路七层坡安置小区东南侧,湖南省,永州市,零陵区,15116589686,unknown,
baidu,e3a2fdc6818f9f1045572680,高山寺-客堂,永州市零陵区东山路零陵东山景区广场东南侧约110米高山寺,湖南省,永州市,零陵区,,unknown,
baidu,6355c123f424849e01ec0192,废品回收,湖南省永州市零陵区司马塘路5号,湖南省,永州市,零陵区,,unknown,
baidu,10aa6126faea13a2095cb309,中国移动(芝山路营业厅),永州市零陵区圣世阳光上城商街圣世山庄东侧约60米,湖南省,永州市,零陵区,,unknown,
baidu,24c5723e90606f0801294f66,湘投燃气(永州)有限公司客户服务中心,湖南省永州市零陵区黄古山中路63号,湖南省,永州市,零陵区,(0746)2880113,unknown,
baidu,ee0b9fe79c60bb7d77e5b665,蕾特恩专业祛痘国际连锁(零陵店),芝山路56号圣世阳光广场二楼A6室,湖南省,永州市,零陵区,4007771020,unknown,
baidu,83dfd0f7445f9a23dbd8912b,优妙美发沙龙,前进街95号（中意广场斜对面）,湖南省,永州市,零陵区,,unknown,
baidu,176653bb912dc76400ec01b8,摩登美咖理肤中心,芝山路14号美伦大酒店11楼,湖南省,永州市,零陵区,"(0746)6666605,15074616662",unknown,
baidu,503598c2bc03df8bc9fa5fa6,觅·寻日式美甲美睫工作室,朝阳街道柳子街茶林庵1栋3单元604室,湖南省,永州市,零陵区,,unknown,
baidu,4a5cb50f58a0b041c7f50db0,匠美1+1·烫发·染发·接发(科院店),杨梓塘路20号柳子街社区斜对面,湖南省,永州市,零陵区,19976609110,unknown,
baidu,397703df28f129a3a3046480,洗脸猫·洗脸吧(永州零陵顺祥金街店),徐家井街道芝山路顺祥金街9-125号,湖南省,永州市,零陵区,19918286155,unknown,
baidu,b620a3734d15c17f9d82eafb,一家纹唇的店,徐家井街道芝山路旺角步行街2038一家纹唇的店,湖南省,永州市,零陵区,,unknown,
baidu,fbfb474a9de024871f3894b4,绣色美妆(永州商业城店),永州时代旺角商业步行街2楼AI2058,湖南省,永州市,零陵区,19152009970,unknown,
baidu,956c195ef2b53f587c29bd95,JS形象设计(科院店),杨梓塘路17号,湖南省,永州市,零陵区,17674611307,unknown,
baidu,d28f7bf2b8be46cfcb213d6d,指尖花开(中意国际广场店),垠地广场一楼,湖南省,永州市,零陵区,18839220835,unknown,
baidu,20d1963dbfd0957c16948e5d,TXsalon,杨梓塘路柳园5栋105号,湖南省,永州市,零陵区,18565577539,unknown,
baidu,3230e973a7cea76914b54b72,MJ专业形象设计,杨梓塘路12号门面,湖南省,永州市,零陵区,13467460127,unknown,
baidu,37e82499b7692295441a320b,J·S形象设计,工农路87号,湖南省,永州市,零陵区,15874682341,unknown,
baidu,963cc78fe513fe0b5a3ac88d,美伦形象定制(美伦大厦店),芝山路美伦大市街北一层5-6号,湖南省,永州市,零陵区,18153367322,unknown,
baidu,181124583d5e9d879e95de95,baby美甲美睫,杨梓塘路24号,湖南省,永州市,零陵区,18579590045,unknown,
baidu,a8b68be52acfc8432806ceb8,肤诗发娜造型,芝山路圣世阳光步行街B栋2楼121号,湖南省,永州市,零陵区,18187639879,unknown,
baidu,da973a421cce91896b49f3bc,花西子美学,财记酒店对面旺角步行街二楼B2-2098,湖南省,永州市,零陵区,13787460109,unknown,
baidu,bd4943c1f9096f1c8bdb7379,点点美甲美睫,芝山路57号,湖南省,永州市,零陵区,18074691283,unknown,
baidu,0591704a36be7c770f0a7016,法蕾生活馆,永州时代旺角商业步行街-B2号楼,湖南省,永州市,零陵区,"15581393951,15869955272",unknown,
baidu,f0cdba12424d8828d8131837,四葉草·美甲美睫店,芝山路波波新天地网红街一楼C045,湖南省,永州市,零陵区,"13574696622,17769263328",unknown,
baidu,f50a3b1a230f11104054d775,太和春店,永州市零陵区正大街永州市第四人民医院西南侧约140米,湖南省,永州市,零陵区,,unknown,
baidu,910aef832ec56e3e88db73e6,哑子理发店,永州市零陵区人民路永州市第四人民医院西南侧约70米,湖南省,永州市,零陵区,18569396377,unknown,
baidu,a909892049f21c10b7265523,伊香美莱(波波新天地店),永州市零陵区芝山路BOBO新天地,湖南省,永州市,零陵区,17769487666,unknown,
baidu,cf7b8dff25951ddd82a12e33,尚美高端容貌定制,永州市零陵区财记酒店对面旺角步行街二楼B12018室,湖南省,永州市,零陵区,15811811872,unknown,
baidu,e8c35453663619da02897227,至尊美尚美容美体,永州市零陵区工农路朝阳·奥林新城东侧,湖南省,永州市,零陵区,,unknown,
baidu,e1e0081213d679f7fe0eb04b,美妍皮肤管理身体养生,时代旺角步行街二楼,湖南省,永州市,零陵区,15807492010,unknown,
baidu,8de761af9280602172210be6,理发店,湖南永州市零陵区中山南路270号,湖南省,永州市,零陵区,,unknown,
baidu,6bf4c7ca647d20cbf70e7706,缤纷丽人(芝山路店),湖南省永州市零陵区芝山路30号,湖南省,永州市,零陵区,,unknown,
baidu,117381555a714815a8f729e2,伊妍,永州市零陵区永州时代旺角商业步行街垠地广场东侧约90米,湖南省,永州市,零陵区,,unknown,
baidu,6973dc90b3e829f280a00c9b,亮点造型(前进街店),湖南省永州市零陵区前进街54号,湖南省,永州市,零陵区,,unknown,
baidu,09a5b8b500cc2e9ff822131b,剪艺造型,湖南省永州市零陵区中山南路中医院对面,湖南省,永州市,零陵区,13117462225,unknown,
baidu,6ecfeba984fc50f8220262e9,BLINGLADY韩国皮肤管理中心,永州市零陵区萍阳南路桂园新村东侧约50米,湖南省,永州市,零陵区,15575253337,unknown,
baidu,fd1121351f302cd28f1a8948,审美发艺,湖南省永州市零陵区工农路2号,湖南省,永州市,零陵区,15575335945,unknown,
baidu,2c95b4e572cf6e70ac0457b9,陈平秀专业减肥中心,中山南路62号西北方向90米,湖南省,永州市,零陵区,13787641892,unknown,
baidu,3c5199a863e70fc8b04c4965,爱尚你造型国际,湖南省永州市零陵区潇水西路45号,湖南省,永州市,零陵区,18307477674,unknown,
baidu,fe26be7ab319a032a1046417,浪波湾烫染名店,湖南省永州市零陵区中山南路18号,湖南省,永州市,零陵区,,unknown,
baidu,7dd6a6db37150a7dbbbd63bc,中草药洗头,湖南省永州市零陵区中山南路265号,湖南省,永州市,零陵区,18975776805,unknown,
baidu,1064f48dccfc89d7d8d891f1,超炫造型,湖南省永州市零陵区工农路51号,湖南省,永州市,零陵区,19176807757,unknown,
baidu,4d546be4e80bb8df39e4a677,尚变造型,湖南省永州市零陵区潇水西路87号,湖南省,永州市,零陵区,15889429897,unknown,
baidu,29473b4cf73cf4df9222e08d,兴兴理发店,湖南省永州市零陵区中山南路255号,湖南省,永州市,零陵区,,unknown,
baidu,cd2b759b0293541f76e5b62f,名扬发艺连锁旗舰店,湖南省永州市零陵区芝山路60号2楼,湖南省,永州市,零陵区,"(0746)6669666,13627466880",unknown,
baidu,3be83d46918f1846e856fa27,君沐发发型造型,永州市零陵区工农路朝阳·奥林新城东侧,湖南省,永州市,零陵区,13574676722,unknown,
baidu,a4c58b32ab47604641d63edb,丝人定制美容美发,永州市零陵区中山南路永州市三中西侧约30米,湖南省,永州市,零陵区,13243623168,unknown,
baidu,b3294750088029370f0a703b,贺师傅理发店,永州市零陵区潇水西路中国石化加油站(永州市桃江站)东北侧约110米,湖南省,永州市,零陵区,13874737097,unknown,
baidu,8b3e87fbccbd7d3c2fb96dcb,阿尔法美学设计,芝山路69号,湖南省,永州市,零陵区,13874618888,unknown,
baidu,2f89a0d0b7c4f276157643ff,雨轩艺造型,永州市零陵区中山南路零陵区千秋岭小学东侧,湖南省,永州市,零陵区,,unknown,
baidu,75a857062cc1cf81d92f2895,纤手发社,湖南省永州市零陵区中山南路143号,湖南省,永州市,零陵区,15575247327,unknown,
baidu,7217d90a54c91a66ab175ad8,天使美业,湖南省永州市零陵区杨梓塘路37号,湖南省,永州市,零陵区,18507465669,unknown,
baidu,0f5b35ba20288d9c46e27429,发之缘美发工作室,湖南省永州市零陵区杨梓塘路,湖南省,永州市,零陵区,18674662269,unknown,
baidu,71e25560a4f95c1759bbbc6b,古今发屋,湖南省永州市零陵区太平路68号,湖南省,永州市,零陵区,,unknown,
baidu,1247f1c1f4fa0e4022026237,CK名剪,湖南省永州市零陵区杨梓塘路10号,湖南省,永州市,零陵区,18674602580,unknown,
baidu,33a564219da6c389f2193750,新型发社,湖南省永州市零陵区中山南路163号,湖南省,永州市,零陵区,,unknown,
baidu,284d2ad77a5c4834d6b74e36,名发丝美容美发,中山南路25号(永州三中斜对面),湖南省,永州市,零陵区,15574661529,unknown,
baidu,df4fc0f5931a193cc51b750c,西西里美学社,萍阳南路与杨梓塘路交叉口南200米,湖南省,永州市,零陵区,,unknown,
baidu,513a9db09f2bd1e2ae045712,发仕名匠专业烫染拉,湖南省永州市零陵区中山南路161号,湖南省,永州市,零陵区,15074625335,unknown,
baidu,b117da38689248be2b201ae6,至臻刺青,湖南省永州市零陵区徐家井街道世纪中心A栋四单元301室,湖南省,永州市,零陵区,18574668390,unknown,
baidu,d3e18102eb020ff4bbbd63ca,水柠檬发型设计,湖南省永州市零陵区中山南路147号,湖南省,永州市,零陵区,,unknown,
baidu,b9d0583683fbd3f317b54b18,柏莱雅形象设计(科院店),湖南省永州市零陵区朝阳街道杨梓塘路27号,湖南省,永州市,零陵区,,unknown,
baidu,b907d01f3e69d665e6e965b3,指手画脚美甲店,芝山路29号,湖南省,永州市,零陵区,,unknown,
baidu,33318f3d9351bfca94f08ca3,青青纹绣,永州市零陵区芝山路世纪嘉园西侧约40米,湖南省,永州市,零陵区,,unknown,
baidu,5ad65f2a6d301cb1ce04ef21,梵希发研机构,杨梓塘路82号,湖南省,永州市,零陵区,15226332808,unknown,
baidu,4f0e49b06f140e97ae080f56,也狼刺青,湖南省永州市零陵区芙蓉宾馆二楼,湖南省,永州市,零陵区,15795608580,unknown,
baidu,a8d5784c5c53f48936b06c20,魅力发丝美发店,潇水中路130号,湖南省,永州市,零陵区,15116599257,unknown,
baidu,1dbf6f3821ffac4eaecb661e,J是一家正经理发店,永州市零陵区杨梓塘路零陵区杨梓塘小学南侧约110米,湖南省,永州市,零陵区,,unknown,
baidu,36b48c865e2026d14d55472d,玲燕中草药洗头美容,永州市零陵区红豆路思柳苑东北侧约40米,湖南省,永州市,零陵区,13537057851,unknown,
baidu,1e7ec73b40a3b012b020a8ee,兴兴发屋,湖南省永州市零陵区司马塘路13号,湖南省,永州市,零陵区,,unknown,
baidu,aed4dc2c030ace061ce999e0,青木纹身,湖南省永州市零陵区黄古山路16号,湖南省,永州市,零陵区,15576790559,unknown,
baidu,2013ba4b3312c7008605bf2a,美姿发,永州市零陵区迴龙塔路回龙小区西南侧,湖南省,永州市,零陵区,18174668498,unknown,
baidu,9a850132de4fae423310af28,大富豪时尚名店(黄古山中路店),湖南省永州市零陵区黄古山中路29号,湖南省,永州市,零陵区,15874649152,unknown,
baidu,fbd5cab106f83505223bf2b0,奥贝佳健康管理中心,芝山路BOBO新天地C058号,湖南省,永州市,零陵区,,unknown,
baidu,f278f1f50f26620b07fef5c5,长发经营部,永州市零陵区萍阳南路桂园新村东侧约110米,湖南省,永州市,零陵区,,unknown,
baidu,ca9c376a5a396bbe4c3a5954,果然美(菱角塘路店),湖南省永州市零陵区菱角塘路10号,湖南省,永州市,零陵区,13467461988,unknown,
baidu,197c8bf50cedd0dbe3110399,欧妮可,芝山路9号,湖南省,永州市,零陵区,,unknown,
baidu,718309609192f104f8dc85e5,零陵古城,永州市零陵区萍阳南路158号,湖南省,永州市,零陵区,"(0746)2491666,15116586781",unknown,
baidu,9434a5a865dd5b320782c2b4,永州东山景区,湖南省永州市零陵区人民路9号,湖南省,永州市,零陵区,,unknown,
baidu,669775d08e22c25bfc0eb0a9,柳子庙,永州市零陵区柳子街86号,湖南省,永州市,零陵区,(0746)6385865,unknown,
baidu,87c38c5b2fbf73cbc27da2ab,零陵古城-A区,永州市零陵区萍阳南路158号零陵古城,湖南省,永州市,零陵区,,unknown,
baidu,d1aff3b07dd1757363180952,小石潭,永州市零陵区柳子街86号柳宗元文化旅游区,湖南省,永州市,零陵区,,unknown,
baidu,8e0b5c123c4f61a538221c9f,永州柳宗元文化旅游区,柳子街86号,湖南省,永州市,零陵区,(0746)6385865,unknown,
baidu,251f0d00b142efa022f017b0,张浚故居,湖南省永州市零陵区解放路159号,湖南省,永州市,零陵区,,unknown,
baidu,341c35de311c5dbee70738af,思柳桥,永州市零陵区萍阳北路98号,湖南省,永州市,零陵区,,unknown,
baidu,14881d5bd4b6fa4efb22136b,永州武庙,永州市零陵区东山路零陵东山景区广场东侧约180米,湖南省,永州市,零陵区,(0746)6235777,unknown,
baidu,029bf13e66b9dc9b1f3894cf,邢道荣故居,湖南省永州市零陵区萍阳南路141号,湖南省,永州市,零陵区,,unknown,
baidu,8df2957d92bb2fea01294f82,恩院风荷,湖南省永州市零陵区中山南路永州三中,湖南省,永州市,零陵区,,unknown,
baidu,b36274cf4438b9ade9f853ad,永州霞客渡,永州市零陵区柳子街86号柳宗元文化旅游区,湖南省,永州市,零陵区,,unknown,
baidu,a5aeede3ca608da09ff779d5,愚溪眺雪,永州市零陵区柳子街86号柳宗元文化旅游区,湖南省,永州市,零陵区,,unknown,
baidu,26c5fc39d2f0271756bfffc1,迴龙塔,永州市零陵区回龙塔路85号,湖南省,永州市,零陵区,,unknown,
baidu,78bd50f78d73745b30870aaf,零陵楼,永州市零陵区潇水中路博雅幼儿园西南侧约120米,湖南省,永州市,零陵区,,unknown,
baidu,881a28e704c92d47f842b2a9,高山寺,永州市零陵区东山路零陵东山景区广场东南侧约110米,湖南省,永州市,零陵区,,unknown,
baidu,55fa2c0b3bf0332d1de999af,永州市博物馆,湖南省永州市零陵区南津南路414号,湖南省,永州市,零陵区,(0746)6330043,unknown,
baidu,d3b9c44bcb9c91005d17c37c,山寺晚钟,永州市零陵区东山路零陵东山景区广场东南侧约110米高山寺,湖南省,永州市,零陵区,,unknown,
baidu,20a62cdf9a8f360c88b988cb,至小丘西小石潭记遗址,永州市零陵区柳子街86号柳宗元文化旅游区,湖南省,永州市,零陵区,,unknown,
baidu,80164866b2e55b9f0c0a7093,十二生肖兽首雕塑,永州市零陵区东山路零陵东山景区广场东侧约180米永州武庙,湖南省,永州市,零陵区,,unknown,
baidu,b82769ee6ed4a86178f7964e,永州古城墙遗址,永州市零陵区人民路9号东山景区东门翁城,湖南省,永州市,零陵区,,unknown,
baidu,c732a1b773643d00c5effbbb,戏台,永州市零陵区柳子街86号柳宗元纪念馆,湖南省,永州市,零陵区,,unknown,
baidu,3a50f1f8425b89cb2902e14d,怀素湖,永州市零陵区徐家井路与潇水中路交叉路口往西南约70米怀素公园,湖南省,永州市,零陵区,,unknown,
baidu,431d9a8826aed48b88fc0686,绿天蕉影,湖南省永州市零陵区东山路11号,湖南省,永州市,零陵区,,unknown,
baidu,3df89b19984f51c91329356e,潇璞美术馆,湖南省永州市零陵区萍阳南路103号,湖南省,永州市,零陵区,18897462299,unknown,
baidu,cda1da702a1694131fe99970,零陵文庙,永州市零陵区李家塘路永州五中西侧约30米,湖南省,永州市,零陵区,,unknown,
baidu,82bf3823a4aa6f337bf796a7,春泉井,湖南省永州市零陵区水晶巷,湖南省,永州市,零陵区,,unknown,
baidu,456b7efb9674abf5e3110374,鼓楼,永州市零陵区东山路零陵东山景区广场东侧约180米永州武庙,湖南省,永州市,零陵区,,unknown,
baidu,dfa5d963c6910875f7eafc8a,羊角山,永州市零陵区羊角山路永州南津渡汽车站西侧约170米张飞公园,湖南省,永州市,零陵区,,unknown,
baidu,d82d669772e862a6d418b7a9,青阳寺,萍阳南路160号,湖南省,永州市,零陵区,,unknown,
baidu,11d963185348dc708715419d,VR游乐园,湖南省永州市零陵区潇水西路26号,湖南省,永州市,零陵区,18174659579,unknown,
baidu,6f2eb13b938d3aa73686f40f,永州基督教永州堂,永州市零陵区中山南路金源小区东北侧约70米,湖南省,永州市,零陵区,,unknown,
baidu,74fc9d60cba1181f047ce84b,桃园,永州市零陵区人民路9号东山景区东山公园,湖南省,永州市,零陵区,,unknown,
baidu,2d9ee62b66ef0b3bb9df8f8e,永州古城南门城墙遗址,永州市零陵区城南路永州市三中南侧约80米,湖南省,永州市,零陵区,,unknown,
baidu,7e8efc1f98ef90a28936eeb6,毛泽东语录墙四合院,永州市零陵区李家塘路零陵区千秋岭小学东侧约140米,湖南省,永州市,零陵区,,unknown,
baidu,4c88b864d065e3bc725e8052,柳子碑廊,永州市零陵区柳子街86号柳宗元文化旅游区,湖南省,永州市,零陵区,,unknown,
baidu,962541909a36a3ad43ab9abb,钴鉧潭记遗址,永州市零陵区柳子街168号,湖南省,永州市,零陵区,(0746)6223779,unknown,
baidu,88305f7014df8b590e3ddaa5,迎客坊牌坊,永州市零陵区愚溪南路柳宗元文化旅游区零陵古城C区愚溪水街通衢广场,湖南省,永州市,零陵区,,unknown,
baidu,32c90c1bc47274b84207c1b1,童欣游乐园,朝阳街道萍洲路西侧,湖南省,永州市,零陵区,,unknown,
baidu,aa0e38f56cbd70399c09f72b,旭日巷,永州市零陵区萍阳南路158号零陵古城A区,湖南省,永州市,零陵区,,unknown,
baidu,ae28db2d555143a202897255,中共零陵地委旧址纪念馆,永州市零陵区人民路9号东山景区东山公园,湖南省,永州市,零陵区,,unknown,
baidu,3a6881d7696ac7c8e115f9b2,许愿长廊,永州市零陵区萍阳南路158号零陵古城A区食货北街火神广场,湖南省,永州市,零陵区,,unknown,
baidu,246d9721473596e9dbecedd7,桃花林,永州市零陵区羊角山路永州南津渡汽车站西侧约170米张飞公园,湖南省,永州市,零陵区,,unknown,
baidu,399f2b49b7028ab33686f45b,西山公园,207国道,湖南省,永州市,零陵区,,unknown,
baidu,bba86fb0b033d3de33621287,西小丘,永州市零陵区柳子街86号柳宗元文化旅游区,湖南省,永州市,零陵区,,unknown,
baidu,d6b06c0e998c169dc61e5127,柳宗元文化旅游区-南2门,永州市零陵区柳子街86号柳宗元文化旅游区,湖南省,永州市,零陵区,,unknown,
baidu,40d85eaaace8712702897216,龙伯高陵,永州市零陵区司马塘路43号,湖南省,永州市,零陵区,,unknown,
baidu,599c522722d8ab94be4842fc,古城乐园,永州市零陵区萍阳南路158号零陵古城A区庙后巷,湖南省,永州市,零陵区,,unknown,
baidu,c71ec4915661fd8616a1907d,往生堂,永州市零陵区东山路零陵东山景区广场东南侧约110米高山寺,湖南省,永州市,零陵区,,unknown,
baidu,97d7b34a218a5709b2077d6d,千字文碑,永州市零陵区人民路9号东山景区,湖南省,永州市,零陵区,,unknown,
baidu,a6fc981124b82686130daab5,碑廊,永州市零陵区柳子街86号柳宗元纪念馆,湖南省,永州市,零陵区,,unknown,
baidu,46a029b312650ebc6b49f3b4,霭士井(永州九井之一),湖南省永州市零陵区新街32号,湖南省,永州市,零陵区,,unknown,
baidu,d8deec2d8d6266364d2fdfcd,观音殿,永州市零陵区东山路零陵东山景区广场东南侧约110米高山寺,湖南省,永州市,零陵区,,unknown,
baidu,0694eb278d4445c2882fb5b3,桃园三结义雕塑,永州市零陵区东山路零陵东山景区广场东侧约180米永州武庙,湖南省,永州市,零陵区,,unknown,
baidu,bb48aac647501049c9291567,透澈亭,永州市零陵区柳子街86号柳宗元文化旅游区,湖南省,永州市,零陵区,,unknown,
baidu,38473ee51dcef20dd0ff2348,东门瓮城,湖南省永州市零陵区人民路9号东山景区,湖南省,永州市,零陵区,,unknown,
baidu,fa2ce4da6fe2079bfb2d6112,三多坊,永州市零陵区正大街零陵七层坡小学西北侧约160米,湖南省,永州市,零陵区,,unknown,
baidu,9beb8b0eb42455c81e5800d8,关羽崇拜历史文化陈列,永州市零陵区东山路零陵东山景区广场东侧约180米永州武庙,湖南省,永州市,零陵区,,unknown,
baidu,9e7845df1c5610e64e776e99,钟楼,永州市零陵区东山路零陵东山景区广场东侧约180米永州武庙,湖南省,永州市,零陵区,,unknown,
baidu,3476de12086717248c55ec05,柳池,永州市零陵区柳子街86号柳宗元纪念馆,湖南省,永州市,零陵区,,unknown,
baidu,75d0881a2ddfea4d3b04b1a9,佛祖庵,永州市零陵区萍阳南路63号,湖南省,永州市,零陵区,,unknown,
baidu,dc6c8353fc42d52dddee8b59,柳亭,永州市零陵区柳子街86号柳宗元纪念馆,湖南省,永州市,零陵区,,unknown,
baidu,de4d84829e2c57c82bb97cdd,老街古巷同心锁许愿长廊,永州市零陵区柳子街86号柳宗元文化旅游区湖南省永州市柳子街,湖南省,永州市,零陵区,,unknown,
baidu,3418f73c55dbc7f6d92f28bb,大雄宝殿,永州市零陵区东山路零陵东山景区广场东南侧约110米高山寺,湖南省,永州市,零陵区,,unknown,
baidu,01bc9eddf55731e228d7ab12,永州武庙历史文化陈列,永州市零陵区东山路零陵东山景区广场东侧约180米永州武庙,湖南省,永州市,零陵区,,unknown,
baidu,61aba82ed4c026d70f0e6b08,潇湘源美术馆,永州市零陵区愚溪南路柳宗元文化旅游区零陵古城C区西街,湖南省,永州市,零陵区,,unknown,
baidu,d598a41bf80c53d53a04b104,法堂,永州市零陵区东山路零陵东山景区广场东南侧约110米高山寺,湖南省,永州市,零陵区,,unknown,
baidu,c88009c2ecdf327c3362126a,许愿池,永州市零陵区东山路零陵东山景区广场东侧约180米永州武庙,湖南省,永州市,零陵区,,unknown,
baidu,800f27127c46ff0e8ab98833,庙后巷,永州市零陵区萍阳南路158号零陵古城A区,湖南省,永州市,零陵区,,unknown,
baidu,bf8705da3433c9ea1b94c690,愚溪诗序亭,永州市零陵区柳子街86号柳宗元文化旅游区湖南省永州市柳子街,湖南省,永州市,零陵区,,unknown,
baidu,aa6baac7d244653895ca0733,望溪亭,永州市零陵区柳子街86号柳宗元文化旅游区湖南省永州市柳子街,湖南省,永州市,零陵区,,unknown,
baidu,cdb4d95f61b58ecb8c1a8953,祖师殿,永州市零陵区东山路零陵东山景区广场东南侧约110米高山寺,湖南省,永州市,零陵区,,unknown,
baidu,2c079240e11a0ce686420e37,零陵基督教,湖南省永州市零陵区中山南路50号,湖南省,永州市,零陵区,,unknown,
baidu,3af6aea409d284653586f4e1,百步福道,永州市零陵区人民路9号东山景区东山公园,湖南省,永州市,零陵区,,unknown,
baidu,0b69ac0b69c9f38246e274f5,省牲所,永州市零陵区东山路零陵东山景区广场东侧约180米永州武庙,湖南省,永州市,零陵区,,unknown,
baidu,4fc314f8e54c02752d473381,读书亭,永州市零陵区人民路9号东山景区东山公园,湖南省,永州市,零陵区,,unknown,
baidu,2d07e818c5b48550c42ba142,钴鉧潭西小丘记遗址,永州市零陵区柳子街86号柳宗元文化旅游区,湖南省,永州市,零陵区,,unknown,
baidu,89bd7329b014eb9afd0eb0f2,山门,永州市零陵区东山路零陵东山景区广场东侧约180米永州武庙,湖南省,永州市,零陵区,,unknown,
baidu,9677d7c58ed3195b4afd3fa4,李氏民宅,永州市零陵区柳子街21号,湖南省,永州市,零陵区,,unknown,
baidu,37c4e1ca39971acf0c0a70ba,聚义亭,永州市零陵区人民路9号东山景区东山公园,湖南省,永州市,零陵区,,unknown,
baidu,b4c06f64e6214ed848fc8d5a,财宝殿,永州市零陵区东山路零陵东山景区广场东南侧约110米高山寺,湖南省,永州市,零陵区,,unknown,
baidu,c45d086d074df4d48c55ec28,探坑,永州市零陵区东山路零陵东山景区广场东侧约180米永州武庙献殿,湖南省,永州市,零陵区,,unknown,
baidu,84953d398c1f6170c829154f,藏经楼,永州市零陵区东山路零陵东山景区广场东南侧约110米高山寺,湖南省,永州市,零陵区,,unknown,
baidu,856a14d4915a8cfaed74f8be,魔域惊魂,永州市零陵区萍阳南路158号零陵古城内,湖南省,永州市,零陵区,,unknown,
baidu,25d902d869c55fb1c71b7579,杏林,永州市零陵区七层坡路中山佳园南侧,湖南省,永州市,零陵区,,unknown,
baidu,0a3fb708a18fecb65abbbce1,地藏殿,永州市零陵区东山路零陵东山景区广场东南侧约110米高山寺,湖南省,永州市,零陵区,,unknown,
baidu,0a10df78254444e5a9f729e1,八角楼,永州市零陵区正大街永州市第四人民医院西南侧约40米,湖南省,永州市,零陵区,,unknown,
baidu,9fe05f71e37f628e6cc02c56,献殿,永州市零陵区东山路零陵东山景区广场东侧约180米永州武庙,湖南省,永州市,零陵区,,unknown,
baidu,975f98aef2ffa6a15d0d025e,念佛堂,永州市零陵区东山路零陵东山景区广场东南侧约110米高山寺,湖南省,永州市,零陵区,,unknown,
baidu,40376c0415b094728a2fb56e,天王殿,永州市零陵区东山路零陵东山景区广场东南侧约110米高山寺,湖南省,永州市,零陵区,,unknown,
baidu,90e22faecc6f8e842fb96d4a,基督教老年服务中心,中山南路50号,湖南省,永州市,零陵区,,unknown,
baidu,17ac1e6b792278b6b23c8135,禅堂,永州市零陵区东山路零陵东山景区广场东南侧约110米高山寺,湖南省,永州市,零陵区,,unknown,
baidu,a4af996d7d61cf09e6e965f9,三圣殿,永州市零陵区东山路零陵东山景区广场东南侧约110米高山寺,湖南省,永州市,零陵区,,unknown,
baidu,47d369d2f7a150979f82ea87,忠义祠碑,永州市零陵区中山北路零陵东山景区广场西南侧西广场停车场,湖南省,永州市,零陵区,,unknown,
baidu,19c81fe255a255e3223bf2e1,永州健康主题公园,永州市零陵区南津中路零陵区人民政府东侧约60米,湖南省,永州市,零陵区,,unknown,
baidu,a1de67653d925cd629fc4824,圣璞廿四节气体验馆,永州市零陵区愚溪南路柳宗元文化旅游区,湖南省,永州市,零陵区,,unknown,
baidu,961ffd13da190cdba2d23019,歌轩KTV(王府井店),中山北路与人民路新华书店对面（王府井商务宾馆一楼，东山景区对面）,湖南省,永州市,零陵区,(0746)6662988,unknown,
baidu,62e5dd8dbd716a26c5effb8a,探馆推理馆,朝阳街道萍阳南路零陵古城C2-11号,湖南省,永州市,零陵区,17673417831,unknown,
baidu,e12716fa86cbc6b00f0e6be1,回到零陵音乐酒吧,萍阳南路零陵古城溪街C2-1栋,湖南省,永州市,零陵区,18374173612,unknown,
baidu,dcc82aa2e73b331a3617dc6a,小酒馆KTV,零陵古城C区B7-2商铺,湖南省,永州市,零陵区,(0746)6772197,unknown,
baidu,13b3863089a90d922dfaa7fc,潇湘夜雨酒馆,古城C区B7-2(原老七中大门口),湖南省,永州市,零陵区,"(0746)6772197,15226332988",unknown,
baidu,23fcee24804f0aa972455b25,高手联盟网络会所(古城食街店),何家坪路旺达长途客运站西南侧约80米,湖南省,永州市,零陵区,,unknown,
baidu,53563c670df09a17deee8b30,零陵愚溪音乐俱乐部,萍阳南路愚溪南路古城C区,湖南省,永州市,零陵区,,unknown,
baidu,91c13f93354a45e321f0171c,宝丽金KTV(零陵店),徐家井街道潇湘中路怡港国际3楼(近南津中路),湖南省,永州市,零陵区,(0746)6376666,unknown,
baidu,47f11dc2edbeba52861541df,山之巅茶馆(零陵店),南津渡街道东山路88号,湖南省,永州市,零陵区,15226335288,unknown,
baidu,083a55fac23c3c79256e98a9,夜中华量贩KTV(古城食街店),芝山路91号B栋,湖南省,永州市,零陵区,,unknown,
baidu,89778ec4abe90e4242d63e95,博友电竞,"旭日路科技学院大门口旁（保安亭旁,零食很忙楼上）",湖南省,永州市,零陵区,13627461308,unknown,
baidu,5b9f37fb2993bbcc0bb93a58,可乐网咖(柳园店),旭日路西侧柳园四栋一单元202室,湖南省,永州市,零陵区,19146809321,unknown,
baidu,991ef4d4fceda6ce2202208c,水云宫养生汇(零陵店),南津中路城标怡港国际C区二三层c2.c3号,湖南省,永州市,零陵区,(0746)6663456,unknown,
baidu,49fa8691764e299959bbbc71,新铂金K歌沐足,南津中路1号,湖南省,永州市,零陵区,,unknown,
baidu,bfc4ba1dfd7d5c53b45f1ef0,吴氏采耳馆(零陵古城店),零陵古城斗酒巷C9-3,湖南省,永州市,零陵区,15574187002,unknown,
baidu,bdbb4845d04e8ca7704b8709,斌斌保健按摩,永州市零陵区新街永州市零陵区中医院西南侧约40米,湖南省,永州市,零陵区,18627498990,unknown,
baidu,ae87a84104af308d9d95de80,冉溪广场,永州市零陵区愚溪南路柳宗元文化旅游区零陵古城C区西街,湖南省,永州市,零陵区,,unknown,
baidu,de3f0d59eec927f31e1d11a3,超级碰碰车,永州市零陵区柳子街永州云溪上民宿西南侧约70米,湖南省,永州市,零陵区,,unknown,
baidu,724b5ad343ad1c1a6140a97b,忘忧草量贩式小酒馆,永州市零陵区萍阳南路158号零陵古城A区食货北街A4-16号,湖南省,永州市,零陵区,13574619548,unknown,
baidu,cd54c18501a63124cbe33c7d,文明乐坊,永州市零陵区解放路零陵七层坡小学西北侧约110米,湖南省,永州市,零陵区,13085439858,unknown,
baidu,fa6856fd194bb37d89f15da1,帝豪休闲(万发数码广场店),前进街万发数码广场105号五楼华丰酒店、帝豪休闲会所,湖南省,永州市,零陵区,(0746)6611382,unknown,
baidu,3329d5f09f67e915bda240ff,正大街老余活动中心,永州市零陵区正大街零陵七层坡小学西北侧约130米,湖南省,永州市,零陵区,,unknown,
baidu,ec31c7620deeb2c625e0a0a6,迎宾广场,永州市零陵区萍阳南路158号零陵古城A区食货南街,湖南省,永州市,零陵区,,unknown,
baidu,92b9463ddfc6c05e17b54bcc,思泉艾灸馆,永州市零陵区柳子街5号,湖南省,永州市,零陵区,,unknown,
baidu,7eeb0618a5b7e4aa5e17c3b8,兄弟俱乐部,永州市零陵区萍阳南路158号零陵古城A区庙后巷C4-3号,湖南省,永州市,零陵区,13874796423,unknown,
baidu,e4a7ef59fedcfe7a102935ce,永州东山广场,永州市零陵区人民路与中山北路交叉路口往东南约60米,湖南省,永州市,零陵区,,unknown,
baidu,f32372410a32fe1f82a00c4b,养心殿足疗,永州市零陵区前进街永州市第四人民医院西北侧约110米,湖南省,永州市,零陵区,15674665671,unknown,
baidu,2bfacf10887edd9439221c8e,打枪有奖,永州市零陵区柳子街柳宗元文化旅游区,湖南省,永州市,零陵区,,unknown,
baidu,02ef0f08a06f2f674107c1f2,瓦肆广场,永州市零陵区萍阳南路158号零陵古城A区食货后街,湖南省,永州市,零陵区,,unknown,
baidu,1cdf3260045a562588f15d6e,魔幻镜宫,萍阳南路柳宗元文化旅游区B5-5,湖南省,永州市,零陵区,18637937392,unknown,
baidu,13eb415d599a58f917c8f636,夜引瑶家油茶馆,萍阳南路158号零陵古城A区斗酒巷C9-2号,湖南省,永州市,零陵区,,unknown,
baidu,cd16a4d024408374bb17e751,古城酒社,永州市零陵区愚溪南路柳宗元文化旅游区,湖南省,永州市,零陵区,,unknown,
baidu,3332055f7327bc95c16c1493,大西门社区综合文化服务中心,永州市零陵区七层坡路中山佳园南侧约40米,湖南省,永州市,零陵区,,unknown,
baidu,76b610640baeb1c14f6d4605,藏奥堂养生店,永州市零陵区中山南路中山佳园,湖南省,永州市,零陵区,"17872492560,18574627861",unknown,
baidu,88e3ed553c9f942dd12dd64a,英雄坦克,永州市零陵区愚溪南路柳宗元文化旅游区,湖南省,永州市,零陵区,,unknown,
baidu,bc5481309aef90368b2fb5bf,古方养生道坊,永州市零陵区潇水西路永州沐兰风尚酒店东南侧约290米,湖南省,永州市,零陵区,,unknown,
baidu,ef73e0b1788d7089a1d23035,黑老丈调理馆,永州市零陵区中山南路中山佳园北侧约30米,湖南省,永州市,零陵区,,unknown,
baidu,54bebe896f248486f32d83eb,好时光音乐清吧(人民路店),湖南省永州市零陵区人民路242号,湖南省,永州市,零陵区,,unknown,
baidu,c74906d55b4c3d9c4d776e52,美宜年永州康民健康调养中心,永州市零陵区潇水西路永州市第四人民医院西北侧约100米,湖南省,永州市,零陵区,,unknown,
baidu,ad67151274aa562881a12eb6,陈康保健按摩,永州市零陵区潇水西路永州市第四人民医院西北侧约120米,湖南省,永州市,零陵区,17763690876,unknown,
baidu,648f5642a8f189f0cafa5f36,通衢广场,永州市零陵区愚溪南路柳宗元文化旅游区零陵古城C区愚溪水街,湖南省,永州市,零陵区,,unknown,
baidu,84294ff6a97de90d734b8795,泡脚养生馆,永州市零陵区中山南路金源小区东北侧约40米,湖南省,永州市,零陵区,,unknown,
baidu,6950d13e3ceb7f4e46e274cc,白马电竞,旭日路潇湘嘉园（柳园一楼）,湖南省,永州市,零陵区,19151959066,unknown,
baidu,fe95e6dea914abccb65f1e72,怡鑫山庄,永州市零陵区柳子街小学东南侧约160米,湖南省,永州市,零陵区,15274619321,unknown,
baidu,282bca93a6c80c9100ec01be,美之美SPA时尚会所(二店),永州市零陵区萍阳南路桂园新村东侧约90米,湖南省,永州市,零陵区,,unknown,
baidu,13a6da99223eba282bb97c42,火神广场,永州市零陵区萍阳南路158号零陵古城A区食货北街,湖南省,永州市,零陵区,,unknown,
baidu,bb0613c934808f1fe70738a5,光速网咖,徐家井入口老百姓大药房2层,湖南省,永州市,零陵区,17774600066,unknown,
baidu,cc27946517c5da6d2efaa7a2,丰物广场,永州市零陵区愚溪南路柳宗元文化旅游区零陵古城C区愚溪水街,湖南省,永州市,零陵区,,unknown,
baidu,c7707d493ae0e71aa20464ab,回味养生保健,永州市零陵区芝山路永州商业城,湖南省,永州市,零陵区,,unknown,
baidu,5d43b73c6222055e871541a4,古戏台,永州市零陵区萍阳南路158号零陵古城A区食货后街瓦肆广场,湖南省,永州市,零陵区,,unknown,
baidu,2bcb7fbaea4f3ad5095cb3ce,盘瑶广场,永州市零陵区愚溪南路柳宗元文化旅游区零陵古城C区西街,湖南省,永州市,零陵区,,unknown,
baidu,63dd9fe3e680925414948eeb,致健缘茶酒文化馆,永州市零陵区潇水西路永州沐兰风尚酒店东南侧约270米,湖南省,永州市,零陵区,,unknown,
baidu,16122644f9e3dfd9d618b754,潮玩嘉年华,顺祥金街二楼216,湖南省,永州市,零陵区,19174638399,unknown,
baidu,b6c1d616648418fcc909f0d0,郑远元专业修脚房(芝山北路店),芝山北路日不落旁边,湖南省,永州市,零陵区,,unknown,
baidu,ec3e0aef101fc771e6e965d4,二十四小时电竞馆,湖南省永州市零陵区潇水西路西江苑东南侧约50米,湖南省,永州市,零陵区,,unknown,
baidu,b10296c1d9f27436fbdc855a,节孝亭记茶舍,西山路零陵古城柳宗元文化旅游区南2门,湖南省,永州市,零陵区,15869996628,unknown,
baidu,d7a9d4c4cd76b410130daac2,九品人生养生馆,永州市零陵区柳子街小学西北侧约90米,湖南省,永州市,零陵区,,unknown,
baidu,b4769ed12a36f4fca4c756eb,龙氏盲人按摩(菱角塘路店),菱角塘路10号农机大厦对面三监狱后门,湖南省,永州市,零陵区,,unknown,
baidu,cdaa74d7b1e45cf29e09f749,瑶韵按摩店,永州市零陵区菱角塘路慧凡培萃幼儿园西北侧约70米,湖南省,永州市,零陵区,,unknown,
baidu,46bb1b7f6a67aab81f389444,夜豪酒吧(永州中意国际广场店),湖南省永州市零陵区芝山路11号永州中意国际广场B1,湖南省,永州市,零陵区,,unknown,
baidu,73857fa7693fe0e2c4f50d1f,波波新天地娱乐室,永州市零陵区芝山路BOBO新天地,湖南省,永州市,零陵区,,unknown,
baidu,ba375023e8e00968d23ce3eb,卓越电竞馆(永州店),南津中路4号店门,湖南省,永州市,零陵区,17375618227,unknown,
baidu,c0e79fbd0eca7c12704b87bf,帝涵采耳文化馆,湖南省永州市零陵区芝山路波波新天地6栋1楼,湖南省,永州市,零陵区,,unknown,
baidu,cf65cfa900ea5c0d9ee321e2,墨扬都可,永州市零陵区愚溪南路零陵古城c区a4-7号,湖南省,永州市,零陵区,13902929311,unknown,
baidu,cd360fc6056dcb98b6f42fe1,墨泰·古法泰式按摩SPA(顺祥金街店),黄古山中路与回龙塔路交汇处以北402米,湖南省,永州市,零陵区,,unknown,
baidu,543e9e7e9b2949cbeedfca12,泓善妍养生会所,永州市零陵区芝山路世纪嘉园,湖南省,永州市,零陵区,,unknown,
baidu,0f375ba8239a16b115c9053e,九州富侨足浴(东门壹号公馆店),湖南省永州市零陵区南津南路551号东门壹号公馆2层,湖南省,永州市,零陵区,,unknown,
baidu,f0e5d791d2a1a04b970319ff,贝亲80养生馆,湖南省永州市零陵区红豆路1号,湖南省,永州市,零陵区,13317466377,unknown,
baidu,4965fd419562d3411b11d5b6,雀侠24小时棋牌饮茶堂(科技学院店),朝阳街道柳园商业广场5栋201c号商铺,湖南省,永州市,零陵区,,unknown,
baidu,ea4356500fee8be805fef56f,愚溪山庄,207国道西50米,湖南省,永州市,零陵区,"(0746)6376811,13243686888",unknown,
baidu,eef6350359fe9f0bf33cba93,婷伊阁保健按摩,菱角塘路10号门面,湖南省,永州市,零陵区,,unknown,
baidu,30a824882a40d8fedf1e52be,小周按摩店,菱角塘路9号,湖南省,永州市,零陵区,,unknown,
baidu,30e91660f9d59230704b878e,花花王子休闲会所,湖南省永州市零陵区南津中路51号,湖南省,永州市,零陵区,,unknown,
baidu,01879c5f87a8e8938936eeed,日不落KTV(零陵店),芝山北路锦源金禧商贸城二楼,湖南省,永州市,零陵区,,unknown,
baidu,441b364aeec3a88416a190e6,老四茶坊,湖南省永州市零陵区徐家井街道芝山路29号,湖南省,永州市,零陵区,13974630298,unknown,
baidu,7912176cd2942aa031f71d01,四季红网吧,湖南省永州市零陵区杨梓塘路157号,湖南省,永州市,零陵区,,unknown,
baidu,5ae7e167199e96c274e5b6d7,众炫网咖,湖南省永州市零陵区杨梓塘路102号,湖南省,永州市,零陵区,,unknown,
baidu,61b9d5e4d27a669a88b98835,神仙岭竞技馆,湖南省永州市零陵区神仙岭路75号原29号,湖南省,永州市,零陵区,15575294968,unknown,
baidu,7c524f2689c1a0c9d2f49ea9,怡港网吧,湖南省永州市零陵区南津中路2号2层,湖南省,永州市,零陵区,,unknown,
baidu,01437829ba5f3987047ce86b,就做ART·陶艺·银戒指·奶油胶(零陵古城店),萍阳南路零陵古城愚溪桥公交站旁（火宫殿对面）,湖南省,永州市,零陵区,17600175179,unknown,
baidu,177fa6ec8ebc26a8e6073888,时光小酒馆(愚溪南路店),愚溪南路柳宗元文化旅游区,湖南省,永州市,零陵区,19976648889,unknown,
baidu,bacd7d4b9437e0346fa3ccc9,壹号小酒馆,愚溪南路柳宗元文化旅游区,湖南省,永州市,零陵区,19967671117,unknown,
baidu,27d89b99705d7f64a10464ef,莎姐美妆名品手工穿孔(柳园店),柳园商铺2-101室,湖南省,永州市,零陵区,19553460608,unknown,
baidu,3cec54a3da4e50f377026946,胜美美容生活馆,潇水中路242号,湖南省,永州市,零陵区,18821970258,unknown,
baidu,079d866dac602fc43c9a5ed8,尚客优品酒店(永州零陵古城店),人民路与古城路交汇处南50米,湖南省,永州市,零陵区,"0746667888,19376557221",unknown,
baidu,570cf0a007032f617369d372,永州沐兰民宿,零陵古城C区B2-1号商铺,湖南省,永州市,零陵区,(0746)6662228,unknown,
baidu,b016d7c0a3b52ef9047ce852,永州财记大酒店,中山北路2号,湖南省,永州市,零陵区,(0746)6658888,unknown,
baidu,f40f2b0fe7f9c2fff603b847,永州云溪上民宿,古城风荷苑F37栋,湖南省,永州市,零陵区,13319663850,unknown,
baidu,6e8be07be65a809eede4a5ca,永州溪居特色民宿,零陵古城风荷苑F23栋,湖南省,永州市,零陵区,17346982211,unknown,
baidu,ccd8232e2e84f6aab05c6a3f,永州愚溪悦来客栈,零陵古城C10号商铺,湖南省,永州市,零陵区,"(0746)6222228,15200960821",unknown,
baidu,b3cf9031bdf32f9f38221cf9,永州兰天酒店(零陵古城店),前进街万发数码广场,湖南省,永州市,零陵区,"(0746)8826288,13574675757,13874388775",unknown,
baidu,05274efd1eb9e304e0110353,永州临溪别院民宿,零陵古城F4,湖南省,永州市,零陵区,15116588528,unknown,
baidu,02d34f980809734d14948ec7,永州云水瑶民宿,朝阳街道湖南科技学院东门100米处,湖南省,永州市,零陵区,(0746)8869188,unknown,
baidu,24ae8ca2da170584b42655c5,永州欧米罗酒店,南津中路2号,湖南省,永州市,零陵区,(0746)8828888,unknown,
baidu,b6bd997d9910df306040a958,永州潇湘夜雨客栈,萍阳南路零陵古城S24栋C3商铺,湖南省,永州市,零陵区,13874390776,unknown,
baidu,4a6f5a69c371a8a0afee7a2b,永州乐欢溪舍民宿,朝阳街道零陵古城C区87栋H18-1号,湖南省,永州市,零陵区,19974639988,unknown,
baidu,42db791dd48e7f3ff8f0cb61,伯特利文创酒店(永州零陵古城店),中山南路50号,湖南省,永州市,零陵区,(0746)6666096,unknown,
baidu,397452c6338fe9ac22022044,永州柳子酒店,潇水中路113号,湖南省,永州市,零陵区,"(0746)6245988,(0746)6568888",unknown,
baidu,6d73bf4a72bdb7df08f5eb0e,永州柳源民宿,杨梓塘路柳园小区7栋一单元四楼401室,湖南省,永州市,零陵区,18922875773,unknown,
baidu,a9b5300068a12345354aae37,永州渝馨民宿,旭日路柳子文化艺术园3栋2楼,湖南省,永州市,零陵区,(0746)6621337,unknown,
baidu,33e20be896ab931a2cb96df1,永州回龙宾馆,汽车站对面,湖南省,永州市,零陵区,"(0746)6591999,18975778609",unknown,
baidu,e0a66b27915f1514aecb66de,柏曼酒店(永州零陵区政府店),南津中路1号,湖南省,永州市,零陵区,(0746)6338666,unknown,
baidu,206af039cd24d08bb7265506,永州爱宿客栈,零陵古城A1-5,湖南省,永州市,零陵区,13874716218,unknown,
baidu,f1235fc4563bdcf0bda24074,永州久忆居酒店,萍阳北路113号,湖南省,永州市,零陵区,(0746)6626208,unknown,
baidu,88bc0fa61fe46c7bddee8b77,永州通程宾馆,黄古山中路27号,湖南省,永州市,零陵区,(0746)6339168,unknown,
baidu,4c3eb8491eac50913a04b1b1,五福宾馆,南津中路82号,湖南省,永州市,零陵区,"15307465508,18143319575",unknown,
baidu,285efe6a92ca2181e115f9d5,极光电竞酒店,南津中路1号12楼,湖南省,永州市,零陵区,19958283611,unknown,
baidu,5c164d97e649d2cd8c55ec4d,永州芙蓉宾馆(芝山路店),芝山路109号,湖南省,永州市,零陵区,13707460123,unknown,
baidu,47f34317f8fb688bbca822c5,木白民宿(零陵古城店),朝阳街道萍阳南路芙蓉苑E1-24号,湖南省,永州市,零陵区,13100225605,unknown,
baidu,9ecb22d37a6fb10c38221c17,永州湘悦宾馆,南津南路南津渡汽车站内,湖南省,永州市,零陵区,13357289269,unknown,
baidu,6627322e7ee4c21096f08c21,如家旅馆(芝山路店),芝山路109号,湖南省,永州市,零陵区,13574637137,unknown,
baidu,cf6c66bb33ef50bf157643e7,自然宾馆,前进街38号2楼,湖南省,永州市,零陵区,13407469278,unknown,
baidu,c8ee109708398e5b6d20b91c,永州华美宾馆,南津南路18号,湖南省,永州市,零陵区,17774629520,unknown,
baidu,c27966d108bf1830a4c756ab,艳阳天商务酒店(黄古山中路店),黄古山中路33号,湖南省,永州市,零陵区,(0746)6626676,unknown,
baidu,e2c734e4633fff5d14a190a9,永州零陵湘运招待所,芝山路113号,湖南省,永州市,零陵区,15874678766,unknown,
baidu,cbdddd1278a1a107d42ce2a3,永州白沙宾馆(萍阳北路店),萍阳北路95号,湖南省,永州市,零陵区,"13187109006,18975788166",unknown,
baidu,7f964e2866aeeaae1e58009c,永州金旺角宾馆,芝山路六号金旺角步行街德克士三楼,湖南省,永州市,零陵区,13107461188,unknown,
baidu,1f4138d176ac5b61f4eafc01,永州今夜客房,芝山路14号美伦大厦3楼,湖南省,永州市,零陵区,13217466717,unknown,
baidu,9a74cf3efba5c1840782c2d9,永州悦里精品民宿,零陵古城贤仕苑E2-10号,湖南省,永州市,零陵区,18075823006,unknown,
baidu,25303b6cacbaa8754d554713,永州城标宾馆,潇水中路东门壹号五楼,湖南省,永州市,零陵区,15274687106,unknown,
baidu,2c8575720df555041c389455,永州竹屋民宿,永州市萍阳南路72号,湖南省,永州市,零陵区,18922875773,unknown,
baidu,bbb37e87b89f2c4f5fd4fe70,零陵古城812公寓(人民路分店),湖南省永州市零陵区南津渡街道人民路242号,湖南省,永州市,零陵区,,unknown,
baidu,39ac5a9a071dd8db9ee321cc,古城民宿(芝山路商业城店),湖南省永州市零陵区芝山路26,湖南省,永州市,零陵区,,unknown,
baidu,648813ea24948bbf0e3ddaf1,澜,永州市零陵区人民路永州市第四人民医院西南侧约180米,湖南省,永州市,零陵区,,unknown,
baidu,0d2fecfe178c4903b42655b6,辣椒红了民宿(杨梓塘路分店),永州市零陵区旭日路零陵区杨梓塘小学南侧约110米,湖南省,永州市,零陵区,,unknown,
baidu,0d07296526b0a9d0ae080f61,聚万金民宿,芝山路72号聚万金11楼1109室,湖南省,永州市,零陵区,18922875773,unknown,
baidu,6835e3a70eb4e957e3110310,美伦大酒店,湖南省永州市零陵区芝山路14号,湖南省,永州市,零陵区,,unknown,
baidu,df8efbb02e15ddc985420ed2,永州佳源宾馆,美伦大市街2栋3层,湖南省,永州市,零陵区,18174677771,unknown,
baidu,1ac98e894eff4f596240a951,松熊度假别墅(萍阳南路分店),湖南省永州市零陵区萍阳南路永州云溪上民宿西侧,湖南省,永州市,零陵区,,unknown,
baidu,f9de32837ee47aacb35c6af0,永州零陵区周家精典酒店,湖南省永州市零陵区萍阳南路55号,湖南省,永州市,零陵区,07466666809,unknown,
baidu,69e11d9a4e741213be48429a,愚溪别苑(零陵古城店),零陵古城A1-4商铺,湖南省,永州市,零陵区,18974655751,unknown,
baidu,1784561516d2ffb84afd3f4e,重庆宾馆,湖南省永州市零陵区南津南路福寿亭4号,湖南省,永州市,零陵区,(0746)6339585,unknown,
baidu,2ff19297631540c917948e11,永州糖糖如意小居公寓,湖南省永州市零陵区芝山路垠地广场BOBO新天地,湖南省,永州市,零陵区,,unknown,
baidu,00d511249afbd9d68d7727d0,永州吉祥宾馆,湖南省永州市零陵区潇水中路189号聆语婚礼,湖南省,永州市,零陵区,13874635041,unknown,
baidu,020d506daf64e1448bdb7335,永州好梦主题酒店,湖南省永州市零陵区南津南路162号,湖南省,永州市,零陵区,18074628888,unknown,
baidu,1bac6643130643f83310af61,唯客PARTY·K(回龙塔路店),七里店街道顺祥金街9栋4层,湖南省,永州市,零陵区,,unknown,
baidu,399c2135b00b7ef5e3110301,永州南书房公寓,永州市零陵区司马塘路永州商业城北侧约50米,湖南省,永州市,零陵区,,unknown,
baidu,c4cecfbd4392914028d7ab3e,湘味源酒店,永州市零陵区百万庄6号路南电北苑园北侧约210米,湖南省,永州市,零陵区,13037460927,unknown,
baidu,e1f16b96ad18c90d0d3dda35,宝宝渔家早酒店,湖南省永州市零陵区羊角山路156号,湖南省,永州市,零陵区,15974062069,unknown,
baidu,aebf816ae0175d4349fd3f5f,零陵区信达汽车维修中心,湖南省永州市零陵区工农路16号,湖南省,永州市,零陵区,18797641817,unknown,
baidu,225735e5ef70a38f631c67b5,百援汽车维修,潇湘御园北门旁,湖南省,永州市,零陵区,18797700143,unknown,
baidu,1e0a0aa3fbba1c99871541a3,车之翼汽车美容养护中心(潇水西路店),潇水西路12号8栋95号,湖南省,永州市,零陵区,,unknown,
baidu,9b08bd6f32501cde8505bf57,壁虎汽车快修美容中心,湖南省永州市零陵区萍阳北路58号,湖南省,永州市,零陵区,15869997758,unknown,
baidu,1f711532102617fbc51b759e,老寇汽车维修,湖南省永州市零陵区红豆路121号,湖南省,永州市,零陵区,17700745365,unknown,
baidu,c9b9ac4a3ffd070581288a85,洗车1族专业汽车美容养护会所,云天芙蓉广场(思柳桥北),湖南省,永州市,零陵区,,unknown,
baidu,1a6e14bf8f3c23b684330473,建行龙卡洗车卡指定洗车点,永州市零陵区潇水西路西江苑,湖南省,永州市,零陵区,,unknown,
baidu,4f6208140ae97ac9b726552c,超景洗车美容中心,永州市零陵区潇水中路永州怀素中心汽车站东南侧,湖南省,永州市,零陵区,,unknown,
baidu,57a980994238dd6971210b73,新立汽车美容,永州市零陵区旭日路朝阳岩公园南侧约260米,湖南省,永州市,零陵区,"17300759959,18274685212",unknown,
baidu,576da021de2f086f724b87b7,小蒋汽修,湖南省永州市零陵区潇水西路朝阳卫生院旁,湖南省,永州市,零陵区,18229462851,unknown,
baidu,922fe5c83e12ac1f84154175,SUPER SPEC,永州市零陵区城南路永州市三中西侧约200米,湖南省,永州市,零陵区,,unknown,
baidu,075746e02031ae9fa6da39b3,永恒汽修,湖南省永州市零陵区南津中路6号,湖南省,永州市,零陵区,15874650168,unknown,
baidu,ad7a279f2e3177214afc8db6,湖南广发汽车服务有限公司,南津渡街道南津南路(原双牌停车场内),湖南省,永州市,零陵区,17365755291,unknown,
baidu,801104b0dc0cd9f7b320a891,零陵同城快修,永州市零陵区菱角塘路零陵区人民政府东北侧约250米,湖南省,永州市,零陵区,,unknown,
baidu,748d745f79af2a524251c0c7,爱车屋汽车美容中心,湖南省永州市零陵区朝阳街道杨梓塘路327号,湖南省,永州市,零陵区,,unknown,
baidu,39c6cca866e884790f0e6baa,平安进口汽车维修汽车租赁,永州市零陵区羊角山路香水湾西南侧约160米,湖南省,永州市,零陵区,13117466719,unknown,
baidu,04b7f534f72531ccadcb66cf,顺达润滑油,湖南省永州市零陵区南津中路235号,湖南省,永州市,零陵区,13107166191,unknown,
baidu,f61eb2e2037028f3e856fab6,淮海车辆(零陵专卖店),湖南省永州市零陵区南津南路419号,湖南省,永州市,零陵区,18774680797,unknown,
baidu,cf39b1eddde59132e9f853f3,车友轮胎店,湖南省永州市零陵区朝阳街道G322(衡友线),湖南省,永州市,零陵区,15111669721,unknown,
baidu,81cd1323586d7324adcb6657,四毛精品二手车,永州市零陵区羊角山路永州市三中南侧约80米,湖南省,永州市,零陵区,,unknown,
baidu,4acecdf77272358821f017ba,刘哥饼药之家,永州市零陵区正大街零陵七层坡小学西北侧约160米,湖南省,永州市,零陵区,,unknown,
baidu,4ce10ce6d81828a1451a32af,永州市第四人民医院,永州市零陵区前进街22号,湖南省,永州市,零陵区,(0746)6237208,unknown,
baidu,77dd80939e301ff5ee74f845,赵福英诊所,湖南省永州市零陵区正大街211号,湖南省,永州市,零陵区,,unknown,
baidu,a65a05f2e696bd06eee4a5fe,永州市零陵区中医院,永州市零陵区中山南路102号,湖南省,永州市,零陵区,(0746)6237357,unknown,
baidu,b695bcbf251febf4bfa8221d,益方诊所,湖南省永州市零陵区正大街448号,湖南省,永州市,零陵区,18774609998,unknown,
baidu,e0f7b71d0480d37f35b06c70,唐国艳诊所,湖南省永州市零陵区解放路159号,湖南省,永州市,零陵区,"15869953636,18166273232",unknown,
baidu,90bf0033674370fce50738a7,永州市零陵区中医院-门诊部,湖南省永州市零陵区中山南路62号,湖南省,永州市,零陵区,,unknown,
baidu,3c228a01e8cf3e064657261e,零陵区南津渡社区卫生服务中心,湖南省永州市零陵区春牛坪路1号,湖南省,永州市,零陵区,,unknown,
baidu,0d2812456fb7c6004354d70e,蒋氏牙科,永州市零陵区人民路永州市第四人民医院南侧约30米,湖南省,永州市,零陵区,,unknown,
baidu,58156a9f8246cb1293114c7b,永州市第四人民医院中医专家门诊,永州市零陵区潇水中路永州市第四人民医院北侧约30米,湖南省,永州市,零陵区,,unknown,
baidu,87b6304963b18ffe3062129c,永州市第四人民医院-外科楼,永州市零陵区前进街永州市第四人民医院,湖南省,永州市,零陵区,,unknown,
baidu,a169801fea5a02b6932ca372,永州市第四人民医院-门诊楼,湖南省永州市零陵区人民路13号,湖南省,永州市,零陵区,,unknown,
baidu,c5da2df96f48d4456b49f3e8,陈茂林中草药室,永州市零陵区解放路零陵七层坡小学西南侧约100米,湖南省,永州市,零陵区,,unknown,
baidu,c610c5126cf234e9a5da3951,医康门诊部,永州市零陵区萍阳南路158号零陵古城A区旭日巷A1-6号,湖南省,永州市,零陵区,,unknown,
baidu,54247a81fe1566d99f09f772,永州市中心医院(零陵院区),湖南省永州市零陵区潇水西路151号,湖南省,永州市,零陵区,(0746)6565666,unknown,
baidu,30775d3ec305b737f02d830a,朝刚博士园毛发健康中心零陵旗舰店,湖南省永州市零陵区南津渡街道人民路9号,湖南省,永州市,零陵区,15074601688,unknown,
baidu,4fc8dcec497d565f3c9a5e30,大西门社区卫生服务站,永州市零陵区解放路零陵七层坡小学西北侧约120米,湖南省,永州市,零陵区,,unknown,
baidu,c7df2368f1b813a03be4a637,永州市中心血站,永州市零陵区中山南路257号,湖南省,永州市,零陵区,(0746)6235920,unknown,
baidu,5d6aa67fc4eb60eeae080f50,永州市第四人民医院-急诊,永州市零陵区潇水中路永州市第四人民医院,湖南省,永州市,零陵区,,unknown,
baidu,fc9cb405a2538470dc1e52bf,丽阳牙科,湖南省永州市零陵区潇水西路1号,湖南省,永州市,零陵区,13974633146,unknown,
baidu,f3b1d0ffc99ac1262fb96d78,永州市零陵区中医院-住院部,湖南省永州市零陵区中山北路62号,湖南省,永州市,零陵区,,unknown,
baidu,2ac07fb8e2ca4d99cac3db4f,蒋氏牙科,湖南省永州市零陵区中山北路19号,湖南省,永州市,零陵区,,unknown,
baidu,84d36d2d4e2f156517948e4b,永州市第二中医院康复门诊,永州市零陵区中山北路永州市零陵区中医院,湖南省,永州市,零陵区,,unknown,
baidu,5e78a43afc605b149122e0eb,DR.FARGO光子能量排毒,永州市零陵区前进街永州市第四人民医院西北侧约120米,湖南省,永州市,零陵区,,unknown,
baidu,a6534e156d770ba0f4231038,零陵区中医医院-高血压智慧门诊,永州市零陵区中山南路零陵区中医医院门诊一层,湖南省,永州市,零陵区,,unknown,
baidu,fcadcf33d61ab58c0ab93a1f,吕春荣诊所,湖南省永州市零陵区东门巷9号,湖南省,永州市,零陵区,13874735629,unknown,
baidu,3582f9e8bffe5be6120daae7,颐尔康,永州市零陵区永州时代旺角商业步行街BOBO新天地东南侧约90米,湖南省,永州市,零陵区,,unknown,
baidu,63deeb816ef488d3f7e73be0,中医特色治疗门诊,湖南省永州市零陵区中山南路62号,湖南省,永州市,零陵区,,unknown,
baidu,351d0e841a7ff7183904b1b0,眼科文承锋医生视光工作室,永州市零陵区潇水中路太谷酒店南侧,湖南省,永州市,零陵区,,unknown,
baidu,e1afb2c8d34bc8b4f7231079,唐氏诊所,湖南省永州市零陵区前进街93号,湖南省,永州市,零陵区,13037486383,unknown,
baidu,63962682d9749a6bdc1e5263,永州市中心医院(零陵院区)-急诊,湖南省永州市零陵区中心医院(南院),湖南省,永州市,零陵区,,unknown,
baidu,e09bda08986cd223eee4a560,杨陈诊所,永州市零陵区潇水西路西江苑,湖南省,永州市,零陵区,,unknown,
baidu,f36318cc39483fefaeb22ad9,杨进忠诊所,永州市零陵区七层坡路中山佳园东南侧约30米,湖南省,永州市,零陵区,,unknown,
baidu,9a0754bc7c456b7afda7787f,永州北大专科医院,湖南省永州市零陵区芝山路42号,湖南省,永州市,零陵区,(0746)6777778,unknown,
baidu,f30aaaf9d57a9a49626858f9,永州大药房,湖南省永州市零陵区正大街水口山镇正大街333号,湖南省,永州市,零陵区,,unknown,
baidu,8e8a886eea07fa55ab0dd8ef,李艳春诊所,湖南省永州市零陵区潇水西路12号西江苑1栋118号门面,湖南省,永州市,零陵区,13874716818,unknown,
baidu,36a032d749c287bbad04577c,胡庚彪诊所,永州市零陵区中山南路金源小区东北侧约90米,湖南省,永州市,零陵区,13607463859,unknown,
baidu,9eb421658a93ba6cfb22138a,懿芳牙科,湖南省永州市零陵区前进街91号,湖南省,永州市,零陵区,18574656662,unknown,
baidu,fa01e93761f69b37764ff19c,永州市中心医院(零陵院区)-门诊部,永州市零陵区潇水西路永州市中心医院(零陵院区),湖南省,永州市,零陵区,,unknown,
baidu,feb90a51b5f10fbc471a32d3,彭良红中西医结合诊所,湖南省永州市零陵区朝阳街道工农路97号,湖南省,永州市,零陵区,17375688686,unknown,
baidu,1b4f0f401f9e8a372b06ce60,永州市中心医院(零陵院区)-发热门诊,零陵区潇水西路151号,湖南省,永州市,零陵区,15307464662,unknown,
baidu,263652c7b18085dfa80dd890,健康之家,永州市零陵区正大街永州市第四人民医院西南侧约50米,湖南省,永州市,零陵区,,unknown,
baidu,df756cfc7f6fd2cb09a8d4ca,朝阳社区卫生服务中心,湖南省永州市零陵区和谐巷41号,湖南省,永州市,零陵区,,unknown,
baidu,e116be5424dc087bc81b95af,永州湘南中西医结合医院,湖南省永州市零陵区南津南路106号,湖南省,永州市,零陵区,(0746)6666031,unknown,
baidu,f633606a1de7bc4e0a69d9a9,九芝堂连锁(永州药店),湖南省永州市零陵区徐家井街道前进街1~3号,湖南省,永州市,零陵区,(0746)6223655,unknown,
baidu,dc69f1182b6a270c4151c073,益丰大药房(前进街店),前进街副食广场31-32号,湖南省,永州市,零陵区,(0746)6661783,unknown,
baidu,b67e4ba11ed2d6621c3894e5,湖南世康华堂,湖南省永州市零陵区工农路59号,湖南省,永州市,零陵区,,unknown,
baidu,f8fcac1085b3ad5b3fe231b5,健耳听力助听器(永州零陵店),湖南省永州市零陵区中山南路271-2号,湖南省,永州市,零陵区,4001511680,unknown,
baidu,33fbfa83e7d589c10af5eba9,永一药店(前进店),湖南省永州市零陵区南津渡街道人民路9号,湖南省,永州市,零陵区,(0746)6626297,unknown,
baidu,9a49ce2aab2d2110b9df8f28,悦颜诊所,永州市零陵区潇水西路西江苑,湖南省,永州市,零陵区,,unknown,
baidu,ed8941b3c2b4cdf440e192cc,福康自然康复中心,永州市零陵区工农路朝阳·奥林新城东南侧,湖南省,永州市,零陵区,,unknown,
baidu,cb2b667c808f729ca5da3960,平济堂大药房,湖南省永州市零陵区人民路13号,湖南省,永州市,零陵区,,unknown,
baidu,44f4dcf2da86c3fec71b753f,仁济堂,湖南永州市零陵区文星街25号,湖南省,永州市,零陵区,13874795431,unknown,
baidu,65b17923e5fb133fb64f54fa,永州星旺儿童康复中心(设计院校区),湖南省永州市零陵区徐家井办事处新建村129号建筑设计院3栋,湖南省,永州市,零陵区,,unknown,
baidu,41c2446d0fc1316586420e40,赵慧华诊所,永州市零陵区中山南路永州市三中西侧约50米,湖南省,永州市,零陵区,,unknown,
baidu,b2ac5c6e0f0e59b088b9885a,益丰大药房(中山北路店),湖南省永州市零陵区中山南路50号,湖南省,永州市,零陵区,,unknown,
baidu,dfd604bf14936b66cd06a4e7,朝阳社区卫生服务中心老渡口服务站,永州市零陵区潇水西路中国石化加油站(永州市桃江站)西北侧,湖南省,永州市,零陵区,,unknown,
baidu,404454505a8cc5a5b05c6a9c,徐家井社区卫生服务中心,湖南省永州市零陵区南津中路11号,湖南省,永州市,零陵区,,unknown,
baidu,f0635cf8f7b42aa1246e98dd,颐民诊所,永州市零陵区潇水西路中国石化加油站(永州市桃江站)西北侧约30米,湖南省,永州市,零陵区,,unknown,
baidu,5e7afd41ee598e33631c67c3,唐翠荣诊所,永州市零陵区杨梓塘路零陵区杨梓塘小学西南侧约140米,湖南省,永州市,零陵区,,unknown,
baidu,a7a6df889713b0cac51e5112,龚庭鼻炎馆(零陵店),永州市零陵区潇水中路永州市第四人民医院东北侧约30米,湖南省,永州市,零陵区,,unknown,
baidu,3ac0ba9bf987d82d715e80b6,永州汽车运输总公司职工医院,湖南省永州市零陵区黄古山路1号,湖南省,永州市,零陵区,(0746)6225695,unknown,
baidu,bbda1aa9ba500a498715412c,老百姓大药房(东山景区店),湖南省永州市零陵区人民路1号,湖南省,永州市,零陵区,(0746)8803053,unknown,
baidu,b1c556e858d4740fb4265573,恒康大药房(潇湘路分店),永州市零陵区萍阳南路158号零陵古城A区旭日巷A1-2号,湖南省,永州市,零陵区,(0746)6386889,unknown,
baidu,c3347f84349edc99b6f42ff3,刘太程诊所,湖南省永州市零陵区工农路132号,湖南省,永州市,零陵区,,unknown,
baidu,60359b5fd00ab370128824b5,老百姓大药房(潇湘码头店),湖南省永州市零陵区前进街105号,湖南省,永州市,零陵区,4006252888,unknown,
baidu,2174649f2284dd79d2f49ede,老百姓大药房(潇水西路店),湖南省永州市零陵区潇水西路1号,湖南省,永州市,零陵区,"(0746)8803002,15074616518",unknown,
baidu,e01e90e4f40420ecc929153f,爱眼城眼科诊所(视光中心店),芝山路18号,湖南省,永州市,零陵区,(0746)6666909,unknown,
baidu,0700329e2a6391150aa8d49b,恒康大药房(芝山路连锁分店),湖南省永州市零陵区芝山路11号永州中意国际广场F1,湖南省,永州市,零陵区,(0746)6667290,unknown,
baidu,61e3030193b33216a1a9341e,德裕大药房(利君堂店),永州市零陵区潇水西路西江苑,湖南省,永州市,零陵区,,unknown,
baidu,1fc86be3808ace7389db73f9,泽聆听力助听器(永州零陵店),湖南省永州市零陵区芝山路18号2号,湖南省,永州市,零陵区,(0746)2830118,unknown,
baidu,e0333e4072852c18d81318e3,艾灸养生馆,永州市零陵区中山南路中山佳园,湖南省,永州市,零陵区,,unknown,
baidu,fac1e076e1c73571157643d6,康联大药房(鑫富康店),湖南省永州市零陵区中山南路22号,湖南省,永州市,零陵区,,unknown,
baidu,6fde01fe4319caa32bb97cfc,康联大药房(永州中山南路店),湖南省永州市零陵区中山南路255号,湖南省,永州市,零陵区,,unknown,
baidu,32aac24832ae0340fe0eb06c,益生大药房(萍岛店),湖南省永州市零陵区萍阳北路85号,湖南省,永州市,零陵区,,unknown,
baidu,bae665392424e4e54151c072,永宏大药房,湖南省永州市零陵区芝山路63号,湖南省,永州市,零陵区,,unknown,
baidu,961ab276e05eb71cd7851f84,萍阳大药房,永州市零陵区萍阳南路零陵区杨梓塘小学北侧约90米,湖南省,永州市,零陵区,,unknown,
baidu,9a2e6348588b9a8e9d82ea4d,驾驶员机动车体检照相服务中心,湖南省永州市零陵区南津中路52号,湖南省,永州市,零陵区,,unknown,
baidu,6622a64e6e703a5f00ec01fd,德裕大药房(永州潇湘西苑店),湖南省永州市零陵区工农路28号,湖南省,永州市,零陵区,,unknown,
baidu,47fd0c85e5b1b4caabf729f3,老百姓大药房(永州御景豪园店),湖南省永州市零陵区东山路22号,湖南省,永州市,零陵区,(0746)8870424,unknown,
baidu,8ce1c3331111e90ae8e582fc,恒康大药房(顺安分店),湖南省永州市零陵区工农路97号,湖南省,永州市,零陵区,15007465801,unknown,
baidu,b63300fe9a839c0115948e90,芙蓉王保健中心,湖南省永州市零陵区永兴街119号,湖南省,永州市,零陵区,,unknown,
baidu,f2989ddaa0c7b7791188244c,益丰大药房(杨梓塘路店),湖南省永州市零陵区朝阳街道杨梓塘路21号,湖南省,永州市,零陵区,(0746)6660157,unknown,
baidu,1fd3a08e14023574f7eafc23,介寿堂,永州市零陵区工农路丽景华庭小区东南侧约50米,湖南省,永州市,零陵区,,unknown,
baidu,2b9e34ce2b4f6109c42ba1e1,唐氏中草药堂,永州市零陵区工农路朝阳嘉园,湖南省,永州市,零陵区,,unknown,
baidu,fa6c8423cb20dde10d3dda1e,恒康大药房(御景分店),湖南省永州市零陵区潇水中路170号,湖南省,永州市,零陵区,13974641665,unknown,
baidu,5c479dfd544e037342d63e12,益丰大药房(潇水西路店),永州市零陵区潇水西路永州市中心医院(零陵院区)北侧约30米,湖南省,永州市,零陵区,,unknown,
baidu,23116913d21b4bfd724b87a8,百万庄大药房,湖南省永州市零陵区潇水中路518号,湖南省,永州市,零陵区,15575399066,unknown,
baidu,94b8405bb5b41063d13ce38d,老百姓大药房(芝山店),湖南省永州市零陵区徐家井路38号,湖南省,永州市,零陵区,4006252888,unknown,
baidu,e3f71aed749758b7f5c59cc7,珍品轩参茸,永州市零陵区司马塘路永州商业城东北侧约40米,湖南省,永州市,零陵区,,unknown,
baidu,905ca15bb4fc0a9dd92f28aa,老百姓大药房(零陵汽车站分店),湖南省永州市零陵区黄古山路14号,湖南省,永州市,零陵区,"(0746)8803021,13574637229,13874398511",unknown,
baidu,4cc9c90f275b372c8b2fb548,益丰大药房(回龙塔路店),湖南省永州市零陵区回龙塔路回龙小区,湖南省,永州市,零陵区,"(0746)6661673,13927580971,15974070329",unknown,
baidu,1ee79f621a4de37888f15d4b,柳州市芊草堂大药房,永州市零陵区舜德路湖南科技学院,湖南省,永州市,零陵区,,unknown,
baidu,3326b6dbef6e0794882fb505,益丰大药房(永州南津中路店),湖南省永州市零陵区南津中路5号(中西结合医院旁),湖南省,永州市,零陵区,(0746)6234596,unknown,
baidu,850d56f8b6fe0d71931fc9f4,舒馨口腔(零陵店),湖南省永州市零陵区南津南路483号(区交通局对面、福寿亭旁),湖南省,永州市,零陵区,,unknown,
baidu,14496f5f0045f755931fc995,舞蹈皇后,湖南省永州市零陵区人民路1号王府井3层,湖南省,永州市,零陵区,"(0746)6611155,17763661155",unknown,
baidu,8fde79ccbc0e9fbf94ca07a8,永州市众森艺术学校,湖南省永州市零陵区城南路金源小区南侧约70米,湖南省,永州市,零陵区,,unknown,
baidu,d3abbed1207516f2a3acc4af,永州市零陵区图书馆柳宗元文化旅游区分馆,永州市零陵区萍阳南路零陵古城,湖南省,永州市,零陵区,,unknown,
baidu,de2e2b900fa8d9ee31870aae,天成教育,湖南省永州市零陵区中山北路13号,湖南省,永州市,零陵区,(0746)6785999,unknown,
baidu,ac613021eea26531a8f0cd6a,鼎艺书法,永州市零陵区中山南路中山佳园东北侧约40米,湖南省,永州市,零陵区,13574602303,unknown,
baidu,09011f5819caa4ac704b876c,永州市永新职业培训学校(零陵校区),湖南永州市零陵区中山北路2号,湖南省,永州市,零陵区,,unknown,
baidu,b36144b7089c87a30e3dda4a,一鸣教育,永州市零陵区中山南路零陵区千秋岭小学东南侧约30米,湖南省,永州市,零陵区,,unknown,
baidu,b1a26059070ec1f15810933e,谦艺坊,永州市零陵区愚溪南路柳宗元文化旅游区,湖南省,永州市,零陵区,18774680828,unknown,
baidu,4babb23389c50e5c61685844,多诺教育,湖南省永州市零陵区芝山路11号永州中意国际广场F1,湖南省,永州市,零陵区,,unknown,
baidu,ea736d3b442613b29868b4a4,锦程教育,永州市零陵区萍阳北路朝阳嘉园东南侧约240米,湖南省,永州市,零陵区,,unknown,
baidu,2cb173d1bd163b64f32d8397,优生优育优教全国连锁机构,永州市零陵区潇水西路西江苑东南侧约180米,湖南省,永州市,零陵区,,unknown,
baidu,8eec231229f328d98d77278e,酷龙跆拳道,湖南省永州市零陵区芝山路11号永州中意国际广场F1,湖南省,永州市,零陵区,15207467169,unknown,
baidu,f81667adc989ea6d82a12e71,唯美艺术中心,湖南省永州市零陵区萍阳南路64号,湖南省,永州市,零陵区,"18297893215,18942091239",unknown,
baidu,f1bbff9bac70ab83fea77855,米娅艺术文化中心,永州市零陵区萍阳南路桂园新村东侧约100米,湖南省,永州市,零陵区,,unknown,
baidu,bad4bd33c1f6316b734b87bb,首度美教,永州市零陵区永州时代旺角商业步行街BOBO新天地东南侧约120米,湖南省,永州市,零陵区,,unknown,
baidu,54aa43bb989b4208f6c59c44,金状元教育,湖南省永州市零陵区芝山路11号永州中意国际广场F1,湖南省,永州市,零陵区,15575201998,unknown,
baidu,95fac59371930d1f9e9d68d4,笑笑幼儿园,湖南省永州市零陵区南津渡街道正大街三多坊32号,湖南省,永州市,零陵区,"15226376833,15907471196",unknown,
baidu,c6af1ef64bfdcbd596f08cbd,童心幼儿园,湖南省永州市零陵区人民路7号,湖南省,永州市,零陵区,,unknown,
baidu,34e48508858ed7e1d8d89173,零陵区中山路小学(东门巷校区),湖南省永州市零陵区南津渡街道中山南路64号,湖南省,永州市,零陵区,,unknown,
baidu,bff8fa7d32dddea0c9213daf,湖南科技学院,湖南省永州市零陵区杨梓塘路130号,湖南省,永州市,零陵区,(0746)6382188,unknown,
baidu,5789c32ef5ee76e1940319ef,博思特教育,湖南省永州市零陵区杨梓塘路32号,湖南省,永州市,零陵区,,unknown,
baidu,ab91eb07b8021da0d92f28e0,零陵区千秋岭小学,湖南省永州市零陵区中山南路28号,湖南省,永州市,零陵区,,unknown,
baidu,d608d6e9fefc047376e5b6c3,湖南科技学院-明德楼,湖南省永州市零陵区朝阳街道杨梓塘路130号湖南科技学院,湖南省,永州市,零陵区,,unknown,
baidu,d74339b22885933c5b10930e,湖南科技学院驾校,湖南省永州市零陵区杨梓塘路130,湖南省,永州市,零陵区,,unknown,
baidu,686b70f24b857e14aecb6611,湖南科技学院-逸夫科教楼,湖南省永州市零陵区杨梓塘路130号,湖南省,永州市,零陵区,,unknown,
baidu,be1ea5efe36088bc14948e73,零陵区杨梓塘小学,湖南省永州市零陵区朝阳街道杨梓塘路32号,湖南省,永州市,零陵区,(0746)6663866,unknown,
baidu,00e98ac483a158267bf7964e,舞+舞艺术学校,永州市零陵区芝山路圣世山庄南侧约70米,湖南省,永州市,零陵区,15274655227,unknown,
baidu,ca52f4996b7e7d8f31f71db3,小太阳幼儿园(千秋岭分园),湖南省永州市零陵区中山南路195号,湖南省,永州市,零陵区,(0746)6669808,unknown,
baidu,fcba3b8aef545f492cb96dae,周末童画美术馆(顺祥金街校区),湖南省永州市零陵区顺祥金街(家家谊超市旁-三楼),湖南省,永州市,零陵区,18907462022,unknown,
baidu,6a86631c45a9f9a1c16c147c,潇湘画廊艺术培训学校,湖南省永州市零陵区百万庄路26号,湖南省,永州市,零陵区,18153389980,unknown,
baidu,50f7d146c5df26c473210ba8,永州市第五中学,湖南省永州市零陵区李家塘1号,湖南省,永州市,零陵区,,unknown,
baidu,48ffc86dc31332f7f6c59c0d,国乐笛萧馆,永州市零陵区潇水中路御景豪园,湖南省,永州市,零陵区,18374150206,unknown,
baidu,1bec5bec110890f278f796f9,湖南科技学院国学院,湖南省永州市零陵区杨梓塘路130号,湖南省,永州市,零陵区,,unknown,
baidu,9854f62b74105fdeab059d8c,星飞扬艺术学校,湖南省永州市零陵区徐家井何家坪路28号,湖南省,永州市,零陵区,,unknown,
baidu,6deee308e138c06929fc486d,永州市零陵区老年大学,湖南省永州市零陵区南津中路121号,湖南省,永州市,零陵区,,unknown,
baidu,f5250abf1f18ed6f10293569,湖南科技学院-学术交流中心,湖南永州市零陵区杨梓塘路130号,湖南省,永州市,零陵区,,unknown,
baidu,9094dc9cda6ba9fb15c90519,文化艺术家教,湖南省永州市零陵区杨梓塘路89号,湖南省,永州市,零陵区,18074690020,unknown,
baidu,5d1b2de4c6f981542811d143,舞之翼舞蹈培训中心,湖南省永州市零陵区芝山路73号圣世阳光青少年宫二楼,湖南省,永州市,零陵区,13907469282,unknown,
baidu,0a46dc0f6ee4095e316212a8,永州双元高吉技术学校,永州市零陵区七层坡路七层坡安置小区西北侧约50米,湖南省,永州市,零陵区,,unknown,
baidu,0523a1410ee3b01eb23c814b,永州徐家井小学,湖南省永州市零陵区徐家井路85号,湖南省,永州市,零陵区,,unknown,
baidu,909a83ff79e16e0e88f15d6e,蓝大教育,永州市零陵区圣世阳光上城商街圣世山庄东南侧,湖南省,永州市,零陵区,,unknown,
baidu,a71c8d5b953921a6364aae22,金话筒小主持人,永州市零陵区芝山路永州旺达零陵长途客运站西侧约60米,湖南省,永州市,零陵区,,unknown,
baidu,3c0b489fb6902bd7c26c14ed,科苑幼儿园,湖南省永州市零陵区杨梓塘路湖南科技学院教师公寓28栋,湖南省,永州市,零陵区,,unknown,
baidu,fc7675248b773bfa4f776ea8,安琪幼儿园(中山路),湖南省永州市零陵区中山南路24号,湖南省,永州市,零陵区,"(0746)6313118,15574626298",unknown,
baidu,886632691942beb88b2fb55f,唐朝画室,永州市零陵区羊角山路弘正教育永州幼教集团·羊角山分园东侧约80米,湖南省,永州市,零陵区,,unknown,
baidu,22a660d1f54c75412e47336f,学亿教育,永州市零陵区圣世阳光上城商街圣世山庄东侧约30米,湖南省,永州市,零陵区,13037478643,unknown,
baidu,259ef9a509a99eeb6340a9a5,缘溪愚,永州市零陵区羊角山路永州市三中东南侧约210米,湖南省,永州市,零陵区,,unknown,
baidu,e40131453b9dbed8b1077d86,湖南科技学院-博雅楼,湖南省永州市零陵区朝阳街道杨梓塘路130,湖南省,永州市,零陵区,,unknown,
baidu,62c02f950aad1760abf729bf,聚能教育(回龙小区),湖南省永州市零陵区七里店街道迴龙小区30栋,湖南省,永州市,零陵区,,unknown,
baidu,79c773f136eb561bf7231060,明星美育舞蹈(顺祥金街校区),湖南省永州市零陵区顺祥金街,湖南省,永州市,零陵区,17707468987,unknown,
baidu,f705656ab3573c0f9122e026,芒果叔叔口才(顺祥金街校区),湖南省永州市零陵区芝山路115号,湖南省,永州市,零陵区,"16680297949,19918272687",unknown,
baidu,9fb23b98d0654fe72b11d1d5,百灵文化艺术中心,永州市零陵区何家坪路永州旺达零陵长途客运站南侧约90米,湖南省,永州市,零陵区,,unknown,
baidu,6f99ff4dd3fff82d581093ca,零陵大队科目三考场,永州市零陵交警大队(零陵区南津中路52号),湖南省,永州市,零陵区,,unknown,
baidu,3e04947adfec04f3e215f903,阳光智慧爱,永州市零陵区中山南路永州市三中西侧约30米,湖南省,永州市,零陵区,18607465220,unknown,
baidu,481160d27e4ecff91f389432,湖南科技学院-弘毅楼,湖南永州市零陵区杨梓塘路130号,湖南省,永州市,零陵区,,unknown,
baidu,7356bc4f613336705a3ac8c9,湖南科技学院-创新创业学院,湖南省永州市零陵区杨梓塘路130号,湖南省,永州市,零陵区,,unknown,
baidu,ef29fa3225f2e489d5b74ec1,湖南科技学院-美术与艺术设计学院,湖南省永州市零陵区杨梓塘路130号,湖南省,永州市,零陵区,,unknown,
baidu,4da8101a9f187d3f871541ae,阳光天使幼儿园,湖南省永州市零陵区中山南路55号,湖南省,永州市,零陵区,18607465220,unknown,
baidu,297aa80564b5ea6bfea778ea,精华幼儿园,湖南省永州市零陵区工农路48号,湖南省,永州市,零陵区,,unknown,
baidu,3a0a78bd0dce3bfa621809ab,永州市第二技工学校,湖南省永州市零陵区南津南路344号,湖南省,永州市,零陵区,,unknown,
baidu,513eeddf093f7004fea7785c,美术楼,湖南省永州市零陵区舜德路,湖南省,永州市,零陵区,,unknown,
baidu,3574e8c39077a33dbb17e789,芳华云幼儿园,永州市零陵区工农路12号西山名流汇6栋,湖南省,永州市,零陵区,,unknown,
baidu,e2ea612e7fc1938e932ca31f,湖南科技学院-日新楼,湖南永州市零陵区杨梓塘路130号日新楼2楼423室,湖南省,永州市,零陵区,,unknown,
baidu,f02ed1a47b55ca5281a12ef9,大拇指幼儿园群防平台,永州市零陵区工农路大拇指幼儿园北侧,湖南省,永州市,零陵区,,unknown,
baidu,b5c92d66cdc0c10ccc06a41b,湖南科技学院-致远楼,杨梓塘路130号,湖南省,永州市,零陵区,,unknown,
baidu,6ab0669c543a21692102621f,贝伦幼儿园,湖南省永州市零陵区迴龙塔路零耐家园对面,湖南省,永州市,零陵区,17873360098,unknown,
baidu,5f7200407d57eb8814b54bd5,百灵幼儿园,永州市零陵区何家坪路与徐家井路交叉路口往东约90米,湖南省,永州市,零陵区,(0746)6666613,unknown,
baidu,cc8374c2e4e2e7694251c0e1,零陵区南津渡小学,湖南省永州市零陵区南津南路与百万庄8号路交叉口东150米,湖南省,永州市,零陵区,,unknown,
baidu,ea20958969e8fc4a43ab9a10,湖南科技学院-美术系,永州市零陵区舜德路湖南科技学院,湖南省,永州市,零陵区,,unknown,
baidu,53b7064717bbeb6ec8213d0c,萌娃养正幼儿园,湖南省永州市零陵区芝山路15号,湖南省,永州市,零陵区,"15574172600,18188922419",unknown,
baidu,ac300fb3142f6374a8f729bb,永州市零陵区蓓蕾幼儿园,湖南省永州市零陵区司马塘路深南大厦蓓蕾幼儿园,湖南省,永州市,零陵区,18075809637,unknown,
baidu,106bdf338335b05b110daad4,永州市零陵区建筑设计院,湖南省永州市零陵区潇水中路169号,湖南省,永州市,零陵区,,unknown,
baidu,89de2f2379678670fea77864,永州徐家井小学幼儿园,永州市零陵区东山路与徐家井路交叉路口往北约160米,湖南省,永州市,零陵区,,unknown,
baidu,dd5d6df14a4ec2b3cac3db87,湖南科技学院-图书馆,湖南省永州市零陵区杨梓塘路130号,湖南省,永州市,零陵区,(0746)6381444,unknown,
baidu,e85e25275c2b4f5394f08caf,永州市零陵区图书馆,湖南省永州市零陵区黄古山中路32号,湖南省,永州市,零陵区,,unknown,
baidu,240729654caeafb841d63e7c,永州精华实验学校中学部,湖南省永州市零陵区中山南路8号,湖南省,永州市,零陵区,,unknown,
baidu,b51935dec0706c43931fc919,永州博雅幼儿园,湖南省永州市零陵区东山路13号,湖南省,永州市,零陵区,,unknown,
baidu,41ef67c32dc10c45e5e9653f,贝贝宝幼儿园,朱家巷47号,湖南省,永州市,零陵区,13187108687,unknown,
baidu,b536028e0257c465d12dd66f,永州精华小学,湖南省永州市零陵区钴坶塘路18号,湖南省,永州市,零陵区,,unknown,
baidu,66ac54cd9126a738cc06a497,零陵区六小学,湖南省永州市零陵区柳子街小学,湖南省,永州市,零陵区,,unknown,
baidu,af05ff775d04f1b8c909f029,慧凡·培萃幼儿园,湖南省永州市零陵区菱角塘路32号,湖南省,永州市,零陵区,13085438547,unknown,
baidu,3f421900cec43457fbf0cbf0,启明星幼儿园,永州市零陵区回龙小区1栋,湖南省,永州市,零陵区,15874061299,unknown,
baidu,7b75dc8d9d9dbca025e0a013,启明星幼儿园(二分园),湖南省永州市零陵区百万庄162号,湖南省,永州市,零陵区,15974061299,unknown,
baidu,923ffd00026ba2b7d82f28af,永州职业技术学院师范学院-图书馆,永州市零陵区中山南路10号永州职业技术学院师范学院,湖南省,永州市,零陵区,,unknown,
baidu,4cf8d24e05d3eae49df779a8,永州朝阳中心小学,207国道附近,湖南省,永州市,零陵区,,unknown,
baidu,49a02a7a49d483402a201aa8,永州市农业科学研究所,湖南省永州市零陵区桃江路204号,湖南省,永州市,零陵区,,unknown,
baidu,79cceb36233b82891f5800a8,永州市朝阳中学,湖南省永州市零陵区河西中心医院南院后面,湖南省,永州市,零陵区,,unknown,
baidu,fd01461befbfe586a2046483,中山路小学分校(原永州市第五小学),永州市零陵区李家塘路永州五中西侧约50米,湖南省,永州市,零陵区,,unknown,
baidu,db6361f10e8a83bdf942b20d,天之骄幼儿园,湖南省永州市零陵区回龙塔路37号,湖南省,永州市,零陵区,"13787637891,15116501257",unknown,
baidu,c6c796965316e297c72ba158,新型幼儿园,湖南省永州市零陵区1号路150号,湖南省,永州市,零陵区,"13100220039,15581457688",unknown,
baidu,4edf9fbf4b9dea97cc06a473,永州精华实验学校,湖南永州市零陵区钴姆塘18号,湖南省,永州市,零陵区,,unknown,
baidu,97afd28658d3888cc61b75c6,育英幼儿园,百万庄162号,湖南省,永州市,零陵区,13874765726,unknown,
baidu,2ba1482f1066006c79b55cbc,零陵区图书馆理事会,永州市零陵区黄古山中路五金机电商城西侧约160米,湖南省,永州市,零陵区,,unknown,
baidu,dde3da412d9d35ca4251c071,永州市骨干幼儿园,永州市零陵区前进街与人民路交叉路口往东南约90米,湖南省,永州市,零陵区,(0746)6223366,unknown,
baidu,322e3e774ca2159f8f1a89f8,零陵科技学校-招生就业办公室,永州市零陵区潇水中路太谷酒店南侧约40米,湖南省,永州市,零陵区,,unknown,
baidu,0331f791cb027ec6f942b28e,幸福港湾礼仪文化中心,永州市零陵区徐家井路中央华府西北侧约40米,湖南省,永州市,零陵区,13787628988,unknown,
baidu,51e77b4fa20c9cfdb5147fe6,三点水清吧艺术培训音响出租,永州市零陵区杨梓塘街151号3楼,湖南省,永州市,零陵区,17707463726,unknown,
baidu,b82b201f58798b5a96ca072f,柳子街,13路;31路,湖南省,永州市,零陵区,,unknown,
baidu,e715bb307a3c112b774ff19f,游船码头(蘋洲书院店),永州市零陵区萍阳南路永州云溪上民宿东北侧约170米,湖南省,永州市,零陵区,(0746)2372272,unknown,
baidu,8e02b1a7adfb74ef9868b42c,零陵古城,13路;15路;25路;31路;303路;零陵高校至冷水滩商圈公交专线;旅1线,湖南省,永州市,零陵区,,unknown,
baidu,67ed3681ab70b7eea3acc4e1,零陵古城A区-地下停车场,永州市零陵区萍阳南路永州愚溪悦来客栈北侧约80米,湖南省,永州市,零陵区,,unknown,
baidu,2e870c1e61b15f8060180960,国家电网充电站(永州市零陵区供电公司站),湖南省永州市零陵区中山北路5号,湖南省,永州市,零陵区,(0746)6246791,unknown,
baidu,f8cc2f9161dc094232870a45,国家电网充电站(永州东山景区),湖南省永州市零陵区中山北路5号,湖南省,永州市,零陵区,95598,unknown,
baidu,b0078d8e3fefbc15ed74f8d3,东门巷,1路;3路;9路;15路;985路校园专线,湖南省,永州市,零陵区,,unknown,
baidu,86330d18034b2bed1894c667,烟厂岔路口,5路;7路;11路[内环];11路[外环];17路;27路;冷水滩-珠山;零陵-坝上-白竹塘;零陵-长塘;零陵-长塘-毛溪桥;零陵至市民中心专线车,湖南省,永州市,零陵区,,unknown,
baidu,74e5320097e9bdab04fef5d9,美宿欢漫酒店(零陵古城步行街店)北侧停车场,永州市零陵区芝山路BOBO新天地东侧,湖南省,永州市,零陵区,,unknown,
baidu,d05f8f618f96400c9d95deb0,永州市第四人民医院-地上停车场,湖南省永州市零陵区前进街第四人民医院,湖南省,永州市,零陵区,,unknown,
baidu,b8f41464f2d59b69a8059d3d,河东桥头,7路;15路;17路;25路;31路;零陵至市民中心专线车;旅1线,湖南省,永州市,零陵区,,unknown,
baidu,a167b6f4422b160e5e0d028c,潇湘码头,1路;7路;17路;21路;21路A;25路;31路;985路校园专线;零陵至市民中心专线车;旅1线,湖南省,永州市,零陵区,,unknown,
baidu,d0c961a18b031cd72a02e1b2,停车场,永州市零陵区潇水西路永州市第四人民医院西北侧约110米,湖南省,永州市,零陵区,,unknown,
baidu,a78652998c0b6a55882fb5c6,永州怀素中心汽车站,永州市零陵区徐家井路与潇水路交叉口西北150米,湖南省,永州市,零陵区,,unknown,
baidu,25097036404022a7774ff14c,零陵分局刑事侦察大队-停车场,永州市新街零陵七层坡小学北侧约30米,湖南省,永州市,零陵区,,unknown,
baidu,376f3317b3510bcb3de23113,怀素公园,5路;9路;11路[内环];11路[外环];13路;17路;21路;21路A;27路;双牌-零陵,湖南省,永州市,零陵区,,unknown,
baidu,9f3572c6c13d9f30ca1b95dc,第四人民医院,5路;7路;11路[内环];11路[外环];13路;15路;17路;25路;27路;31路;零陵-坝上-白竹塘;零陵-长塘;零陵-长塘-毛溪桥;零陵至市民中心专线车;旅1线,湖南省,永州市,零陵区,,unknown,
baidu,0b7afb2ac45a58a76e20b996,永州市中心医院(零陵院区)-地上停车场,湖南省永州市零陵区潇水西路151号,湖南省,永州市,零陵区,,unknown,
baidu,f3c43a784a10cf621e1d1172,娘子岭水厂,13路;31路;303路,湖南省,永州市,零陵区,,unknown,
baidu,a91bbf905a6f6fe0aaf0cd3d,东山景区,1路;3路;9路;15路;985路校园专线,湖南省,永州市,零陵区,,unknown,
baidu,f5318d2539073bcd01ec0196,移动公司,1路;3路;7路;15路;21路;21路A;25路;31路;985路校园专线;零陵至市民中心专线车,湖南省,永州市,零陵区,,unknown,
baidu,669554eac98f5bdb3fe231f3,红豆路口,15路;25路,湖南省,永州市,零陵区,,unknown,
baidu,7991a58d5b5b6d1643ab9af0,愚溪桥,13路;31路,湖南省,永州市,零陵区,,unknown,
baidu,3039ad43d91c8ee6b8bd639d,中医院,1路;9路;15路;985路校园专线,湖南省,永州市,零陵区,,unknown,
baidu,03f4cafc083fa53b2fb17e0a,公交公司,5路;7路;27路;东安-零陵;零陵至市民中心专线车,湖南省,永州市,零陵区,,unknown,
baidu,a123b9350ec8f846df1e5297,朝阳派出所,15路;25路,湖南省,永州市,零陵区,,unknown,
baidu,113d8c5ada53af8471210bca,中国工商银行(永州零陵支行)-停车场,永州市零陵区人民路永州市第四人民医院东南侧约100米,湖南省,永州市,零陵区,,unknown,
baidu,38521da159d08d6980a00c89,太平门,3路;9路;15路;985路校园专线,湖南省,永州市,零陵区,,unknown,
baidu,50631fd665d74bba80a00cfb,河西桥下,15路;25路,湖南省,永州市,零陵区,,unknown,
baidu,a96eea57cbe015184bfc8de4,三中,1路;3路;9路;15路;985路校园专线,湖南省,永州市,零陵区,,unknown,
baidu,77535fae3d4ffbd3260bd007,中心医院(南院),5路;7路;11路[内环];11路[外环];17路;27路;零陵-坝上-白竹塘;零陵-长塘;零陵-长塘-毛溪桥;零陵至市民中心专线车,湖南省,永州市,零陵区,,unknown,
baidu,76f254ef2e7bd0a8d6b74e6c,湖南科技学院,13路;31路;303路;零陵高校至冷水滩商圈公交专线;旅1线,湖南省,永州市,零陵区,,unknown,
baidu,76897b02b1a06ad9250bd0ed,云快充充电站(零陵区顺祥金街快速充电站),永州市零陵区迴龙塔路顺祥金街,湖南省,永州市,零陵区,4008288517,unknown,
baidu,40f60755ddf16360d22dd68f,停车场,永州市零陵区潇水中路永州市第四人民医院北侧约50米,湖南省,永州市,零陵区,,unknown,
baidu,bf29b70297cdb19908b93aaf,永州旺达零陵长途客运站,湖南省永州市零陵区芝山路36号,湖南省,永州市,零陵区,,unknown,
baidu,44f81c162e9d92cdd2f49e43,零陵卷烟厂,15路;25路;303路,湖南省,永州市,零陵区,,unknown,
baidu,acf11771c070cfbb593ac837,零陵楼,5路;9路;11路[外环];13路;17路;21路;21路A;零陵-坝上-白竹塘;零陵-长塘;零陵-长塘-毛溪桥,湖南省,永州市,零陵区,,unknown,
baidu,00ca6798ce8a50219a005015,永州市中心血站-停车场,永州市零陵区中山南路257号,湖南省,永州市,零陵区,,unknown,
baidu,25d45ec5e9791880f7e73b6a,停车场,永州市零陵区中山南路七层坡安置小区,湖南省,永州市,零陵区,,unknown,
baidu,4cdf1d337114bd3ef23cba34,商业城,1路;3路;7路;17路;21路;21路A;25路;31路;985路校园专线;零陵至市民中心专线车;旅1线,湖南省,永州市,零陵区,,unknown,
baidu,ba306375107de041581093eb,永州萍洲文化广场-停车场,永州市零陵区芝山路永州旺达零陵长途客运站西南侧,湖南省,永州市,零陵区,,unknown,
baidu,e91b2889e63c85ced1f49e72,永州朝阳岩公园-停车场,永州市零陵区萍阳南路1号,湖南省,永州市,零陵区,,unknown,
baidu,ab745ec3ec0f5deb25d2bb9b,旺角步行街,3路;7路;21路;21路A;25路;31路;985路校园专线;零陵至市民中心专线车;旅1线,湖南省,永州市,零陵区,,unknown,
baidu,4cddbeddf976d073ea56fa76,永州商业城-地上停车场,永州市零陵区芝山路永州商业城,湖南省,永州市,零陵区,,unknown,
baidu,0a66a603b563649db72655cb,东山景区(北门),5路;9路;11路[内环];13路;21路;21路A;27路;零陵-坝上-白竹塘;零陵-长塘;零陵-长塘-毛溪桥,湖南省,永州市,零陵区,,unknown,
baidu,8e46f487e0f60115a4da3975,朝阳办事处,5路;7路;11路[内环];11路[外环];17路;27路;零陵-坝上-白竹塘;零陵-长塘;零陵-长塘-毛溪桥;零陵至市民中心专线车,湖南省,永州市,零陵区,,unknown,
baidu,90028c938b33ee3cf21937fe,徐家井市场,1路;3路;7路;17路;21路;21路A;25路;31路;985路校园专线;零陵至市民中心专线车;旅1线,湖南省,永州市,零陵区,,unknown,
baidu,2cb066fa0144eb7a8d772713,中国银行(零陵支行)-停车场,永州市零陵区中山北路财记大酒店东南侧约80米,湖南省,永州市,零陵区,,unknown,
baidu,9120b307bdfc832a100daa6b,中国石油加油站(广西站),永州市零陵区桃江村322国道旁,湖南省,永州市,零陵区,,unknown,
baidu,6e03ca8d70af576aad31e5a3,小桔充电充电站(永州市零陵区菱角塘路充电站),湖南省永州市零陵区徐家井街道菱角塘路31号,湖南省,永州市,零陵区,4000610999,unknown,
baidu,517c204e61905483b45f1e0f,潇湘御园-停车场,永州市零陵区潇水西路95号,湖南省,永州市,零陵区,,unknown,
baidu,e5e54be5c8e3faed6e20b916,中意国际广场南侧-停车场,永州市零陵区前进街垠地广场西南侧,湖南省,永州市,零陵区,,unknown,
baidu,471ec406d58b63fff82213e5,中意国际广场东侧-停车场,永州市零陵区芝山路垠地广场东北侧约30米,湖南省,永州市,零陵区,,unknown,
baidu,88ef0b63065973a59fec2b8c,百万庄,5路;9路;11路[内环];11路[外环];13路;17路;21路;21路A;27路;零陵-何仙观;零陵-双牌;零陵-周家大院;双牌-零陵,湖南省,永州市,零陵区,,unknown,
baidu,45dda1d7c115e3f321f01786,区交警大队,1路;5路;9路;11路[外环];13路;17路;301路;306路,湖南省,永州市,零陵区,,unknown,
baidu,e5766717dd6129519de3218d,永州市零陵潇水国家湿地公园管理局-停车场,永州市零陵区中山南路58号,湖南省,永州市,零陵区,,unknown,
baidu,cdeee95c9bcd08fe8b2fb547,中国移动(中山北路店)-停车场,永州市零陵区中山北路太谷酒店东侧约140米,湖南省,永州市,零陵区,,unknown,
baidu,3646f4cb1c5d8e378505bf75,麻园路口,3路;5路;9路;11路[内环];13路;27路,湖南省,永州市,零陵区,,unknown,
baidu,931329f12b7665c235b06c5f,永州市中心医院(零陵院区)东南侧-停车场,永州市零陵区柳子街永州市中心医院(零陵院区)东侧,湖南省,永州市,零陵区,,unknown,
baidu,0923ea21130564c715a19083,国家电网充电站(永州零陵区政府充电站),永州零陵区南津中路9号零陵区政府停车场,湖南省,永州市,零陵区,95598,unknown,
baidu,18179e1c2fca5acd0a69d9a8,朝阳卫生院,17路;27路;东安-零陵;零陵-坝上-白竹塘;零陵-长塘;零陵-长塘-毛溪桥,湖南省,永州市,零陵区,,unknown,
baidu,418d92d00de3365c8c77277b,停车场,永州市零陵区潇水中路博雅幼儿园西南侧约170米,湖南省,永州市,零陵区,,unknown,
baidu,ada85c2b0ef475714207c1b7,停车场,永州市零陵区潇水中路博雅幼儿园西侧约150米,湖南省,永州市,零陵区,,unknown,
baidu,3391b9c6a44c54ed0bccdd4a,区政府,3路;5路;9路;11路[内环];13路;27路;301路;306路,湖南省,永州市,零陵区,,unknown,
baidu,1e0cdc7a6314aec8b34c499b,永州市第五中学-停车场,湖南省永州市零陵区李家塘1号,湖南省,永州市,零陵区,,unknown,
baidu,e4024c0bac21ccf81e1d1128,迴龙小区,25路;985路校园专线;零陵-茶林,湖南省,永州市,零陵区,,unknown,
baidu,88ad0ce442509a0121f017ec,波波新天地商业步行街-停车场,永州市零陵区芝山路BOBO新天地,湖南省,永州市,零陵区,,unknown,
baidu,55fa2c0b3bfd332d1de999a8,中国石油加油站(永州南津南路站),永州市零陵区南津南路99号,湖南省,永州市,零陵区,,unknown,
baidu,5d7d0d87b5a515da4f6d46ec,南津渡大桥北,1路;3路;33路;301路;BRT302路;冷水滩-双牌江村;零陵-何仙观;零陵-双牌;零陵-周家大院;双牌-零陵,湖南省,永州市,零陵区,,unknown,
baidu,4713b50d311cdbfcfbdc8590,西山雅苑-停车场,永州市零陵区工农路丽景华庭小区西南侧,湖南省,永州市,零陵区,,unknown,
baidu,6942958b709ebe13c4f0255f,永州市零陵区自然资源局-地上停车场,永州市零陵区潇水中路191号,湖南省,永州市,零陵区,,unknown,
baidu,66be150bce18628c3686f439,商业城小区西北侧临时停车点,芝山路29号,湖南省,永州市,零陵区,,unknown,
baidu,f7832997d53a8e26d23ce32f,零陵汽车站,1路;3路;7路;13路;17路;21路;21路A;31路;零陵-茶林;零陵-大力湾;零陵-大庆坪;零陵-大忠桥;零陵-福田[太平铺方向];零陵-福田[桐梓坪方向];零陵-据江寺;零陵-克路;零陵-平福头;零陵-祁阳;零陵-煽铁坪;,湖南省,永州市,零陵区,,unknown,
baidu,6f276bb4511006d7f5c59c72,永州市第三中学-停车场,永州市中山南路永州市三中,湖南省,永州市,零陵区,,unknown,
baidu,c4f0bdbf907fa741ce04ef0c,永州市零陵区朝阳办事处西南侧-停车场,永州市零陵区潇水西路中国石化加油站(永州市桃江站)东北侧约170米,湖南省,永州市,零陵区,,unknown,
baidu,e2ab1e45c884e8e9c9e33ce0,湖南省永州市华厦建筑工程有限责任公司住宅楼-停车场,永州市零陵区工农路123号,湖南省,永州市,零陵区,,unknown,
baidu,9c8f559df899f176bb17e72e,南门口,1路;3路;9路;15路;985路校园专线,湖南省,永州市,零陵区,,unknown,
baidu,89fc4a82615cc9fd9e82eaf3,永州市博物馆-停车场,湖南省永州市零陵区南津南路永州市博物馆,湖南省,永州市,零陵区,,unknown,
baidu,d7bb3b6943edf6860f0a70db,市政广场,3路;33路;301路;306路;BRT302路;零陵-何仙观;零陵-双牌;零陵-周家大院,湖南省,永州市,零陵区,,unknown,
baidu,20b82a319bffe859e81e97e8,水墨兰庭-停车场,永州市零陵区芝山北路回龙小区北侧,湖南省,永州市,零陵区,,unknown,
baidu,2176664df6c4a9874e6d4688,南津渡派出所,1路;33路;301路;306路;BRT302路;冷水滩-双牌江村;零陵-何仙观;零陵-周家大院;双牌-零陵,湖南省,永州市,零陵区,,unknown,
baidu,fbf185637907a84559109394,怀素中心汽车站,怀素中心汽车站-建华厂;怀素中心汽车站-排龙山;怀素中心汽车站-梳子铺;怀素中心汽车站-西塘观;零陵-坝上-白竹塘;零陵-长塘;零陵-长塘-毛溪桥;零陵-何仙观;零陵-菱角塘;零陵-鸟塘铺;零陵-排龙,湖南省,永州市,零陵区,,unknown,
baidu,ca08f13491dbfc9eb6f42f0a,永州南津渡汽车站,永州市零陵区南津南路与羊角山路交叉路口往西北约100米,湖南省,永州市,零陵区,,unknown,
baidu,8461d42860147447d5b74ea7,区教育局,21路;21路A;33路;BRT302路,湖南省,永州市,零陵区,,unknown,
baidu,4719916ad71ea5794354d7a3,迴龙塔路口,13路,湖南省,永州市,零陵区,,unknown,
baidu,859c6ff05fea175df82d6163,华阳学校,11路[内环];11路[外环],湖南省,永州市,零陵区,,unknown,
baidu,3217169e5e8aa24b4f6d46ae,桃江加油站,11路[内环];11路[外环],湖南省,永州市,零陵区,,unknown,
baidu,eee13d33c208ca1817b54b12,区粮食局,5路;9路;11路[内环];11路[外环];13路;17路;21路;21路A;27路;零陵-何仙观;零陵-双牌;零陵-周家大院;双牌-零陵,湖南省,永州市,零陵区,,unknown,
baidu,a46e24bf61e6f51925d2bbb1,区交通局,1路;3路;33路;零陵-何仙观;零陵-双牌;零陵-周家大院;双牌-零陵,湖南省,永州市,零陵区,,unknown,
baidu,508fd0e550c003be16c905ca,朝阳首末站,13路;303路;旅1线,湖南省,永州市,零陵区,,unknown,
baidu,15833819fd3e214b1f389472,零陵汽车站(临时),冷水滩-珠山,湖南省,永州市,零陵区,,unknown,
baidu,e786a9b6e5d4cc94ae080f13,朝阳公园首末站,13路;31路;旅1线,湖南省,永州市,零陵区,,unknown,
baidu,00e066cdefac26a7acee7a24,迴龙小区(西门),13路,湖南省,永州市,零陵区,,unknown,
baidu,c3b2670e85870812c8213d66,零耐嘉园,13路,湖南省,永州市,零陵区,,unknown,
baidu,d62284b6b70d48c29ef77909,老渡口社区,15路;25路,湖南省,永州市,零陵区,,unknown,
baidu,6176f946572ad60e1c3894c0,愚溪桥,永州市零陵区柳子街86号柳宗元文化旅游区,湖南省,永州市,零陵区,,unknown,
baidu,40a77909873938d326d2bb15,柳子桥,永州市零陵区柳子街86号柳宗元文化旅游区,湖南省,永州市,零陵区,,unknown,
baidu,5b03c30d36aa8db2acee7abc,零陵区城乡居民医保管理服务中心停车场,永州市零陵区中山南路零陵区千秋岭小学东侧约30米,湖南省,永州市,零陵区,,unknown,
baidu,dbea9bea27039e9f871541a1,国家税务总局永州市零陵区税务局中山南路办公区-停车场,永州市零陵区中山南路193号,湖南省,永州市,零陵区,,unknown,
baidu,eb70a5c4a966c712ed74f870,永州市零陵区农业委员会-停车场,永州市零陵区南津南路南电北苑园西北侧约90米,湖南省,永州市,零陵区,,unknown,
