source,bd_uid,name,address,province,city,area,tel,poi_type,tag
baidu,9102da3f2207dd5216a19039,顾亭酒家·始于1999(相门店),双塔街道干将东路甲辰巷6号(相门地铁站1号出口对面),江苏省,苏州市,姑苏区,18915587630,unknown,
baidu,271da52afc1a514fb6265566,乐忻粤秀(仁恒仓街商业广场店),仁恒仓街商业广场LG1层112号、116号（近相门站2号口）,江苏省,苏州市,姑苏区,(0512)67738808,unknown,
baidu,1d7c5655cdb2f2c1c5effb81,方塔餐厅,干将东路333号(苏州大学北门),江苏省,苏州市,姑苏区,,unknown,
baidu,ba0a00b092c12ca2c2f1cfee,北疆饭店(干将路店),干将东路428号北疆饭店,江苏省,苏州市,姑苏区,(0512)67557020,unknown,
baidu,5635731475b19d2ce856fa29,Blueglass酸奶(苏州仓街商业广场店),仓街1号仓街商业广场LG1层124号（负一楼lululemon楼下）,江苏省,苏州市,姑苏区,18051221082,unknown,
baidu,3e8bebdf238aa4afbfa240df,茉莉奶白(苏州仁恒仓街店),干将东路仁恒仓街商业广场负一楼LG1-126号,江苏省,苏州市,姑苏区,18913527221,unknown,
baidu,9fae163187d255a151e5c572,细记港九大牌档(仁恒仓街店),仓街1号仁恒仓街商业广场负一层122室,江苏省,苏州市,姑苏区,(0512)67709211,unknown,
baidu,ec83cf0ac99d067eabf72941,同仁四季椰子鸡(苏州仁恒仓街店),平江街道仓街1号仓街商业广场LG1层131号商铺,江苏省,苏州市,姑苏区,(0512)69155789,unknown,
baidu,d2f63a223cf3473a0482c222,赵四喜糖水铺,双塔街道干将东路458号（赵四喜）,江苏省,苏州市,姑苏区,18801865673,unknown,
baidu,e22c705f9320d2d514b54b8c,苏州大学-学生食堂,干将路333号(相门地铁站1号口步行220米),江苏省,苏州市,姑苏区,,unknown,
baidu,c1cc22ccfe8ac9e4843304bf,巴蜀园川菜(相门店),江苏省苏州市姑苏区莫邪路1088号苏大后庄学生公寓18幢13室,江苏省,苏州市,姑苏区,15850050345,unknown,
baidu,e0b16f263a5d5ad28b2fb554,滨寿司(仁恒仓街店),仓街1号仁恒仓街商业广场负1层150-151号商铺,江苏省,苏州市,姑苏区,(0512)65573611,unknown,
baidu,ef773a0f9e6f482d22022031,博雅烧烤(相门后庄店),莫邪路1094号,江苏省,苏州市,姑苏区,18260444777,unknown,
baidu,a775115d7616581d8605bfb6,Pennehut畔尼意面(仁恒仓街店),干将东路仓街商业广场LG1层148号,江苏省,苏州市,姑苏区,18006255279,unknown,
baidu,b7d05edd8a3600e7210220da,艾赛提新疆馕饼,干将东路与仓街交叉口西60米,江苏省,苏州市,姑苏区,18609989031,unknown,
baidu,bd5046e83ce09c58d62ce2bf,得月楼(观前店),平江街道太监弄43号(人民商场东行80米),江苏省,苏州市,姑苏区,(0512)65222230,unknown,
baidu,207021aa8e4c63afe311034d,BAKER&SPICE(仓街店),仓街1号4号楼第G层161号商铺,江苏省,苏州市,姑苏区,19941957303,unknown,
baidu,a3b9bd47513974383310af3d,嘉琪包子,干将东路460号(相门地铁站3号口步行200米),江苏省,苏州市,姑苏区,15151498997,unknown,
baidu,d0399fda9acc0106e0110303,麦当劳(苏州仁恒仓街店),干将东路仓街商业广场LG1层第152号商铺,江苏省,苏州市,姑苏区,(0512)67666979,unknown,
baidu,0c4f4ddb1afcbbf410882456,DQ·蛋糕·冰淇淋(仓街店),平江街道仓街1号仓街商业广场第LG1层153号商铺,江苏省,苏州市,姑苏区,17712699772,unknown,
baidu,a015671f34a50aa057bffffa,嘟卡嘟卡自助旋转小火锅(莫邪路店),莫邪路1074号,江苏省,苏州市,姑苏区,18362665218,unknown,
baidu,9ff680cb210108a09e9d6873,大运饭店,苏州市姑苏区干将东路东舟公寓南门东侧约70米,江苏省,苏州市,姑苏区,,unknown,
baidu,9b6628f6c303c5062fb908bb,苏州北疆饭店大堂,江苏省苏州市姑苏区平江街道干将东路432号,江苏省,苏州市,姑苏区,,unknown,
baidu,f29a155a767356c4f7b9168e,星巴克(苏州干将路店),干将东路461号,江苏省,苏州市,姑苏区,(0512)62530086,unknown,
baidu,3c4c681cd97e5c0532870aaa,池奈·日式咖喱蛋包饭(苏州仁恒仓街店),平江街道仓街1号仓街商业广场项目LG1层128号商铺,江苏省,苏州市,姑苏区,13382533979,unknown,
baidu,d5dc2b86b6cee8b11e1d11a7,Très TenTanT太当当(仓街店),平江街道仓街1号仁恒仓街商业广场LG1-127,江苏省,苏州市,姑苏区,,unknown,
baidu,abfaa08a9d9d5806d518b702,赛百味SUBWAY(苏州仁恒仓街店),仓街1号仓街商业广场项目第LG1层156号商铺,江苏省,苏州市,姑苏区,19121171309,unknown,
baidu,e4725881e500ff822ce67b52,欢喜(茶事),相门古城墙下B1号,江苏省,苏州市,姑苏区,,unknown,
baidu,e95b0575a1c48152cc06a4a2,二哥东北菜馆羊蝎子火锅(相门后庄店),莫邪路1066号,江苏省,苏州市,姑苏区,13654501986,unknown,
baidu,f5504d8c032ee27407026fc0,忆品苏酒酿(平江店),仓街30号,江苏省,苏州市,姑苏区,15895582294,unknown,
baidu,c7502e0df63c904bd23ce3bf,GODIVA(苏州仁恒仓街店),平江街道仓街1号仁恒仓街商业广场5号楼G层178号商铺,江苏省,苏州市,姑苏区,(0512)65301660,unknown,
baidu,08ca0e355eaffd8c8f55ec3a,M Stand(苏州仁恒仓街店),干将东路仁恒仓街商业广场LG1层125号（下沉式广场南侧）,江苏省,苏州市,姑苏区,16628742253,unknown,
baidu,fcadca5ee1307f968e77273b,珍珠饭店,珍珠弄9号,江苏省,苏州市,姑苏区,(0512)65232403,unknown,
baidu,fee633b9d8c35f7d9e9d6828,藤州菜煎饼烤冷面,莫邪路1076号滕州菜煎饼烤冷面,江苏省,苏州市,姑苏区,"15062409236,19863295816",unknown,
baidu,55318c9cd7e792bff4231062,老坛重庆酸辣粉(相门后庄店),莫邪路1022号（达顺网吧旁，相门桥公交站）,江苏省,苏州市,姑苏区,13584855354,unknown,
baidu,492e07c1d78229e64207c1d4,乐虾拉面(仓街店),仓街1号仓街商场LG1层149号（KKV对面）,江苏省,苏州市,姑苏区,(0512)69588848,unknown,
baidu,d2d2a8ae095ba46f0869d992,FASCINO BAKERY(苏州仓街店),仓街1号仁恒仓街商业广场5号楼G层179号,江苏省,苏州市,姑苏区,18013056458,unknown,
baidu,a71943451710c96a82a12ece,饭菜擂起来·擂椒拌饭(干将东路店),干将东路636路1层1号位,江苏省,苏州市,姑苏区,,unknown,
baidu,31f9dfa0f6e7359100294f48,Grid Coffee(仁恒仓街店),仓街1号仓街商业广场1层G180号商铺,江苏省,苏州市,姑苏区,17813654225,unknown,
baidu,6408bc6baa64dab4b11e360a,小燕家苏式绿豆汤(双塔店),石匠弄42号,江苏省,苏州市,姑苏区,13962325899,unknown,
baidu,e19ded2108aa642c2fe67b8d,Peet's Coffee皮爷咖啡(苏州仁恒仓街店),仓街1号仓街商业广场项目7号楼第G层186号商铺,江苏省,苏州市,姑苏区,"13812656953,17714054855",unknown,
baidu,d99bbaca02a9b54b88db7309,日昇兴糕团店,石匠弄32号钟楼新村底商,江苏省,苏州市,姑苏区,15250076736,unknown,
baidu,d3c522178d14ecc9b13c8118,外婆家土灶台(莫邪路店),江苏省苏州市姑苏区双塔街道莫邪路1040号,江苏省,苏州市,姑苏区,18696818777,unknown,
baidu,2858f3750dd515773062126a,奥博餐饮管理有限公司,苏州市姑苏区莫邪路1094号,江苏省,苏州市,姑苏区,18260444777,unknown,
baidu,3269966200a5eedf00ff2da7,武汉黑鸭(莫邪路店),莫邪路苏大后庄学生公寓17幢08号,江苏省,苏州市,姑苏区,17095546686,unknown,
baidu,7547629fe135b7fcf03cbafd,钱小匠爆汁牛肉饭(苏大后庄店),莫邪路1062号,江苏省,苏州市,姑苏区,13913175907,unknown,
baidu,643469dcd0102f7e25e0a046,北京老吴烤鸭店(双塔菜场店),石匠弄25号,江苏省,苏州市,姑苏区,13401466514,unknown,
baidu,d3a242c385500f8c1894c6b4,棠月豆花(双塔市集店),双塔街道定慧寺巷与石匠弄交叉口双塔市集（江南米造局旁）,江苏省,苏州市,姑苏区,18013949836,unknown,
baidu,f16f5c65a620b44182288a09,海底捞火锅(观前街店),观前街41弄韩国购物城4楼,江苏省,苏州市,姑苏区,"(0512)68636222,(0512)68637111",unknown,
baidu,f204f16af32c103bdc1e5221,D3 CAFE(平江店),仓街44号,江苏省,苏州市,姑苏区,19901459912,unknown,
baidu,73fac157a2a72f33a1046457,淮南牛肉汤(相门后庄店),双塔街道相门后庄17幢07号,江苏省,苏州市,姑苏区,18625278568,unknown,
baidu,d7f2eda7b0bd1235f4eafc1b,苏州观前平江美居餐厅,干将东路535号平江美居酒店内一楼餐厅,江苏省,苏州市,姑苏区,18550502686,unknown,
baidu,0152065a80e59ffd3517dcf1,前楼牛肉汤(莫邪路店),相门绿郡花苑(后庄桥)1082号,江苏省,苏州市,姑苏区,13140849512,unknown,
baidu,4b7cfba7bee28f55da2f285b,东方卤菜熟食店(双塔分部),唐家巷1号,江苏省,苏州市,姑苏区,,unknown,
baidu,c116f961aea194813913fd04,川菜馆(相门后庄店),苏大后庄学生公寓18幢14室,江苏省,苏州市,姑苏区,18625014839,unknown,
baidu,21f6bc583aa58e24d12dd60b,祥鑫饮食店,十全街783号,江苏省,苏州市,姑苏区,17714066783,unknown,
baidu,a14c87be7f4939844107c15d,曼年养生粥,江苏省苏州市姑苏区莫邪路1046号,江苏省,苏州市,姑苏区,,unknown,
baidu,a12baa406abd204fe956fa86,美味斋(西北街店),西北街111号,江苏省,苏州市,姑苏区,(0512)67535030,unknown,
baidu,f186e57d189cf0251576430b,康盛卤菜店,官太尉桥石匠弄33号,江苏省,苏州市,姑苏区,"13706202813,13812781997",unknown,
baidu,6069e7ccae77f73749fd3f47,双塔顾甜白斩鸡(双塔店),石匠弄双塔市集,江苏省,苏州市,姑苏区,15950017328,unknown,
baidu,7d370c91a0d5b0a4c26c14e5,李百蟹·蟹黄面(观前街店),"观前街道蔡汇河头14号（姑苏八点半斜对面,韩国购物城旁）",江苏省,苏州市,姑苏区,"(0512)68666366,18269950812",unknown,
baidu,fa7da3e80bcf0e7b42d63e25,哑巴生煎(姑苏区苏安新村店),平江街道苏安新村24幢车库对面底商（近苏安新村农贸市场）,江苏省,苏州市,苏州工业园区,(0512)67410674,unknown,
baidu,c0e2231bb7a5551cc16c1413,EN MM CO(仓街店),平江街道仓街1号6号楼G层183商铺,江苏省,苏州市,姑苏区,13402577940,unknown,
baidu,5caea1cd73802810d518b765,哑巴生煎(临顿路店),平江街道临顿路温家岸12号,江苏省,苏州市,姑苏区,,unknown,
baidu,746346c52ed60d923010af24,小食稻米纪(双塔市场店),石匠弄双塔菜场小吃城12号铺,江苏省,苏州市,姑苏区,13338004941,unknown,
baidu,3c0ea7c527e42c85faf0cbf4,伟记奥面馆(白塔东路店),白塔东路266号,江苏省,苏州市,姑苏区,18963653802,unknown,
baidu,f952069712ebe8c801294f69,吴越荣记·苏州菜(娄门景区店),娄门路娄门城墙文化休闲商业街b2号,江苏省,苏州市,姑苏区,"(0512)67077566,18013135528",unknown,
baidu,b08ed5c66c66481420022073,鲍师傅糕点(观前街店),观前街1-53号101B室（地铁察院场站2号口向东584米豫园商厦旁）,江苏省,苏州市,姑苏区,18379505083,unknown,
baidu,6da09c2f0d32d8cbbe484214,泽田本家·铜锣烧(苏州仓街店),平江街道干将东路仓街商业广场LG1-130商铺（麦当劳对面）,江苏省,苏州市,姑苏区,,unknown,
baidu,da40316283b3dd59a5da3960,建新羊肉店,钟楼新村（石匠弄）,江苏省,苏州市,姑苏区,15051457586,unknown,
baidu,5e979d1ab73c09aec42ba125,昔木生日蛋糕(苏州店),莫邪路1058号12幢107室,江苏省,苏州市,姑苏区,"13404211128,19901487321",unknown,
baidu,a72cfafa85aa62f3293a9f54,仁恒仓街商业广场,仓街1号（相门地铁站2号口直达）,江苏省,苏州市,姑苏区,(0512)68381222,unknown,
baidu,9c30cc36d0b7a6cf2a02e18a,韵达超市(唐家巷店),江苏省苏州市姑苏区双塔街道唐家巷41号-8幢,江苏省,苏州市,姑苏区,,unknown,
baidu,71ac6986385e9f522002206b,乐高(仓街广场店),仓街1号(相门地铁站2号口直达)仁恒仓街商业广场B1,江苏省,苏州市,姑苏区,,unknown,
baidu,f67aecee91a49b2e43ab9a57,FRED(仁恒仓街商业广场店),仓街1号(相门地铁站2号口直达)仁恒仓街商业广场F1,江苏省,苏州市,姑苏区,(0512)67577996,unknown,
baidu,860a0a2a3f888d1b9d9d68c4,周大福CHOW TAI FOOK(仁恒仓街店),干将东路与仓街交叉口东北200米,江苏省,苏州市,姑苏区,4001669999,unknown,
baidu,cfb0404c495de1ea84154181,ami(仁恒仓街商业广场店),仓街1号(相门地铁站2号口直达)仁恒仓街商业广场F1,江苏省,苏州市,姑苏区,(0512)65218786,unknown,
baidu,9249b28cccc201e7932ca306,九木杂物社(苏州仁恒仓街店),仓街1号仓街商业广场项目第LG2层234号,江苏省,苏州市,姑苏区,13118633017,unknown,
baidu,c98bffbe43457342250bd0f0,海之星零食店(苏州干将路店),江苏省苏州市姑苏区干将东路432号,江苏省,苏州市,姑苏区,18021244168,unknown,
baidu,fb76127c1fe91fb9f5c59cbb,斯凯奇(仁恒仓街商业广场店),仓街1号(相门地铁站2号口直达)仁恒仓街商业广场B2,江苏省,苏州市,姑苏区,4009002311,unknown,
baidu,e5e1751cb3c310b5d22dd66e,全家便利店(干将东路二店),干将东路456号,江苏省,苏州市,姑苏区,4008200996,unknown,
baidu,abfd5215e020222f2fb90865,ASICS(仁恒仓街商业广场店),仓街1号(相门地铁站2号口直达)仁恒仓街商业广场B2,江苏省,苏州市,姑苏区,4008210893,unknown,
baidu,bbee0f17d18302349a0050e5,New Balance(仁恒仓街店),仓街与邾长巷交叉口东140米,江苏省,苏州市,姑苏区,,unknown,
baidu,86c2117a6f843a27901fc9e3,Theory(仁恒仓街商业广场店),仓街1号(相门地铁站2号口直达)仁恒仓街商业广场F1,江苏省,苏州市,姑苏区,,unknown,
baidu,90909d4c1425978f31f71d7d,双塔市集,石匠弄2号,江苏省,苏州市,姑苏区,(0512)65210299,unknown,
baidu,2dc933169fe186b03686f47a,THANN(苏州仁恒仓街店),仓街1号仓街商业广场3号F号楼G层142号商铺,江苏省,苏州市,姑苏区,(0512)65202521,unknown,
baidu,0999c5a8154d7ea99ff77982,春田商店,江苏省苏州市姑苏区混堂巷25号,江苏省,苏州市,姑苏区,18862113102,unknown,
baidu,8d7cd8e505e2b8f4c5effb4d,罗森便利店(干将东路店),干将东路666号,江苏省,苏州市,姑苏区,4008206390,unknown,
baidu,ba889abaa3601902343a71de,TSMLXLT(仁恒仓街店),仓街1号第LG1-141号商铺,江苏省,苏州市,姑苏区,,unknown,
baidu,d930c0b2cb15aa26c9c3dbd5,lululemon(苏州仁恒仓街商业广场店),仓街1号仓街商业广场项目3-C号楼第G层151号及3-C号楼第UG层221号商铺,江苏省,苏州市,姑苏区,(0512)67707011,unknown,
baidu,37dbfb631288667fcae33cc3,九月琴行,仓街11号（1号线相门站3号口北行80米）,江苏省,苏州市,姑苏区,18115562190,unknown,
baidu,61fc53597d7693a7d5b74e9e,建新电动车配件批发,苏州市姑苏区文星西路唐家巷小区东侧约80米,江苏省,苏州市,姑苏区,(0512)65232005,unknown,
baidu,c235ac1225fe9693c3364422,优倍视眼视光中心(干将东路店),干将东路432号（北疆商务酒店旁苏大北门对面）,江苏省,苏州市,姑苏区,(0512)65164416,unknown,
baidu,7f345e9a1a5940b5e115f9bf,Glasstique(仁恒仓街商业广场店),平江街道仓街1号仁恒仓街商业广场1层127号,江苏省,苏州市,姑苏区,(0512)68853588,unknown,
baidu,126c9013d48fc16e081cc763,MOSCHINO(仁恒仓街商业广场店),仓街1号(相门地铁站2号口直达)仁恒仓街商业广场F1,江苏省,苏州市,姑苏区,(0512)65839099,unknown,
baidu,9195ee607447ef825cbe86f7,JIMMY CHOO(仁恒仓街商业广场店),仓街1号(相门地铁站2号口直达)仁恒仓街商业广场F1,江苏省,苏州市,姑苏区,,unknown,
baidu,6cda50b24bb92edc0c0a7087,ETRO(仁恒仓街商业广场店),仓街1号(相门地铁站2号口直达)仁恒仓街商业广场F1,江苏省,苏州市,姑苏区,,unknown,
baidu,634e5c5f6d8c606138e4a67e,Unknown(仁恒仓街商业广场店),仓街1号(相门地铁站2号口直达)仁恒仓街商业广场B1,江苏省,苏州市,姑苏区,,unknown,
baidu,3b0d052370c72bacadb22a6a,正元名饮(干将东路店),干将东路527号,江苏省,苏州市,姑苏区,15850215199,unknown,
baidu,8e2245e95eb4a80087154185,猫的天空之城概念书店(苏州平江店),平江路25号（明堂青年旅舍南）,江苏省,苏州市,姑苏区,(0512)67557912,unknown,
baidu,12bcf5b5b7c720f6373a7148,阿迪达斯(仁恒仓街商业广场店),仓街1号(相门地铁站2号口直达)仁恒仓街商业广场B1,江苏省,苏州市,姑苏区,,unknown,
baidu,8292bcd1ff0a46f6e812e4e4,BROMPTON JUNCTION(仁恒仓街商业广场店),仓街1号G-157,江苏省,苏州市,姑苏区,13771805084,unknown,
baidu,abdd16495c413d438733047c,暮晚尘香汉服旗袍,平江路肖家巷33号,江苏省,苏州市,姑苏区,18036308900,unknown,
baidu,732fa20b60d6cc5d276e9821,桥头水果店(莫邪路店),莫邪路1066号,江苏省,苏州市,姑苏区,15262596246,unknown,
baidu,2926680edff8b4464354d743,文学山房旧书店,钮家巷9号,江苏省,苏州市,姑苏区,(0512)65156229,unknown,
baidu,7f76a387354e587eeb1e975d,千色旗袍汉服,苏州市姑苏区肖家巷42号对面,江苏省,苏州市,姑苏区,13913187799,unknown,
baidu,e9556ce9a08da97fb6f42f2e,小米之家(江苏苏州虎丘区汇金新地商业广场专卖店苏大本部分店),江苏省苏州市姑苏区文星路1号苏州大学本部校园内,江苏省,苏州市,姑苏区,,unknown,
baidu,16d595f201ee7da22b201a03,maje(仁恒仓街商业广场店),仓街1号(相门地铁站2号口直达)仁恒仓街商业广场F1,江苏省,苏州市,姑苏区,,unknown,
baidu,84af4e3be258cbd6725e800d,self-portrait(仁恒仓街商业广场店),仓街1号(相门地铁站2号口直达)仁恒仓街商业广场F1,江苏省,苏州市,姑苏区,15850233613,unknown,
baidu,db232b031897c253a7c7566a,小婉旗袍,江苏省苏州市姑苏区大儒巷11号,江苏省,苏州市,姑苏区,18151073998,unknown,
baidu,5f3158124c574ded465726dd,CHUMS(仁恒仓街商业广场店),平江街道,江苏省,苏州市,姑苏区,13913765728,unknown,
baidu,d622bb5c27eb78a84c3a59c9,猫的天空之城概念书店(苏州丁香店),平江街道平江路184号(近白塔东路),江苏省,苏州市,姑苏区,(0512)65159533,unknown,
baidu,871d3beeb8599d9db34c49b4,新希望&双喜鲜奶直供站,白塔东路65号平江路(相门地铁站3号口步行260米),江苏省,苏州市,姑苏区,18962162728,unknown,
baidu,ab7fd082631348a71811d514,醒狮桥巷,江苏省苏州市姑苏区仓街24号,江苏省,苏州市,姑苏区,,unknown,
baidu,8ccc93821e82aa1afb221357,WANDER IN WONDER(仓街店),江苏省苏州市姑苏区仓街1号仁恒仓街商业广场,江苏省,苏州市,姑苏区,,unknown,
baidu,a942aebcc77ca0c7cac3db8d,大金空调(干将东路店),江苏省苏州市姑苏区干将东路钟楼新村西北侧约180米,江苏省,苏州市,姑苏区,4008206266,unknown,
baidu,4e86f94c92baf7ab25e0a07b,相门手机店,江苏省苏州市姑苏区莫邪路1046号,江苏省,苏州市,姑苏区,,unknown,
baidu,91958ad76bc33109d12dd6e2,苏州市民卡客户服务中心(莫邪店),莫邪路826号,江苏省,苏州市,姑苏区,(0512)62769016,unknown,
baidu,bd9efb12346303c882288a27,德泰地产,江苏省苏州市姑苏区平江路107号,江苏省,苏州市,姑苏区,18626205775,unknown,
baidu,833cff91a70602119122e0dd,先锋电脑手机维修(后庄老店),莫邪路1028号（近相门后庄、近苏大后庄学生公寓）,江苏省,苏州市,姑苏区,18915510651,unknown,
baidu,51317c443b0bc62c09b93a01,龙王家快修便民服务部,苏州市姑苏区唐家巷小区西侧,江苏省,苏州市,姑苏区,,unknown,
baidu,a454771e6d1cb1e540afe606,不与凡商业摄影直播·视频拍摄,江苏省苏州市姑苏区相门古城墙A9,江苏省,苏州市,姑苏区,13338641916,unknown,
baidu,3008619803acb28e3913fd3a,苏州平江历史文化街区-平江路游客咨询服务点,苏州市姑苏区平江路平江花园西北门东侧约70米,江苏省,苏州市,姑苏区,,unknown,
baidu,e0ed2557b1489a1d8605bf74,菜鸟驿站(苏州大学天赐庄本部),苏州市姑苏区文星西路苏州大学(天赐庄校区),江苏省,苏州市,姑苏区,951966,unknown,
baidu,1eedd67c50bd50f795f08c91,海马体照相馆(苏州仓街商业广场店),仓街1号仓街商业广场LG1层140号,江苏省,苏州市,姑苏区,13402639152,unknown,
baidu,7d979049c169e24e1576438d,定做羊绒衫,唐家巷20-1号(相门地铁站1号口步行480米),江苏省,苏州市,姑苏区,15851466448,unknown,
baidu,f8a81fae27be1e7d0aa8d40c,平江历史文化街区党群服务中心,江苏省苏州市姑苏区中张家巷6号,江苏省,苏州市,姑苏区,,unknown,
baidu,d421583382c96dbf4151c0c6,耦园-售票服务,小新桥巷6号(近平江路)耦园内(西南角),江苏省,苏州市,姑苏区,(0512)67272717,unknown,
baidu,0d5a8fb4811a0727f72310ec,零58缝纫店,石匠弄双塔市集,江苏省,苏州市,姑苏区,13776082326,unknown,
baidu,e2aa2da9e0a966098f55ecfe,唐家巷社区党群服务中心,苏州市定慧寺巷苏州市姑苏区实验小学分部东南侧约30米,江苏省,苏州市,姑苏区,(0512)65243757,unknown,
baidu,c88c04e5c85cfb6ef6c59c3d,花裳容汉服体验馆,江苏省苏州市姑苏区平江街道大儒巷29号,江苏省,苏州市,姑苏区,13584865315,unknown,
baidu,72037c4c933cc112b23c8134,中通快递(苏州七营业部营业部),江苏省苏州市姑苏区十梓街67号,江苏省,苏州市,姑苏区,95311,unknown,
baidu,d8a1954611f86ebb2b3a9ffc,哆来宠物(莫邪路店),莫邪路824号,江苏省,苏州市,姑苏区,"(0512)67585006,15952429850",unknown,
baidu,20ae3169ffa9826de011039e,菜鸟驿站(苏州叶家弄15号店),江苏省苏州市姑苏区双塔街道叶家弄15号,江苏省,苏州市,姑苏区,951966,unknown,
baidu,b79fc6867307873b13293555,自在小筑,江苏省苏州市姑苏区东升里17号,江苏省,苏州市,姑苏区,,unknown,
baidu,b8bb7fad7af6b4b21d5800cd,卿的衣柜汉服·化妆·约拍,仓街与卫道观前交叉口卫道观前37号,江苏省,苏州市,姑苏区,,unknown,
baidu,43cb175148b3e5f7fea7780c,中国体育彩票(仓街店),江苏省苏州市姑苏区邾长巷12号,江苏省,苏州市,姑苏区,95086,unknown,
baidu,cbf29f9978032725f32d8320,丰巢(莫邪路店),江苏省苏州市姑苏区莫邪路788号,江苏省,苏州市,姑苏区,,unknown,
baidu,352cd19ab5bd03841d1d11bc,环古城游船码头相门古城墙站售票处,苏州市姑苏区莫邪路相门古城墙-城墙遗址,江苏省,苏州市,姑苏区,,unknown,
baidu,ad34aa21893dc47ec82915ec,苏式生活展示馆,江苏省苏州市姑苏区中张家巷29号,江苏省,苏州市,姑苏区,,unknown,
baidu,3ec117cc2928070e3586f452,精修钟表,江苏省苏州市姑苏区双塔街道定慧寺巷29-1号,江苏省,苏州市,姑苏区,,unknown,
baidu,1f153c31c4dab9b5c9c3db11,启顺家政&育婴师保姆保洁家电清洗,江苏省苏州市姑苏区双塔街道干将东路599号-4层,江苏省,苏州市,姑苏区,,unknown,
baidu,a919d94eaee9dd0d8c55ec8b,罗汉院双塔及正殿遗址-售票处,定慧寺巷吴作人艺术馆附近罗汉院双塔及正殿遗址,江苏省,苏州市,姑苏区,(0512)65227778,unknown,
baidu,30ea9b54f68017f36f476044,定慧寺巷社区党群服务中心,苏州市姑苏区干将东路621号,江苏省,苏州市,姑苏区,,unknown,
baidu,82a01a145b4d70f384154127,平江路历史街区游客中心,江苏省苏州市姑苏区平江街道白塔东路65号苏州平江历史文化街区内,江苏省,苏州市,姑苏区,(0512)66090240,unknown,
baidu,aff3623d45bde9a9d42ce271,第三联合便民服务中心,苏州市姑苏区干将东路621号定慧寺巷社区内,江苏省,苏州市,姑苏区,,unknown,
baidu,a8c19cc61c84f900a11de9b9,不才房产,凤凰街定慧寺巷66号(临顿路地铁站1号口步行480米),江苏省,苏州市,姑苏区,15995406392,unknown,
baidu,96b672aa9f639b75ce04ef70,中国邮政(东环路邮政支局),东环路与飘逸路交叉口北40米,江苏省,苏州市,苏州工业园区,(0512)67241912,unknown,
baidu,c4bde1d38226b2269ff77972,江苏省苏州第一中学校工会妈妈驿站,江苏省苏州市姑苏区公园路278号图书馆101室,江苏省,苏州市,姑苏区,,unknown,
baidu,7c46f008aab220de3ce2319f,怪兽充电(光光小白菜),江苏省苏州市姑苏区仓街36号,江苏省,苏州市,姑苏区,4006703303,unknown,
baidu,c976574251cb6e23ff0eb054,手摇船收费处,平江路与白塔东路交叉口东南60米,江苏省,苏州市,姑苏区,13962149279,unknown,
baidu,9c076a4f1909fea432870a5b,中国邮政(凤凰街邮政支局),江苏省苏州市姑苏区醋库巷2号,江苏省,苏州市,姑苏区,(0512)65222537,unknown,
baidu,cdb0d0fc3eb5b44f80288a08,周峰宠物医院,白塔东路202号,江苏省,苏州市,姑苏区,(0512)67775325,unknown,
baidu,c3f311118bb5a506100daa35,公共厕所,苏州市姑苏区文星西路唐家巷小区东侧,江苏省,苏州市,姑苏区,,unknown,
baidu,6479f70f42a0109541afe6ec,苏州废旧商品回收网点,江苏省苏州市姑苏区文星西路苏州大学(天赐庄校区),江苏省,苏州市,姑苏区,,unknown,
baidu,6858e7d6ddd7523a343a71c9,相门古城墙公共厕所,苏州市姑苏区干将东路与莫邪路交叉口西200米相门城墙文化休闲景区内,江苏省,苏州市,姑苏区,,unknown,
baidu,0b4ef312e0617056ae0457e3,街电(顾亭酒家相门店),苏州市姑苏区干将路甲辰巷6号,江苏省,苏州市,姑苏区,4006868588,unknown,
baidu,108b1cea83ef26d23586f455,公共卫生间,干将东路442-450号附近,江苏省,苏州市,姑苏区,,unknown,
baidu,c7fe841fda15c4e49ff7794e,公共厕所,苏州市姑苏区文星西路苏州大学(天赐庄校区),江苏省,苏州市,姑苏区,,unknown,
baidu,f66e8862937becc1725e8033,公厕,苏州市姑苏区仓街17号,江苏省,苏州市,姑苏区,,unknown,
baidu,0731e6ef4a9d2fb5d6b74eb7,公共厕所,江苏省苏州市姑苏区平江街道仓街17号,江苏省,苏州市,姑苏区,,unknown,
baidu,82e7bf0247912f06b020a813,恒协干洗(唐家巷店),唐家巷42-2号(相门地铁站1号口步行320米),江苏省,苏州市,姑苏区,(0512)65117324,unknown,
baidu,41572e00a98022b4b45f1e47,公共厕所,十梓街1号近干将东路苏州大学,江苏省,苏州市,姑苏区,,unknown,
baidu,721444ca273694c6256e98c3,街电(巴蜀园川菜相门店),苏州市姑苏区莫邪路1088号苏大后庄学生公寓18幢13室,江苏省,苏州市,姑苏区,4006868588,unknown,
baidu,8872832b921475dcf60e7723,苏州观前平江CitiGO欢阁酒店-大堂,江苏省苏州市姑苏区干将东路535号,江苏省,苏州市,姑苏区,,unknown,
baidu,445f0f7b243e298f471a325c,公共厕所,苏州市姑苏区定慧寺巷钟楼新村,江苏省,苏州市,姑苏区,,unknown,
baidu,739db3e38b14d8c49403192c,中国体育彩票(定慧寺巷店),定慧寺巷38号74号,江苏省,苏州市,姑苏区,95086,unknown,
baidu,af1ae56b9618a06c4207c1e0,公共厕所(JS-SZ-0265),定慧寺巷钟楼新村,江苏省,苏州市,姑苏区,,unknown,
baidu,975913e7885cec856c47603e,公共厕所,苏州市姑苏区钮家巷平江花园西北门北侧约80米,江苏省,苏州市,姑苏区,,unknown,
baidu,3b9db3e1cb14246c4251c085,街电(微乐视听馆相门店),苏州市姑苏区干将东路相门桥西侧古城墙景区内(地铁1号线相门站3号口),江苏省,苏州市,姑苏区,4006868588,unknown,
baidu,83d25f84271311e3cf04efe1,久森图文工作室,干将东路苏大北小区178号,江苏省,苏州市,姑苏区,15950073223,unknown,
baidu,a86489cd886f4874b020a8dc,公厕,苏州市姑苏区钮家巷31号,江苏省,苏州市,姑苏区,,unknown,
baidu,5076bed4e530ecf184154144,公共厕所,苏公弄塔影苑小区,江苏省,苏州市,姑苏区,,unknown,
baidu,6e088583be5c0f442e4733dd,公共厕所,葑溪社区(前庄巷南10米),江苏省,苏州市,姑苏区,,unknown,
baidu,9b95eeb07a7ea0c10bf5eba7,乐意文印,莫邪路1002号,江苏省,苏州市,姑苏区,,unknown,
baidu,d8cf05cff95e8ca4eddfca8a,双塔何叔开锁配钥匙,石匠弄双塔市场57号,江苏省,苏州市,姑苏区,13814878846,unknown,
baidu,b9eeabd11ee625903010af5d,苏州观前平江美居酒店-洗手间,江苏省苏州市姑苏区干将东路535号,江苏省,苏州市,姑苏区,,unknown,
baidu,4c24c182180691559868b42f,利民开锁配钥匙指纹锁汽车锁(相门后庄店),江苏省苏州市姑苏区相门后庄苏大公寓2幢18号(联华超市对面),江苏省,苏州市,姑苏区,15262594488,unknown,
baidu,dada3f82cd0e1f87a1a934ec,苏州观前平江美居酒店-大堂,江苏省苏州市姑苏区干将东路535号,江苏省,苏州市,姑苏区,,unknown,
baidu,b5f34afd360bec8dd3ff2333,公厕,苏州市姑苏区锦帆路79号锦帆文创园,江苏省,苏州市,姑苏区,,unknown,
baidu,746c7da873f0e521d0ff23c1,我爱我家(双塔店),江苏省苏州市姑苏区石匠弄27-28号,江苏省,苏州市,姑苏区,18550084258,unknown,
baidu,822912905b9bb253fea7783b,兴杰广告,莫邪路810号,江苏省,苏州市,姑苏区,13812782103,unknown,
baidu,587907fb227a8e620782c2c7,婉约江南,钮家巷与平江路交叉口西60米,江苏省,苏州市,姑苏区,,unknown,
baidu,c46dda4c21ab0288400245dc,怪兽充电(明堂青年旅舍平江店),江苏省苏州市姑苏区平江街道平江路26号,江苏省,苏州市,姑苏区,4006703303,unknown,
baidu,f4814a21aa187b2e1df74d5c,黄师傅电脑维修(相门后庄店),相门后庄后庄巷公寓楼2-10号（后庄酸菜鱼店对面）,江苏省,苏州市,姑苏区,"18901548340,18901548350",unknown,
baidu,ce80431b930b8a8841d63e02,长城宽带(后庄巷店),江苏省苏州市姑苏区3号,江苏省,苏州市,姑苏区,95079,unknown,
baidu,f69e7ccc4449adcd1329356e,月下惊鸿汉服体验馆,江苏省苏州市姑苏区中张家巷17号,江苏省,苏州市,姑苏区,,unknown,
baidu,b8a72d20fb03f2762fb17eaa,金子盛殡仪(干将东路店),江苏省苏州市姑苏区干将东路159号,江苏省,苏州市,姑苏区,,unknown,
baidu,a2346c3c548a15abc27da220,潘祖荫故居-苏州花间堂公共厕所,平江路大儒巷南石子街10号,江苏省,苏州市,姑苏区,,unknown,
baidu,ad93e632382c7a071f580098,叶家弄电动车维修(凤凰街店),江苏省苏州市姑苏区叶家弄苏州大学附属第一医院(总院)东,江苏省,苏州市,姑苏区,4008573778,unknown,
baidu,fa2bdb0e95349be0d0ff232a,艾迪图文,苏州市姑苏区莫邪路810号2楼,江苏省,苏州市,姑苏区,,unknown,
baidu,53b1cad403e546a772210be7,公共厕所,苏州市姑苏区钟楼头苏州市姑苏区实验小学分部东南侧约90米,江苏省,苏州市,姑苏区,,unknown,
baidu,e5597b077a3623f7e5073869,礼品回收,苏州市姑苏区莫邪路优康养老院,江苏省,苏州市,姑苏区,,unknown,
baidu,13d149b64204beccdc1e5202,相门干洗连锁店(后庄店),莫邪路950号相门后庄4号小区,江苏省,苏州市,姑苏区,"(0512)67163094,(0512)68365008",unknown,
baidu,0dc5b19b7ae5463817948e28,公共厕所,江苏省苏州市姑苏区小曹家巷和基广场西侧约90米,江苏省,苏州市,姑苏区,,unknown,
baidu,9d23421ad18c9f6bc51b751f,公厕,苏州市姑苏区十梓街188号苏州大学附属第一医院(十梓街院区),江苏省,苏州市,姑苏区,,unknown,
baidu,062801ff83ca79e5ab059d2f,公厕,江苏省苏州市姑苏区平江路,江苏省,苏州市,姑苏区,,unknown,
baidu,7a1e82b2b0ba628308ccdd77,苏州巨鑫金银制品有限公司(水景丽舍店),姑苏区莫邪路814号,江苏省,苏州市,姑苏区,(0512)65128363,unknown,
baidu,f460902fef1ce6d82efaa7b4,街电(廊亭菜馆平江路店),苏州市姑苏区平江路雪糕桥西凤池弄13号(58号斜对面),江苏省,苏州市,姑苏区,4006868588,unknown,
baidu,6a1d15db080661b125e0a02b,公共厕所,苏州市姑苏区碧凤坊41号莱迪购物F4,江苏省,苏州市,姑苏区,,unknown,
baidu,30dd8921fef6d244581093ba,怪兽充电(南门人家羊蝎子莫邪路店),江苏省苏州市姑苏区双塔街道莫邪路782,江苏省,苏州市,姑苏区,4006703303,unknown,
baidu,1428df89ce7a94c01f3894ed,公共厕所,十全街416号,江苏省,苏州市,姑苏区,,unknown,
baidu,2e05ed5d1bba51e448cc4ab4,公共卫生间,临顿路108号长发商厦F5层,江苏省,苏州市,姑苏区,,unknown,
baidu,0ce65c2df36085402d47337f,水乡楼·宴会厅(十全街店),相王路157号,江苏省,苏州市,姑苏区,(0512)65197872,unknown,
baidu,1e7d96c4efb196f2da2f28ad,公厕,苏州市姑苏区观前街1号购物中心F1,江苏省,苏州市,姑苏区,,unknown,
baidu,40860e21b6f26810d2f49ef4,ReMINGLE(仁恒仓街店),仓街1号仁恒仓街商业广场3号楼UG层219（AMI楼上）,江苏省,苏州市,姑苏区,(0512)67865686,unknown,
baidu,cbf09a03c93d1dca1f38945e,LIN美甲·美睫·皮肤管理,仓街16号（近地铁1号线相门站3号口）,江苏省,苏州市,姑苏区,,unknown,
baidu,ef4967844aaa92499f09f7dc,风飞叶发型设计(唐家巷42号小区店),唐家巷4-5号附近(相门地铁站1号口步行350米),江苏省,苏州市,姑苏区,13962158186,unknown,
baidu,02eb185be871aff09e82ea9a,My Nail日式美甲美睫(仁恒仓街店),仓街1号仁恒仓街商场负二层LG2-229,江苏省,苏州市,姑苏区,,unknown,
baidu,60d3cefce6185988b320a8c3,苏妍美妍·祛斑美肤中心(姑苏店),干将东路77号(东环路地铁站1号口步行260米),江苏省,苏州市,姑苏区,19941891181,unknown,
baidu,6343c85189a4b9367069d3b7,九号美业(相门后庄4号小区店),相门后庄1号,江苏省,苏州市,姑苏区,18761966095,unknown,
baidu,86689145bac632d748cc4a83,左左美妆肌肤管理彩妆工作室(和基广场店),干将东路666号和基广场5楼545号,江苏省,苏州市,姑苏区,13584882389,unknown,
baidu,124fa783b285c2ec51e5c5c0,馨悦坊美容养生馆(永林新村二区店),三新路永林新村二区底商,江苏省,苏州市,姑苏区,13962163027,unknown,
baidu,ed5aa155eab33b1cd8d891ec,尤米一站式美甲美睫(观前街店),观前街和基广场五楼516室,江苏省,苏州市,姑苏区,13390872795,unknown,
baidu,914aa431b233a1279e9d684f,宏顺造型(东环路店),东环路东环五六村64幢1楼,江苏省,苏州市,姑苏区,15051556690,unknown,
baidu,5e2f95428dd78bbb2bd7ab52,YOU佳·自助美甲美睫工作室(丽景苑店),干将东路丽景苑写字楼3楼309室,江苏省,苏州市,姑苏区,15995759211,unknown,
baidu,a7deed207d38a02dc17da256,想见妳~美甲美睫工作室,江苏省苏州市姑苏区双塔街道凤凰街207号503室,江苏省,苏州市,姑苏区,15850107161,unknown,
baidu,4edf9fbf7a26858dcc06a424,千梳造型,庄先湾路21幢8号（近东环路）,江苏省,苏州市,姑苏区,18662184419,unknown,
baidu,9b2e539cbe574c6a047ce819,素妍美甲美睫(观前街店),干将东路666号和基广场640室,江苏省,苏州市,姑苏区,15050186332,unknown,
baidu,29d07ae2124b0461c056acae,伊格造型(观前店),观前街洙泗巷16号二楼,江苏省,苏州市,姑苏区,18662217234,unknown,
baidu,8326ea06031b1be03b221c7f,阿库发艺(颜家巷店),颜家巷12号,江苏省,苏州市,姑苏区,13921961325,unknown,
baidu,df03782005a022d13617dc1c,5艺造型,小太平巷10号,江苏省,苏州市,姑苏区,,unknown,
baidu,a3b19d2923dba0c658f6be0b,名流造型(庄先湾路),庄先湾路88号,江苏省,苏州市,姑苏区,13584883659,unknown,
baidu,b8bb4356aa6a174887330405,莎蔓莉莎美容会所(东凌商务大厦店),干将东路599号东凌大厦,江苏省,苏州市,姑苏区,(0512)68636077,unknown,
baidu,10c49535e61de718b45f1ec4,浪漫人生时尚造型专业烫染,干将东路448号,江苏省,苏州市,姑苏区,(0512)66581067,unknown,
baidu,1cbca31e846915c1b13c8166,飘髻美发店,邾长巷学地1号蕴秀园,江苏省,苏州市,姑苏区,19554900628,unknown,
baidu,36611492b5b1471f4c6d46da,抒上·美学体验工作室,江苏省苏州市姑苏区平江路28-、29号,江苏省,苏州市,姑苏区,18626116321,unknown,
baidu,4dadd5164177dd848bb98825,百莲凯美学(凤凰街店),凤凰街194号2层,江苏省,苏州市,姑苏区,18351600202,unknown,
baidu,e44bc8a5f400e64e38e4a6c8,阿二美发,临顿路肖家巷33号,江苏省,苏州市,姑苏区,,unknown,
baidu,ebac9c32120aaf3bd2f49e5f,娟娟发艺(卫道观前),卫道观前民生里1号,江苏省,苏州市,姑苏区,13404232136,unknown,
baidu,48eb005899f26fb42fe67bfd,金莎美容(凤凰店),凤凰街361号,江苏省,苏州市,姑苏区,(0512)65116286,unknown,
baidu,0867d0caa02e400ab8bd63b6,卡卡造型(相门后庄4号小区店),莫邪路相门后庄76号,江苏省,苏州市,姑苏区,15862478512,unknown,
baidu,5bb80f8bac6b12ed49fd3f3f,润发天缘专业美发(定慧寺街店),定慧寺巷18号,江苏省,苏州市,姑苏区,13776045549,unknown,
baidu,43ce4940bf8a49a5f603b85e,媚清涟汉服妆造馆(平江路店),苏州市姑苏区大柳枝巷5号,江苏省,苏州市,姑苏区,,unknown,
baidu,f79159fcce78a3135d0d0266,艺明造型,后庄巷相门后庄5号,江苏省,苏州市,姑苏区,13815253659,unknown,
baidu,20762e16e4424631fbf0cba2,泓辛祛痘祛斑祛痣(凤凰街店),凤凰街207号2楼209,江苏省,苏州市,姑苏区,15850228224,unknown,
baidu,c1c2498b0cb88ecd07fef5fa,新感觉形象设计(后庄巷店),相门后庄68号,江苏省,苏州市,姑苏区,17625534334,unknown,
baidu,f18c0d2ff3d361b8f8f0cb64,潮咖造型(丽景苑店),干将东路636号丽景苑写字楼1栋3层309室,江苏省,苏州市,姑苏区,"15051417138,19848127494",unknown,
baidu,39f3c8ffcf5cc6e10bb93a1c,Spa beauty皮肤管理中心(观前店),临顿路–和基广场6楼603室,江苏省,苏州市,姑苏区,,unknown,
baidu,3be122e1f66a442c1ef74d6d,雅韵YAYUN,钮家巷2号(临顿路地铁站3号口步行280米),江苏省,苏州市,姑苏区,13771701373,unknown,
baidu,594e4eb112ee57aeb23c8195,偶遇美发,后庄巷3号,江苏省,苏州市,姑苏区,15365387680,unknown,
baidu,f057ea9483c218b3f32d839e,祛痘祛斑,苏州市姑苏区临顿路苏州平江历史文化街区,江苏省,苏州市,姑苏区,,unknown,
baidu,112cf71e2989458f09a8d438,苏州一渡刺青纹身馆,干将东路666号和基广场5楼520室,江苏省,苏州市,姑苏区,18018145273,unknown,
baidu,31cc2835a1658838d2f49e0b,Nine·九分日式美甲美睫,丁家巷9号,江苏省,苏州市,姑苏区,13405006192,unknown,
baidu,0003cd4b9614b352bb17e7d0,UGIRL有个美甲(观前街店),凤凰街207号108室,江苏省,苏州市,姑苏区,18806177674,unknown,
baidu,0b7e12841e87cc3671455bed,形尚造型,凤凰街194号三楼（仅限首次到店使用）,江苏省,苏州市,姑苏区,(0512)65116830,unknown,
baidu,216c6bb717d68c1c2fb96dec,大众理发(三新路店),三新路永林二区59幢一号店面,江苏省,苏州市,姑苏区,15050192598,unknown,
baidu,a2d4f7743c48e9f5ee74f82f,瞧·享轻奢美甲美睫(苏州观前壹号店),平江街道观前街宫巷观前1号公寓2楼237,江苏省,苏州市,姑苏区,17300625595,unknown,
baidu,1d205c00fdb1c180aa175aea,超梵美甲美睫工作室,凤凰街207号初心社二楼205室（洗手间旁）,江苏省,苏州市,姑苏区,"13703662274,19517248925",unknown,
baidu,5af9323b3e5e25795d0d0230,MikaNail美咖娜丽美甲工作室(观前店),观巷12号（观前）,江苏省,苏州市,姑苏区,18013566310,unknown,
baidu,86a01bebfcea7b738c77274f,莎蔓莉莎美容会所(贵都大厦店),江苏省苏州市苏州工业园区中新路8号贵都邻里中心1楼,江苏省,苏州市,苏州工业园区,(0512)65713966,unknown,
baidu,ebb16c8796e3f7be11882410,司其美美发工作室(永林新村二区店),三新路88号永林新村二区,江苏省,苏州市,姑苏区,13584814893,unknown,
baidu,ffd6d4038f42f19617b54bca,鲸彩·美甲美睫科技护肤(宫巷店),宫巷31号,江苏省,苏州市,姑苏区,"(0512)65815275,18118165275",unknown,
baidu,faf2007375c21e7e78f796bd,德逸造型(姑苏店),东环五六村东环路地铁站4号口旁,江苏省,苏州市,姑苏区,,unknown,
baidu,c7619b5ae68f0e1f5a3ac847,红馆·发喆院(十全街店),双塔街道十全街996号(地铁四号线三元坊站),江苏省,苏州市,姑苏区,17712661956,unknown,
baidu,89890086ccffe311077ce887,温州发型(白塔东路店),白塔东路53-2,江苏省,苏州市,姑苏区,(0512)67280420,unknown,
baidu,1ba9585558a55010e81e9770,姑苏区简华男士发型设计,乔司空巷29号(察院场地铁站2号东南口步行290米),江苏省,苏州市,姑苏区,18985667342,unknown,
baidu,876ec88531f783a5adb22ac9,桔夏美妆工作室(姑苏区店),人民路穿心街吉博利酒店二楼左侧,江苏省,苏州市,姑苏区,18151113976,unknown,
baidu,72e8d6402ba2ddbbf42310f7,星造型,东环路东环五六村52幢1楼,江苏省,苏州市,姑苏区,18260151524,unknown,
baidu,f35c01449c41fed5d618b7f8,冉冉时光(皮市街60店),平江街道皮士街206-2号,江苏省,苏州市,姑苏区,17621638478,unknown,
baidu,dde26e7b3490470388db7333,名品美发(观前街店),人民路1436号2楼4号线察院场3号口5米,江苏省,苏州市,姑苏区,17315576085,unknown,
baidu,d89cbc35ead9671117b54b53,时尚造型(永林新村二区店),三新路永林新村二区37-6室,江苏省,苏州市,姑苏区,13912627869,unknown,
baidu,8483f16851d01c7c2e47334f,MR Nail·目染日式美甲美睫(观前店),双成巷35号(乐桥地铁站7号口出来步行400米)小起哈尔滨烧烤对面,江苏省,苏州市,姑苏区,15993218635,unknown,
baidu,0fd69be66230efc9c056ac66,新影尚美发美甲美睫,观前街阔巷12号,江苏省,苏州市,姑苏区,13073662783,unknown,
baidu,cde9e2c7b373cfade81e9761,沁特时尚发艺,西北街57号,江苏省,苏州市,姑苏区,,unknown,
baidu,e50aab44fce6bf4904026fc6,潘伟造型,永林新村二区,江苏省,苏州市,姑苏区,,unknown,
baidu,504d61139b2ad4b346572647,定慧寺,江苏省苏州市姑苏区苏公弄9号(临顿路地铁站2号口步行350米),江苏省,苏州市,姑苏区,18550258069,unknown,
baidu,f05b6971de5c72156140a9b7,苏州平江历史文化街区,苏州市姑苏区白塔东路65号,江苏省,苏州市,姑苏区,"(0512)69163907,(0512)66090240",unknown,
baidu,c50d506ae82755d979dbd2f1,可园,江苏省苏州市姑苏区沧浪亭街3号,江苏省,苏州市,姑苏区,"(0512)65337903,(0512)68123123",unknown,
baidu,090ef41feabf5ebf2b06ce1a,拙政园,苏州市姑苏区东北街178号,江苏省,苏州市,姑苏区,(0512)67510286,unknown,
baidu,3bc2e77858a2e4dd35b06c9e,相门城墙文化休闲景区,苏州市姑苏区干将东路与莫邪路交叉口西200米,江苏省,苏州市,姑苏区,,unknown,
baidu,44dcfe0538a31f7416b54b34,苏州园林,江苏省苏州市姑苏区东北街178号,江苏省,苏州市,姑苏区,,unknown,
baidu,95b116abf4b4e15de31103b5,苏州博物馆,江苏省苏州市姑苏区东北街204号,江苏省,苏州市,姑苏区,(0512)67575666,unknown,
baidu,016ce6044d2588b82fe67be6,苏州古运河游船(相门码头),江苏省苏州市姑苏区相门景区城墙博物馆北边200米河边上,江苏省,苏州市,姑苏区,(0512)67539061,unknown,
baidu,2af24abf8c3eb37f3586f488,姑苏古城平江,干将东路636号-1层,江苏省,苏州市,姑苏区,,unknown,
baidu,ccd2cae6161b56adc4f02534,碑亭,苏州市姑苏区平江路宏盛大厦南门东北侧约70米,江苏省,苏州市,姑苏区,,unknown,
baidu,12a65223c84f24d3a4c756af,苏州文庙,江苏省苏州市姑苏区人民路613号,江苏省,苏州市,姑苏区,(0512)65197203,unknown,
baidu,8276c31bdeb47acd774ff17c,定慧寺巷,苏州市姑苏区凤凰街258号,江苏省,苏州市,姑苏区,,unknown,
baidu,451734671b2f1ada1b11d595,苏州城墙博物馆,苏州市姑苏区干将东路相门城楼下,江苏省,苏州市,姑苏区,(0512)66501116,unknown,
baidu,d52831f9e3c228a72efaa7cb,双塔寺,江苏省苏州市姑苏区定慧寺巷罗汉院双塔及正殿遗址,江苏省,苏州市,姑苏区,(0512)65227778,unknown,
baidu,24d055089a4bfbd213882495,城隍庙,苏州市姑苏区景德路94号,江苏省,苏州市,姑苏区,(0512)65155897,unknown,
baidu,b23588294434ef497bf7969f,相门古城墙-城墙遗址,干将东路,江苏省,苏州市,姑苏区,,unknown,
baidu,d4dc80c80d5dda690c0e6b6a,甲辰巷砖塔,苏州市姑苏区市桥头10号,江苏省,苏州市,姑苏区,,unknown,
baidu,b703e96b9d4e98fa8f1a8976,苏州评弹博物馆,苏州市姑苏区中张家巷3号,江苏省,苏州市,姑苏区,"(0512)67270103,(0512)67275338",unknown,
baidu,49d95938738b883fc61e516c,玄妙观,江苏省苏州市姑苏区平江街道观前街94号,江苏省,苏州市,姑苏区,(0512)67276616,unknown,
baidu,a537b12d32f0163db21e3664,网师园,江苏省苏州市姑苏区阔家头巷11号,江苏省,苏州市,姑苏区,(0512)65337903,unknown,
baidu,e56bf5e32cfb51440782c24f,苏州公园,苏州市姑苏区公园路111号,江苏省,苏州市,姑苏区,(0512)65157287,unknown,
baidu,521fa69cd0fcba4d2f473369,卫道观,江苏省苏州市姑苏区卫道观,江苏省,苏州市,姑苏区,13584842750,unknown,
baidu,2d143daeb8783d633b221c72,吴宅,江苏省苏州市姑苏区建新巷30号,江苏省,苏州市,姑苏区,,unknown,
baidu,51ff5e5c28d40f410d3dda7d,耦园,苏州市姑苏区仓街小新桥巷6号,江苏省,苏州市,姑苏区,(0512)67272722,unknown,
baidu,d305db1fd784d03e932ca350,中央公园,江苏省苏州市苏州工业园区星明街(海关大楼旁),江苏省,苏州市,苏州工业园区,,unknown,
baidu,97ad72c248691ba6b23c81aa,惠荫园,苏州市姑苏区临顿路南显子巷13号,江苏省,苏州市,姑苏区,,unknown,
baidu,a5097bfab2b7af7af13cbaad,怡园,江苏省苏州市姑苏区人民路1265号,江苏省,苏州市,姑苏区,(0512)65249317,unknown,
baidu,d2f152cf07b029eff82d61d3,水城门,苏州市姑苏区干将东路相门古城墙-城墙遗址,江苏省,苏州市,姑苏区,,unknown,
baidu,b8c1931cfde35a8aabf7291a,思婆桥,苏州市姑苏区建新巷平江花园西北门东侧约50米,江苏省,苏州市,姑苏区,,unknown,
baidu,44207646a58b916bdeee8b76,中国昆曲博物馆,江苏省苏州市姑苏区中张家巷14号,江苏省,苏州市,姑苏区,"(0512)67273334,(0512)67273741,(0512)67275338",unknown,
baidu,7258a9ad696e6a4095f08cec,罗汉院双塔,苏州市姑苏区定慧寺巷22号,江苏省,苏州市,姑苏区,(0512)65227778,unknown,
baidu,f9ce8152addec224ad080fcd,东吴大学旧址,苏州市姑苏区十梓街1号苏州大学内(近望星桥),江苏省,苏州市,姑苏区,"(0512)67504739,(0512)67507948",unknown,
baidu,d6ee872410c37ce0a8f0cd4f,文起堂,苏州市姑苏区干将东路712号,江苏省,苏州市,姑苏区,,unknown,
baidu,c0bb050ac7588e59ce04efd7,东升里文化艺术长廊,江苏省苏州市姑苏区钮家巷29号-后门,江苏省,苏州市,姑苏区,,unknown,
baidu,a29a37613b6bac0dad045787,苏州园林曲园,江苏省苏州市姑苏区马医科巷43号,江苏省,苏州市,姑苏区,,unknown,
baidu,374f82be5264a00285420e27,随园,苏州市姑苏区东升里15号,江苏省,苏州市,姑苏区,,unknown,
baidu,7d91695e0c0ae6493ce2310a,大柳枝巷杨宅,苏州市姑苏区大柳枝巷25号,江苏省,苏州市,姑苏区,,unknown,
baidu,24d0550826108faf12882447,圣约翰基督教堂,江苏省苏州市姑苏区十梓街18号,江苏省,苏州市,姑苏区,(0512)65223346,unknown,
baidu,17c7f54722253cd6f82d6127,寿安桥,苏州市姑苏区平江路23号,江苏省,苏州市,姑苏区,,unknown,
baidu,453de3c6ee7392d5b75f1ee1,苏州状元博物馆,江苏省苏州市姑苏区平江街道钮家巷3号,江苏省,苏州市,姑苏区,"(0512)68302166,18100693266",unknown,
baidu,24dc6a5a88586f858bfc062f,雅园,苏州市姑苏区大儒巷14号,江苏省,苏州市,姑苏区,,unknown,
baidu,f49144f18de95c88932ca397,苏州教育博物馆,江苏省苏州市姑苏区醋库巷44号,江苏省,苏州市,姑苏区,(0512)65231558,unknown,
baidu,c0ce15b63d792c20cd06a4f2,虹桥,苏州市姑苏区白塔东路65号苏州平江历史文化街区,江苏省,苏州市,姑苏区,,unknown,
baidu,04a876d9bef885b0c61b75aa,苏州城建博物馆,苏州市姑苏区卫道观前3号(苏州平江历史文化街区),江苏省,苏州市,姑苏区,(0512)69572223,unknown,
baidu,17f1fe8823f31c646f4760a5,雪糕桥,苏州市姑苏区白塔东路65号苏州平江历史文化街区,江苏省,苏州市,姑苏区,,unknown,
baidu,0adce3e250c8aa1c80a00c4a,卫道观前潘宅,苏州市姑苏区卫道观前3号,江苏省,苏州市,姑苏区,,unknown,
baidu,a156254fb04237405d0d0254,三凤堂薛府,江苏省苏州市姑苏区仓街140号三凤堂,江苏省,苏州市,姑苏区,,unknown,
baidu,08fc93dfbd9c9c889b68b459,狮子林,苏州市姑苏区园林路23号,江苏省,苏州市,姑苏区,"(0512)67272428,(0512)67773263",unknown,
baidu,1a4cce0cccc96fa67dc876d4,吾爱亭,苏州市姑苏区耦园,江苏省,苏州市,姑苏区,,unknown,
baidu,45b14b723ae45054c6effbab,东板桥,江苏省苏州市姑苏区中张家巷9号,江苏省,苏州市,姑苏区,,unknown,
baidu,4676b3b76899432e4e554780,鹤鸣堂康宅,苏州市姑苏区白塔东路65号苏州平江历史文化街区,江苏省,苏州市,姑苏区,,unknown,
baidu,e6671c1fac1fccbe4afd3fb6,罗汉院双塔及正殿遗址,定慧寺巷吴作人艺术馆附近,江苏省,苏州市,姑苏区,(0512)65227778,unknown,
baidu,58be32febdf85b4dabf729ad,顾廷龙故居,苏州市姑苏区十梓街116-3号,江苏省,苏州市,姑苏区,,unknown,
baidu,213d1b32c7881b5eb1077d32,福寿泉,苏州市姑苏区白塔东路65号苏州平江历史文化街区,江苏省,苏州市,姑苏区,,unknown,
baidu,2a655ba7eba7cd582fb96d50,载酒堂,苏州市姑苏区仓街小新桥巷6号(近平江路)耦园内,江苏省,苏州市,姑苏区,(0512)67272717,unknown,
baidu,7fd949dd237ae029276e983a,众安桥,苏州市姑苏区悬桥巷苏州平江历史文化街区,江苏省,苏州市,姑苏区,,unknown,
baidu,61a785a981ec4191a4c7565a,望月亭,江苏省苏州市姑苏区仓街耦园,江苏省,苏州市,姑苏区,(0512)67272717,unknown,
baidu,e27448dc75b47b3336b06c29,织帘老屋,苏州市姑苏区小新桥巷6号耦园内,江苏省,苏州市,姑苏区,,unknown,
baidu,64388c4804a9c122d92f282c,孝友堂张宅,苏州市姑苏区干将东路丽景苑东南1门东北侧,江苏省,苏州市,姑苏区,(0512)65158512,unknown,
baidu,bff8fa7d2ebcdaa0c8213d4c,况公祠,江苏省苏州市姑苏区道前街西美巷31号,江苏省,苏州市,姑苏区,(0512)68553218,unknown,
baidu,6ed25f574ed7c050306212f7,河景观带,江苏省苏州市姑苏区相门古城墙内,江苏省,苏州市,姑苏区,,unknown,
baidu,b9d167c1e42a5507c17da2ca,山水间,苏州市姑苏区仓街小新桥巷6号(近平江路)耦园内,江苏省,苏州市,姑苏区,(0512)67272717,unknown,
baidu,bb9de5948c8f6aa0ede4a5d5,潘氏松麟义庄,苏州市姑苏区悬桥巷46号,江苏省,苏州市,姑苏区,(0512)65158512,unknown,
baidu,f713f53bd5adef9e2b3a9ff2,便静宧,苏州市姑苏区仓街小新桥巷6号(近平江路)耦园内,江苏省,苏州市,姑苏区,(0512)67272717,unknown,
baidu,2b944be1f9f82ef0e4e9659d,走马道,苏州市姑苏区干将东路与莫邪路交叉口西200米相门城墙文化休闲景区内,江苏省,苏州市,姑苏区,,unknown,
baidu,80673c2616f07e912cb17e20,沧浪亭,江苏省苏州市姑苏区沧浪亭街3号,江苏省,苏州市,姑苏区,(0512)68123123,unknown,
baidu,f86ee5419eeda6498c55ecef,徐宅,苏州市姑苏区丁香巷苏州平江历史文化街区,江苏省,苏州市,姑苏区,,unknown,
baidu,a8c64152e9ed7648b5f42fb2,一经堂张宅,仓街61号,江苏省,苏州市,姑苏区,,unknown,
baidu,5a373fd6bf6e2d8643024580,苏州人游苏州体验店,苏州市姑苏区定慧寺巷恒丰大厦东南侧约50米,江苏省,苏州市,姑苏区,,unknown,
baidu,12c728c26dde38e530621204,藤花舫,苏州市姑苏区仓街小新桥巷6号(近平江路)耦园内,江苏省,苏州市,姑苏区,,unknown,
baidu,349f04d57bf9eef02cb908b6,戏台,苏州市姑苏区中张家巷14号中国昆曲博物馆,江苏省,苏州市,姑苏区,,unknown,
baidu,858d1db02e9c7b09a21de954,锁春,苏州市姑苏区仓街小新桥巷6号(近平江路)耦园内,江苏省,苏州市,姑苏区,,unknown,
baidu,8b2eef18d227687b62685866,无俗韵轩,苏州市姑苏区仓街小新桥巷6号(近平江路)耦园内,江苏省,苏州市,姑苏区,(0512)67272717,unknown,
baidu,ab054e91a9c738500e3ddaf3,黄石假山,苏州市姑苏区仓街小新桥巷6号(近平江路)耦园内,江苏省,苏州市,姑苏区,,unknown,
baidu,f6b80098237d68e52b11d1d5,鸳鸯厅,苏州市姑苏区平江街道钮家巷3号苏州状元博物馆,江苏省,苏州市,姑苏区,,unknown,
baidu,18d1a1dec51cfee871210b17,鹤寿亭,苏州市姑苏区仓街小新桥巷6号(近平江路)耦园内,江苏省,苏州市,姑苏区,,unknown,
baidu,60768213ff60638cf8f0cb26,庞宅,苏州市姑苏区大新桥巷苏州平江历史文化街区,江苏省,苏州市,姑苏区,,unknown,
baidu,f3661540d4fc2097e01103cd,安徽会馆,苏州市姑苏区南显子巷苏州平江历史文化街区,江苏省,苏州市,姑苏区,,unknown,
baidu,2f434ff938deeb8416c8f65d,中国昆曲博物馆-视听欣赏室,苏州市姑苏区中张家巷14号中国昆曲博物馆,江苏省,苏州市,姑苏区,,unknown,
baidu,a6ac588e15c99e6ead31e5d4,城曲草堂,苏州市姑苏区耦园,江苏省,苏州市,姑苏区,,unknown,
baidu,ec78e03079254085b7265536,钮家巷方宅,苏州市姑苏区钮家巷33号,江苏省,苏州市,姑苏区,,unknown,
baidu,f3d7d7ef9fc644bf3586f4dc,中张家巷沈宅,苏州市姑苏区平江路中国苏州评弹博物馆,江苏省,苏州市,姑苏区,,unknown,
baidu,9213a7e42b0d06b2b7147fcf,唐宋遗韵,江苏省苏州市姑苏区定慧寺巷苏州大学附属第一医院(十梓街院区)北侧约80米,江苏省,苏州市,姑苏区,,unknown,
baidu,7c198b2ccf494c8ea8f72970,纫兰室,苏州市姑苏区仓街小新桥巷6号(近平江路)耦园内,江苏省,苏州市,姑苏区,,unknown,
baidu,a7c56ee08674e8b3a3acc44c,章太炎旧居,江苏省苏州市姑苏区锦帆路38号,江苏省,苏州市,姑苏区,(0512)65226618,unknown,
baidu,3a1e15b384b6991dd81318a3,还砚斋,苏州市姑苏区耦园,江苏省,苏州市,姑苏区,,unknown,
baidu,9603b1193cf12351bd4842f1,安乐国,苏州市姑苏区仓街小新桥巷6号(近平江路)耦园内,江苏省,苏州市,姑苏区,,unknown,
baidu,e5de8279a7f6929b5abbbc36,楼大厅,苏州市姑苏区仓街小新桥巷6号(近平江路)耦园内,江苏省,苏州市,姑苏区,,unknown,
baidu,4bbfa3f98ffd728188fc0685,古昭庆寺,苏州市姑苏区大儒巷38号,江苏省,苏州市,姑苏区,,unknown,
baidu,93d62d976182cf69d518b79d,董氏义庄,苏州市姑苏区钮家巷33号,江苏省,苏州市,姑苏区,,unknown,
baidu,a45f429e8ceafc02e01103d3,肖家巷桑宅,苏州市姑苏区肖家巷31号,江苏省,苏州市,姑苏区,,unknown,
baidu,a468aed1f460b86f9d95deef,邓氏祠堂,苏州市姑苏区白塔东路65号苏州平江历史文化街区,江苏省,苏州市,姑苏区,,unknown,
baidu,43b56be13d5bf41032621206,潘祖荫故居,江苏省苏州市姑苏区白塔东路65号苏州平江历史文化街区内,江苏省,苏州市,姑苏区,,unknown,
baidu,4bb049d9e3ec0646990050cf,艾步蟾故居,苏州市姑苏区肖家巷15号,江苏省,苏州市,姑苏区,,unknown,
baidu,b94fee5d7aaac842f90cadd7,魁星阁,苏州市姑苏区苏州耦园,江苏省,苏州市,姑苏区,(0512)67272717,unknown,
baidu,d1f37797a979a08e902ca365,定慧寺巷人口文化园,苏州市姑苏区定慧寺巷与苏公弄交叉路口往东约90米,江苏省,苏州市,姑苏区,,unknown,
baidu,42181c80dae5facb6168586d,纱帽厅,苏州市姑苏区平江街道钮家巷3号苏州状元博物馆,江苏省,苏州市,姑苏区,,unknown,
baidu,c7cf888b09594ae2f723109a,柳枝河,苏州市姑苏区仓街苏州平江历史文化街区,江苏省,苏州市,姑苏区,,unknown,
baidu,8ec44ae10f4162ba43024597,伫月亭,苏州市姑苏区白塔东路65号苏州平江历史文化街区,江苏省,苏州市,姑苏区,,unknown,
baidu,625d645ba63ba745e8e58270,后厅,苏州市姑苏区平江街道钮家巷3号苏州状元博物馆,江苏省,苏州市,姑苏区,,unknown,
baidu,361055ea9dd612ddb6147f30,罗汉院正殿遗址,定慧寺巷吴作人艺术馆附近罗汉院双塔及正殿遗址,江苏省,苏州市,姑苏区,(0512)65227778,unknown,
baidu,2fd2beab04b9792f7adbd252,周瘦鹃故居,苏州市姑苏区王长河头3号,江苏省,苏州市,姑苏区,,unknown,
baidu,a48e8e558c9551bdae31e5d8,亿堂宝美术馆,江苏省苏州市姑苏区大柳枝巷18号,江苏省,苏州市,姑苏区,,unknown,
baidu,1e7efde09fa4f1d0fe0eb052,储香馆,苏州市姑苏区仓街小新桥巷6号(近平江路)耦园内,江苏省,苏州市,姑苏区,,unknown,
baidu,9d58fae237e1395f400245a2,苏州古代石刻艺术博物馆,江苏省苏州市姑苏区定慧寺巷双塔及正殿遗址院内(近罗汉院),江苏省,苏州市,姑苏区,(0512)65227778,unknown,
baidu,6c635bd3e49a8887f8221353,状元文化廊,苏州市姑苏区平江街道钮家巷3号苏州状元博物馆,江苏省,苏州市,姑苏区,,unknown,
baidu,08f1f1f5cea7d5b488db7379,中共苏州独立支部旧址,苏州市姑苏区体育场路4号,江苏省,苏州市,姑苏区,(0512)67701925,unknown,
baidu,cefe2c4b885436adb3077d10,友苏美术馆,江苏省苏州市姑苏区平江路112-113号,江苏省,苏州市,姑苏区,,unknown,
baidu,a46800fe2308dd056c20b9fc,潘世恩故居,苏州市姑苏区临顿路钮家巷3号,江苏省,苏州市,姑苏区,,unknown,
baidu,d51c072ca0a04c66dbeced2a,轿厅,苏州市姑苏区平江街道钮家巷3号苏州状元博物馆,江苏省,苏州市,姑苏区,,unknown,
baidu,eca3bbabff55304e03ec01d5,弄堂阁评弹馆,苏州市姑苏区萼坊3号平江路31号,江苏省,苏州市,姑苏区,,unknown,
baidu,14085ca7e25ba3d422026236,邃谷,苏州市姑苏区仓街小新桥巷6号耦园,江苏省,苏州市,姑苏区,,unknown,
baidu,109452f35181dac3b4265541,苏州大学(天赐庄校区)-文乃史雕像,苏州市姑苏区干将东路333号苏州大学(天赐庄校区)排球场北侧,江苏省,苏州市,姑苏区,,unknown,
baidu,ea89d0ee94641db4a6da398c,游廊,苏州市姑苏区干将东路与莫邪路交叉口西200米相门城墙文化休闲景区内,江苏省,苏州市,姑苏区,,unknown,
baidu,1fa7f41113e5cea64f3a5972,门厅,苏州市姑苏区仓街小新桥巷6号(近平江路)耦园内,江苏省,苏州市,姑苏区,,unknown,
baidu,a54d2fb0cbd4ab3d9ee32125,郭绍虞故居,苏州市姑苏区大新桥巷12、13、20号,江苏省,苏州市,姑苏区,,unknown,
baidu,7aea43b79aed2e857c29bd78,袁学澜故居,苏州市姑苏区官太尉15号(近定慧寺巷),江苏省,苏州市,姑苏区,,unknown,
baidu,efec39da565ce886c5effbbe,元和县城隍庙,苏州市姑苏区肖家巷48号,江苏省,苏州市,姑苏区,,unknown,
baidu,d87728275afe34512e473369,挹清廊,江苏省苏州市姑苏区南显子巷苏州平江历史文化街区,江苏省,苏州市,姑苏区,,unknown,
baidu,520c6f52406c17a96f476083,韩崇故居,苏州市姑苏区大儒巷迎晓里一弄4号,江苏省,苏州市,姑苏区,(0512)65158512,unknown,
baidu,ce02c49afee737a2601c6780,樨夷堂,江苏省苏州市姑苏区中张家巷29号,江苏省,苏州市,姑苏区,,unknown,
baidu,f095497b6163d3eeacee7ad0,张辛稼旧居,苏州市姑苏区肖家巷观前庭院北门东侧约30米,江苏省,苏州市,姑苏区,,unknown,
baidu,69fcd6dff449d153ca291514,潘镒芬故居,苏州市姑苏区大儒巷44号,江苏省,苏州市,姑苏区,,unknown,
baidu,709745e3e0274f87eedfcaf8,唯亭顾氏十五世八兄弟故居,十梓街116-3号附近,江苏省,苏州市,姑苏区,,unknown,
baidu,91dfb565e758f078c61e51cd,顾颉刚故居,苏州市姑苏区临顿路悬桥巷顾家花园4-1号,江苏省,苏州市,姑苏区,,unknown,
baidu,558e7b5704268471b817e715,辟疆小筑遗址,苏州市姑苏区凤凰街334号,江苏省,苏州市,姑苏区,,unknown,
baidu,b61c0693c29387b16ca3cc19,苏肇冰故居,江苏省苏州市姑苏区顾家花园13号楼(平江路西),江苏省,苏州市,姑苏区,,unknown,
baidu,b0dcefd76a735846c9fa5f80,苏州飞渡水上运动俱乐部,干将东路相门城墙文化休闲景区城楼,江苏省,苏州市,姑苏区,13584846354,unknown,
baidu,4ed927f85515b377c61b756c,拾方·中张里云智慧艺术街区,江苏省苏州市姑苏区中张家巷27号,江苏省,苏州市,姑苏区,13382173023,unknown,
baidu,53fb4301d058831f85420e3d,平江路核心展示园,江苏省苏州市姑苏区平江街道大儒巷53-1号,江苏省,苏州市,姑苏区,,unknown,
baidu,8384956b2c4f5b95246e98b9,明堂锦衣汉服旅拍,江苏省苏州市姑苏区平江路29号,江苏省,苏州市,姑苏区,18063393956,unknown,
baidu,e669d1ac9d406714abf0cd73,半安里,苏州市姑苏区仓街苏州平江历史文化街区,江苏省,苏州市,姑苏区,,unknown,
baidu,6d513df661ebb575a7c75653,埜土陶艺diy手作集合店,百合弄15号,江苏省,苏州市,姑苏区,18021301693,unknown,
baidu,3ed63eb78aecd080cac3db55,彩虹Rainbow·日咖夜酒,观前平江美居酒店干将东路535号L1室,江苏省,苏州市,姑苏区,,unknown,
baidu,5e3a13e63f0212b5b2077d43,小赢行棋牌会所(莫邪路店),莫邪路水景丽舍,江苏省,苏州市,姑苏区,"15850220273,18251192110",unknown,
baidu,d8aaacc0518019dcbe4842eb,壹叁DIY银饰(苏州店),观前街和基广场2楼228室（DK台球电梯上二楼）,江苏省,苏州市,姑苏区,19942081415,unknown,
baidu,71c50ac8f12594ef97ec84fc,魔女喝喝精酿酒屋(姑苏店),莫邪路1058号12幢105室,江苏省,苏州市,姑苏区,18012637057,unknown,
baidu,1f33a9d0d37480b34e2fdf14,Boozy Bar(双塔店),石匠弄30号,江苏省,苏州市,姑苏区,"18625244997,18862212333",unknown,
baidu,a3fb8668639d5488d81318eb,知弦社评弹茶馆(平江路店),平江路306号,江苏省,苏州市,姑苏区,13962199506,unknown,
baidu,e56bf5e373cb10390782c27a,风云再起游乐汇(苏州观前街店),施相公弄24-36号粤海广场1号楼2楼,江苏省,苏州市,姑苏区,(0512)67777086,unknown,
baidu,5c6b9e5f7d5bfa6529fc48fe,Trustarry繁星BAR(平江店),大儒巷33号8105-8108室,江苏省,苏州市,姑苏区,15716240097,unknown,
baidu,5732896f824328cb6f4760be,箬隐·茶宿(平江路店),卫道观前28号,江苏省,苏州市,姑苏区,15995854898,unknown,
baidu,315c953e196c2a879a0050f8,酒电TelephoneBar,干将东路636号,江苏省,苏州市,姑苏区,18020862582,unknown,
baidu,e57a5840e59332992cb17e30,Mandy's Bar(平江路东升里店),平江路钮家巷东升里6号半巴黎会馆3楼,江苏省,苏州市,姑苏区,18551286072,unknown,
baidu,7a29b129b6610389df1e52b6,苏禧Taproom精酿啤酒吧,仓街117号,江苏省,苏州市,姑苏区,18550516443,unknown,
baidu,bd8e433fea6227444302455d,凯歌KTV(苏州观前店),富仁坊45-55号观风数码广场5楼,江苏省,苏州市,姑苏区,,unknown,
baidu,cd1450b4ee20316036b06cb0,Together·Bar&Lounge,钮家巷5-1号留香客栈隔壁（平江路和临顿路间 留香客栈旁）,江苏省,苏州市,姑苏区,13912603615,unknown,
baidu,a59eaf0d78318a0a09a8d46f,长藤鬼校(观前店),平江街道太监弄1-19号负一层(苏地人家屈臣氏对面),江苏省,苏州市,姑苏区,19901485208,unknown,
baidu,2c821d9d44a8137c8605bf84,艾伦司小酒馆(观前店),双成巷14号玄妙广场(近星德罗，风铃隔壁),江苏省,苏州市,姑苏区,18112608397,unknown,
baidu,541091255fc6271d8c55ec74,普乐星量贩KTV(观前街二店),邵磨针巷76号3楼（近观前街人民商场，观前小公园处）,江苏省,苏州市,姑苏区,,unknown,
baidu,7a1f6f9b2d3c5cdafb2d61a6,苏柒下午茶·青梅酒·杨梅酒,大儒巷27号,江苏省,苏州市,姑苏区,13771779885,unknown,
baidu,772427bceb4222949d82ea36,相门古城墙-遗址广场,江苏省苏州市姑苏区相门城墙文化休闲景区内,江苏省,苏州市,姑苏区,,unknown,
baidu,25ec69fcc3f6ae64c36c1493,随意漫谈(仓街店),仓街14号,江苏省,苏州市,姑苏区,15850257960,unknown,
baidu,b5834f75687a7babc4f50db8,相门城楼,苏州市姑苏区干将东路相门古城墙-城墙遗址,江苏省,苏州市,姑苏区,(0512)66501116,unknown,
baidu,d28b3725dd38de26b4f42fa3,苏州大学浴室(晴岚路),苏州市姑苏区文星东路苏州大学(天赐庄校区),江苏省,苏州市,姑苏区,,unknown,
baidu,091a2bf85e4c93404e776e0e,巨可可·沉浸式恋爱剧场·剧本杀·鹅鸭杀(苏州相门城墙店),干将东路相门城墙文化休闲景区A5-A8,江苏省,苏州市,姑苏区,,unknown,
baidu,b2e29689be6d28d2373a71d4,鹂鹂歌舞厅,干将路113号3栋,江苏省,苏州市,姑苏区,,unknown,
baidu,350de7ecd8833a361b11d5b6,Goatee,建新巷与丁家巷交叉口丽景苑3-103商铺（随柳居正对面）,江苏省,苏州市,姑苏区,13616202603,unknown,
baidu,539d0162cc77a2aa9de321e9,是个圈·发财人大会(视界1956店),江苏省苏州市姑苏区大儒巷33号,江苏省,苏州市,姑苏区,,unknown,
baidu,cf080bd2c459a96a58f6bea9,聆韵社评弹茶馆(平江路店),平江路31号,江苏省,苏州市,姑苏区,13862409815,unknown,
baidu,b972b69df400cca62efaa7ca,放肆壹笑喜剧中心,苏州市姑苏区富人坊巷观凤数码广场4楼,江苏省,苏州市,姑苏区,18013208056,unknown,
baidu,f373251fa0c10caef6e73b7b,憩cocktail&whisky,南石子街12-3(端善堂二期),江苏省,苏州市,姑苏区,,unknown,
baidu,74c8459d77eb91847ec876e8,抽象形画室,干将东路666号和基广场339室,江苏省,苏州市,姑苏区,"(0512)68201999,18625001560",unknown,
baidu,de2a51d4bfe8131b601c6765,欣鑫中医学推拿,江苏省苏州市姑苏区干将东路109号,江苏省,苏州市,姑苏区,,unknown,
baidu,7875834240d11530ad04578e,嘻哈壹笑堂相声茶馆(大儒巷店),平江街道大儒巷38号(近长发商场),江苏省,苏州市,姑苏区,15501671393,unknown,
baidu,8b9c3944dd3ce0f22b201a07,守艺紫砂壶手作定制·绘画·陶艺,苏州市姑苏区凤凰街207号106室,江苏省,苏州市,姑苏区,15051517574,unknown,
baidu,82d6bf717185e0c27adbd221,寒香会社·茶饮评弹·文创(平江路店),平江路37号,江苏省,苏州市,姑苏区,15962155615,unknown,
baidu,cc054b1de7844fcdd72ce289,双塔影园,苏州市姑苏区官太尉15号,江苏省,苏州市,姑苏区,,unknown,
baidu,34d802aff0a12e79a5c756a5,山有木兮·禅空间,肖家巷57号,江苏省,苏州市,姑苏区,18059141425,unknown,
baidu,189eabd150b64bb71188249a,因梅画室,江苏省苏州市姑苏区大儒巷55号二进二楼,江苏省,苏州市,姑苏区,,unknown,
baidu,129b422db168104bae080f4c,康博中医推拿,江苏省苏州市姑苏区钮家巷9号,江苏省,苏州市,姑苏区,13776063067,unknown,
baidu,4edf9fbf4bf6ea8dcd06a4f4,大光明影城(观前街店),观前街北局9号,江苏省,苏州市,姑苏区,(0512)65115828,unknown,
baidu,84acd9d84b0469152eb9083f,信茗轩·茶舍(定慧寺街店),凤凰街定慧寺巷92号（临顿路地铁站1号口步行420米）,江苏省,苏州市,姑苏区,13862296499,unknown,
baidu,3a9c509b9578834f71210b42,汀善茶道,凤凰街207号3楼半（從初心社入口上樓）,江苏省,苏州市,姑苏区,15995770787,unknown,
baidu,0687c919815aa064b54f5423,非人类鲜调鸡尾酒(姑苏店),莫邪路1058号12幢105室,江苏省,苏州市,姑苏区,,unknown,
baidu,85c42903d9d509b9363a719a,80手作,平江街道钮家巷17号,江苏省,苏州市,姑苏区,15995711733,unknown,
baidu,81ee818e3ab7e4f04e5547c4,苏州大学浴室(育才路),江苏苏州市姑苏区十梓街1号,江苏省,苏州市,姑苏区,,unknown,
baidu,69e3fcff04683001c26c14d6,苏州苏舍私人影院,"建新巷14号2幢4号（苏舍民宿内,地铁1号线临顿路站3号出口,近拙政园）",江苏省,苏州市,姑苏区,(0512)67774140,unknown,
baidu,43e39e23016cb6d38a36ee1e,大有生活,钮家巷21号(临顿路地铁站3号口步行400米),江苏省,苏州市,姑苏区,18621614664,unknown,
baidu,1f3455532eb65bfcd0ff239d,止碌茶家,平江路125号104,江苏省,苏州市,姑苏区,18136060857,unknown,
baidu,4043a6f35fd58402f822130e,等风茶空间,江苏省苏州市姑苏区中张家巷2号大院3栋101室,江苏省,苏州市,姑苏区,15962105956,unknown,
baidu,c05e34fee304e87d581093ba,有家好花茶,定慧寺巷127号（定慧寺庙对面巷内10米）,江苏省,苏州市,姑苏区,4009993897,unknown,
baidu,d72e074a61f456dd5e0d0292,声入姑苏·平江沉浸剧场,平江路钮家巷东升里6号半巴黎会馆,江苏省,苏州市,姑苏区,,unknown,
baidu,c8e58f0e3e2346f0f2193700,寺里茶舍,大儒巷38-2,江苏省,苏州市,姑苏区,13675802903,unknown,
baidu,88c0fa68d8e5ccc725e0a030,猫九,平江路历史街区大儒巷53号,江苏省,苏州市,姑苏区,18018139318,unknown,
baidu,4788b89d71f24c87f7e73bd4,星河铁匠铺(观前店),和基L4-447号商铺,江苏省,苏州市,姑苏区,13678192472,unknown,
baidu,39b003190f9ef30ca80dd809,吴苑深处书场,中张家巷3号,江苏省,苏州市,姑苏区,,unknown,
baidu,3c56791874c8a9830a5cb351,清曲茶事·围炉煮茶·咖啡,中张家巷21号,江苏省,苏州市,姑苏区,18013122025,unknown,
baidu,34d3499a64112a1579b55ca5,江南米造局(平江路店),平江路106号,江苏省,苏州市,姑苏区,13913555587,unknown,
baidu,f280e79d0b6e9dbdc336445a,花事晴岚汉服体验馆(平江路店),中张家巷4号,江苏省,苏州市,姑苏区,13585206614,unknown,
baidu,4a8be087597184646cc02cec,花间小酿,钮家巷30号,江苏省,苏州市,姑苏区,18501580915,unknown,
baidu,696fb5a476c2f62195ec84ed,一生一熟茶空间,建新巷47号(临顿路地铁站3号口步行460米),江苏省,苏州市,姑苏区,13771720275,unknown,
baidu,f0abcc4e24d2841760180951,耦园书场,平江街道小新桥巷6号,江苏省,苏州市,姑苏区,,unknown,
baidu,1e661ebf1b27dc307069d3aa,初心会城市会客厅,相门古城墙D2-D3室,江苏省,苏州市,姑苏区,15850637652,unknown,
baidu,07f3c8b53582a1636240a977,沁馨宾馆(莫邪路店),莫邪路相门后庄4号,江苏省,苏州市,姑苏区,(0512)67580025,unknown,
baidu,f3a3398e4939e6ea1b94c602,苏州观前平江美居酒店(苏州观前平江店),江苏省苏州市姑苏区干将东路535号,江苏省,苏州市,姑苏区,(0512)85187000,unknown,
baidu,ad4b913be2dc59c16c3e1b15,一云居民宿(定慧寺巷1号分店),苏州市姑苏区定慧寺巷罗汉院双塔及正殿遗址,江苏省,苏州市,姑苏区,,unknown,
baidu,67082678c5e3500003ec0165,怡然青年旅舍(平江路店),干将东路636号4栋102室,江苏省,苏州市,姑苏区,17702519205,unknown,
baidu,1cfeaa4ce1769db175e5b6bc,苏州金帝宾馆(平江路店),苏州姑苏区干将东路195号,江苏省,苏州市,姑苏区,(0512)67778181,unknown,
baidu,d27e6cd5703ed01b94ec8401,苏州观前平江CitiGO欢阁酒店,干将东路535号,江苏省,苏州市,姑苏区,(0512)81880111,unknown,
baidu,f5180fe87a169ce88505bf82,苏州嘘童时代青旅,干将东路636丽景苑4-104,江苏省,苏州市,姑苏区,"13914785342,13915430248",unknown,
baidu,affbe98434ecea601b11d5e7,汉庭优佳酒店(苏州观前街乐桥地铁站店),江苏省苏州市姑苏区人民路1264号,江苏省,苏州市,姑苏区,(0512)87779368,unknown,
baidu,abe4673cba58a3c56fa3ccef,苏州金鸡湖希尔顿欢朋酒店,江苏省苏州市工业园区东环路88号,江苏省,苏州市,苏州工业园区,(0512)89188588,unknown,
baidu,2cfdb7d3a43763373c9a5e14,苏州水墨平江漫心府,干将东路548号（与平江路交叉口）,江苏省,苏州市,姑苏区,18962112198,unknown,
baidu,b1b2bbc7890a6f48f623109a,如家商旅酒店(苏州观前街店),景德路73号,江苏省,苏州市,姑苏区,(0512)68019088,unknown,
baidu,55fa2c0b4b37e3341ce999ca,苏州南园宾馆,江苏省苏州市姑苏区带城桥路99号,江苏省,苏州市,姑苏区,(0512)88977575,unknown,
baidu,579d53dc60d2b748e81e975b,全季酒店(苏州观前街乐桥地铁站店),江苏省苏州市姑苏区人民路1168号,江苏省,苏州市,姑苏区,(0512)65233333,unknown,
baidu,6532be9e67fbe563b320a8be,全季酒店(苏州观前街察院场地铁站店),江苏省苏州市姑苏区人民路1331号,江苏省,苏州市,姑苏区,(0512)68112666,unknown,
baidu,bff8fa7d9ca608b9c9213dae,书香府邸平江府大酒店,江苏省苏州市姑苏区白塔东路60号,江苏省,苏州市,姑苏区,(0512)67706688,unknown,
baidu,18405e96930a1b4db6147f28,北疆商务酒店(观前街平江路店),干将东路428号,江苏省,苏州市,姑苏区,"(0512)65114888,(0512)67557123",unknown,
baidu,8f5838237a1600121f5800ba,扉缦酒店(苏州大学平江路相门地铁站店),江苏省苏州市姑苏区干将东路461号,江苏省,苏州市,姑苏区,18051118958,unknown,
baidu,1d64aab5e819023f17c8f64c,苏州小羊公寓(苏州城墙博物馆分店),江苏省苏州市姑苏区甲辰巷22号,江苏省,苏州市,姑苏区,,unknown,
baidu,33bffbb4f31c0c966240a9d4,全季酒店(观前步行街店),江苏省苏州市姑苏区平江街道观前街57~69号,江苏省,苏州市,姑苏区,(0512)66503131,unknown,
baidu,4ea3f2f1ba9925b3aecb6655,苏州三元宾馆,江苏省苏州市姑苏区人民路887号,江苏省,苏州市,姑苏区,(0512)65110111,unknown,
baidu,7a53cb92029e40c81b94c6ec,苏州观前街漫心酒店,江苏省苏州市姑苏区大井巷9号,江苏省,苏州市,姑苏区,"0512-69851666,18118475229",unknown,
baidu,64756bbddbd09abf2902e119,苏州AC酒店,江苏省苏州市姑苏区人民路1585号,江苏省,苏州市,姑苏区,(0512)69161666,unknown,
baidu,6c3534b0331d730d9868b46a,行乐酒店(苏州观前街平江路店),江苏省苏州市姑苏区凤凰街318号,江苏省,苏州市,姑苏区,"(0512)68301658,19047038197",unknown,
baidu,b5a1d3009ba18ef322022036,苏州中心大酒店,苏州市姑苏区道前街100号,江苏省,苏州市,姑苏区,(0512)65220606,unknown,
baidu,2190b9d05aad5c2e81a12ec2,苏州文旅姑苏小院·仓西公馆,平江路混堂巷20-2号,江苏省,苏州市,姑苏区,(0512)65966099,unknown,
baidu,3a42e8c1e2533046eee4a537,苏州平江金鸡湖精品民宿,苏州市姑苏区唐家巷小区,江苏省,苏州市,姑苏区,,unknown,
baidu,fe604180cc512281cafa5f6f,苏州浅斟民宿(干将东路分店),苏州市姑苏区肖家巷苏州平江历史文化街区,江苏省,苏州市,姑苏区,,unknown,
baidu,a72f591e724324e59868b483,阿苏之家客栈(钮家巷分店),苏州市姑苏区钮家巷苏州平江历史文化街区,江苏省,苏州市,姑苏区,,unknown,
baidu,9af5d3d7a7b15976fa0cad37,翰尔酒店(苏州观前街平江路店),平江路66号,江苏省,苏州市,姑苏区,"(0512)67777189,18013629256",unknown,
baidu,a9087bbc4fccb5fb6e20b98c,扉缦酒店(苏州大学观前街平江路店)-大堂,江苏省苏州市姑苏区干将东路461号,江苏省,苏州市,姑苏区,,unknown,
baidu,f15b154bb3e44bff7adbd2d1,苏州小厨娘客栈,钟楼新村23号,江苏省,苏州市,姑苏区,,unknown,
baidu,ce73b255a08eeceef5231053,苏州仓街的虚舍,混堂巷26号,江苏省,苏州市,姑苏区,15262671368,unknown,
baidu,2e2c785ea019696508f5eb95,懒窝生活(苏州平江路店),平江路26号,江苏省,苏州市,姑苏区,18962130362,unknown,
baidu,bf9545306bf67b348936ee06,伊鹿象前度假别墅(仓街分店),苏州姑苏区蕴秀园,江苏省,苏州市,姑苏区,,unknown,
baidu,3e6feba8fdaa7c13abf72996,漫香1号特色民宿(中张家巷分店),江苏省苏州市姑苏区平江街道邾长巷十八号,江苏省,苏州市,姑苏区,,unknown,
baidu,a83ddfe8909ea24215c90564,自由流浪度假别墅(望星桥北堍分店),苏州市姑苏区祖家桥12号楼,江苏省,苏州市,姑苏区,18107697869,unknown,
baidu,d2bb88f801902d87441a328c,苏州誉兰小院客栈,江苏省苏州市姑苏区祖家桥1号,江苏省,苏州市,姑苏区,"13382190213,13771805699",unknown,
baidu,4316c51241831e637bf79654,苏州啊茹客栈(定慧寺分店),江苏省苏州市姑苏区建新巷47号,江苏省,苏州市,姑苏区,,unknown,
baidu,65fd0e741ef7357215764339,闲庭悦酒店,苏州市建新巷14号,江苏省,苏州市,姑苏区,18168972272,unknown,
baidu,6aac32458c4aaa7edc1e52f5,苏州卫道28民宿,江苏省苏州市姑苏区卫道观前,江苏省,苏州市,姑苏区,,unknown,
baidu,6314935e64b02eb1f7e73b17,苏州晴天宏温馨家庭亲子房公寓(钮家巷分店),江苏省苏州市姑苏区钮家巷30号,江苏省,苏州市,姑苏区,15250084583,unknown,
baidu,e30328b020b9d7b438e4a624,平江影栖公寓(平江路分店),江苏省苏州市姑苏区平江路张家桥浜西门南侧约90米,江苏省,苏州市,姑苏区,,unknown,
baidu,016ccddd87c5e82f51e5c58c,苏州朝花夕拾别墅,塔影苑小区(平江路),江苏省,苏州市,姑苏区,,unknown,
baidu,16a816dc6cab036aaeb22af6,苏州水星记客栈,江苏省苏州市姑苏区干将东路588号,江苏省,苏州市,姑苏区,,unknown,
baidu,a1ef90d3d16121661e5800e2,清咖小屋公寓(苏州观前街店),江苏省苏州市姑苏区凤池弄8号203号,江苏省,苏州市,姑苏区,13951106070,unknown,
baidu,56593bdac824250abda24052,苏州芦花之堂公寓,临顿路，长发商厦旁建新巷,江苏省,苏州市,姑苏区,18115679683,unknown,
baidu,04fffba2e74325f04151c0fd,美厨快捷酒店(观前街店),江苏省苏州市姑苏区唐家巷42号,江苏省,苏州市,姑苏区,,unknown,
baidu,09732162eff3526a774ff137,紫云山房·一小间,横巷17号,江苏省,苏州市,姑苏区,,unknown,
baidu,185b0f9e1ea64afe49fc8d6a,苏州Nomad's Home公寓,江苏省苏州市姑苏区前庄巷(锦书清华里),江苏省,苏州市,姑苏区,,unknown,
baidu,4615151b04c773d4ab0dd885,千禧小筑(卫道观前分店),江苏省苏州市姑苏区平江街道平江路103,江苏省,苏州市,姑苏区,,unknown,
baidu,cdef4edf37d9d35728d7ab56,苏州苏哥利酒店,乔司空巷27-33号观前粤海广场,江苏省,苏州市,姑苏区,"(0512)67770777,17761890781",unknown,
baidu,da6d0f8cce224fe70bccddbd,悦宿美居互联网酒店式公寓(苏州钮家巷店),苏州市姑苏区平江路平江花园西北门东北侧约70米,江苏省,苏州市,姑苏区,,unknown,
baidu,09be14c6bb027cb7b9df8fa5,仓蕴拾墅度假别墅(仓街分店),苏州市姑苏区蕴秀园31幢,江苏省,苏州市,姑苏区,15901997167,unknown,
baidu,d23c6f2fab5cba726f4760a6,HR陈朋民宿(观前街2号店),苏州市姑苏区卫道观前苏州平江历史文化街区,江苏省,苏州市,姑苏区,,unknown,
baidu,d363a86eecbd486b22022033,苏州左舍公寓,苏州市姑苏区苏公弄塔影苑小区,江苏省,苏州市,姑苏区,,unknown,
baidu,2445523989a233da09a8d4f0,苏州王俊焱公寓,江苏省苏州市姑苏区钮家巷31号,江苏省,苏州市,姑苏区,,unknown,
baidu,c9a511eae1df117d4f6d4692,卫道观前,苏州市姑苏区平江路94号,江苏省,苏州市,姑苏区,,unknown,
baidu,40751849d8328bf9aeb22a1f,苏州萌萌哒蜜糖小兔兔公寓,苏州市姑苏区钮家巷苏州平江历史文化街区,江苏省,苏州市,姑苏区,,unknown,
baidu,548b5c090ec8562db2077d7b,汉亭舫公馆,江苏省苏州市姑苏区莫邪路647号,江苏省,苏州市,姑苏区,,unknown,
baidu,5ad3ac11e0a37ece8605bfb1,小刚兄客栈(中张家巷分店),江苏省苏州市姑苏区平江街道邾长巷十八号,江苏省,苏州市,姑苏区,,unknown,
baidu,9b6628f6c303c5062fb908bb,苏州北疆饭店大堂,江苏省苏州市姑苏区平江街道干将东路432号,江苏省,苏州市,姑苏区,,unknown,
baidu,e70f9eede22202e9dad89111,苏州明堂青年旅舍(平江店)-大堂,苏州市姑苏区平江路28号,江苏省,苏州市,姑苏区,,unknown,
baidu,c53d12eeae0532aa95ca07bf,途虎养车(观前店),干将东路666号,江苏省,苏州市,姑苏区,13732622509,unknown,
baidu,285a202ea9094f62a7c756e1,清风车影维修美容人工自助洗车(莫邪路店),莫邪路三新路路口往北66米,江苏省,苏州市,姑苏区,18013530009,unknown,
baidu,089881afb111497ec16c140b,苏州恒丰店,苏州市姑苏区鹅颈湾皇宫后北侧,江苏省,苏州市,姑苏区,,unknown,
baidu,aa2b6a8a79ac58782efaa7cc,贵宇汽修,仓街160号-1（近白塔东路）,江苏省,苏州市,姑苏区,15850224994,unknown,
baidu,13d9cf6e3a7eb43087330443,阿里车汽修厂,东环时代广场地下负一层,江苏省,苏州市,苏州工业园区,,unknown,
baidu,cac5fc76497424f32cb96d50,苏州康福丰田汽车销售服务有限公司(中新大道店),苏州市苏州工业园区中新大道西188号,江苏省,苏州市,苏州工业园区,(0512)67618588,unknown,
baidu,0c1847e27fe409663b221ca0,闪电虎租车(观前街店),江苏省苏州市姑苏区颜家巷5号,江苏省,苏州市,姑苏区,17625366653,unknown,
baidu,74113541bf2491319122e084,百盛汽车座套沙发套,江苏省苏州市姑苏区三新路51号,江苏省,苏州市,姑苏区,13218108562,unknown,
baidu,5c9a63da417fa74e6f3e1b76,车驿堂汽车美容(万科美好广场店),湖西社区工作委员会万科美好广场负一楼A-B区停车间,江苏省,苏州市,苏州工业园区,18061937880,unknown,
baidu,fd0a323c12f3f557eedfca4e,苏州市卓越汽车维修厂,江苏省苏州市姑苏区杨枝塘路102号,江苏省,苏州市,姑苏区,13915533524,unknown,
baidu,2adc722ed417c770b05c6a76,东港新村-左邻右里汽车修理部,东港家怡社区居委会停车场,江苏省,苏州市,苏州工业园区,15358817890,unknown,
baidu,5cc5c166b25bcd02cc06a49b,速保汽车服务部,江苏省苏州市姑苏区糖坊湾20-4号,江苏省,苏州市,姑苏区,18862100314,unknown,
baidu,69ef931ea6bf551079b55ce4,一嗨租车(观前街店),江苏省苏州市姑苏区人民路1203号,江苏省,苏州市,姑苏区,,unknown,
baidu,b49a6c40b020f51ec42ba15e,老万修车,江苏省苏州市姑苏区相王路31号,江苏省,苏州市,姑苏区,,unknown,
baidu,fb85ff6652b2af4e6b49f3cc,麦吉星车业,湖西社区工作委员会东环路1580号万宝商业广场F1,江苏省,苏州市,苏州工业园区,13814845567,unknown,
baidu,72e84e7e1932b8d7902ca3d7,苏鲲汽车(人民路店),江苏省苏州市姑苏区人民路1421号,江苏省,苏州市,姑苏区,,unknown,
baidu,bbb1f9924ee37e5d873304d1,闪电虎租车(拙政园店),江苏省苏州市姑苏区东北街89号,江苏省,苏州市,姑苏区,17625366653,unknown,
baidu,91c13f931fa0238421f01765,苏州世家轮胎有限公司,江苏省苏州市苏州工业园区东环路118号徐家浜新村22幢101室,江苏省,苏州市,苏州工业园区,(0512)67159958,unknown,
baidu,73acb3fbbc3138992fe67bf0,闪电虎租车(因果巷店),江苏省苏州市姑苏区因果巷49号,江苏省,苏州市,姑苏区,17651210888,unknown,
baidu,0210fcd80502c305f8dc8573,玛吉斯轮胎补胎搭电汽修厂,江苏省苏州市姑苏区民治路s329,江苏省,苏州市,姑苏区,,unknown,
baidu,23eed59d19047bf659bbbc00,靓车管家(欧尚三楼店),湖西社区工作委员会中新大道西181号紫藤街欧尚大润发3楼停车场,江苏省,苏州市,苏州工业园区,"15851585678,19949144754",unknown,
baidu,5011172590e1f0a201294feb,喜洗乐自助洗车,江苏省苏州市姑苏区平江街道人民路1536号,江苏省,苏州市,姑苏区,,unknown,
baidu,675f527c664d3255f6c59c63,闪电虎租车(景德路雅迪店),江苏省苏州市姑苏区景德路110号,江苏省,苏州市,姑苏区,15824388041,unknown,
baidu,1b5f161283dfb12ce856fabf,LYNK&CO(人民路店),苏州市姑苏区人民路第一百货北侧约100米,江苏省,苏州市,姑苏区,,unknown,
baidu,c7bb41bf61132ca7fa0cad5d,幻豆租车(拙政园店),江苏省苏州市姑苏区东北街61号,江苏省,苏州市,姑苏区,15365339718,unknown,
baidu,373133e0f1af489f08f5eb00,淘车拍二手车,江苏省苏州市苏州工业园区苏茜路129号,江苏省,苏州市,苏州工业园区,"17751090726,18012637405",unknown,
baidu,7dcfbc3edac92e224bcc4a96,苏州华晨汽车租赁有限公司,苏州工业园区东环路1500号现代创展大厦1幢1505室,江苏省,苏州市,苏州工业园区,,unknown,
baidu,b428450472f5b446c256ac5b,拉卡拉POS机官方授权直营店,江苏省苏州市姑苏区平江街道人民路1411,江苏省,苏州市,姑苏区,,unknown,
baidu,779f5c39a96d37c3cb213d4d,神州租车(园区百安居自助点),江苏省苏州市苏州工业园区娄葑街道金鸡湖路208号,江苏省,苏州市,苏州工业园区,18020252521,unknown,
baidu,0197c864f7c5ec352cb17e1c,天伦之乐停车厂,江苏省苏州市姑苏区人民路752号28区8号楼2楼,江苏省,苏州市,姑苏区,,unknown,
baidu,5cc97af5d7fc1ff0f4231065,苏州龙霆豪车租赁,江苏省苏州市苏州工业园区娄门路237号圆迪科技园G-101,江苏省,苏州市,苏州工业园区,15151583588,unknown,
baidu,74c933fba7b415479f82ea81,苏州理想眼科,苏州市姑苏区干将东路200号,江苏省,苏州市,姑苏区,0512-33333333,unknown,
baidu,a5720b9dc15138d26240a928,苏州大学附属第一医院(十梓街院区),苏州市姑苏区十梓街188号,江苏省,苏州市,姑苏区,(0512)65223637,unknown,
baidu,5a9eebc5af563762c72ba169,苏州大学附属理想眼科医院-门诊大楼,江苏省苏州市姑苏区干将东路200号,江苏省,苏州市,姑苏区,,unknown,
baidu,e9878d03c9204f6db54f542a,姑苏区双塔街道钟楼社区卫生服务站,江苏省苏州市姑苏区石匠弄2号钟楼新村11幢,江苏省,苏州市,姑苏区,(0512)80815763,unknown,
baidu,593850fbadce7e44de1e528a,苏州大学医院,江苏省苏州市姑苏区莫邪路742号,江苏省,苏州市,姑苏区,(0512)67165163,unknown,
baidu,c1a4530f68d7a33b88fc068b,苏州大学附属第一医院(十梓街院区)-心血管内科大楼,江苏苏州市姑苏区苏州大学附属第一医院19号楼,江苏省,苏州市,姑苏区,,unknown,
baidu,8cba4bb02bbaf6f9ad045778,苏州大学附属第一医院(十梓街院区)-外科病房大楼,江苏苏州市姑苏区苏州大学附属第一医院8号楼,江苏省,苏州市,姑苏区,,unknown,
baidu,5df92fc089bed32fbd4842dd,苏州大学附属第一医院(十梓街院区)-住院部,江苏省苏州市姑苏区十梓街188号,江苏省,苏州市,姑苏区,,unknown,
baidu,37cb3d97cd4e48909ff77926,苏州大学附属第一医院(十梓街院区)-门诊大楼,苏州市姑苏区苏州大学附属第一医院2号楼,江苏省,苏州市,姑苏区,,unknown,
baidu,8ae665b9f56db7fdca1b95c1,苏州大学附属第一医院(十梓街院区)-中药房,苏州市姑苏区十梓街296号,江苏省,苏州市,姑苏区,,unknown,
baidu,0b39a1e2d84e455043afe633,吴门中医馆(姑苏馆),江苏省苏州市姑苏区凤凰街255号,江苏省,苏州市,姑苏区,(0512)65091699,unknown,
baidu,b1cc703ea1a52da15fd4fe9c,眼部整形,苏州市姑苏区干将东路苏州大学附属理想眼科医院,江苏省,苏州市,姑苏区,,unknown,
baidu,c1b622a64552b148aecb6628,姑苏区双塔街道钟楼社区卫生服务站-发热门诊,苏州市双塔街道钟楼新村石匠弄2号,江苏省,苏州市,姑苏区,(0512)80815763,unknown,
baidu,660c98bf8c200c9f5fbe8624,苏州大学附属第一医院(十梓街院区)-发热门诊,苏州市姑苏区十梓街188号苏州大学附属第一医院(十梓街院区),江苏省,苏州市,姑苏区,,unknown,
baidu,304e29941532bd36f4b91634,闵氏骨伤科,江苏省苏州市姑苏区仓街128号,江苏省,苏州市,姑苏区,(0512)67203963,unknown,
baidu,28e700f169883b18095cb345,南春堂,江苏省苏州市姑苏区凤凰街265号恒丰大厦1楼,江苏省,苏州市,姑苏区,(0512)65223988,unknown,
baidu,b2fd3298d335b9abc5effbef,苏州大学附属第一医院(十梓街院区)-感染病与肝病门诊,苏州市姑苏区十梓街188号苏州大学附属第一医院(十梓街院区),江苏省,苏州市,姑苏区,,unknown,
baidu,ce0d664ee046e4a0eee4a56b,苏州大学附属理想眼科医院住院部,苏州市姑苏区干将东路200号,江苏省,苏州市,姑苏区,,unknown,
baidu,76bacdc86fea499099005004,名医楼,苏州市姑苏区干将东路苏州大学附属理想眼科医院,江苏省,苏州市,姑苏区,,unknown,
baidu,fa7da3e8ff4a9a1f42d63e45,苏州大学附属第一医院(十梓街院区)-皮肤介入科,苏州市姑苏区十梓街296号,江苏省,苏州市,姑苏区,,unknown,
baidu,aeb7576922fab8064afc8d7a,苏州大学附属第一医院-神经外科病区,江苏省苏州市姑苏区十梓街296号,江苏省,苏州市,姑苏区,,unknown,
baidu,0264f81b52da44d6badf8f6a,急救中心,江苏省苏州市姑苏区十梓街296号,江苏省,苏州市,姑苏区,,unknown,
baidu,65c582d48244e1a221f01799,苏州市中心血站,苏州市姑苏区十梓街355号,江苏省,苏州市,姑苏区,(0512)65227128,unknown,
baidu,b824dd44b2e5ea4a581093ab,苏州大学附属第一医院(十梓街院区)-胸外科,苏州市姑苏区十梓街188号苏州大学附属第一医院(十梓街院区),江苏省,苏州市,姑苏区,,unknown,
baidu,9855677d9909e91cadcb66dc,苏州大学附属第一医院(十梓街院区)-泌尿外科,苏州市姑苏区十梓街296号,江苏省,苏州市,姑苏区,,unknown,
baidu,996ec276aa568f67c9c3dbf5,苏州大学附属第一医院(十梓街院区)-临床营养科,苏州市姑苏区十梓街188号苏州大学附属第一医院(十梓街院区),江苏省,苏州市,姑苏区,,unknown,
baidu,a3b9a8463bda0ccb5fbe862a,听得佳听力技术服务部,江苏省苏州市姑苏区干将东路225号云龙大厦7楼701室,江苏省,苏州市,姑苏区,,unknown,
baidu,c9061b4e81caa10609a8d44d,姑苏区平江街道观前社区卫生服务站,江苏省苏州市姑苏区碧凤坊一弄3-9号碧凤坊,江苏省,苏州市,姑苏区,,unknown,
baidu,0af16766637d1a58e01103c2,苏州大学附属第一医院(十梓街院区)-急诊大楼,苏州市姑苏区苏州大学附属第一医院1号楼,江苏省,苏州市,姑苏区,,unknown,
baidu,56a3f16edd018079b75f1eed,苏州大学附属第一医院(十梓街院区)-产前诊断中心,江苏省苏州市姑苏区十梓街206号,江苏省,苏州市,姑苏区,,unknown,
baidu,d4e5152702d5b261d22dd609,苏州眼耳鼻喉科医院(葑门院区),江苏省苏州市姑苏区葑门路72号,江苏省,苏州市,姑苏区,"(0512)67451828,(0512)67481260",unknown,
baidu,9c7f2f9c651dcc751d1d111d,苏州市立医院儿科门诊,江苏省苏州市姑苏区人民路1069号,江苏省,苏州市,姑苏区,,unknown,
baidu,485b6be3ef8f0f1a5e0d023d,爱康国宾(苏州东环分院),苏州市工业园区东环路1408号东环时代广场2楼201,江苏省,苏州市,苏州工业园区,4000890999,unknown,
baidu,18fe4160373346c4b917e749,霍医森医疗用品店,江苏省苏州市姑苏区和基广场3楼335号,江苏省,苏州市,姑苏区,,unknown,
baidu,76e1805263e2029858109305,苏州大学附属第一医院(十梓街院区)-五官科,江苏省苏州市姑苏区双塔街道十梓街188号(苏州大学附属第一医院(总院)旁),江苏省,苏州市,姑苏区,,unknown,
baidu,1d914a88cefd11baf7e73b84,苏州市立医院-母子主楼,江苏省苏州市姑苏区道前街26号9号楼,江苏省,苏州市,姑苏区,,unknown,
baidu,c3e0c0690a4ce643e81e97f7,姑苏区平江街道娄江社区卫生服务中心,江苏省苏州市姑苏区娄门路290号,江苏省,苏州市,姑苏区,(0512)67250886,unknown,
baidu,6deee308c06bdf1428fc48bb,苏州市立医院(东区),苏州市姑苏区白塔西路16号,江苏省,苏州市,姑苏区,(0512)62364155,unknown,
baidu,fe3aa1d6e217ef55b1077d07,苏州口腔医院(观前街院区),江苏省苏州市姑苏区人民路1505号,江苏省,苏州市,姑苏区,"(0512)67275765,(0512)67770696",unknown,
baidu,9ee7cc7895af500e16c9056e,苏州大学附属第一医院(十梓街院区)-保健体检中心,江苏省苏州市姑苏区苏州大学附属第一医院十梓街院区内,江苏省,苏州市,姑苏区,,unknown,
baidu,e990c8dd38897238d13ce384,苏州大学附属第一医院(十梓街院区)-肾内科,苏州市姑苏区十梓街296号,江苏省,苏州市,姑苏区,,unknown,
baidu,6bd1c68dc4d305ebecdfca93,苏州市立医院-母子门诊,江苏省苏州市姑苏区道前街26号苏州市立医院南区2楼,江苏省,苏州市,姑苏区,,unknown,
baidu,263377efceaba155cf06a44e,苏州市立医院口腔医学中心,江苏省苏州市姑苏区人民路750号,江苏省,苏州市,姑苏区,(0512)62362127,unknown,
baidu,680fb70360257b858ab988ae,苏州市立医院,江苏省苏州市姑苏区道前街26号,江苏省,苏州市,姑苏区,(0512)62362233,unknown,
baidu,7524cb4fea1b5d3404026f47,苏州十全诊所,江苏省苏州市姑苏区十全街945~947号,江苏省,苏州市,姑苏区,(0512)65200807,unknown,
baidu,bff8fa7d9f8d0bb9c8213d57,苏州市眼科医院,江苏省苏州市姑苏区书院巷18号,江苏省,苏州市,姑苏区,(0512)65163588,unknown,
baidu,c61bd30544550671c37da2b2,苏州一〇〇医院,江苏省苏州市姑苏区乌鹊桥路53号,江苏省,苏州市,姑苏区,"(0512)80663500,(0512)80663600",unknown,
baidu,6fddd7fd778213663417dcab,苏州大学附属第一医院急救分站,十梓街296号,江苏省,苏州市,姑苏区,,unknown,
baidu,9d983545391ae4666cc02cb1,好眸来青少年视力服务机构,苏州市姑苏区十梓街240号2楼,江苏省,苏州市,姑苏区,,unknown,
baidu,aa577c8e18b3c8fd0ab93a73,苏州市立医院-健康管理中心,苏州市姑苏区人民路865号,江苏省,苏州市,姑苏区,(0512)62362211,unknown,
baidu,50229551bac0ad1104fef5a4,苏州大学附属第一医院(十梓街院区)-行政楼,江苏苏州市姑苏区苏州大学附属第一医院13号楼,江苏省,苏州市,姑苏区,,unknown,
baidu,ffda4aa277107bc0e5e96518,苏大附一院放疗科放疗一区,苏州市姑苏区凤凰街苏州大学附属第一医院(十梓街院区),江苏省,苏州市,姑苏区,,unknown,
baidu,02158bd9bbd5d8ee354aaee1,苏州工业园区宋玲玲宋氏耳针中医诊所,苏州市苏州工业园区东环路东环大厦,江苏省,苏州市,苏州工业园区,,unknown,
baidu,1ba47b41af4d1a8fc26c14bb,苏州大学附属第一医院(十梓街院区)-震波室,苏州市姑苏区十梓街296号,江苏省,苏州市,姑苏区,,unknown,
baidu,abc5adb92928fbdfe3110325,罗氏草堂,江苏省苏州市姑苏区钮家巷13号,江苏省,苏州市,姑苏区,,unknown,
baidu,36b9ef61ef79ac0ced74f88a,惠耳助听器(苏州凤凰街店),江苏省苏州市姑苏区苏州市凤凰街203号,江苏省,苏州市,姑苏区,0512-69159103,unknown,
baidu,4fb08999743998f0b817e79b,苏州大学附属第一医院(十梓街院区)-风湿科,十梓街296号,江苏省,苏州市,姑苏区,,unknown,
baidu,82f2ed2f867fb8c5704b875d,亿视佳青少年视力服务中心,苏州市姑苏区凤凰街100号2楼,江苏省,苏州市,姑苏区,,unknown,
baidu,f696f3c2926019eb1b11d544,海王星辰健康药房(苏州凤凰店),江苏省苏州市姑苏区凤凰街255号,江苏省,苏州市,姑苏区,(0512)65240360,unknown,
baidu,5e492808ec8187939ff77973,姑苏区李建军心理诊所,苏州市姑苏区凤凰街162号4幢202室,江苏省,苏州市,姑苏区,,unknown,
baidu,a1842cea39af2f4230169bd0,苏州大学附属第一医院急救分站-患者服务中心,江苏苏州市姑苏区十梓街苏州大学附属第一医院1楼,江苏省,苏州市,姑苏区,,unknown,
baidu,784dfe6a046c1c7449fd3f71,国泽堂医药连锁(No.0034店),相门后庄80号5幢,江苏省,苏州市,姑苏区,18068428201,unknown,
baidu,2ad32cc364b4188f9d95de44,雷允上(十梓街店),江苏省苏州市姑苏区十梓街7号2幢,江苏省,苏州市,姑苏区,"(0512)65235203,(0512)65236041",unknown,
baidu,0ba20787a581f9c2d81318b7,知蜂堂(凤凰街店),江苏省苏州市姑苏区凤凰街157号,江苏省,苏州市,姑苏区,(0512)67862950,unknown,
baidu,dac33b47391fb92f715e8073,中谷道健康馆,苏州市姑苏区三新路永林b组团-55-61幢,江苏省,苏州市,姑苏区,,unknown,
baidu,8cad8448a2775efa6f47604e,苏州工业园区秀祥诊所有限公司,江苏省苏州市工业园区东环路116-104号,江苏省,苏州市,苏州工业园区,,unknown,
baidu,febd4239b194ee90a21de97c,粤海大药房(粤海商场店),江苏省苏州市姑苏区平江街道施相公弄38-52号,江苏省,苏州市,姑苏区,(0512)67281129,unknown,
baidu,ba4749bcb0903e08d23ce304,佳发大药房,江苏省苏州市姑苏区十梓街208号,江苏省,苏州市,姑苏区,(0512)65116223,unknown,
baidu,d09170e4bb42445754bfff3d,采芝灵药房(十全街店),江苏省苏州市姑苏区十全街251号2栋,江苏省,苏州市,姑苏区,,unknown,
baidu,406977863535895c14c90557,笃佑堂袁宅,苏州市姑苏区大新桥巷28号(边门),江苏省,苏州市,姑苏区,,unknown,
baidu,da8bc1e6af0e9f0da2acc4db,苏州百灵助听器经营部,江苏省苏州市姑苏区鹅颈湾19号,江苏省,苏州市,姑苏区,,unknown,
baidu,fb050f84d0ddaf20f4b91638,福泽堂药房,江苏省苏州市姑苏区十梓街319号,江苏省,苏州市,姑苏区,13584889542,unknown,
baidu,4553ef9ce03962172cb17ede,优康药房(东环路店),江苏省苏州市苏州工业园区东环路118号,江苏省,苏州市,苏州工业园区,(0512)68856698,unknown,
baidu,7a60cec9ec91873b5e0d02e3,民健医药连锁(庄先湾店),庄先湾路宏葑新村14栋5-7,江苏省,苏州市,姑苏区,18913143340,unknown,
baidu,375b871ef837e56082288a3b,苏锦堂大药房,江苏省苏州市姑苏区十梓街370号,江苏省,苏州市,姑苏区,(0512)67225800,unknown,
baidu,b703e96b9c4c99fa8f1a8974,健慷人药房,江苏省苏州市苏州工业园区东环路116号20幢,江苏省,苏州市,苏州工业园区,(0512)62768726,unknown,
baidu,59fc6786dedea96678b55cbc,海之声助听器(苏州十梓街店),江苏省苏州市姑苏区十梓街238号,江苏省,苏州市,姑苏区,0512-65217998,unknown,
baidu,8ad3cdb71be1ea3a07fef5d1,上药禾康健康药馆,江苏省苏州市姑苏区十梓街315号、327号,江苏省,苏州市,姑苏区,(0512)67295133,unknown,
baidu,625f634f4af047edfadc856c,听觉有道助听器(苏州凤凰街验配中心),江苏省苏州市姑苏区凤凰街189号,江苏省,苏州市,姑苏区,(0512)68087568,unknown,
baidu,2446e81b5c55a706744ff15a,外用药发放处,苏州市姑苏区张家弄苏州大学附属第一医院(十梓街院区),江苏省,苏州市,姑苏区,,unknown,
baidu,e44970c355f41d8442d63eff,唯听助听器(凤凰街店),江苏省苏州市姑苏区凤凰街146号,江苏省,苏州市,姑苏区,,unknown,
baidu,c66925c6e5fb03842dfaa75d,苏州大学附属第一医院(十梓街院区)-25号楼,苏州市姑苏区十梓街188号苏州大学附属第一医院(十梓街院区)25号楼,江苏省,苏州市,姑苏区,,unknown,
baidu,b2a294a1e14c8b48ab0dd8c6,周建口腔诊所,江苏省苏州市姑苏区干将东路636号丽景苑写字楼1-408室,江苏省,苏州市,姑苏区,,unknown,
baidu,6acfdc3dfcd8e58532870a60,苏州大学附属第一医院(十梓街院区)-自动售卖机,苏州市姑苏区十梓街188号苏州大学附属第一医院(十梓街院区),江苏省,苏州市,姑苏区,,unknown,
baidu,66ac2c293b01f04782288ae7,苏州大学附属第一医院(十梓街院区)-消化内科,江苏省苏州市姑苏区十梓街188号12号楼,江苏省,苏州市,姑苏区,,unknown,
baidu,355bbc34fb30149dd618b7df,牙博士口腔(观前店),干将西路55号,江苏省,苏州市,姑苏区,18912611043,unknown,
baidu,08cec0a7fe53cc62cac3db84,苏州市华夏口腔医院,江苏省苏州市姑苏区人民路829号,江苏省,苏州市,姑苏区,(0512)65163515,unknown,
baidu,e6667a5c36963b9d40e192f3,苏州大学附属第一医院(十梓街院区)-急诊拍片室,苏州市姑苏区十梓街296号,江苏省,苏州市,姑苏区,,unknown,
baidu,ef1ec12115b2446202294f92,苏州大学附属第一医院-护理部教学科,十梓街188号,江苏省,苏州市,姑苏区,,unknown,
baidu,06833aaa5302f2f62fb90860,臻慰堂,苏州市姑苏区十全街英雄大厦东北侧约30米,江苏省,苏州市,姑苏区,,unknown,
baidu,8dc808cbfb8910edb6f42ffc,东方启音(苏州姑苏中心),江苏省苏州市姑苏区干将东路666号和基广场二楼东北角201室,江苏省,苏州市,姑苏区,"075583389873,4000006069",unknown,
baidu,caa224f2aa681fa6eb56fa36,苏州大学(天赐庄校区)-理工实验大楼,江苏省苏州市姑苏区干将东路333号,江苏省,苏州市,姑苏区,,unknown,
baidu,4c36acba8a5236c0f8f0cb17,苏州大学(天赐庄校区)-计算机科学与技术学院,江苏省苏州市姑苏区干将东路333号,江苏省,苏州市,姑苏区,(0512)65113107,unknown,
baidu,b0844a056b744199213bf20f,苏州全创职业培训学校,江苏省苏州市姑苏区干将东路599号东凌商务大厦F4,江苏省,苏州市,姑苏区,18068042691,unknown,
baidu,1bf85b257218e7a4a1a93446,洪恩英语培训中心(市区总部),江苏省苏州市姑苏区干将东路436号,江苏省,苏州市,姑苏区,(0512)65228389,unknown,
baidu,011ab6a44798afd2c036442b,摩杰音乐艺术中心(干将东路店),江苏省苏州市姑苏区干将东路621号观前街和基广场,江苏省,苏州市,姑苏区,"(0512)65242122,4001790545",unknown,
baidu,fa0b2e27c38e356f471a329f,苏州大学(天赐庄校区)-敬文书院,江苏省苏州市姑苏区干将东路333号苏州大学本部,江苏省,苏州市,姑苏区,,unknown,
baidu,b71c8d890cc56071471a329f,中政教育公考事业单位培训(苏州分校),江苏省苏州市姑苏区干将东路636号丽景苑写字楼二楼202号,江苏省,苏州市,姑苏区,15151473632,unknown,
baidu,d6c433d8dbf96ecdbb17e785,苏大驾校,江苏省苏州市姑苏区干将东路178号苏州大学北校区,江苏省,苏州市,姑苏区,"(0512)65223699,13338697849",unknown,
baidu,d8ae7cf9d5343fbabadf8f1d,胡安·里波列斯美术(仁恒仓街店),江苏省苏州市姑苏区平江历史文化街区相门城墙边上仁恒仓街首层G108商铺,江苏省,苏州市,姑苏区,,unknown,
baidu,b298887ab7b420dc0782c296,苏州大学(天赐庄校区)-莘园餐厅,江苏省苏州市姑苏区干将东路333号,江苏省,苏州市,姑苏区,,unknown,
baidu,99bd008cb174125dbbbd6387,苏州大学(天赐庄校区)-华丰楼,江苏省苏州市姑苏区干将东路333号,江苏省,苏州市,姑苏区,,unknown,
baidu,24b3bf4e2b4ad57ec356ac96,雅思考试(苏州大学考点),江苏省苏州市姑苏区干将东路178号苏州大学北校区内,江苏省,苏州市,姑苏区,,unknown,
baidu,07a6c1ead8ad5d3ce60738ef,苏州大学(天赐庄校区)-纵横楼,苏州市姑苏区文星西路苏州大学(天赐庄校区),江苏省,苏州市,姑苏区,,unknown,
baidu,4d939a933a22690a2fe67bd4,苏州大学敬贤堂,江苏省苏州市姑苏区干将东路333号（十梓街1号）,江苏省,苏州市,姑苏区,,unknown,
baidu,a7f909bf475550c230169b18,苏州大学计算机科学与技术学院-物联网工程,江苏省苏州市姑苏区苏州大学计算机科学与技术学院,江苏省,苏州市,姑苏区,,unknown,
baidu,8a317ca964dfabbf94031966,苏州大学(天赐庄校区)-致远楼,江苏省苏州市姑苏区十梓街1号,江苏省,苏州市,姑苏区,,unknown,
baidu,8679e2d894db738108f5eb4e,苏州市平江实验学校,江苏省苏州市姑苏区干将东路518号,江苏省,苏州市,姑苏区,(0512)65249353,unknown,
baidu,4c5759592020d9fbf8f0cbcf,苏州大学(天赐庄校区)-博远楼,苏州市姑苏区干将东路333号苏州大学(天赐庄校区)情人坡北侧,江苏省,苏州市,姑苏区,,unknown,
baidu,67ca3ef89e7e06cfe5e9650a,本初自习室,干将东路566号302室（临顿路地铁站3号口步行420米）,江苏省,苏州市,姑苏区,13057470574,unknown,
baidu,a5459afa0fda4cc53417dcf2,京方严学(姑苏分校),江苏省苏州市姑苏区干将东路636号丽景苑写字楼三楼306室,江苏省,苏州市,姑苏区,18260297067,unknown,
baidu,3c7da2ae01893cda7369d3ca,形者舞蹈·中国舞·古典舞(和基广场店),江苏省苏州市姑苏区和基广场506号,江苏省,苏州市,姑苏区,17851717317,unknown,
baidu,7fc38ef0c65f574df623108e,禾瑞教育,江苏省苏州市姑苏区平江街道干将东路666号和基广场三楼305-307室,江苏省,苏州市,姑苏区,18910610045,unknown,
baidu,54af3ec985e8bc529703193f,苏大驾校报名点,江苏省苏州市姑苏区干将东路178号,江苏省,苏州市,姑苏区,"(0512)65112659,(0512)65223699",unknown,
baidu,faf46bd16a21ae01a2acc42f,洛克实验室乐高编程机器人无人机创新学院,江苏省苏州市姑苏区干将路636号丽景苑写字楼1-301室,江苏省,苏州市,姑苏区,"13862077091,18962534373",unknown,
baidu,e7c722427c1aa0d7725e80a9,苏州大学(天赐庄校区)-怡远楼,江苏省苏州市姑苏区干将东路333号114室,江苏省,苏州市,姑苏区,,unknown,
baidu,e580b14044df5a34a7c756e2,三网IT教育(苏州校区),江苏省苏州市姑苏区丁家巷23号和基广场4楼429~433室,江苏省,苏州市,姑苏区,(0512)82289966,unknown,
baidu,2331a11acd0ff7cc4c3a5978,苏州大学(天赐庄校区),江苏省苏州市姑苏区干将东路333号,江苏省,苏州市,姑苏区,(0512)65113180,unknown,
baidu,0af53e8da4173ac4c6effb7b,苏州大学(天赐庄校区)-鸿远楼,江苏省苏州市姑苏区十梓街1号苏州大学,江苏省,苏州市,姑苏区,,unknown,
baidu,141629564b0d1aca9c09f71d,苏州大学(天赐庄校区)-逸夫教学楼,江苏省苏州市姑苏区干将东路333号(苏州大学本部),江苏省,苏州市,姑苏区,,unknown,
baidu,6995c4cacb179732c42ba1c3,嘿派·HEIPASS舞蹈工作室(观前店),江苏省苏州市姑苏区干将东路666号和基广场3楼302室,江苏省,苏州市,姑苏区,18896759367,unknown,
baidu,befdb292be7db1e0871541c8,江苏省苏州第十中学,江苏省苏州市姑苏区带城桥下塘18号,江苏省,苏州市,姑苏区,(0512)65224251,unknown,
baidu,2a4ec437777846b89122e048,卢建英苏绣艺术工作室,卫道观前22号103室,江苏省,苏州市,姑苏区,,unknown,
baidu,d297c477a5fc22c7704b870c,美之中留学语培,苏州市姑苏区干将东路666号和基广场2楼220室,江苏省,苏州市,姑苏区,15501383773,unknown,
baidu,15e1e85efb5751a258109370,苏州大学(天赐庄校区)-幼儿园,江苏省苏州市姑苏区干将东路333号（近文星西路）,江苏省,苏州市,姑苏区,(0512)65112572,unknown,
baidu,10226a7817acf9953f9a5ec1,苏州市老年大学(姑苏分校),江苏省苏州市姑苏区公园路118号,江苏省,苏州市,姑苏区,(0512)65231697,unknown,
baidu,70c492836d2f20072806ce2f,琴墨轩,江苏省苏州市姑苏区十梓街叶家弄7号,江苏省,苏州市,姑苏区,13812652258,unknown,
baidu,89713e64a5c31d536c3e1b3d,苏州大学(天赐庄校区)-存菊堂,江苏省苏州市姑苏区干将东路333号（弘贤路和晴岚路交叉口附近）,江苏省,苏州市,姑苏区,(0512)65113180,unknown,
baidu,a932a2857fda4f8d8415417a,苏州大学(天赐庄校区)-激光实验楼,江苏省苏州市姑苏区干将东路333号,江苏省,苏州市,姑苏区,,unknown,
baidu,fc0498abf1e112104e2fdf0a,苏州大学(天赐庄校区)-蕴秀楼,江苏省苏州市姑苏区十梓街1号,江苏省,苏州市,姑苏区,,unknown,
baidu,f610ba87d038c3a91329354a,苏州大学-教工餐厅,江苏省苏州市姑苏区十梓街1号苏州大学莘园南50米,江苏省,苏州市,姑苏区,(0512)67162179,unknown,
baidu,99587db82bb78db9f50e7795,苏州大学(天赐庄校区)-钟楼,苏州市姑苏区干将东路333号,江苏省,苏州市,姑苏区,,unknown,
baidu,0b31768b84875a14c7f50dcd,塑品优学,江苏省苏州市姑苏区干将东路599号东凌商务大厦3楼,江苏省,苏州市,姑苏区,(0512)67241680,unknown,
baidu,131df5b724846a4f9e95de71,平江实验学校小学部,平江街道干将东路518号(平江路口边),江苏省,苏州市,姑苏区,(0512)65249353,unknown,
baidu,9ffdb29ce209a9bbf82d61df,凤鸣楼,江苏省苏州市姑苏区十梓街1号a101,江苏省,苏州市,姑苏区,,unknown,
baidu,b62cae357474e21d09a8d407,苏州大学(北校区)-工科楼,江苏省苏州市姑苏区干将东路178号,江苏省,苏州市,姑苏区,,unknown,
baidu,8be467835a58bed42a02e1e5,苏州大学(天赐庄校区)-外国语学院,江苏省苏州市姑苏区十梓街1号崇远楼内,江苏省,苏州市,姑苏区,(0512)65241104,unknown,
baidu,16b0d738baf08d5eb13c8112,苏州大学国际合作交流处,江苏省苏州市姑苏区干将东路333号苏州大学(天赐庄校区),江苏省,苏州市,姑苏区,(0512)67165752,unknown,
baidu,4e380cb3214802d559f6be84,稼墨园书法培训室,江苏省苏州市姑苏区干将东路666号和基广场3楼309室,江苏省,苏州市,姑苏区,13912640090,unknown,
baidu,a5c508942643847894031992,苏州大学(天赐庄校区)-情人坡,江苏省苏州市姑苏区十梓街1号苏州大学本部博远楼前,江苏省,苏州市,姑苏区,,unknown,
baidu,479b86438735292979b55cb4,苏州大学(天赐庄校区)-博学楼,江苏苏州市姑苏区十梓街1号,江苏省,苏州市,姑苏区,,unknown,
baidu,ec0fe17b448fb9a9bfa8229e,苏州大学(北校区),江苏省苏州市姑苏区干将东路178号,江苏省,苏州市,姑苏区,(0512)67167395,unknown,
baidu,127640f48fb75f672e4733cb,苏州大学计算机科学与技术学院-软件工程系,苏州市姑苏区干将东路苏州大学附属理想眼科医院,江苏省,苏州市,姑苏区,,unknown,
baidu,69fcd6dff591d02fca291550,苏州大学(天赐庄校区)-公体楼,江苏省苏州市姑苏区干将东路333号苏州大学内,江苏省,苏州市,姑苏区,,unknown,
baidu,50e07bc3d2f145994354d786,苏州大学(天赐庄校区)-图书馆,江苏省苏州市姑苏区十梓街1号,江苏省,苏州市,姑苏区,(0512)65112714,unknown,
baidu,46738054acc168e974026984,苏州大学(东校区),江苏省苏州市姑苏区东环路50号,江苏省,苏州市,姑苏区,(0512)67507943,unknown,
baidu,63edf48c0d70bbf36b49f3d0,江苏省苏州第一中学,江苏省苏州市姑苏区公园路278号,江苏省,苏州市,姑苏区,(0512)89171988,unknown,
baidu,be88d772323fe998c9e33c3e,苏州大学(天赐庄校区)-崇远楼,江苏省苏州市姑苏区干将东路333号,江苏省,苏州市,姑苏区,,unknown,
baidu,e3e5936e0c134461593ac828,苏州大学-物理与光电能源学部,苏州市姑苏区十梓街6号附近,江苏省,苏州市,姑苏区,,unknown,
baidu,3a43d06a3127b2c65cd4fe33,物物集图书馆,江苏省苏州市姑苏区平江街道钮家巷志恒里1-1号,江苏省,苏州市,姑苏区,13814838798,unknown,
baidu,cfcf4e722c948d2009b93a94,苏州市振华中学校,江苏省苏州市姑苏区相王路78号,江苏省,苏州市,姑苏区,(0512)65302798,unknown,
baidu,7003b11926d34cee3686f4a9,苏州市沧浪实验小学,江苏省苏州市姑苏区十梓街221号,江苏省,苏州市,姑苏区,"(0512)65111151,(0512)65155005",unknown,
baidu,63f54034c04e8d22b8df8fb1,苏州大学丝绸研究院,江苏省苏州市姑苏区干将东路204号,江苏省,苏州市,姑苏区,,unknown,
baidu,17721d05a80f3ace09a8d48e,南京医科大学(姑苏学院),江苏省苏州市姑苏区十梓街458号,江苏省,苏州市,姑苏区,,unknown,
baidu,6149cc10f9742903e812e48d,长洲县学,苏州市姑苏区干将东路平江区实验学校(干将东路分校),江苏省,苏州市,姑苏区,,unknown,
baidu,f0b89e4d9c7b4459343a7153,苏州大学(天赐庄校区)-物理科学与技术学院-sem,苏州市姑苏区干将东路333号苏州大学(天赐庄校区)物科楼一楼左侧,江苏省,苏州市,姑苏区,(0512)69157203,unknown,
baidu,4ce7fb6be127fa80b917e773,易优教育(苏州姑苏校区),江苏省苏州市姑苏区干将东路590号,江苏省,苏州市,姑苏区,,unknown,
baidu,15e1e85efa5550a258109372,苏州市第三中学(谢衙前街校区),江苏省苏州市姑苏区临顿路谢衙前14号,江苏省,苏州市,姑苏区,(0512)87771333,unknown,
baidu,bf29b7024351459b09b93a3a,苏州工业园区星港学校,江苏省苏州市苏州工业园区飘逸路9号,江苏省,苏州市,苏州工业园区,(0512)67607288,unknown,
baidu,d469f0ecec4deb2c7ab55c72,苏州市带城实验小学校,江苏省苏州市姑苏区葑门路208号,江苏省,苏州市,姑苏区,(0512)67260710,unknown,
baidu,e85e2527606c4b5395f08c72,苏州市第六中学校,江苏省苏州市姑苏区东北街132号,江苏省,苏州市,姑苏区,"(0512)67281437,(0512)67284449",unknown,
baidu,e3451f20d02cbf3dafee7adc,苏州图书馆,江苏省苏州市姑苏区人民路858号,江苏省,苏州市,姑苏区,(0512)65220092,unknown,
baidu,4ea3f2f1a6a631d4aecb667d,苏州大学(天赐庄校区)-陶然亭,江苏省苏州市姑苏区十梓街1号苏州大学内东吴大学旧址斜对面,江苏省,苏州市,姑苏区,,unknown,
baidu,480b24d02256bef19cec2b46,苏州市平直实验小学校,江苏省苏州市姑苏区平桥直街99号,江苏省,苏州市,姑苏区,(0512)65225881,unknown,
baidu,e180b5b1f8cd28d69b68b4a8,苏州大学(天赐庄校区)-春晖楼,苏州市姑苏区东吴路苏州大学(天赐庄校区),江苏省,苏州市,姑苏区,,unknown,
baidu,3e435d7f0edc873f4afd3f7a,苏州大学(天赐庄校区)-精蕴楼,江苏省苏州市姑苏区十梓街3-3号东南60米,江苏省,苏州市,姑苏区,,unknown,
baidu,00586108db0c79a447e27486,苏州市景范中学,江苏省苏州市姑苏区平江街道范庄前32号,江苏省,苏州市,姑苏区,(0512)67201571,unknown,
baidu,77b43a8179ea0fd9c056accf,苏州大学外国语学院-法文系,江苏省苏州市姑苏区东吴路苏州大学(天赐庄校区),江苏省,苏州市,姑苏区,,unknown,
baidu,99d9e193c6e82746fe0eb078,苏州卫生职业技术学院(书院巷校区),江苏省苏州市姑苏区三元坊书院巷20号,江苏省,苏州市,姑苏区,"(0512)62693001,(0512)62693002,(0512)62693003",unknown,
baidu,07b2b10292eed286b45f1ef4,苏州大学夏润楼,苏州市姑苏区钟楼东路苏州大学(天赐庄校区),江苏省,苏州市,姑苏区,,unknown,
baidu,348e32e2bfd84e132b201ab7,苏州大学图书馆-报告厅,苏州市姑苏区弘贤路苏州大学(天赐庄校区),江苏省,苏州市,姑苏区,,unknown,
baidu,cc5605d67045041d21026238,苏州大学(天赐庄校区)-现代光学技术研究所,江苏省苏州市姑苏区十梓街1号,江苏省,苏州市,姑苏区,(0512)65112560,unknown,
baidu,a2001b7d11a63dc06fc02c16,苏州大学北校区知行楼,江苏省苏州市姑苏区干将东路178号苏州大学北校区1号楼317室,江苏省,苏州市,姑苏区,,unknown,
baidu,4446e9e5030a1ad3a4c7568f,苏州大学(天赐庄校区)-光学工程实验室,苏州市姑苏区干将东路333号苏州大学(天赐庄校区)鸿远楼南侧,江苏省,苏州市,姑苏区,,unknown,
baidu,ef10b36999c0d3dc24e0a04d,苏州大学(天赐庄校区)-冬瑞楼,苏州市姑苏区干将东路333号,江苏省,苏州市,姑苏区,,unknown,
baidu,edd64ce1ccb2f3ec3fe2314b,苏州市姑苏区实验小学分部,江苏省苏州市姑苏区十全街520号20栋,江苏省,苏州市,姑苏区,(0512)65224535,unknown,
baidu,b388f9fdfd1d003cb35c6a1c,苏州市敬文实验小学校,江苏省苏州市姑苏区皮市街341号,江苏省,苏州市,姑苏区,(0512)67271143,unknown,
baidu,c7745f2149416adeb05c6a7d,苏州大学校董会,江苏省苏州市姑苏区十梓街1号苏州大学,江苏省,苏州市,姑苏区,,unknown,
baidu,1618d5a74789fa79118824fb,苏州大学(天赐庄校区)-日新楼,苏州市姑苏区干将东路333号,江苏省,苏州市,姑苏区,,unknown,
baidu,88529c861c10a9e2734b87f2,苏州大学(天赐庄校区)-图书馆-通识阅览室(北),苏州市姑苏区干将东路333号苏州大学(天赐庄校区)图书馆二楼北侧,江苏省,苏州市,姑苏区,,unknown,
baidu,7241238eb4e3ef74c9c3db64,苏州大学北校区图书馆,苏州市姑苏区育才路苏州大学(北校区),江苏省,苏州市,姑苏区,,unknown,
baidu,69dcaeca054756debea240ca,苏州大学(天赐庄校区)-俄语系,江苏省苏州市姑苏区十梓街1号,江苏省,苏州市,姑苏区,,unknown,
baidu,7eba5aa8f9d590384bcc4a8e,苏州大学(天赐庄校区)-德文系,江苏省苏州市姑苏区苏州大学49号,江苏省,苏州市,姑苏区,,unknown,
baidu,35c563e08574ef6c130daaa2,苏州大学(天赐庄校区)-秋韵楼,十梓街1号,江苏省,苏州市,姑苏区,,unknown,
baidu,b87af9959d5c6a31901fc974,国家血液系统疾病临床医学研究中心,苏州市姑苏区十梓街188号苏州大学附属第一医院(十梓街院区)25号楼,江苏省,苏州市,姑苏区,,unknown,
baidu,a9a0fc8444ff4e0a4d2fdfa1,现代光学技术教育部重点实验室(苏州大学),苏州市姑苏区清荫路苏州大学(天赐庄校区),江苏省,苏州市,姑苏区,,unknown,
baidu,38706d0a965b1fc5931fc994,苏州大学天赐庄校区金融工程研究中心,江苏省苏州市姑苏区十梓街3-3号,江苏省,苏州市,姑苏区,,unknown,
baidu,d5f93c0e3f9b805ceddfca46,苏州市伍子胥研究会,江苏省苏州市姑苏区官太尉17号,江苏省,苏州市,姑苏区,,unknown,
baidu,5064fb2a04975719e0110312,苏州市科技情报研究所,江苏省苏州市姑苏区干将东路178号自主创新广场1号楼,江苏省,苏州市,姑苏区,,unknown,
baidu,8955d1477ef76db26ec02cad,苏州大学天赐庄校区中国红十字运动研究院,苏州市姑苏区东吴路苏州大学(天赐庄校区),江苏省,苏州市,姑苏区,,unknown,
baidu,58eefb38024ca1ae15764336,苏州大学中澳文化交流研究中心,十梓街1号苏州大学,江苏省,苏州市,姑苏区,,unknown,
baidu,6dcfb2a17c71dd263ee231a0,苏州大学(北校区)-生物制造研究中心,江苏苏州市姑苏区干将东路178号9号楼2楼,江苏省,苏州市,姑苏区,,unknown,
baidu,5886ad9e12560971c7f025f3,苏州大学(北校区)-机器人与微系统研究中心,江苏省苏州市姑苏区干将东路178号,江苏省,苏州市,姑苏区,,unknown,
baidu,84d82498995a98840482c2c2,苏州大学机器人技术重点实验室,苏州市姑苏区育才路苏州大学(北校区),江苏省,苏州市,姑苏区,,unknown,
baidu,0dc3d82d6367981075e5b6ed,苏州广厦建筑设计院,江苏省苏州市姑苏区干将东路621号夏塔商厦4层,江苏省,苏州市,姑苏区,(0512)65236496,unknown,
baidu,a5ef680f6d7306d7b9df8f70,苏州市姑苏区宝仁幼儿园,江苏省苏州市姑苏区干将东路178号苏大北校区家属区,江苏省,苏州市,姑苏区,18036098651,unknown,
baidu,aa40108b6df15116c4effb87,苏州大学(天赐庄校区)-文星阁,苏州市姑苏区干将东路333号,江苏省,苏州市,姑苏区,,unknown,
baidu,ea4a3dc9c6993b534e55477b,景海女子师范学校旧址,苏州市姑苏区十梓街1号苏州大学本部内,江苏省,苏州市,姑苏区,,unknown,
baidu,3a0fbba802d631419ee32146,苏州市民治路幼儿园,江苏省苏州市姑苏区槐树巷6号,江苏省,苏州市,姑苏区,(0512)65224389,unknown,
baidu,0139f02b19385d9ba6da39da,苏州大学港澳台办公室,苏州市姑苏区文星东路苏州大学(天赐庄校区),江苏省,苏州市,姑苏区,,unknown,
baidu,596c2138a1a69d1a9868b449,苏州大学-纺织与服装工程学院,江苏省苏州市姑苏区苏州大学工科楼B座,江苏省,苏州市,姑苏区,,unknown,
baidu,9cd2a21f978763ad077ce877,开泰桥,苏州市姑苏区干将东路苏州大学(天赐庄校区)北门北侧约30米,江苏省,苏州市,姑苏区,,unknown,
baidu,e5a21870eedc23d60ab93a4b,永安自行车租赁点,江苏省苏州市姑苏区平江街道相门站3号出口,江苏省,苏州市,姑苏区,,unknown,
baidu,3bcb74f0c7a161ef81288a3f,佳升酒店管理有限公司东侧-门前停车场,苏州市姑苏区干将路甲辰巷6号,江苏省,苏州市,姑苏区,,unknown,
baidu,01c55a6b7caee4e0b04c4910,相门站3号出口自行车租赁站(干将东路),江苏省苏州市姑苏区干将东路386号,江苏省,苏州市,姑苏区,,unknown,
baidu,d34032549b0c105878dbd21c,相门,地铁1号线,江苏省,苏州市,姑苏区,,unknown,
baidu,11d790ef88813cb716c8f671,相门,2路;9路;32路;40路东线;40路西线;60路北线;60路南线;200路北线;200路南线;900路北线;900路南线;923路;980路东线;980路西线;高峰30号;夜2路,江苏省,苏州市,姑苏区,,unknown,
baidu,a7c56ee08553e9b3a3acc46d,相门桥,干将路(近莫邪路),江苏省,苏州市,姑苏区,,unknown,
baidu,b0ffc7ca58eac26ce8e5826a,东舟公寓-地上停车场,苏州市姑苏区干将东路440号东舟公寓,江苏省,苏州市,姑苏区,,unknown,
baidu,0fca6bc38f595bc788b988c2,苏大理想眼科医院,2路;9路;32路;40路东线;40路西线;60路北线;60路南线;200路北线;200路南线;514路;514路区间线;900路北线;900路南线;923路;970路东线;980路东线;980路西线;9008路社区巴士;夜2路,江苏省,苏州市,姑苏区,,unknown,
baidu,61f634f619f6c5066b49f355,官太尉桥,苏州市姑苏区唐家巷42号附近,江苏省,苏州市,姑苏区,,unknown,
baidu,13e6ef64373df8631e58004c,环古城游船码头,苏州市姑苏区干将东路与莫邪路交叉口西200米相门城墙文化休闲景区内,江苏省,苏州市,姑苏区,,unknown,
baidu,eac5fd841d33de8fbca82281,相门后庄,514路;514路区间线;970路西线;9008路社区巴士,江苏省,苏州市,姑苏区,,unknown,
baidu,c15752d6b9493b6538221ca5,自行车停放处,十梓街14-2号附近,江苏省,苏州市,姑苏区,,unknown,
baidu,bf94f55ad3d3864dd22dd6b9,苏州大学附属第一医院(十梓街院区)-地下停车场,江苏省苏州市姑苏区十梓街188号,江苏省,苏州市,姑苏区,,unknown,
baidu,7524cb4f71c23a4904026f1b,和基广场-地下停车场,江苏省苏州市姑苏区干将东路666号,江苏省,苏州市,姑苏区,,unknown,
baidu,afb1a1aff2328664e3110319,苏州大学(天赐庄校区)理工实验大楼-地上停车场,苏州市姑苏区干将东路333号苏州大学,江苏省,苏州市,姑苏区,,unknown,
baidu,798ae3d67308155114948e7a,苏州平江历史文化街区-地下停车场,苏州市姑苏区白塔东路65号,江苏省,苏州市,姑苏区,,unknown,
baidu,b0931e368da2084ea1046422,仁恒仓街商业广场-地下停车场,仓街1号(相门地铁站2号口直达),江苏省,苏州市,姑苏区,,unknown,
baidu,8028890e96af26820f0a7076,苏州理想眼科-地上停车场,苏州市姑苏区干将东路200号,江苏省,苏州市,姑苏区,,unknown,
baidu,71efbfa2ad0619fbcf04eff7,东凌商务大厦-地上停车场,江苏省苏州市姑苏区干将东路599号,江苏省,苏州市,姑苏区,,unknown,
baidu,b22354c8f0f78b2789fc06e2,苏州大学(天赐庄校区)-停车场,江苏省苏州市姑苏区干将东路333号,江苏省,苏州市,姑苏区,,unknown,
baidu,4539570b961641927269d31c,东环路,地铁1号线,江苏省,苏州市,吴中区,,unknown,
baidu,bff8fa7df1861ddec8213d6d,菉葭巷地上停车场,苏州市姑苏区菉葭巷52号,江苏省,苏州市,姑苏区,,unknown,
baidu,5422094a12ff80c15d17c337,苏大北校区小区南侧临时停车点,苏州市姑苏区干将东路220号,江苏省,苏州市,姑苏区,,unknown,
baidu,2fcb1ff23f6f901bca1b95ba,瑞基·翰林花园-地上停车场,苏州市姑苏区干将东路瑞基·翰林花园,江苏省,苏州市,姑苏区,,unknown,
baidu,61d700cabddcbf6cf7b91643,朗诗相门绿郡西南侧-停车场,苏州市姑苏区莫邪路朗诗相门绿郡西南侧,江苏省,苏州市,姑苏区,,unknown,
baidu,54ddf76497850586e81e979a,钟楼新村-停车场,苏州市姑苏区定慧寺巷钟楼新村,江苏省,苏州市,姑苏区,,unknown,
baidu,f5e67a0defc9873256bfffd6,悬桥巷,地铁6号线,江苏省,苏州市,姑苏区,,unknown,
baidu,5475d13bc262ec8c4afc8dd5,相门桥,514路;514路区间线;970路西线;9008路社区巴士;游3路,江苏省,苏州市,姑苏区,,unknown,
baidu,70ae0a32cec8e02ab2077d4c,扉缦酒店(苏州大学平江路相门地铁站店)-地上停车场,苏州市姑苏区干将东路461号,江苏省,苏州市,姑苏区,,unknown,
baidu,f60df9116c9f6fe06318099e,东园,204路;301路;305路;305路大站车/青春专线;9009路大站车;9009路社区巴士;9029路社区巴士;游3路,江苏省,苏州市,姑苏区,,unknown,
baidu,49e5a855864edd2d077ce8a9,观前公园(苏州)-地下停车场,苏州市姑苏区富仁坊巷2号14号,江苏省,苏州市,姑苏区,"(0512)68116778,13338025208",unknown,
baidu,5dd53e0252e75f9c6f20b9d1,苏大北校区小区-停车场,苏州市姑苏区莫邪路苏大北校区小区,江苏省,苏州市,姑苏区,,unknown,
baidu,01d90ff2f0cf75fbf03cba6c,丽景苑写字楼-地下停车场,江苏省苏州市姑苏区干将东路636号,江苏省,苏州市,姑苏区,,unknown,
baidu,0fb55ead1b217ca5bbbd63e5,东凌商务大厦-地下停车场,苏州市姑苏区干将东路599号,江苏省,苏州市,姑苏区,,unknown,
baidu,c7fb04bd09ffd315fa0cad44,莫邪路地上停车场,苏州市姑苏区莫邪路826号,江苏省,苏州市,姑苏区,,unknown,
baidu,79a4dca1c70d6588744ff1e8,相门新村-地上停车场,苏州市姑苏区相门新村23幢7号相门新村,江苏省,苏州市,姑苏区,,unknown,
baidu,3ac7c56e8b29fba25d17c3c8,祖家桥9号,苏州市姑苏区祖家桥9号,江苏省,苏州市,姑苏区,,unknown,
baidu,aa4aaf7e5a69360e2ad7ab47,望星桥苏大,地铁6号线,江苏省,苏州市,姑苏区,,unknown,
baidu,41ccf2bd6ad89733cac3dbf1,新湘苑,514路;514路区间线;970路东线;970路西线;9008路社区巴士,江苏省,苏州市,姑苏区,,unknown,
baidu,82e8188445be92b4e81e9706,苏大北校区东,2路;9路;32路;40路东线;40路西线;60路北线;60路南线;200路北线;200路南线;514路;514路区间线;900路北线;900路南线;923路;970路东线;980路东线;980路西线;9008路社区巴士;夜2路,江苏省,苏州市,姑苏区,,unknown,
baidu,0a797522c924bfaaab059d88,耦园-水乡游船码头,苏州市姑苏区仓街小新桥巷6号(近平江路)耦园内,江苏省,苏州市,姑苏区,,unknown,
baidu,2e8bde1775ecb2e657bfff74,乐桥,地铁1号线;地铁4号线,江苏省,苏州市,姑苏区,,unknown,
baidu,f6b9dab391dad822d13ce384,庄先湾6号-停车场,苏州市姑苏区莫邪路庄先湾-6号,江苏省,苏州市,姑苏区,,unknown,
baidu,e37163ed265ea4ee853304c4,苏州人民商场-地下停车场,江苏省苏州市姑苏区北局22号,江苏省,苏州市,姑苏区,,unknown,
baidu,a2d37d78426a88ad990050f3,停车场(望星桥北堍),苏州市姑苏区望星桥北堍苏州大学附属第一医院(十梓街院区)东北侧约60米,江苏省,苏州市,姑苏区,,unknown,
baidu,2970ec9a92db3c831b94c655,朗诗相门绿郡-地下停车场,苏州市姑苏区莫邪路朗诗相门绿郡,江苏省,苏州市,姑苏区,,unknown,
baidu,cdbe0d4965be6094ffa77844,美罗百货(观前店)-地下停车场,苏州市姑苏区塔倪巷观前街,江苏省,苏州市,姑苏区,,unknown,
baidu,4c79f2619ecc54a9ee74f897,双塔,5路;40路东线;200路南线;202路;501路;9003路社区巴士;游3路,江苏省,苏州市,姑苏区,,unknown,
baidu,aaa2a3719eca0fcd4557268f,苏州市立医院(东区)-地下停车场,苏州市姑苏区白塔西路16号,江苏省,苏州市,姑苏区,,unknown,
baidu,9a2e900484b1cb899d82ead8,察院场,地铁4号线,江苏省,苏州市,姑苏区,,unknown,
baidu,3bd908f6ec12b7bcd6b74e87,瑞基·翰林花园-地下停车场,苏州市姑苏区干将东路515号瑞基·翰林花园,江苏省,苏州市,姑苏区,,unknown,
baidu,beabdbf4b283aee67069d372,兴市桥,江苏省苏州市姑苏区东凌商务大厦(苏州凯莱大酒店西),江苏省,苏州市,姑苏区,,unknown,
baidu,fe57c01f488e2e85badf8f18,竹辉桥,地铁5号线,江苏省,苏州市,姑苏区,,unknown,
baidu,16f5477746f76a0ed12dd659,南园北路,地铁5号线,江苏省,苏州市,姑苏区,,unknown,
baidu,f669ad9c8b34efc940024554,东港二村,2路;26路;89路;109路;125路;146路;156路;158路;快线9号;夜2路,江苏省,苏州市,吴中区,,unknown,
baidu,19cccf555df4ca25fe0eb0cf,耦园-大巴专用地上停车场,苏州市姑苏区莫邪路苏州平江历史文化街区,江苏省,苏州市,姑苏区,,unknown,
baidu,ca79a9f6b552c3b4d13ce389,宏盛大厦东北侧-停车场,苏州市姑苏区干将东路566号,江苏省,苏州市,姑苏区,,unknown,
baidu,7a6c97771dc33708e6e965d0,凤凰街辅路西侧临时停车点,苏州市姑苏区凤凰街永顺快捷酒店(凤凰店)西南侧约30米,江苏省,苏州市,姑苏区,,unknown,
baidu,4179f02cb2f33cdc764ff19e,三元坊,地铁4号线,江苏省,苏州市,姑苏区,,unknown,
baidu,d7cf646f508d4e0aadb22a08,苏州市供销合作总社-停车场,苏州市姑苏区甫桥下塘皇宫后东侧,江苏省,苏州市,姑苏区,,unknown,
baidu,480b24d0237bbff19cec2b6d,茄子桥,苏州市姑苏区干将东路小区西侧,江苏省,苏州市,姑苏区,,unknown,
baidu,c6c9ac020f96b3909f09f7c9,蕴秀园-地上停车场,苏州市姑苏区邾长巷学地1号,江苏省,苏州市,姑苏区,,unknown,
baidu,49e5eee2e5792cf2b5147fb3,莫耶路北侧-地上停车场,莫邪路788号,江苏省,苏州市,姑苏区,,unknown,
baidu,2d9e529a8908a7c4e115f9e1,苏州大学(北校区)生物制造研究中心-地上停车场,苏州市姑苏区育才路苏州大学(北校区),江苏省,苏州市,姑苏区,,unknown,
baidu,6b576b708311b6222fb90858,皇宫后东北侧-停车场,苏州市姑苏区甫桥下塘皇宫后东北侧,江苏省,苏州市,姑苏区,,unknown,
baidu,c9d3d1904e67955dd4851fd3,定慧寺巷公共自行车站点,苏州市姑苏区凤凰街276号,江苏省,苏州市,姑苏区,,unknown,
baidu,036f1a55d2249829c0364493,荷花荡,地铁5号线,江苏省,苏州市,吴中区,,unknown,
baidu,afc4f81b78f0b00ab34c490d,宏盛大厦-接送点,苏州市姑苏区宏盛大厦附近,江苏省,苏州市,姑苏区,,unknown,
baidu,1079339f2e9432079d82ea4c,云龙大厦(莫邪路)-停车场,江苏省苏州市姑苏区干将东路225号云龙大厦1层,江苏省,苏州市,姑苏区,,unknown,
baidu,46a768dad621d67988db7324,松缘停车场,苏州市姑苏区干将东路109号长风别墅西门,江苏省,苏州市,姑苏区,,unknown,
baidu,168521a00cd76d336e20b9a4,拙政园苏博,地铁6号线,江苏省,苏州市,姑苏区,,unknown,
baidu,ab1f921096c90b5a9e95de76,望星桥北堍7号,江苏省苏州市姑苏区十梓街14号西60米,江苏省,苏州市,姑苏区,,unknown,
baidu,fa4dc4086ac5cf559b005026,水景丽舍-停车场,江苏省苏州市姑苏区莫邪路788号水景丽舍,江苏省,苏州市,姑苏区,,unknown,
baidu,e45550f00e0a18b8260bd051,丽景苑-接送点,苏州市姑苏区丽景苑附近,江苏省,苏州市,姑苏区,,unknown,
baidu,53cebd50f69b80612a02e16d,庄先湾桥,苏州市姑苏区庄先湾路水景丽舍东南侧约60米,江苏省,苏州市,姑苏区,,unknown,
baidu,6299fd30cb1c185eb9df8f56,新湘苑-33-36幢小区-停车场,苏州市姑苏区新湘苑巷新湘苑-33-36幢小区,江苏省,苏州市,姑苏区,,unknown,
baidu,2a2978a0b8aa44664d554744,苏大后庄学生公寓-地上停车场,苏州市姑苏区莫邪路1002号,江苏省,苏州市,姑苏区,,unknown,
baidu,b388f9fdfdea003cb35c6a17,白颢桥,江苏省苏州市姑苏区宏盛大厦(苏州凯莱大酒店西),江苏省,苏州市,姑苏区,,unknown,
baidu,6ddc36285d255238dcee8b44,恒丰大厦-地下停车场,苏州市姑苏区凤凰街265号,江苏省,苏州市,姑苏区,,unknown,
baidu,fe9ed66a9bc3821a2dfaa77e,马津桥,苏州市姑苏区临顿路和基广场西南侧约30米,江苏省,苏州市,姑苏区,,unknown,
baidu,d58c308e38d1228190114cc4,观前庭院-停车场,苏州市姑苏区肖家巷21号,江苏省,苏州市,姑苏区,,unknown,
baidu,cf9a08af7a0edbb3ca291595,锦书清华里-地下停车场,苏州市姑苏区相门后庄50号原苏州财经学校,江苏省,苏州市,姑苏区,,unknown,
baidu,a52c5b9bab6d5be7631809d4,蓝苏州自主创新广场-地上停车场,苏州市姑苏区干将东路苏州大学(北校区),江苏省,苏州市,姑苏区,,unknown,
baidu,481727c4b2f3729c8c1a892f,和基广场-接送点,苏州市姑苏区和基广场附近,江苏省,苏州市,姑苏区,,unknown,
baidu,d63331ecff3f671ee6e9658c,新湘苑停车场,苏州市姑苏区新湘苑巷新湘苑-33-36幢小区,江苏省,苏州市,姑苏区,,unknown,
baidu,8fa5b9499a39e41d6d20b905,水景丽舍-地下停车场,苏州市姑苏区莫邪路788号水景丽舍,江苏省,苏州市,姑苏区,,unknown,
baidu,a851dc884e68cd3c744ff125,积庆桥,苏州市姑苏区大儒巷苏州平江历史文化街区,江苏省,苏州市,姑苏区,,unknown,
baidu,0cd416e55aa369ab22026221,联相园-停车场,江苏省苏州市姑苏区相门前庄28号联相苑,江苏省,苏州市,姑苏区,,unknown,
baidu,a8bdefb59701127ced74f835,双塔②,5路;8路;202路;501路;9006路社区巴士;9010路社区巴士,江苏省,苏州市,姑苏区,,unknown,
baidu,620a9099677d956194ec84be,苏州大学(北校区)-地下停车场,苏州市姑苏区干将东路178号苏州大学北校区,江苏省,苏州市,姑苏区,,unknown,
baidu,fbd843f0eaf781d05d0d02e9,宏葑新村-停车场,苏州市姑苏区庄先湾路宏葑二村,江苏省,苏州市,姑苏区,,unknown,
baidu,252ee2e94e8844d0704b872b,新湘苑31幢-停车场,苏州市姑苏区干将东路新湘苑31幢,江苏省,苏州市,姑苏区,,unknown,
baidu,a16a83d8842a7d2da20464c9,苏大小区-停车场,苏州市姑苏区莫邪路778号,江苏省,苏州市,姑苏区,,unknown,
baidu,847f193feb439ab8f8f0cbf5,新湘苑17幢-停车场,苏州市姑苏区干将东路新湘苑16~19幢小区,江苏省,苏州市,姑苏区,,unknown,
baidu,9eb822b32295fbea1a94c656,江苏银行(苏州濂溪坊支行)-地上停车场,江苏省苏州市姑苏区干将东路608号江苏银行苏州濂溪坊支行,江苏省,苏州市,姑苏区,,unknown,
baidu,f4552cb0ef996ff1e9f853da,东小桥弄,苏州市姑苏区东小桥弄-9号东侧约30米,江苏省,苏州市,姑苏区,,unknown,
baidu,85f9d8446121f909631c6760,南张家桥,苏州市姑苏区白塔东路65号苏州平江历史文化街区,江苏省,苏州市,姑苏区,,unknown,
baidu,19640008298ea81cc5effb9c,青石桥,苏州市姑苏区白塔东路65号苏州平江历史文化街区,江苏省,苏州市,姑苏区,,unknown,
baidu,1f24987a3e480d2cd6b74e53,南开明桥,苏州市姑苏区莫邪路(苏州平江历史文化街区),江苏省,苏州市,姑苏区,,unknown,
