source,bd_uid,name,address,province,city,area,tel,poi_type,tag
baidu,c3f76ea1b3f5f090cb29159f,汉人街大巴扎,后滩路东城区就业市场,新疆维吾尔自治区,伊犁哈萨克自治州,伊宁市,"15309990095,15352753578",unknown,
baidu,05970ac58715b0f8bf48428c,恺得迩美食城,前进街201号,新疆维吾尔自治区,伊犁哈萨克自治州,伊宁市,15509990790,unknown,
baidu,246364817ec978539d95de29,汉人街美食,新疆维吾尔自治区伊犁哈萨克自治州伊宁市后滩路汉人街大巴扎内,新疆维吾尔自治区,伊犁哈萨克自治州,伊宁市,,unknown,
baidu,df68068afeb3e7fe631809ca,莫宜侃美食农家院,果园街与新光街交叉口南40米,新疆维吾尔自治区,伊犁哈萨克自治州,伊宁市,15999287072,unknown,
baidu,56666527380765008505bf73,友丽宫美食馆,红旗路126号（阿尔屯对面）,新疆维吾尔自治区,伊犁哈萨克自治州,伊宁市,(0999)8058777,unknown,
baidu,c7bd4a3b5646a3b5f723108a,Muzqokka冰顶美食,果园街九巷与果园街十一巷交叉口东南200米,新疆维吾尔自治区,伊犁哈萨克自治州,伊宁市,,unknown,
baidu,f4c04671f555c85ee6e96504,阿布力孜抓饭,红旗大道胜利南路人民广场东南侧约70米,新疆维吾尔自治区,伊犁哈萨克自治州,伊宁市,13565237835,unknown,
baidu,67ed2721c782bdf91e1d1108,额冉美食农家乐,果园街与阿依墩街四巷交叉口南20米,新疆维吾尔自治区,伊犁哈萨克自治州,伊宁市,17599663663,unknown,
baidu,a9fecba3697b2b219f9d683a,千串烤肉店,阿依墩街021号,新疆维吾尔自治区,伊犁哈萨克自治州,伊宁市,13999397104,unknown,
baidu,d03f735724b3d2c55b10930a,艾山江水煎包店,喀赞其街道光明街51号,新疆维吾尔自治区,伊犁哈萨克自治州,伊宁市,13899743641,unknown,
baidu,4103c430d5d2aa7d43ab9af6,艾孜买提烤肉店,伊犁哈萨克自治州伊宁市前进街伊宁市第三十一小学西北侧,新疆维吾尔自治区,伊犁哈萨克自治州,伊宁市,,unknown,
baidu,3df5706184d077123d9a5ebf,无双土鸡肉餐厅,伊犁街伊宁市人民医院西南侧约150米,新疆维吾尔自治区,伊犁哈萨克自治州,伊宁市,15981739194,unknown,
baidu,33cfabacd0e74d82fe0eb06a,哈力木拉提烤肉店,幸福花园北,新疆维吾尔自治区,伊犁哈萨克自治州,伊宁市,19209997376,unknown,
baidu,81800dcfc5f72e78ae080fec,馕王(伊宁店),斯大林东路18号伊犁铜锣湾F1层,新疆维吾尔自治区,伊犁哈萨克自治州,伊宁市,18197993333,unknown,
baidu,cbb36c943e86a75c0ba8d4b4,艾山江玫瑰花鸡汤(喀赞其店),前进街92号,新疆维吾尔自治区,伊犁哈萨克自治州,伊宁市,14799975868,unknown,
baidu,886c4f7835bdb96d5e0d020b,益洲宴,伊犁河路201号益洲宴宴会厅,新疆维吾尔自治区,伊犁哈萨克自治州,伊宁市,,unknown,
baidu,f3606566db57064eb05c6a30,迪亚奈提冰淇淋,伊犁街四巷与伊犁街交叉口西160米,新疆维吾尔自治区,伊犁哈萨克自治州,伊宁市,18194949902,unknown,
baidu,b27b6ff37c0fbe45f21937da,安阿纳美食城,红旗路与红旗街交叉口北140米,新疆维吾尔自治区,伊犁哈萨克自治州,伊宁市,,unknown,
baidu,6471c0ccc25aa5ad71455be8,伊宁市迪雅仁美食厅,伊犁哈萨克自治州伊宁市前进街伊宁市第三十一小学南侧约40米,新疆维吾尔自治区,伊犁哈萨克自治州,伊宁市,,unknown,
baidu,7388dffd7e8f01f2d3ff2365,艾勒喀斯尔快餐,琼科瑞克街道新华东路114号(近人民医院),新疆维吾尔自治区,伊犁哈萨克自治州,伊宁市,(0999)6788388,unknown,
baidu,7b5736b6a101e08bcac3dbf1,家常特色拌面烤肉馆,伊犁哈萨克自治州伊宁市喀什街伊宁市第四中学西北侧约80米,新疆维吾尔自治区,伊犁哈萨克自治州,伊宁市,,unknown,
baidu,4c5fdfc42e09d88a30169bb0,呼勒佳酒店餐饮,新华西路58号,新疆维吾尔自治区,伊犁哈萨克自治州,伊宁市,"(0999)8024917,18139230890",unknown,
baidu,1544ffa3f9c424b0e115f9ad,古院美食,前进街53号,新疆维吾尔自治区,伊犁哈萨克自治州,伊宁市,,unknown,
baidu,be8ecafd25e8413d9fec2b59,阿吾拉力,胜利南路与前进街交叉口南10米,新疆维吾尔自治区,伊犁哈萨克自治州,伊宁市,17309999945,unknown,
baidu,e6ed07ca7128fc29fbf0cb98,亥散江烤肉店,阿依墩街50号,新疆维吾尔自治区,伊犁哈萨克自治州,伊宁市,13999382825,unknown,
baidu,0a36cfe7556ae5b47e29bd5d,买买提风掠小吃店,解放南路伊犁迪亚尔住宅小区西侧约150米,新疆维吾尔自治区,伊犁哈萨克自治州,伊宁市,,unknown,
baidu,573ba21ba309cb653210af48,香漫庭快餐厅,新疆维吾尔自治区伊犁哈萨克自治州伊宁市新光街40号,新疆维吾尔自治区,伊犁哈萨克自治州,伊宁市,18099409027,unknown,
baidu,22105d72584e65f2ae045793,茶湖辣餐厅,光明街25号-002室,新疆维吾尔自治区,伊犁哈萨克自治州,伊宁市,(0999)8022120,unknown,
baidu,7d0a0f15c9b9be8c40e192d4,吾顿美食城,解放南路与光明街交叉口东北40米,新疆维吾尔自治区,伊犁哈萨克自治州,伊宁市,,unknown,
baidu,f51d367a3733d25e441a32a7,玛尔玛热餐厅,新华东路3号,新疆维吾尔自治区,伊犁哈萨克自治州,伊宁市,13999398488,unknown,
baidu,28b6413ba107cddbe115f95e,辣润串精品肥牛火锅(红旗路店),喀赞其街道红旗路62号,新疆维吾尔自治区,伊犁哈萨克自治州,伊宁市,18509992015,unknown,
baidu,799d953b3c679a1b00ec01ae,活气缸子肉汤馆,解放南路伊犁迪亚尔住宅小区西侧约170米,新疆维吾尔自治区,伊犁哈萨克自治州,伊宁市,,unknown,
baidu,d26c3bb8b7fc7698cac3db96,祖宗三代木炭烤鸡,伊犁哈萨克自治州伊宁市新光街星光小区(新光街)西北侧约60米,新疆维吾尔自治区,伊犁哈萨克自治州,伊宁市,18599354109,unknown,
baidu,1e82f8a9e7f0ed7f354aae72,莱辣丽餐吧,阿依墩街与阿依墩街四巷交叉口东20米,新疆维吾尔自治区,伊犁哈萨克自治州,伊宁市,,unknown,
baidu,8468deda19e469d582a12efd,全城热辣(汉人街店),新华东路与红旗路交叉口北20米路西,新疆维吾尔自治区,伊犁哈萨克自治州,伊宁市,15599655559,unknown,
baidu,09b05319e94e90b4940319a2,格兰特尔大盘鸡,红旗路与新华东路交叉口西北80米,新疆维吾尔自治区,伊犁哈萨克自治州,伊宁市,13199999906,unknown,
baidu,151b4e3f2d31c7776849f3b6,海尔巴格戈鲁巴音乐餐吧,斯大林东路6号,新疆维吾尔自治区,伊犁哈萨克自治州,伊宁市,13199990393,unknown,
baidu,aefe87d13655fe4a2bb97c35,馕炕烤肉,解放南路与光明街交叉口东20米,新疆维吾尔自治区,伊犁哈萨克自治州,伊宁市,18197952363,unknown,
baidu,ea9d3f16e6ed7eeb2fb96d7a,蓝墙手工冰淇淋,新疆维吾尔自治区伊犁哈萨克自治州伊宁市果园街民安住宅小区西南侧约80米,新疆维吾尔自治区,伊犁哈萨克自治州,伊宁市,18094949024,unknown,
baidu,e336bab71a6707f32de67b42,莱滋滋秘方,红旗路26号红旗宾馆2号楼,新疆维吾尔自治区,伊犁哈萨克自治州,伊宁市,,unknown,
baidu,8212134a9e690cbeab059d90,不品尝真后悔薄皮包子王,新华东路与喀什街交叉口西40米,新疆维吾尔自治区,伊犁哈萨克自治州,伊宁市,,unknown,
baidu,423093dfb0a53ba000ec0121,蜜悦糕点坊,新华东路伊宁市人民医院西侧约210米,新疆维吾尔自治区,伊犁哈萨克自治州,伊宁市,,unknown,
baidu,c288e886322c4dfac61b756b,特色馕包肉,阿依墩街与解放南路交叉口东140米,新疆维吾尔自治区,伊犁哈萨克自治州,伊宁市,,unknown,
baidu,de2c46d2451e2bd2f60e77b8,辣风芹酱香米粉(汉人街店),新华东路243号永和商厦地1层,新疆维吾尔自治区,伊犁哈萨克自治州,伊宁市,18699985261,unknown,
baidu,66276469e1d82bce03ff2d44,吾祖尔美食,红旗路与新华东路交叉口南120米,新疆维吾尔自治区,伊犁哈萨克自治州,伊宁市,13364812477,unknown,
baidu,fe8fb5f4f17966074107c125,冰爱莲粽子果汁奶皮刨冰店,喀赞其街道红旗路伊宁市人民医院西侧约170米,新疆维吾尔自治区,伊犁哈萨克自治州,伊宁市,,unknown,
baidu,4ffe301f30009fed26e0a052,茶喜玛冰淇淋,前进街八巷与前进街交叉口东20米,新疆维吾尔自治区,伊犁哈萨克自治州,伊宁市,13999396437,unknown,
baidu,f4892881c22131811ef74d02,伊蓝酱香炒米粉,光明街33号（顺着老新华医院往下走50米第二个路口右转再走50米即到）,新疆维吾尔自治区,伊犁哈萨克自治州,伊宁市,13679943481,unknown,
baidu,ff824d7826c785023010af80,肯德基(伊宁友好店),解放南路铜锣湾商业区B区肯德基餐厅,新疆维吾尔自治区,伊犁哈萨克自治州,伊宁市,(0999)8031005,unknown,
baidu,d3b999e8bd6594aa28b97ca8,富辣瘾汉堡店,前进街79号,新疆维吾尔自治区,伊犁哈萨克自治州,伊宁市,18699900737,unknown,
baidu,48ddf43e3a00a2cc88f15dc6,蜜雪冰城(汉人街店),喀赞其民俗风情街(现名美居商贸城)市场一楼临街商铺M-05门面,新疆维吾尔自治区,伊犁哈萨克自治州,伊宁市,18139355426,unknown,
baidu,50f77c7dfb856f1243ab9a90,艾沙江薄皮包子馆,解放南路55号解放南路清真寺,新疆维吾尔自治区,伊犁哈萨克自治州,伊宁市,18699911151,unknown,
baidu,301e017d71e4e0963be4a6b0,敏燕包子店,喀瓒其街伊美雅苑西南侧约70米,新疆维吾尔自治区,伊犁哈萨克自治州,伊宁市,,unknown,
baidu,5ed408f88d60af256c476065,主麻特色干煸炒面,喀瓒其街与阿依墩街交叉口南200米,新疆维吾尔自治区,伊犁哈萨克自治州,伊宁市,,unknown,
baidu,aa1dc5e6b18f3869d8eced96,巴兰格·土豆卫士,解放南路92号（拜图拉清真寺东门斜对面）,新疆维吾尔自治区,伊犁哈萨克自治州,伊宁市,18240904010,unknown,
baidu,74b085eaea901f143904b1f1,7tam烧烤,阿依东街50-1号,新疆维吾尔自治区,伊犁哈萨克自治州,伊宁市,18119094348,unknown,
baidu,a8e20836e05fa8492fb17eee,多多羊腿鸽子汤馆,伊犁哈萨克自治州伊宁市光明街伊犁迪亚尔住宅小区西侧约190米,新疆维吾尔自治区,伊犁哈萨克自治州,伊宁市,15276497445,unknown,
baidu,0e79fa30060c084f81a12ef5,蜜雪冰城(大巴扎店),红旗路与新华西交叉口伊犁大巴扎A段金斯光商贸有限公司外127号商铺路,新疆维吾尔自治区,伊犁哈萨克自治州,伊宁市,15569539168,unknown,
baidu,109161698b8b3646c929151e,茶芭蕾(伊宁天百店),斯大林街与解放路交叉口B区伊犁铜锣湾B区商业楼伊犁天百国际购物中心A座一楼,新疆维吾尔自治区,伊犁哈萨克自治州,伊宁市,15299015185,unknown,
baidu,ead9452c6c281afc16c905e7,伊孜海迩冰淇淋(呼勒佳购物中心店),伊犁哈萨克自治州伊宁市新华西路33号呼勒佳购物中心F1,新疆维吾尔自治区,伊犁哈萨克自治州,伊宁市,,unknown,
baidu,c1d71b26318589f69e95de40,siyah音乐餐吧,新疆维吾尔自治区伊犁哈萨克自治州伊宁市青年街16号,新疆维吾尔自治区,伊犁哈萨克自治州,伊宁市,17690263530,unknown,
baidu,27aa2652e18dc39314c8f696,陆酷莫糕点坊,伊犁街与阿依墩街交叉口南40米,新疆维吾尔自治区,伊犁哈萨克自治州,伊宁市,18149994146,unknown,
baidu,aa1dc5e6b18f3869d8eced96,巴兰格·土豆卫士,解放南路92号（拜图拉清真寺东门斜对面）,新疆维吾尔自治区,伊犁哈萨克自治州,伊宁市,18240904010,unknown,
baidu,6a55e884cc19224bf503b878,ChackChack奇珂汉堡,新华西路12号1层104室,新疆维吾尔自治区,伊犁哈萨克自治州,伊宁市,15688380232,unknown,
baidu,3bad9eec837b4867ede4a57f,MezDog麦滋热狗(伊宁总店),新疆维吾尔自治区伊犁哈萨克自治州伊宁市老卡赞其派出所旁边,新疆维吾尔自治区,伊犁哈萨克自治州,伊宁市,15099431247,unknown,
baidu,bc0733e801a4d20187330450,我的拌面,伊犁哈萨克自治州伊宁市玉吉买勒克路伊宁市维吾尔医医院北侧约150米,新疆维吾尔自治区,伊犁哈萨克自治州,伊宁市,,unknown,
baidu,199e1740e2bb040fd2f49e7b,回头想牛肉面(十号住宅小区店),新华东路10号(十号住宅小区旁),新疆维吾尔自治区,伊犁哈萨克自治州,伊宁市,13999573216,unknown,
baidu,0e79fa30060c084f81a12ef5,蜜雪冰城(大巴扎店),红旗路与新华西交叉口伊犁大巴扎A段金斯光商贸有限公司外127号商铺路,新疆维吾尔自治区,伊犁哈萨克自治州,伊宁市,15569539168,unknown,
baidu,b35f00624c9ac3b6095cb3e5,多斯拉尔快餐,红旗路与新华东路交叉口南60米,新疆维吾尔自治区,伊犁哈萨克自治州,伊宁市,18599382855,unknown,
baidu,152e65651bf2006145e27462,月花香,新华东路105-106号,新疆维吾尔自治区,伊犁哈萨克自治州,伊宁市,13709994115,unknown,
baidu,5d20abc64bbe96fdebe5826f,古院快餐,伊犁哈萨克自治州伊宁市迸街五巷与前进街交叉路口往南约100米,新疆维吾尔自治区,伊犁哈萨克自治州,伊宁市,,unknown,
baidu,fe8fb5f4f17966074107c125,冰爱莲粽子果汁奶皮刨冰店,喀赞其街道红旗路伊宁市人民医院西侧约170米,新疆维吾尔自治区,伊犁哈萨克自治州,伊宁市,,unknown,
baidu,a75799e406175f1580a00cb8,一个七汉堡炸鸡(天百店),斯大林街23号(原伊宁商场11号)商铺,新疆维吾尔自治区,伊犁哈萨克自治州,伊宁市,18509913544,unknown,
baidu,0c89c1b92ef54d569e9d68b2,爱玲砂锅(青年街店),青年街8号综合楼1层114-3号,新疆维吾尔自治区,伊犁哈萨克自治州,伊宁市,15894138422,unknown,
baidu,2d0ad7da6500796cede4a5c6,优客味汉堡店,胜利街3巷95号,新疆维吾尔自治区,伊犁哈萨克自治州,伊宁市,17881759695,unknown,
baidu,a95ee5677dd86b67df1e52ec,金国红回味手擀面,喀瓒其街伊美雅苑西南侧约30米,新疆维吾尔自治区,伊犁哈萨克自治州,伊宁市,15981739194,unknown,
baidu,42e3351e2c62360a30169bd4,卓记米粉(天百店),斯大林东路18号伊犁铜锣湾F1层,新疆维吾尔自治区,伊犁哈萨克自治州,伊宁市,13319999262,unknown,
baidu,b5ed80dc63f6d357631c67d5,鲜枣味糕点坊,新疆维吾尔自治区伊犁哈萨克自治州伊宁市伊犁街伊犁迪亚尔住宅小区东南侧约110米,新疆维吾尔自治区,伊犁哈萨克自治州,伊宁市,,unknown,
baidu,12b6e83de3f862822fb96d34,青尚青麻辣烫,斯大林东路37-103号,新疆维吾尔自治区,伊犁哈萨克自治州,伊宁市,"(0999)8026000,18599498861",unknown,
baidu,383ea7a9ead46e259122e0d1,亨莱士汉堡(白银谷店),青年街3号,新疆维吾尔自治区,伊犁哈萨克自治州,伊宁市,,unknown,
baidu,2d0ad7da6500796cede4a5c6,优客味汉堡店,胜利街3巷95号,新疆维吾尔自治区,伊犁哈萨克自治州,伊宁市,17881759695,unknown,
baidu,b256deb40f15cc8a4151c0c1,蛋糕超市,伊犁哈萨克自治州伊宁市玉吉买勒克路城南壹号1期东北侧约180米,新疆维吾尔自治区,伊犁哈萨克自治州,伊宁市,,unknown,
baidu,5d20abc64bbe96fdebe5826f,古院快餐,伊犁哈萨克自治州伊宁市迸街五巷与前进街交叉路口往南约100米,新疆维吾尔自治区,伊犁哈萨克自治州,伊宁市,,unknown,
baidu,bc461a16945c0a8bbe4842a9,来伊顺牛肉面馆,新华西路58号,新疆维吾尔自治区,伊犁哈萨克自治州,伊宁市,13999592200,unknown,
baidu,152e65651bf2006145e27462,月花香,新华东路105-106号,新疆维吾尔自治区,伊犁哈萨克自治州,伊宁市,13709994115,unknown,
baidu,383ea7a9ead46e259122e0d1,亨莱士汉堡(白银谷店),青年街3号,新疆维吾尔自治区,伊犁哈萨克自治州,伊宁市,,unknown,
baidu,4190bee6481b59ca441a3222,茶主张(解放南路店),解放南路41号,新疆维吾尔自治区,伊犁哈萨克自治州,伊宁市,18099991013,unknown,
baidu,42e3351e2c62360a30169bd4,卓记米粉(天百店),斯大林东路18号伊犁铜锣湾F1层,新疆维吾尔自治区,伊犁哈萨克自治州,伊宁市,13319999262,unknown,
baidu,12b6e83de3f862822fb96d34,青尚青麻辣烫,斯大林东路37-103号,新疆维吾尔自治区,伊犁哈萨克自治州,伊宁市,"(0999)8026000,18599498861",unknown,
baidu,1497f445a2ca6ecd2fb17e8e,冰鲜园冷饮店,伊犁哈萨克自治州伊宁市迸街五巷伊宁市五中西南侧约140米,新疆维吾尔自治区,伊犁哈萨克自治州,伊宁市,,unknown,
baidu,a3f21eeefce85d452fb17e36,爱心饼屋(南苑店),斯大林东路37号，马林牛肉面隔壁,新疆维吾尔自治区,伊犁哈萨克自治州,伊宁市,(0999)8028322,unknown,
baidu,df8015851b8e9b3d8836ee97,伊犁海尔巴格赛乃姆演艺广场,前进街八巷67号,新疆维吾尔自治区,伊犁哈萨克自治州,伊宁市,"(0999)8356111,18130996030",unknown,
baidu,0cbb8d95e960a6aa4d554779,熔嫩岩蛋糕店,喀赞其街道红旗街47号,新疆维吾尔自治区,伊犁哈萨克自治州,伊宁市,13899783964,unknown,
baidu,b6b19a0823d68fb7f6e73bd5,伊犁天百国际购物中心,迎宾路4号,新疆维吾尔自治区,伊犁哈萨克自治州,伊宁市,(0999)8021315,unknown,
baidu,8de438f5334812ddddee8b72,呼勒佳购物中心,伊犁哈萨克自治州伊宁市新华西路33号,新疆维吾尔自治区,伊犁哈萨克自治州,伊宁市,,unknown,
baidu,0eb6a4320f93c47ef32d8317,新红旗商城(斯大林东路),新疆维吾尔自治区伊犁哈萨克自治州伊宁市红旗路26号,新疆维吾尔自治区,伊犁哈萨克自治州,伊宁市,,unknown,
baidu,b73333dc274e5ae69e82eaae,888服装鞋店,新疆维吾尔自治区伊犁哈萨克自治州伊宁市果园街99号-6门面,新疆维吾尔自治区,伊犁哈萨克自治州,伊宁市,13899734851,unknown,
baidu,083a55fa67275b04256e98b0,温州商贸城(青年街店),新疆维吾尔自治区伊犁哈萨克自治州伊宁市青年街10号,新疆维吾尔自治区,伊犁哈萨克自治州,伊宁市,,unknown,
baidu,1a2a29840fe84f6a0782c2de,征途体育服装店,伊犁哈萨克自治州伊宁市果园街果园村(树根)双语幼儿园东南侧约130米,新疆维吾尔自治区,伊犁哈萨克自治州,伊宁市,,unknown,
baidu,19b8a32543d24293e8e58213,饰宴文具精品店,伊犁哈萨克自治州伊宁市喀什街伊宁市第四中学西侧,新疆维吾尔自治区,伊犁哈萨克自治州,伊宁市,,unknown,
baidu,246dfbf90daad3546c3e1b53,万汇鲜品超市(双辰店),新疆维吾尔自治区伊犁哈萨克自治州伊宁市解放路60号,新疆维吾尔自治区,伊犁哈萨克自治州,伊宁市,17509998555,unknown,
baidu,1adcacfe2ccc970143e192f0,游家综合商店,伊犁哈萨克自治州伊宁市迸街五巷与前进街交叉路口往南约170米,新疆维吾尔自治区,伊犁哈萨克自治州,伊宁市,,unknown,
baidu,8720c9bbedb3bbed95f08c97,综合商店,伊犁哈萨克自治州伊宁市巴哈尔街五巷与喀什街交叉路口往西约70米,新疆维吾尔自治区,伊犁哈萨克自治州,伊宁市,,unknown,
baidu,22205e4df0d9d22376e5b6d8,艳丽灯具与综合商店,伊犁哈萨克自治州伊宁市伊犁街伊犁迪亚尔住宅小区东南侧约250米,新疆维吾尔自治区,伊犁哈萨克自治州,伊宁市,,unknown,
baidu,cc1abd9124b0141aa3acc4ab,美居商贸城,新疆维吾尔自治区伊犁哈萨克自治州伊宁市汉人街一期,新疆维吾尔自治区,伊犁哈萨克自治州,伊宁市,,unknown,
baidu,83fef5d968f3952ce91e972d,FR服装店,新疆维吾尔自治区伊犁哈萨克自治州伊宁市果园街与99号,新疆维吾尔自治区,伊犁哈萨克自治州,伊宁市,"14799999303,17611291929",unknown,
baidu,5be25205111b4fc897031948,伊犁铜锣湾(斯大林东路店),伊犁哈萨克自治州伊宁市斯大林东路18号,新疆维吾尔自治区,伊犁哈萨克自治州,伊宁市,,unknown,
baidu,0606130f0b80db974d776e60,塔兰奇超市,伊犁哈萨克自治州伊宁市玉吉买勒克路伊宁市维吾尔医医院西北侧约40米,新疆维吾尔自治区,伊犁哈萨克自治州,伊宁市,,unknown,
baidu,5eb281a9a4365eb3b320a808,米合热超市,伊犁哈萨克自治州伊宁市玉吉买勒克路伊宁市维吾尔医医院西北侧约30米,新疆维吾尔自治区,伊犁哈萨克自治州,伊宁市,,unknown,
baidu,d67557a0906fb43f2fb96d1e,努力商贸城,新疆维吾尔自治区伊犁哈萨克自治州伊宁市新华东路125号,新疆维吾尔自治区,伊犁哈萨克自治州,伊宁市,,unknown,
baidu,1337af180931520ef90cadf1,怡安·白银谷,新疆维吾尔自治区伊犁哈萨克自治州伊宁市新华西路74号,新疆维吾尔自治区,伊犁哈萨克自治州,伊宁市,,unknown,
baidu,7ca2d56c7ee81b9a0e3ddaf6,伊宁市群半综合商店,新疆维吾尔自治区伊犁哈萨克自治州伊宁市前进街223号,新疆维吾尔自治区,伊犁哈萨克自治州,伊宁市,15684848380,unknown,
baidu,5a0f7f6a73ac70d526d2bb48,福聚尚百货超市,伊犁哈萨克自治州伊宁市光明街伊犁迪亚尔住宅小区西侧约200米,新疆维吾尔自治区,伊犁哈萨克自治州,伊宁市,,unknown,
baidu,f303b8b8ffd07a01b54f545b,祥龙金店,新疆维吾尔自治区伊犁哈萨克自治州伊宁市喀什街5号,新疆维吾尔自治区,伊犁哈萨克自治州,伊宁市,15299268298,unknown,
baidu,0293e8d1987b37e448cc4aef,中国移动(库尔班塔依专营店),伊犁哈萨克自治州伊宁市伊犁街八巷果园街民安住宅小区南侧,新疆维吾尔自治区,伊犁哈萨克自治州,伊宁市,,unknown,
baidu,0bf43b4a301f6847b5147f45,祥和名品城(青年街店),伊犁哈萨克自治州伊宁市青年街67号,新疆维吾尔自治区,伊犁哈萨克自治州,伊宁市,,unknown,
baidu,fba5bf56f8e28b0e744ff14f,迪丽娜予丝绸,伊犁哈萨克自治州伊宁市前进街伊宁市人民医院南侧约150米,新疆维吾尔自治区,伊犁哈萨克自治州,伊宁市,,unknown,
baidu,6ed6ad44f2a1362807026fd8,蝴蝶结制衣店,伊犁哈萨克自治州伊宁市伊犁街伊犁迪亚尔住宅小区东南侧约100米,新疆维吾尔自治区,伊犁哈萨克自治州,伊宁市,,unknown,
baidu,37d75fa12c10f3d1eb56fae8,欢聚乐服装,伊犁哈萨克自治州伊宁市伊犁街伊犁迪亚尔住宅小区东南侧约140米,新疆维吾尔自治区,伊犁哈萨克自治州,伊宁市,,unknown,
baidu,3ad84c78c3a7bd2fd2f49e25,情定花缘,伊犁哈萨克自治州伊宁市新华东路,新疆维吾尔自治区,伊犁哈萨克自治州,伊宁市,,unknown,
baidu,9f3f5e5bdb758c4259bbbcfc,祈康保健食品店,伊犁哈萨克自治州伊宁市红旗街伊犁迪亚尔住宅小区东侧约70米,新疆维吾尔自治区,伊犁哈萨克自治州,伊宁市,"13565234107,18196957109",unknown,
baidu,47b052d3bd8d6c561188241c,小前蜂,伊犁哈萨克自治州伊宁市伊犁街伊犁迪亚尔住宅小区东南侧约70米,新疆维吾尔自治区,伊犁哈萨克自治州,伊宁市,,unknown,
baidu,57e0c1ece5de1b2fddee8bc3,酷克钦花艺kokqin,伊犁哈萨克自治州伊宁市解放南路伊宁市第三小学东南侧约140米,新疆维吾尔自治区,伊犁哈萨克自治州,伊宁市,15199999424,unknown,
baidu,9f5ef2f8e172a85625d2bbb1,伊宁市野蒜综合商店,伊犁哈萨克自治州伊宁市新路街七巷塔什库勒克派出所东北侧约60米,新疆维吾尔自治区,伊犁哈萨克自治州,伊宁市,15352796067,unknown,
baidu,ace34ccb4030cf3c5e17c32d,保健食品店,伊犁哈萨克自治州伊宁市喀什街伊宁市第四中学西北侧约110米,新疆维吾尔自治区,伊犁哈萨克自治州,伊宁市,18742988775,unknown,
baidu,a5579767db88fa874151c094,郅尔鑫综合商店,伊犁哈萨克自治州伊宁市喀什街伊宁市第十四小学南侧约30米,新疆维吾尔自治区,伊犁哈萨克自治州,伊宁市,,unknown,
baidu,6c3b9efc86f459f4d0ff231d,健康保健食品店,新疆维吾尔自治区伊犁哈萨克自治州伊宁市红旗街伊犁迪亚尔住宅小区,新疆维吾尔自治区,伊犁哈萨克自治州,伊宁市,,unknown,
baidu,edfbdc5086f3064c1ce9992c,芽乐西服饰,伊犁哈萨克自治州伊宁市红旗街伊犁迪亚尔住宅小区东北侧约100米,新疆维吾尔自治区,伊犁哈萨克自治州,伊宁市,,unknown,
baidu,fe2a167de4b794685a3ac8c0,淘上日用化妆品店,伊犁哈萨克自治州伊宁市红旗街伊犁迪亚尔住宅小区西北侧,新疆维吾尔自治区,伊犁哈萨克自治州,伊宁市,,unknown,
baidu,4f234ebc56cf0654f5c59c24,兄弟牛羊肉批发零售,新疆维吾尔自治区伊犁哈萨克自治州伊宁市新华东路243号,新疆维吾尔自治区,伊犁哈萨克自治州,伊宁市,"13779135840,17709991494",unknown,
baidu,c8dbf2502e5092594f3a5973,铜锣湾电脑城(斯大林东路伊犁铜锣湾店),新疆维吾尔自治区伊犁哈萨克自治州伊宁市斯大林东路18号伊犁铜锣湾F1,新疆维吾尔自治区,伊犁哈萨克自治州,伊宁市,,unknown,
baidu,870ff1d549ab79b99d95de9c,哈斯木喀力调料店,伊犁哈萨克自治州伊宁市新华东路三巷伊宁市五中北侧约100米,新疆维吾尔自治区,伊犁哈萨克自治州,伊宁市,"15599994144,16609993993",unknown,
baidu,0cb97121bd593e31077ce8fd,佳女风尚服装店,伊犁哈萨克自治州伊宁市红旗街伊犁迪亚尔住宅小区东北侧,新疆维吾尔自治区,伊犁哈萨克自治州,伊宁市,,unknown,
baidu,c8f4672bbb5f9c51aa0dd8b6,颗粒米便利店,伊犁哈萨克自治州伊宁市伊犁街伊犁迪亚尔住宅小区东南侧约80米,新疆维吾尔自治区,伊犁哈萨克自治州,伊宁市,,unknown,
baidu,f939a1d41a84c39cfd0eb090,SARDAR电器,伊犁哈萨克自治州伊宁市果园街伊宁市维吾尔医医院东侧约210米,新疆维吾尔自治区,伊犁哈萨克自治州,伊宁市,,unknown,
baidu,99e9b0188b3ec6e800ec010b,林里香综合商店,伊犁哈萨克自治州伊宁市解放南路伊宁市第三小学东南侧约160米,新疆维吾尔自治区,伊犁哈萨克自治州,伊宁市,,unknown,
baidu,f0d9abf954657f3e260bd0af,悦品原保健食品店,伊犁哈萨克自治州伊宁市解放南路伊宁市第三小学南侧约210米,新疆维吾尔自治区,伊犁哈萨克自治州,伊宁市,,unknown,
baidu,f77c99cdd52a743deb56fa00,福康多便利店,伊犁哈萨克自治州伊宁市喀什街伊宁市第十四小学东南侧,新疆维吾尔自治区,伊犁哈萨克自治州,伊宁市,,unknown,
baidu,a61f320bd90c53e0b5f42ffb,妮娅兰,伊犁哈萨克自治州伊宁市迸街五巷与前进街交叉路口往南约170米,新疆维吾尔自治区,伊犁哈萨克自治州,伊宁市,,unknown,
baidu,258375d70473c4a2eedfca10,尼加提麦麦提艾力食品店,伊犁街188号,新疆维吾尔自治区,伊犁哈萨克自治州,伊宁市,,unknown,
baidu,f2f5f5dd3593f361276e986e,ROYAL服装店,新疆维吾尔自治区伊犁哈萨克自治州伊宁市前进街8巷27号,新疆维吾尔自治区,伊犁哈萨克自治州,伊宁市,13779563430,unknown,
baidu,90cf05eb943c3ce82cb96d34,伊里哈尔洗地毯中心,伊犁哈萨克自治州伊宁市果园街伊宁市第十五中学西南侧约160米,新疆维吾尔自治区,伊犁哈萨克自治州,伊宁市,13899706391,unknown,
baidu,2512ef1a9da34fa23617dcd5,阿粒屯达粮食店,伊犁哈萨克自治州伊宁市喀什街与前进街交叉路口南侧,新疆维吾尔自治区,伊犁哈萨克自治州,伊宁市,,unknown,
baidu,1372b2f2f203aa5ef7b916a7,匡三胖果业(总店),新疆维吾尔自治区伊犁哈萨克自治州伊宁市前进街51-2号,新疆维吾尔自治区,伊犁哈萨克自治州,伊宁市,15309992322,unknown,
baidu,0daeef347384b57d4f3a5900,伊犁国际大巴扎,新华东路91号,新疆维吾尔自治区,伊犁哈萨克自治州,伊宁市,,unknown,
baidu,471aa872189a9455c42ba109,粮油蔬菜店,伊犁哈萨克自治州伊宁市伊犁街果园村(树根)双语幼儿园东南侧约90米,新疆维吾尔自治区,伊犁哈萨克自治州,伊宁市,,unknown,
baidu,cb4ecf87e9ff531b1c1d114f,喜肉者牛羊肉销售店,新疆维吾尔自治区伊犁哈萨克自治州伊宁市喀赞其街道前进街254号-2号,新疆维吾尔自治区,伊犁哈萨克自治州,伊宁市,15352754142,unknown,
baidu,dffd631c0ae63fbd38221c33,新华书店(铜锣湾店),斯大林东路8号,新疆维吾尔自治区,伊犁哈萨克自治州,伊宁市,(0999)8021134,unknown,
baidu,592569397c00c9d3735e80a4,伊力亚尔五金装饰材料中心,新疆维吾尔自治区伊犁哈萨克自治州伊宁市伊犁街149号,新疆维吾尔自治区,伊犁哈萨克自治州,伊宁市,17799497795,unknown,
baidu,a88e810d72decd7d213bf2f7,玻璃艺术,伊犁哈萨克自治州伊宁市果园街民安住宅小区西南侧约70米,新疆维吾尔自治区,伊犁哈萨克自治州,伊宁市,,unknown,
baidu,dab7d7f3a4e2bbad373a71d9,铁木尔钢材,伊犁哈萨克自治州伊宁市巴哈尔街五巷与前进街交叉路口西北侧,新疆维吾尔自治区,伊犁哈萨克自治州,伊宁市,,unknown,
baidu,5a5307939b80256bd0ff237e,奥茹喜男士服装店,新疆维吾尔自治区伊犁哈萨克自治州伊宁市阿依墩街53号,新疆维吾尔自治区,伊犁哈萨克自治州,伊宁市,,unknown,
baidu,e9eb3b62b847428c9f09f744,何由彻果蔬店,伊犁哈萨克自治州伊宁市喀什街伊宁市第四中学西北侧约160米,新疆维吾尔自治区,伊犁哈萨克自治州,伊宁市,,unknown,
baidu,ca843abebe21d3fb9ff77981,伊犁大巴扎A段,新疆维吾尔自治区伊犁哈萨克自治州伊宁市新华东路91号1栋803室,新疆维吾尔自治区,伊犁哈萨克自治州,伊宁市,,unknown,
baidu,df0b86852af35bebeddfcae2,丰满女士服装,伊犁哈萨克自治州伊宁市玉吉买勒克路城南壹号1期东北侧约180米,新疆维吾尔自治区,伊犁哈萨克自治州,伊宁市,,unknown,
baidu,7c1f0539e47f242152e5c5a6,彩尔达尔电器,新疆维吾尔自治区伊犁哈萨克自治州伊宁市果园街,新疆维吾尔自治区,伊犁哈萨克自治州,伊宁市,,unknown,
baidu,8251e86a770d38c6aa059d15,民族服饰出售旅行拍摄,伊犁哈萨克自治州伊宁市前进街伊宁市人民医院南侧约160米,新疆维吾尔自治区,伊犁哈萨克自治州,伊宁市,,unknown,
baidu,ff1d0a3a8a5f60f89122e059,便民粮油店,伊犁哈萨克自治州伊宁市阿依墩街伊犁迪亚尔住宅小区西南侧约200米,新疆维吾尔自治区,伊犁哈萨克自治州,伊宁市,,unknown,
baidu,11a2edd9d381b71df9dc85a8,阿布都西库尔五金店,伊犁哈萨克自治州伊宁市光明街伊犁迪亚尔住宅小区西侧约190米,新疆维吾尔自治区,伊犁哈萨克自治州,伊宁市,,unknown,
baidu,9875c9fff6a9a064c056ac39,永色水暖配件销售店,伊犁哈萨克自治州伊宁市光明街伊犁迪亚尔住宅小区西侧约190米,新疆维吾尔自治区,伊犁哈萨克自治州,伊宁市,,unknown,
baidu,50b503daefac8aba8505bf55,利通旭粮油店,伊犁哈萨克自治州伊宁市解放南路伊犁迪亚尔住宅小区西南侧约210米,新疆维吾尔自治区,伊犁哈萨克自治州,伊宁市,15559296529,unknown,
baidu,9a88b4bd01d474138f55ec1f,淘居客二手家具家电,新疆维吾尔自治区伊犁哈萨克自治州伊宁市英阿亚提街北路64号,新疆维吾尔自治区,伊犁哈萨克自治州,伊宁市,,unknown,
baidu,b22c2f27d182cfdf52e5c5b3,特九男士服装店,伊犁哈萨克自治州伊宁市红旗街伊犁迪亚尔住宅小区东北侧约120米,新疆维吾尔自治区,伊犁哈萨克自治州,伊宁市,,unknown,
baidu,027096198f6b366032870a2c,阿踏含,伊犁哈萨克自治州伊宁市红旗街伊犁迪亚尔住宅小区东北侧约130米,新疆维吾尔自治区,伊犁哈萨克自治州,伊宁市,,unknown,
baidu,d6b6a99db71f0da804026f82,豪艺惠地毯行,伊犁哈萨克自治州伊宁市胜利南路伊宁市人民医院东南侧约40米,新疆维吾尔自治区,伊犁哈萨克自治州,伊宁市,,unknown,
baidu,5eb4415d268f23bec6effb1a,心派食品店,伊犁哈萨克自治州伊宁市解放南路伊犁迪亚尔住宅小区西南侧约200米,新疆维吾尔自治区,伊犁哈萨克自治州,伊宁市,,unknown,
baidu,52202dbea4c7b46796ca079a,攒玲指地毯店,伊犁哈萨克自治州伊宁市胜利南路伊宁市人民医院东南侧约50米,新疆维吾尔自治区,伊犁哈萨克自治州,伊宁市,,unknown,
baidu,95f5e392503feca88936eefb,塑钢门窗,伊犁哈萨克自治州伊宁市幸福大街伊宁市第四中学东北侧约230米,新疆维吾尔自治区,伊犁哈萨克自治州,伊宁市,,unknown,
baidu,ffb86dad6fad7502901fc92a,公厕,伊犁哈萨克自治州伊宁市前进街八巷伊宁市第四中学西南侧约180米,新疆维吾尔自治区,伊犁哈萨克自治州,伊宁市,,unknown,
baidu,d02ab6db5e088522e215f9f5,伊犁老城喀赞其民俗旅游区-游客中心,伊犁哈萨克自治州伊宁市玉吉买勒克路城南壹号1期东北侧约110米,新疆维吾尔自治区,伊犁哈萨克自治州,伊宁市,(0999)8020688,unknown,
baidu,d5197a0fb17dadea7ab55cf5,幽之怀摄影服务中心,伊犁哈萨克自治州伊宁市喀什街与前进街交叉路口西侧,新疆维吾尔自治区,伊犁哈萨克自治州,伊宁市,,unknown,
baidu,10d4f0271452de0e27e0a0e3,极兔速递(伊宁市喀什街站),伊犁哈萨克自治州伊宁市喀什街伊宁市第四中学西南侧,新疆维吾尔自治区,伊犁哈萨克自治州,伊宁市,,unknown,
baidu,d44764bfb66867f3a0acc47b,泉钻推拿馆,伊犁哈萨克自治州伊宁市玉吉买勒克路伊宁市第三十一小学南侧约140米,新疆维吾尔自治区,伊犁哈萨克自治州,伊宁市,,unknown,
baidu,eb580ce27878672fca09f070,圆通速递(妈妈驿站),伊犁哈萨克自治州伊宁市喀什街,新疆维吾尔自治区,伊犁哈萨克自治州,伊宁市,19309995740,unknown,
baidu,515f630c5e43273c52e5c5fa,乌资兰婚纱礼服工厂实体店,新疆维吾尔自治区伊犁哈萨克自治州伊宁市伊犁街38号,新疆维吾尔自治区,伊犁哈萨克自治州,伊宁市,19390975756,unknown,
baidu,76b562d3514a3c4c2102621e,伊犁老城喀赞其民俗旅游区-游客服务中心,伊犁哈萨克自治州伊宁市胜利南路与新华东路交叉路口伊犁老城喀赞其民俗旅游区(苏碧怡大厦西南侧),新疆维吾尔自治区,伊犁哈萨克自治州,伊宁市,,unknown,
baidu,cc712076c3b9dec4f5c59c3e,锦带花女士裁缝店,伊犁哈萨克自治州伊宁市阿依墩街伊犁迪亚尔住宅小区东南侧约70米,新疆维吾尔自治区,伊犁哈萨克自治州,伊宁市,,unknown,
baidu,8b2bf4387c9e33d02cb17eec,公共厕所,伊犁哈萨克自治州伊宁市前进街伊宁市五中西北侧约60米,新疆维吾尔自治区,伊犁哈萨克自治州,伊宁市,,unknown,
baidu,07821c79deeb4f03f50e7718,浪漫气球婚庆花束派对,伊犁哈萨克自治州伊宁市玉吉买勒克路伊宁市维吾尔医医院西北侧约40米,新疆维吾尔自治区,伊犁哈萨克自治州,伊宁市,,unknown,
baidu,36635862a26d81fe2b06ce02,伊宁市安贝格宠物销售店,新疆维吾尔自治区伊犁哈萨克自治州伊宁市塔什科瑞克乡类园村安置小区门面房212号,新疆维吾尔自治区,伊犁哈萨克自治州,伊宁市,18290979535,unknown,
baidu,0facfc6ce6886ab61ef74d9e,公共厕所,伊犁哈萨克自治州伊宁市新华东路伊宁市第十四小学东侧约40米,新疆维吾尔自治区,伊犁哈萨克自治州,伊宁市,,unknown,
baidu,fcd7352244dd0b5edbecedf3,流行裁缝店,伊犁哈萨克自治州伊宁市玉吉买勒克路伊宁市维吾尔医医院西北侧约30米,新疆维吾尔自治区,伊犁哈萨克自治州,伊宁市,,unknown,
baidu,f514a749fefdf88cb5147f8f,美何恋广告服务中心,新疆维吾尔自治区伊犁哈萨克自治州伊宁市阿依东街59号,新疆维吾尔自治区,伊犁哈萨克自治州,伊宁市,15599994724,unknown,
baidu,acc6a99b8652961fb020a8f2,公共厕所,新疆维吾尔自治区伊犁哈萨克自治州伊宁市解放路1号,新疆维吾尔自治区,伊犁哈萨克自治州,伊宁市,,unknown,
baidu,f09f9d8b7973a0b78d772779,公共厕所,新疆维吾尔自治区伊犁哈萨克自治州伊宁市新华西路66号,新疆维吾尔自治区,伊犁哈萨克自治州,伊宁市,,unknown,
baidu,0de91058afa7764136b06cac,公厕,伊犁哈萨克自治州伊宁市胜利街2号,新疆维吾尔自治区,伊犁哈萨克自治州,伊宁市,,unknown,
baidu,2e11286cfaf7dd820f0e6b7a,公共厕所,伊犁哈萨克自治州伊宁市胜利南路伊宁市人民医院东侧约40米,新疆维吾尔自治区,伊犁哈萨克自治州,伊宁市,,unknown,
baidu,12cc9e1a7a4f08fd8bdb731e,公共厕所,伊犁哈萨克自治州伊宁市红旗街伊犁迪亚尔住宅小区西侧约170米,新疆维吾尔自治区,伊犁哈萨克自治州,伊宁市,,unknown,
baidu,29941bd4d09c06f33f9a5e89,喀赞其殡葬服务中心,伊犁哈萨克自治州伊宁市阿依墩街伊犁迪亚尔住宅小区南侧约40米,新疆维吾尔自治区,伊犁哈萨克自治州,伊宁市,,unknown,
baidu,483ab5d6f5ad6fc9eae582a9,公共厕所,伊犁哈萨克自治州伊宁市胜利南路人民广场东侧约40米,新疆维吾尔自治区,伊犁哈萨克自治州,伊宁市,,unknown,
baidu,86aa932b65fd6343734b8788,云仓便民服务点,伊犁哈萨克自治州伊宁市巴哈尔街伊宁市第四中学东北侧约160米,新疆维吾尔自治区,伊犁哈萨克自治州,伊宁市,,unknown,
baidu,16db593d3fdc1ce0f8f0cb97,翊博图文广告,新疆维吾尔自治区伊犁哈萨克自治州伊宁市S313,新疆维吾尔自治区,伊犁哈萨克自治州,伊宁市,19009994298,unknown,
baidu,dc21624d091eadc7c6effbd7,小天使照相馆,新疆维吾尔自治区伊犁哈萨克自治州伊宁市喀什街3号,新疆维吾尔自治区,伊犁哈萨克自治州,伊宁市,,unknown,
baidu,669775d057b4395afd0eb036,中国邮政(新华路邮政营业厅),新疆维吾尔自治区伊犁哈萨克自治州伊宁市新华西路25号,新疆维吾尔自治区,伊犁哈萨克自治州,伊宁市,11185,unknown,
baidu,5a2cf0e7ecc0d99131870ac3,健康干洗店,伊犁哈萨克自治州伊宁市红旗街伊犁迪亚尔住宅小区东北侧约140米,新疆维吾尔自治区,伊犁哈萨克自治州,伊宁市,,unknown,
baidu,c4e66a9c8254bd82c61b7535,公共厕所,伊犁哈萨克自治州伊宁市解放南路伊犁迪亚尔住宅小区西北侧约230米,新疆维吾尔自治区,伊犁哈萨克自治州,伊宁市,,unknown,
baidu,e774ddf729bea7867adbd2eb,伊宁市东谷图文广告制作中心,新疆维吾尔自治区伊犁哈萨克自治州伊宁市阿依东街13巷5号,新疆维吾尔自治区,伊犁哈萨克自治州,伊宁市,15609994471,unknown,
baidu,281b3fb1cad57c9eab175a8c,金科浩宇天辰营销中心,伊犁哈萨克自治州伊宁市南环路777号,新疆维吾尔自治区,伊犁哈萨克自治州,伊宁市,,unknown,
baidu,1cb7f36f24e0f965d813186f,公共厕所,新疆维吾尔自治区伊犁哈萨克自治州伊宁市解放南路72号,新疆维吾尔自治区,伊犁哈萨克自治州,伊宁市,,unknown,
baidu,f3dceb068206f2a1fb2d61a1,泰百素幕广告影视中心,伊犁哈萨克自治州伊宁市果园街伊宁市第三小学东南侧约140米,新疆维吾尔自治区,伊犁哈萨克自治州,伊宁市,13565234456,unknown,
baidu,12431c30bc261bfa5bf6be61,中国福利彩票(胜利南路店),伊犁哈萨克自治州伊宁市胜利南路人民广场东南侧约40米,新疆维吾尔自治区,伊犁哈萨克自治州,伊宁市,954168,unknown,
baidu,a654b6c58d5f2a117369d34a,公共厕所,伊犁哈萨克自治州伊宁市光明大街伊宁市第二幼儿园西南侧约200米,新疆维吾尔自治区,伊犁哈萨克自治州,伊宁市,,unknown,
baidu,439a20372e7aeb559e9d68bf,公共卫生间,伊犁哈萨克自治州伊宁市斯大林东路18号伊犁铜锣湾F1,新疆维吾尔自治区,伊犁哈萨克自治州,伊宁市,,unknown,
baidu,8d6189265597247188fc06e9,公厕,伊犁哈萨克自治州伊宁市解放南路与新华东路交叉路口往东约50米,新疆维吾尔自治区,伊犁哈萨克自治州,伊宁市,,unknown,
baidu,ec1f6eb951f3374f43ab9a10,韵达快递(伊犁河路伊毛分部),新疆维吾尔自治区伊犁哈萨克自治州伊宁市伊犁河路201号,新疆维吾尔自治区,伊犁哈萨克自治州,伊宁市,95546,unknown,
baidu,e85992657ddcdbad42d63eb8,艳芳工美刻章部,伊犁哈萨克自治州伊宁市斯大林东路18号伊犁铜锣湾F1,新疆维吾尔自治区,伊犁哈萨克自治州,伊宁市,18999399839,unknown,
baidu,b6c29c1facacbefc15a1909f,伊宁市缔礼爱婚庆服务中心,新疆维吾尔自治区伊犁哈萨克自治州伊宁市伊犁河新路街1号,新疆维吾尔自治区,伊犁哈萨克自治州,伊宁市,13999588838,unknown,
baidu,1d39e03ecd2f09ca4302455d,恒威图文广告图纸刻章,新疆维吾尔自治区伊犁哈萨克自治州伊宁市迎宾路铜锣湾农商银行旁,新疆维吾尔自治区,伊犁哈萨克自治州,伊宁市,,unknown,
baidu,82f9dd5d0a848a7eda2f282e,红广场影楼(伊犁国际大巴扎店),伊犁哈萨克自治州伊宁市广场街人民广场南侧约30米,新疆维吾尔自治区,伊犁哈萨克自治州,伊宁市,"18139202357,18999380510",unknown,
baidu,1462d040c8222ba7f12d830b,公共厕所,伊犁哈萨克自治州伊宁市新华西路兵团第四师医院南侧约30米,新疆维吾尔自治区,伊犁哈萨克自治州,伊宁市,,unknown,
baidu,78453446fc73a26b09a8d4cd,中国邮政(英阿亚提路店),伊犁哈萨克自治州伊宁市英阿亚提路伊宁伊力特大酒店北侧约60米,新疆维吾尔自治区,伊犁哈萨克自治州,伊宁市,11185,unknown,
baidu,8580e90727e511f540ab9afb,后滩明珠展厅,新疆维吾尔自治区伊犁哈萨克自治州伊宁市后滩路88号,新疆维吾尔自治区,伊犁哈萨克自治州,伊宁市,18599398877,unknown,
baidu,0af574509f0aa1ddd1f49e0f,公共厕所,伊犁哈萨克自治州伊宁市新华东路第四幼儿园东侧约220米,新疆维吾尔自治区,伊犁哈萨克自治州,伊宁市,,unknown,
baidu,1b0b91bbf8c296f1c2f1cf07,鑫谷二手房信息服务部,伊犁哈萨克自治州伊宁市新华东路库尔杆招待所西侧约160米,新疆维吾尔自治区,伊犁哈萨克自治州,伊宁市,,unknown,
baidu,e889a7446978b4b48605bf36,伊犁摄影图片社,斯大林街60号,新疆维吾尔自治区,伊犁哈萨克自治州,伊宁市,13909990822,unknown,
baidu,355c54efd0d048a379f79630,农情暖域工会驿站(农行伊宁红旗路支行),伊犁哈萨克自治州伊宁市红旗路新红旗商城(斯大林东路),新疆维吾尔自治区,伊犁哈萨克自治州,伊宁市,(0999)8023111,unknown,
baidu,2f66b6fafb37dc80b11e36e6,中国电信(城南壹号社区店),新疆维吾尔自治区伊犁哈萨克自治州伊宁市南环路888号城南壹号106号,新疆维吾尔自治区,伊犁哈萨克自治州,伊宁市,19190690999,unknown,
baidu,a5097bfaed528262f03cba36,新星婚纱影楼,新疆维吾尔自治区伊犁哈萨克自治州伊宁市斯大林街11号,新疆维吾尔自治区,伊犁哈萨克自治州,伊宁市,(0999)8023172,unknown,
baidu,c994720b7c927f734d5547af,中国体育彩票(胜利南路店),伊犁哈萨克自治州伊宁市胜利南路人民广场东南侧约40米,新疆维吾尔自治区,伊犁哈萨克自治州,伊宁市,95086,unknown,
baidu,a15112b707040e7ec9291594,公厕,新疆维吾尔自治区伊犁哈萨克自治州伊宁市伊犁河路162号,新疆维吾尔自治区,伊犁哈萨克自治州,伊宁市,,unknown,
baidu,9e1300e1c608127dc9c3db69,公共卫生间,伊犁哈萨克自治州伊宁市伊犁河路中国石化加油站,新疆维吾尔自治区,伊犁哈萨克自治州,伊宁市,,unknown,
baidu,d09da9c4d06aecf50c0a705e,齐锐通讯服务中心,新疆维吾尔自治区伊犁哈萨克自治州伊宁市解放南路65,新疆维吾尔自治区,伊犁哈萨克自治州,伊宁市,13319996596,unknown,
baidu,940e83ece248125d79b55c94,紫拉蓝婚纱摄影,新疆维吾尔自治区伊犁哈萨克自治州伊宁市喀赞其街道光明街85号,新疆维吾尔自治区,伊犁哈萨克自治州,伊宁市,,unknown,
baidu,e6186ec8547d8ffab25c6ab1,沐兰汀宴会厅,新疆维吾尔自治区伊犁哈萨克自治州伊宁市斯大林街82号和谐大酒店2楼,新疆维吾尔自治区,伊犁哈萨克自治州,伊宁市,(0999)8810080,unknown,
baidu,ab05fdb69a6fd2be3617dc03,公共卫生间,伊犁哈萨克自治州伊宁市后滩路英阿亚提小区,新疆维吾尔自治区,伊犁哈萨克自治州,伊宁市,,unknown,
baidu,cdb68333073d70070f0a70d9,萌宠宠物用品店,伊犁哈萨克自治州伊宁市伊犁河路白杨丽景,新疆维吾尔自治区,伊犁哈萨克自治州,伊宁市,,unknown,
baidu,34a6d490a57d8429a3acc405,中国联通(红旗路店),新疆维吾尔自治区伊犁哈萨克自治州伊宁市红旗路26号新红旗商城F1,新疆维吾尔自治区,伊犁哈萨克自治州,伊宁市,17699999307,unknown,
baidu,9e1fa373acbd7204f4b9162e,胜利北路火车售票处,伊犁哈萨克自治州伊宁市胜利北路天山宾馆(胜利北路店)西侧约30米,新疆维吾尔自治区,伊犁哈萨克自治州,伊宁市,,unknown,
baidu,9cf0398c78b713a587330430,中国福利彩票(新华东路店),伊犁哈萨克自治州伊宁市新华东路白银谷斜对面驼舟招待所楼下,新疆维吾尔自治区,伊犁哈萨克自治州,伊宁市,954168,unknown,
baidu,cf6ce7c7100090c8af045745,后滩领地营销中心,伊犁哈萨克自治州伊宁市后滩路锦华家园,新疆维吾尔自治区,伊犁哈萨克自治州,伊宁市,,unknown,
baidu,afa989bf4ab0b19db04c49c3,干洗店,伊犁哈萨克自治州伊宁市东梁街伊宁市第13小学南侧约30米,新疆维吾尔自治区,伊犁哈萨克自治州,伊宁市,,unknown,
baidu,548d92490a2ee19c97031969,伊拉力阿依影楼,伊犁哈萨克自治州伊宁市红旗路人民广场西南侧约150米,新疆维吾尔自治区,伊犁哈萨克自治州,伊宁市,13899741262,unknown,
baidu,50765867b506e0e1cb213dc8,公共厕所,新疆维吾尔自治区伊犁哈萨克自治州伊宁市伊犁河路201号,新疆维吾尔自治区,伊犁哈萨克自治州,伊宁市,,unknown,
baidu,afeb638b4cf2550588fc0606,如比娜婚礼馆(伊犁铜锣湾斯大林东路店),伊犁哈萨克自治州伊宁市斯大林东路18号伊犁铜锣湾F1,新疆维吾尔自治区,伊犁哈萨克自治州,伊宁市,,unknown,
baidu,3d2a0b31e90124a5b04c4947,超威电池摩托车电动车配件维修,伊犁哈萨克自治州伊宁市解放南路伊宁市第三小学东南侧约150米,新疆维吾尔自治区,伊犁哈萨克自治州,伊宁市,14799983344,unknown,
baidu,8fbe2deb61cdf32bddee8b2d,中国移动(买西来甫营业厅),新疆维吾尔自治区伊犁哈萨克自治州伊宁市新华东路209号,新疆维吾尔自治区,伊犁哈萨克自治州,伊宁市,,unknown,
baidu,59430d711be304baf822137e,怪兽充电(喀赞其民俗旅游区游客中心店),新疆维吾尔自治区伊犁哈萨克自治州伊宁市艾兰木巴格街道新华西路66号,新疆维吾尔自治区,伊犁哈萨克自治州,伊宁市,4006703303,unknown,
baidu,e4895c6e38eddbff2cb96d83,新疆金塞丽国际旅行社,伊犁哈萨克自治州伊宁市胜利南路伊宁市人民医院东南侧约40米,新疆维吾尔自治区,伊犁哈萨克自治州,伊宁市,,unknown,
baidu,da84e9a77ea8bb11ac0457ac,晟泽房产,伊犁哈萨克自治州伊宁市果园街伊宁市第三小学东南侧约140米,新疆维吾尔自治区,伊犁哈萨克自治州,伊宁市,,unknown,
baidu,67c319b55cef4251badf8f53,银剑电动车维修店,伊犁哈萨克自治州伊宁市新华东路伊宁市第十四中学西侧约30米,新疆维吾尔自治区,伊犁哈萨克自治州,伊宁市,,unknown,
baidu,88936ee951dabd739e9d6830,伊宁市喀赞其街道办博斯坦社区,新华西路三巷兵团第四师医院东南侧约130米,新疆维吾尔自治区,伊犁哈萨克自治州,伊宁市,,unknown,
baidu,a8d76067d403624eddee8bc5,国家电网,新疆维吾尔自治区伊犁哈萨克自治州伊宁市斯大林街72号,新疆维吾尔自治区,伊犁哈萨克自治州,伊宁市,95598,unknown,
baidu,361dfab47a490e2088f15dd3,呼勒佳酒店伊宁喀赞其街道店大堂,新疆维吾尔自治区伊犁哈萨克自治州伊宁市新华西路58号,新疆维吾尔自治区,伊犁哈萨克自治州,伊宁市,,unknown,
baidu,11064f11f64ff4375a3ac835,一马当先兴祥摩配部,新疆维吾尔自治区伊犁哈萨克自治州伊宁市新华西路2号,新疆维吾尔自治区,伊犁哈萨克自治州,伊宁市,,unknown,
baidu,e2973a5a6babfa0179b55c0f,来电共享充电宝(突玛丽斯大饭店),伊犁哈萨克自治州伊宁市红旗路68号伊犁大巴扎内(老电视台对面),新疆维吾尔自治区,伊犁哈萨克自治州,伊宁市,4008845966,unknown,
baidu,f0d3dadadc4ae4c6260bd0e3,德得爱男士理发馆,喀赞其街道新华东路附近,新疆维吾尔自治区,伊犁哈萨克自治州,伊宁市,15299008386,unknown,
baidu,1361751f664e77d51df74d5e,氧然皮肤管理中心,南环路777号恒大绿洲5号楼1层107号店铺,新疆维吾尔自治区,伊犁哈萨克自治州,伊宁市,15739023035,unknown,
baidu,874f397f82ce682efb2d6134,咔咔美发沙龙,新华东路1号一楼-1号,新疆维吾尔自治区,伊犁哈萨克自治州,伊宁市,,unknown,
baidu,2569dd89aea68f86c336445a,彦子美发艺,新华西路三巷与新华西路交叉口南80米,新疆维吾尔自治区,伊犁哈萨克自治州,伊宁市,13779558509,unknown,
baidu,af8a1af156c017a31d1d113f,印象美甲,温州商贸城16号,新疆维吾尔自治区,伊犁哈萨克自治州,伊宁市,18097859689,unknown,
baidu,20a80119f8d658f4b320a834,简束美甲,温州商贸城一楼20号,新疆维吾尔自治区,伊犁哈萨克自治州,伊宁市,,unknown,
baidu,05ff7c877cfed7a5223bf20a,花蜜女士美容馆,伊犁哈萨克自治州伊宁市红旗街伊犁迪亚尔住宅小区,新疆维吾尔自治区,伊犁哈萨克自治州,伊宁市,,unknown,
baidu,3a1a799dc80007bff4e73bc0,福诺咪美容店,伊犁哈萨克自治州伊宁市玉吉买勒克路伊宁市维吾尔医医院西北侧约30米,新疆维吾尔自治区,伊犁哈萨克自治州,伊宁市,,unknown,
baidu,23057018ddebec8095f08ca2,资尔丹美容店,新疆维吾尔自治区伊犁哈萨克自治州伊宁市光明街132号,新疆维吾尔自治区,伊犁哈萨克自治州,伊宁市,15609996908,unknown,
baidu,65813e39b096f09e9122e0fd,金克丽美容美发店,伊犁哈萨克自治州伊宁市果园街伊宁市第十五中学西南侧约220米,新疆维吾尔自治区,伊犁哈萨克自治州,伊宁市,,unknown,
baidu,dd2379690d61e9bb2ce67b53,圩若呢美容美发店,伊犁哈萨克自治州伊宁市果园街伊宁市第十五中学西侧约180米,新疆维吾尔自治区,伊犁哈萨克自治州,伊宁市,,unknown,
baidu,af341940ef4e0882ae31e59a,泽诺碧雅美容美发店,伊犁哈萨克自治州伊宁市玉吉买勒克路伊宁市维吾尔医医院西侧约120米,新疆维吾尔自治区,伊犁哈萨克自治州,伊宁市,,unknown,
baidu,5993212f01693070276e98cb,桃倩美发店,伊犁哈萨克自治州伊宁市喀什街伊宁市第十四小学东南侧,新疆维吾尔自治区,伊犁哈萨克自治州,伊宁市,,unknown,
baidu,df18491acbf94dc3dfee8b98,新时代理发店,伊犁哈萨克自治州伊宁市巴哈尔街与前进街交叉路口西北侧,新疆维吾尔自治区,伊犁哈萨克自治州,伊宁市,,unknown,
baidu,867cbfdf909e9d474f3a59c4,心血理发店,伊犁哈萨克自治州伊宁市喀什街伊宁市第十四小学东南侧约30米,新疆维吾尔自治区,伊犁哈萨克自治州,伊宁市,,unknown,
baidu,145ef7422dbf45965d17c380,玫莉蔻(新华东路店),伊犁哈萨克自治州伊宁市新华东路库尔杆招待所西侧约200米,新疆维吾尔自治区,伊犁哈萨克自治州,伊宁市,13999586777,unknown,
baidu,f5a63417654038179fec2b4a,花瓣美发沙龙,伊犁哈萨克自治州伊宁市玉吉买勒克路伊宁市维吾尔医医院西侧约110米,新疆维吾尔自治区,伊犁哈萨克自治州,伊宁市,,unknown,
baidu,dfe140770d50118283a00c5d,恒丝理发店,新疆维吾尔自治区伊犁哈萨克自治州伊宁市胜利街98号,新疆维吾尔自治区,伊犁哈萨克自治州,伊宁市,19199572371,unknown,
baidu,45c0490bcacfbb252cb908bb,策茂耶发艺,伊犁哈萨克自治州伊宁市解放南路伊犁迪亚尔住宅小区西侧约110米,新疆维吾尔自治区,伊犁哈萨克自治州,伊宁市,,unknown,
baidu,30f06a80efe311334afd3f50,渊泉美容美发,伊犁哈萨克自治州伊宁市新华东路库尔杆招待所西侧约170米,新疆维吾尔自治区,伊犁哈萨克自治州,伊宁市,,unknown,
baidu,e23598388c34709b97ec84e2,Barbarshop男士理发店,伊犁哈萨克自治州伊宁市玉吉买勒克路城南春天,新疆维吾尔自治区,伊犁哈萨克自治州,伊宁市,15909994344,unknown,
baidu,f744f72868a6259c0f0a7078,玉然福美发店,伊犁哈萨克自治州伊宁市解放南路伊宁市第三小学南侧约140米,新疆维吾尔自治区,伊犁哈萨克自治州,伊宁市,15628151790,unknown,
baidu,14477ec706bd06f4373a71bf,Gila造型,新疆维吾尔自治区伊犁哈萨克自治州伊宁市市公安局旁边理发店GIla造型,新疆维吾尔自治区,伊犁哈萨克自治州,伊宁市,15559220973,unknown,
baidu,42f957ca76ca7fbf085cb3d0,楼兰发艺,伊犁哈萨克自治州伊宁市玉吉买勒克路伊宁市维吾尔医医院西北侧约40米,新疆维吾尔自治区,伊犁哈萨克自治州,伊宁市,,unknown,
baidu,26fbf31ffdb6704ac6effbcd,曼尔创美颜中心(斯大林东路伊犁铜锣湾店),伊犁哈萨克自治州伊宁市斯大林东路18号伊犁铜锣湾F1,新疆维吾尔自治区,伊犁哈萨克自治州,伊宁市,18699997315,unknown,
baidu,1c60841b34f5b6d24afd3feb,菲拉美美容美发店,新疆维吾尔自治区伊犁哈萨克自治州伊宁市伊犁州伊宁市南环路858号四美·城南壹号C2栋商业楼208号,新疆维吾尔自治区,伊犁哈萨克自治州,伊宁市,18299960239,unknown,
baidu,c3537fe5190b007aa3acc466,尼合买提发艺,伊犁哈萨克自治州伊宁市解放南路伊犁迪亚尔住宅小区西侧约110米,新疆维吾尔自治区,伊犁哈萨克自治州,伊宁市,,unknown,
baidu,7516b9839a54c3a80482c275,靓粉美容养生馆,新疆维吾尔自治区伊犁哈萨克自治州伊宁市玉吉买勒克路,新疆维吾尔自治区,伊犁哈萨克自治州,伊宁市,18963872801,unknown,
baidu,c0d1a6a5274093fef503b80b,黄玉理发店,伊犁哈萨克自治州伊宁市解放南路伊犁迪亚尔住宅小区西南侧约200米,新疆维吾尔自治区,伊犁哈萨克自治州,伊宁市,13999372181,unknown,
baidu,dd2d167cf338ca2676e5b6bb,木沙江理发店,伊犁哈萨克自治州伊宁市红旗街伊犁迪亚尔住宅小区,新疆维吾尔自治区,伊犁哈萨克自治州,伊宁市,18160378467,unknown,
baidu,95e631e41476e0efd0f49ea0,卉诺美甲美睫,温州商贸城一楼19号,新疆维吾尔自治区,伊犁哈萨克自治州,伊宁市,,unknown,
baidu,453bc9835ade922c94ec8477,美业沙龙,伊犁哈萨克自治州伊宁市解放南路伊犁迪亚尔住宅小区西南侧约190米,新疆维吾尔自治区,伊犁哈萨克自治州,伊宁市,,unknown,
baidu,031a9ba430ba4c47223bf299,丝享曼理发店,伊犁哈萨克自治州伊宁市解放南路伊犁迪亚尔住宅小区西南侧约200米,新疆维吾尔自治区,伊犁哈萨克自治州,伊宁市,,unknown,
baidu,626634d553e2585f8b2fb53a,朗剪发艺(斯大林东路伊犁铜锣湾店),伊犁哈萨克自治州伊宁市斯大林东路18号伊犁铜锣湾F1,新疆维吾尔自治区,伊犁哈萨克自治州,伊宁市,15999461918,unknown,
baidu,f208375c51c046d02ce67b2c,麦尔旦理发店,伊犁哈萨克自治州伊宁市光明街伊犁迪亚尔住宅小区西侧约160米,新疆维吾尔自治区,伊犁哈萨克自治州,伊宁市,,unknown,
baidu,b5f6f80bb431fe7aa31de936,茹莎莉养发馆,新疆维吾尔自治区伊犁哈萨克自治州伊宁市解放南路55号,新疆维吾尔自治区,伊犁哈萨克自治州,伊宁市,"18099412845,19999230026",unknown,
baidu,8cdf64a7263ad5464251c01c,赛罗娜烫染城,新疆维吾尔自治区伊犁哈萨克自治州伊宁市新华西路48号白银谷门面35号,新疆维吾尔自治区,伊犁哈萨克自治州,伊宁市,15894154580,unknown,
baidu,e2bb9e1fdf1e086da004644b,漂亮宝贝美丽事业,新疆维吾尔自治区伊犁哈萨克自治州伊宁市青年街8号1号楼,新疆维吾尔自治区,伊犁哈萨克自治州,伊宁市,13369821109,unknown,
baidu,bec1ced89fba58bcc26c1468,魔力发艺,新疆维吾尔自治区伊犁哈萨克自治州伊宁市英阿亚提街1号,新疆维吾尔自治区,伊犁哈萨克自治州,伊宁市,15688388250,unknown,
baidu,9938c200e4b5d199465726bf,欧淑美业,新疆维吾尔自治区伊犁哈萨克自治州伊宁市青年街8号1号2-106,新疆维吾尔自治区,伊犁哈萨克自治州,伊宁市,13319728599,unknown,
baidu,957d8d3611b876991ce99916,斯伟拉美发沙龙,新疆维吾尔自治区伊犁哈萨克自治州伊宁市新华东路1号一楼-1号,新疆维吾尔自治区,伊犁哈萨克自治州,伊宁市,15599662110,unknown,
baidu,1e42254d54204bd6a7c7561c,刘颖专业美发,新疆维吾尔自治区伊犁哈萨克自治州伊宁市新华西路42号,新疆维吾尔自治区,伊犁哈萨克自治州,伊宁市,,unknown,
baidu,21438378770ffecffb22136c,玛依拉理发店,伊犁哈萨克自治州伊宁市胜利北路天山宾馆(胜利北路店)南侧约70米,新疆维吾尔自治区,伊犁哈萨克自治州,伊宁市,,unknown,
baidu,9f0de03648ea3ac55d17c30f,今日说发形象会所,新疆维吾尔自治区伊犁哈萨克自治州伊宁市白杨丽景2栋115号,新疆维吾尔自治区,伊犁哈萨克自治州,伊宁市,15599688513,unknown,
baidu,29182a6625546a4e00ff2db5,康晓君专业美发,伊犁哈萨克自治州伊宁市伊犁河路白杨丽景,新疆维吾尔自治区,伊犁哈萨克自治州,伊宁市,13579721297,unknown,
baidu,b42aab1ff800a8d32811d139,造美美发工作室,新疆维吾尔自治区伊犁哈萨克自治州伊宁市青年街8号5号楼2017室,新疆维吾尔自治区,伊犁哈萨克自治州,伊宁市,,unknown,
baidu,bb10e5c533d242655b1093a0,艾萨江理发店,伊犁哈萨克自治州伊宁市新华西路白杨丽景,新疆维吾尔自治区,伊犁哈萨克自治州,伊宁市,,unknown,
baidu,2ea215aa1d79ca3d6c47601c,妮爱依穿戴甲,迎宾路44号铜锣湾东门d区114号商铺,新疆维吾尔自治区,伊犁哈萨克自治州,伊宁市,,unknown,
baidu,c81d53e91f9ed242260bd0da,金洣嘉痘斑敏肌肤修护连锁机构(青年街店),新疆维吾尔自治区伊犁哈萨克自治州伊宁市青年街8号华瑞5号楼1层106号,新疆维吾尔自治区,伊犁哈萨克自治州,伊宁市,19190901199,unknown,
baidu,844a750ea6be85c4626858c0,喀赞其民俗旅游区,伊犁哈萨克自治州伊宁市胜利南路与新华东路交叉路口(苏碧怡大厦西南侧),新疆维吾尔自治区,伊犁哈萨克自治州,伊宁市,(0999)8020688,unknown,
baidu,d82d669786eb76a4d418b7a7,后滩公园,新疆维吾尔自治区伊犁哈萨克自治州伊宁市琼科瑞克街道英阿亚提路后滩公园,新疆维吾尔自治区,伊犁哈萨克自治州,伊宁市,,unknown,
baidu,e68bb0999e8e67f5ebe58201,乌孜别克文化大院,新疆维吾尔自治区伊犁哈萨克自治州伊宁市胜利南路与新华东路交叉路口伊犁老城喀赞其民俗旅游区,新疆维吾尔自治区,伊犁哈萨克自治州,伊宁市,,unknown,
baidu,56e88cba4a1c5864a4c75634,伊犁河民族文化旅游园,新疆维吾尔自治区伊犁哈萨克自治州伊宁市新环路伊犁河北岸,新疆维吾尔自治区,伊犁哈萨克自治州,伊宁市,(0999)8023580,unknown,
baidu,33fbfa83c84c72c00bf5eb36,伊宁市解放南路清真寺,伊犁哈萨克自治州伊宁市解放南路55号,新疆维吾尔自治区,伊犁哈萨克自治州,伊宁市,,unknown,
baidu,f51076326cac47dc1811d5cf,东梁中寺,新疆维吾尔自治区伊犁哈萨克自治州伊宁市琼科瑞克街道东梁街124-2号,新疆维吾尔自治区,伊犁哈萨克自治州,伊宁市,,unknown,
baidu,17a7eee0398e640888b988c4,文丰泰商号旧址,伊犁哈萨克自治州伊宁市广场街人民广场南侧约30米,新疆维吾尔自治区,伊犁哈萨克自治州,伊宁市,,unknown,
baidu,57262b03077acc3ca1a9343b,解放南路清真寺宣礼塔,伊犁哈萨克自治州伊宁市新华西路第四幼儿园东侧约90米,新疆维吾尔自治区,伊犁哈萨克自治州,伊宁市,,unknown,
baidu,4eb3b533b8918c08430245c0,伊宁陕西清真大寺,伊犁哈萨克自治州伊宁市胜利南路伊宁市人民医院东侧约30米,新疆维吾尔自治区,伊犁哈萨克自治州,伊宁市,,unknown,
baidu,03d8025fb14c39d12b201a36,宁远城环瀛门(西门)遗址,伊犁哈萨克自治州伊宁市新华西路72号,新疆维吾尔自治区,伊犁哈萨克自治州,伊宁市,,unknown,
baidu,6ee50b4b6d7f2828b9df8f52,Glow Coffe&Bar日咖夜酒室内露营地,星光街68号-2,新疆维吾尔自治区,伊犁哈萨克自治州,伊宁市,18999936144,unknown,
baidu,1c254a1edffa579cc9c3dbf1,伊犁老茶馆,前进街70号,新疆维吾尔自治区,伊犁哈萨克自治州,伊宁市,13319992105,unknown,
baidu,5edf00149fcea9a372210b22,捕食哲台球会所,新疆维吾尔自治区伊犁哈萨克自治州伊宁市萨依布依街道青年街8号-2楼,新疆维吾尔自治区,伊犁哈萨克自治州,伊宁市,,unknown,
baidu,50f7d146aa4bddc572210b34,人民广场,伊犁哈萨克自治州伊宁市红星街三巷与胜利南路交叉口西150米,新疆维吾尔自治区,伊犁哈萨克自治州,伊宁市,,unknown,
baidu,a5f2b625c71426b842d63e96,花院农家乐,果园街十一巷15号,新疆维吾尔自治区,伊犁哈萨克自治州,伊宁市,13239792169,unknown,
baidu,467e42c80138ad99bd484274,百万少女养生馆,伊犁哈萨克自治州伊宁市玉吉买勒克路伊宁市维吾尔医医院北侧约30米,新疆维吾尔自治区,伊犁哈萨克自治州,伊宁市,,unknown,
baidu,09301d9a2cd3d85e2cb17e2e,爱熙发养生馆,伊犁哈萨克自治州伊宁市解放南路伊宁市第三小学东侧约210米,新疆维吾尔自治区,伊犁哈萨克自治州,伊宁市,,unknown,
baidu,06efe7c096063b55b75f1eef,康莱泉养生馆,伊犁哈萨克自治州伊宁市玉吉买勒克路伊宁市维吾尔医医院西北侧约40米,新疆维吾尔自治区,伊犁哈萨克自治州,伊宁市,,unknown,
baidu,85e847cb51d2566a9222e052,美和乃提巴格农家乐,伊犁哈萨克自治州伊宁市新路街六巷伊宁市第一中学北侧约160米,新疆维吾尔自治区,伊犁哈萨克自治州,伊宁市,,unknown,
baidu,c1d71b26318589f69e95de40,siyah音乐餐吧,新疆维吾尔自治区伊犁哈萨克自治州伊宁市青年街16号,新疆维吾尔自治区,伊犁哈萨克自治州,伊宁市,17690263530,unknown,
baidu,a1f23f676cc1eced88db736b,伊宁市民泉养生服务馆,伊犁哈萨克自治州伊宁市解放南路伊犁迪亚尔住宅小区西北侧约140米,新疆维吾尔自治区,伊犁哈萨克自治州,伊宁市,15309997059,unknown,
baidu,4749f0b3b6cb07fcabf72979,老凉亭农家乐,伊犁哈萨克自治州伊宁市果园街十一巷城南壹号1期北侧约110米,新疆维吾尔自治区,伊犁哈萨克自治州,伊宁市,,unknown,
baidu,af720ff132e9ad438b2fb525,欧飞辣妹吧,伊犁哈萨克自治州伊宁市光明街伊宁市第三小学东侧约90米,新疆维吾尔自治区,伊犁哈萨克自治州,伊宁市,,unknown,
baidu,b967ac4fd3cabb42d8d8914f,潭阿冉慕养生馆,伊犁哈萨克自治州伊宁市阿依墩街十一巷与解放南路交叉路口往东北约230米,新疆维吾尔自治区,伊犁哈萨克自治州,伊宁市,,unknown,
baidu,733e00fe4a734c26dbd89186,佳妮沓养生馆,伊犁哈萨克自治州伊宁市红旗路人民广场西南侧约130米,新疆维吾尔自治区,伊犁哈萨克自治州,伊宁市,13999589494,unknown,
baidu,4708f7f47e7b18cba7c75651,公元前酒吧,伊犁河路147号,新疆维吾尔自治区,伊犁哈萨克自治州,伊宁市,,unknown,
baidu,f1c5f39973085c6a6f3e1b82,爱力冉农家庭院,新疆维吾尔自治区伊犁哈萨克自治州伊宁市伊犁河路300号,新疆维吾尔自治区,伊犁哈萨克自治州,伊宁市,,unknown,
baidu,2b118690a839117625e0a054,Lut Party,新疆维吾尔自治区伊犁哈萨克自治州伊宁市S313,新疆维吾尔自治区,伊犁哈萨克自治州,伊宁市,,unknown,
baidu,83b4ad4f241332e9be484200,古瑶坊养身馆,伊犁哈萨克自治州伊宁市伊犁河路伊宁市第二幼儿园西南侧约130米,新疆维吾尔自治区,伊犁哈萨克自治州,伊宁市,,unknown,
baidu,e5ba441432a9fe1afa0cadf5,老年文化活动室,伊犁哈萨克自治州伊宁市光明街四巷维多利亚花园东北侧约280米,新疆维吾尔自治区,伊犁哈萨克自治州,伊宁市,,unknown,
baidu,a6d3b114a5a72dff93114c3c,超智能岛网吧(城南店),新疆维吾尔自治区伊犁哈萨克自治州伊宁市南环路888号,新疆维吾尔自治区,伊犁哈萨克自治州,伊宁市,13899711168,unknown,
baidu,83ce77eb9ce5d57bc056acdd,美妙养生会馆,伊犁哈萨克自治州伊宁市英阿亚提路英阿亚提小区西南侧约90米,新疆维吾尔自治区,伊犁哈萨克自治州,伊宁市,,unknown,
baidu,16d5fdaa14b4d439882fb5e1,拓建缘结农家乐,伊犁哈萨克自治州伊宁市光明大街伊宁市第二幼儿园西南侧约240米,新疆维吾尔自治区,伊犁哈萨克自治州,伊宁市,,unknown,
baidu,ba97894b9f69dd5895ca07d1,绿州文创馆,新疆伊犁州伊宁市斯大林街66号,新疆维吾尔自治区,伊犁哈萨克自治州,伊宁市,(0999)8032975,unknown,
baidu,67ed2721c782bdf91e1d1108,额冉美食农家乐,果园街与阿依墩街四巷交叉口南20米,新疆维吾尔自治区,伊犁哈萨克自治州,伊宁市,17599663663,unknown,
baidu,0e7faf8c41db0895db1318cc,艾力斯特智能按摩椅(斯大林东路伊犁铜锣湾店),斯大林东路铜锣湾天百b座2楼,新疆维吾尔自治区,伊犁哈萨克自治州,伊宁市,,unknown,
baidu,12ba76aa92ccabaf8e55ecd5,小趣童儿童生活馆(恒大绿洲店),伊犁哈萨克自治州伊宁市玉吉买勒克路恒大绿洲,新疆维吾尔自治区,伊犁哈萨克自治州,伊宁市,13139994244,unknown,
baidu,4f205ddf05a9a83ab05c6a03,伊宁梵境民宿,喀赞其民俗村内新路街一巷19号,新疆维吾尔自治区,伊犁哈萨克自治州,伊宁市,(0999)7828636,unknown,
baidu,431a4de14c17274da3acc407,红旗宾馆,红旗路26号1号楼,新疆维吾尔自治区,伊犁哈萨克自治州,伊宁市,(0999)7728800,unknown,
baidu,0a84adf3f862d039d7851feb,伊宁市兄谦弟恭民宿,前进街226号,新疆维吾尔自治区,伊犁哈萨克自治州,伊宁市,19190390805,unknown,
baidu,691305230ef09f09725e8033,巩乃斯宾馆,新疆维吾尔自治区伊犁哈萨克自治州伊宁市英阿亚提街85号,新疆维吾尔自治区,伊犁哈萨克自治州,伊宁市,13999395058,unknown,
baidu,df03013d3fae1c1b871541a4,伊宁隐居造梦青年旅社,伊犁河路三巷七号,新疆维吾尔自治区,伊犁哈萨克自治州,伊宁市,13109072868,unknown,
baidu,9f74c2c8233b462d260bd0e4,伊宁黄金宫大酒店,新华东路81号,新疆维吾尔自治区,伊犁哈萨克自治州,伊宁市,(0999)8026066,unknown,
baidu,e1a7757c713c28595d17c35d,兰赞居民宿,前进街70号附1号,新疆维吾尔自治区,伊犁哈萨克自治州,伊宁市,18599490842,unknown,
baidu,4abda3151b1db5943686f433,伊宁花田云邸民宿(喀赞其民俗旅游区店),前进街150-1号,新疆维吾尔自治区,伊犁哈萨克自治州,伊宁市,18309991855,unknown,
baidu,a5ef680fafda58aab9df8fc7,蓉圣原酒店,胜利街119号,新疆维吾尔自治区,伊犁哈萨克自治州,伊宁市,18999396002,unknown,
baidu,46748ce51c1ffdaa3686f422,环森酒店,伊犁街385号星光小区光明佳苑一期商业综合楼,新疆维吾尔自治区,伊犁哈萨克自治州,伊宁市,(0999)6710000,unknown,
baidu,38cdc375ccc25a47c9fa5fe3,派酒店(伊宁华瑞汉人街喀赞其大巴扎店),新疆维吾尔自治区伊犁哈萨克自治州伊宁市英阿亚提路一巷4号,新疆维吾尔自治区,伊犁哈萨克自治州,伊宁市,(0999)7821188,unknown,
baidu,7d854e322d57db2b46e274cd,科克其民俗风情园,新华东路15巷222号,新疆维吾尔自治区,伊犁哈萨克自治州,伊宁市,15599997851,unknown,
baidu,d3d332482d2027bd52e5c5e4,伊宁域美庭民宿,伊犁河路三巷49号,新疆维吾尔自治区,伊犁哈萨克自治州,伊宁市,13999294909,unknown,
baidu,a2652796f28010624251c06d,竹霖安隅民宿,新疆维吾尔自治区伊犁哈萨克自治州伊宁市伊犁河路152号,新疆维吾尔自治区,伊犁哈萨克自治州,伊宁市,0999-8855566,unknown,
baidu,484c97e3e9b76f3172455b54,伊宁馨喜园酒店,新华东路9号（十号小区对面）,新疆维吾尔自治区,伊犁哈萨克自治州,伊宁市,(0999)8070688,unknown,
baidu,4eb3b53318e12c7443024534,呼勒佳酒店(伊宁喀赞其街道店),新华西路58号,新疆维吾尔自治区,伊犁哈萨克自治州,伊宁市,(0999)8024904,unknown,
baidu,f61d45588049e82185420e15,伊宁五棵橡酒店,南环路恒大雅苑斜对面,新疆维吾尔自治区,伊犁哈萨克自治州,伊宁市,"(0999)8338666,(0999)8888895",unknown,
baidu,e0360f3686dd17dbeaf85353,伊宁伊犁河大酒店,南环路912号（恒大雅苑对面）,新疆维吾尔自治区,伊犁哈萨克自治州,伊宁市,(0999)7890088,unknown,
baidu,fe0604d0762681d743e192f5,乔黎繁宾馆,新华东路28号,新疆维吾尔自治区,伊犁哈萨克自治州,伊宁市,(0999)8022111,unknown,
baidu,83d707853d10cd324f3a5928,朴宿喜度民宿,伊犁哈萨克自治州伊宁市新路街一巷伊宁梵境民宿东北侧约130米,新疆维吾尔自治区,伊犁哈萨克自治州,伊宁市,,unknown,
baidu,d6ae9a5697ea1a86fe0eb04c,驿云乡居(伊宁喀赞其一号院),新疆维吾尔自治区伊犁哈萨克自治州伊宁市新路街1巷12号,新疆维吾尔自治区,伊犁哈萨克自治州,伊宁市,,unknown,
baidu,eeea1324e071856cb45f1eaf,杨柳居民宿,伊犁河路三巷148号,新疆维吾尔自治区,伊犁哈萨克自治州,伊宁市,13150211225,unknown,
baidu,fa519202375b1cce5d0d0238,伊犁汇融悦公寓(2号店),恒大绿洲8号楼2006室,新疆维吾尔自治区,伊犁哈萨克自治州,伊宁市,,unknown,
baidu,cc1d2cfc7d11eecff942b26b,伊犁驿度假客栈伊宁喀赞其一号院,新疆维吾尔自治区伊犁哈萨克自治州伊宁市新路街1巷12号,新疆维吾尔自治区,伊犁哈萨克自治州,伊宁市,,unknown,
baidu,39d43f82a4621987a8059d33,三源招待所(后滩路店),新疆维吾尔自治区伊犁哈萨克自治州伊宁市英阿亚提街北路64号,新疆维吾尔自治区,伊犁哈萨克自治州,伊宁市,(0999)8066350,unknown,
baidu,5f75cb2721904bd882a12ee5,伊犁Muzi姑娘200119011530公寓,伊犁哈萨克自治州伊宁市光明街伊宁市第二幼儿园东南侧约200米,新疆维吾尔自治区,伊犁哈萨克自治州,伊宁市,,unknown,
baidu,e55cee335d0ff5c7b05c6a17,伊犁元宝温馨的家公寓(7号店),伊犁哈萨克自治州伊宁市玉吉买勒克路恒大绿洲,新疆维吾尔自治区,伊犁哈萨克自治州,伊宁市,,unknown,
baidu,d97137267d4c03052fe67b2c,伊犁苹果公寓,南环路恒大绿洲,新疆维吾尔自治区,伊犁哈萨克自治州,伊宁市,,unknown,
baidu,dc74ca6eea3e39ecfda7781d,新永诚宾馆,新疆维吾尔自治区伊犁哈萨克自治州伊宁市英阿亚提路44号,新疆维吾尔自治区,伊犁哈萨克自治州,伊宁市,(0999)6775200,unknown,
baidu,d991e1167df9dc541f389437,伊力特大酒店(餐饮部),胜利北路98号,新疆维吾尔自治区,伊犁哈萨克自治州,伊宁市,,unknown,
baidu,9ca4054e8d8f1b6fe6e96504,坚强的小草公寓(斯大林东路分店),伊犁哈萨克自治州伊宁市斯大林东路伊犁铜锣湾,新疆维吾尔自治区,伊犁哈萨克自治州,伊宁市,,unknown,
baidu,830e6932d6b47d4c5b10931f,特优越汽车服务中心,伊犁哈萨克自治州伊宁市果园街伊宁市第十五中学西南侧约180米,新疆维吾尔自治区,伊犁哈萨克自治州,伊宁市,,unknown,
baidu,2b45bb3e466d51a586420ec3,乌启库尔洗车中心,伊犁哈萨克自治州伊宁市胜利北路天山宾馆(胜利北路店)西南侧约70米,新疆维吾尔自治区,伊犁哈萨克自治州,伊宁市,18699929222,unknown,
baidu,b9bcbd2e54fc5f4aeb56fa41,深层汽车服务中心(河路店),新疆维吾尔自治区伊犁哈萨克自治州伊宁市伊犁河新路街1号,新疆维吾尔自治区,伊犁哈萨克自治州,伊宁市,15276349399,unknown,
baidu,14d71013cafd375fc72ba150,徐车帆洗车行,伊犁哈萨克自治州伊宁市青年街邮电住宅小区东侧约40米,新疆维吾尔自治区,伊犁哈萨克自治州,伊宁市,18689730311,unknown,
baidu,ff1df5c99e8f524aa7c75661,更换汽车轮胎和维修电动车,新疆维吾尔自治区伊犁哈萨克自治州伊宁市X629(前进街),新疆维吾尔自治区,伊犁哈萨克自治州,伊宁市,14799934324,unknown,
baidu,bd35094fc3bef00f715e8010,伊犁恒驰新能源汽车批发零售中心,新疆维吾尔自治区伊犁哈萨克自治州伊宁市伊犁街398号,新疆维吾尔自治区,伊犁哈萨克自治州,伊宁市,(0999)8828208,unknown,
baidu,25756827ecef5e7d87420e56,舒易豪汽车装饰部,伊犁哈萨克自治州伊宁市阿依墩街十一巷与解放南路交叉路口往东北约250米,新疆维吾尔自治区,伊犁哈萨克自治州,伊宁市,13999392394,unknown,
baidu,a592519c4fa19076c03644cd,伊毛社区洗车行,新疆维吾尔自治区伊犁哈萨克自治州伊宁市伊犁河路310号,新疆维吾尔自治区,伊犁哈萨克自治州,伊宁市,,unknown,
baidu,e472a0796586207c1e580081,汽车维修中心,伊犁哈萨克自治州伊宁市新路街,新疆维吾尔自治区,伊犁哈萨克自治州,伊宁市,,unknown,
baidu,169245d8f019e4b602294f86,豪讯汽车租赁,新疆维吾尔自治区伊犁哈萨克自治州伊宁市玉吉买勒克路城南春天小区2号楼110,新疆维吾尔自治区,伊犁哈萨克自治州,伊宁市,13779174354,unknown,
baidu,c776d8312d3e2f2a0f0a707b,自助洗车,伊犁哈萨克自治州伊宁市南院巷伊犁州中医医院南侧约170米,新疆维吾尔自治区,伊犁哈萨克自治州,伊宁市,,unknown,
baidu,be4f6d198c65ca5ac16c1483,风速汽车装潢服务店,伊犁哈萨克自治州伊宁市S313与新华东路二十二巷交叉路口往西约80米,新疆维吾尔自治区,伊犁哈萨克自治州,伊宁市,,unknown,
baidu,ad86289e5c219bf19868b427,宏达农机配件大全,新疆维吾尔自治区伊犁哈萨克自治州伊宁市英阿亚提小区28号楼,新疆维吾尔自治区,伊犁哈萨克自治州,伊宁市,,unknown,
baidu,e81a8507bad1f6e86c3e1bec,汽车专业喷漆,伊犁哈萨克自治州伊宁市新华东路伊宁市第十四中学东南侧约190米,新疆维吾尔自治区,伊犁哈萨克自治州,伊宁市,,unknown,
baidu,06569d9312eed0a9f32d83a8,昆仑轮胎(英阿亚提路店),新疆维吾尔自治区伊犁哈萨克自治州伊宁市英阿亚提路8号,新疆维吾尔自治区,伊犁哈萨克自治州,伊宁市,18999388418,unknown,
baidu,ba915a450c7c3bf71d58004e,东方农机配件(英阿亚提路店),新疆维吾尔自治区伊犁哈萨克自治州伊宁市英阿亚提路英阿亚提小区28栋7号,新疆维吾尔自治区,伊犁哈萨克自治州,伊宁市,(0999)8060571,unknown,
baidu,b9e5d0b82be14cc181a12efd,伊宁市伊光医院,伊犁哈萨克自治州伊宁市喀什街与新路街交叉口北100米,新疆维吾尔自治区,伊犁哈萨克自治州,伊宁市,,unknown,
baidu,28d80194a8989b9626e0a09b,伊宁市伊光医院-发热门诊,伊宁市新路街27号,新疆维吾尔自治区,伊犁哈萨克自治州,伊宁市,(0999)8080091,unknown,
baidu,e26293c024185879ca1b95e5,舒之善西医诊所,新疆维吾尔自治区伊犁哈萨克自治州伊宁市果园街93号,新疆维吾尔自治区,伊犁哈萨克自治州,伊宁市,,unknown,
baidu,398605844efe4d58c17da2d0,伊犁哈萨克自治州康仁医院,伊犁哈萨克自治州伊宁市喀什街十巷52号,新疆维吾尔自治区,伊犁哈萨克自治州,伊宁市,,unknown,
baidu,7e487ef9a99ec721f82d611f,尹宁市都来提巴格街道社区卫生服务中心,伊犁哈萨克自治州伊宁市巴哈尔街五巷62号,新疆维吾尔自治区,伊犁哈萨克自治州,伊宁市,,unknown,
baidu,288ac55ec2a377479b68b49f,伊宁市喀尔墩乡卫生院,新疆维吾尔自治区伊犁哈萨克自治州伊宁市巴哈尔街187号,新疆维吾尔自治区,伊犁哈萨克自治州,伊宁市,,unknown,
baidu,ccb37cab7025047ebe48426d,伊宁市维吾尔医医院,伊犁哈萨克自治州伊宁市玉吉买里路170号,新疆维吾尔自治区,伊犁哈萨克自治州,伊宁市,"(0999)8027517,(0999)8071120",unknown,
baidu,8fde79ccdb9a64be95ca0734,伊宁市人民医院,伊犁哈萨克自治州伊宁市新华东路66号,新疆维吾尔自治区,伊犁哈萨克自治州,伊宁市,(0999)8040931,unknown,
baidu,e98b5fbc02606f30b42655a0,伊宁市疾病预防控制中心门诊,新疆维吾尔自治区伊犁哈萨克自治州伊宁市新路街七巷8826号,新疆维吾尔自治区,伊犁哈萨克自治州,伊宁市,(0999)8233017,unknown,
baidu,b86bd97c67c6006f465726f5,全国中医肛肠医疗中心伊宁市协作中心,伊犁哈萨克自治州伊宁市玉吉买里路170号,新疆维吾尔自治区,伊犁哈萨克自治州,伊宁市,,unknown,
baidu,cc788fde4860fa8b88fc0634,伊宁市为民骨科医院,新疆维吾尔自治区伊犁哈萨克自治州伊宁市伊犁河路147号,新疆维吾尔自治区,伊犁哈萨克自治州,伊宁市,(0999)8322996,unknown,
baidu,54b7fad1ebfb9260f942b2d7,努尔买买提牙模制作店,新疆维吾尔自治区伊犁哈萨克自治州伊宁市喀什街,新疆维吾尔自治区,伊犁哈萨克自治州,伊宁市,13179999307,unknown,
baidu,4abd8802213e768b4bcc4a1d,伊宁市塔什科瑞克乡卫生院,伊犁哈萨克自治州伊宁市新路街七巷26号,新疆维吾尔自治区,伊犁哈萨克自治州,伊宁市,,unknown,
baidu,e2125e7a0c874987b34c497e,兵团第四师医院,伊犁哈萨克自治州伊宁市新华西路56号,新疆维吾尔自治区,伊犁哈萨克自治州,伊宁市,(0999)8023562,unknown,
baidu,74c933fb0f5eed239e82eac2,伊宁市人民医院-急诊,伊犁哈萨克自治州伊宁市新华东路伊宁市人民医院,新疆维吾尔自治区,伊犁哈萨克自治州,伊宁市,(0999)8040931,unknown,
baidu,e5330bfa7aef6c2e0aa8d433,伊宁市都来提巴格街道契利克社区卫生服务站,伊犁哈萨克自治州伊宁市喀什街伊宁市第四中学,新疆维吾尔自治区,伊犁哈萨克自治州,伊宁市,,unknown,
baidu,2fa7df386fbefeb24afc8de8,惠爱达瓦门诊部,伊犁哈萨克自治州伊宁市红旗街伊犁迪亚尔住宅小区东北侧约130米,新疆维吾尔自治区,伊犁哈萨克自治州,伊宁市,"(0999)8039738,13899728135",unknown,
baidu,bd3b04c2acec4cf816c905a0,伊犁绿洲医院,新疆维吾尔自治区伊犁哈萨克自治州伊宁市斯大林街13号,新疆维吾尔自治区,伊犁哈萨克自治州,伊宁市,"(0999)8029629,(0999)8035800,(0999)8039345",unknown,
baidu,75d0881a163db1303a04b1c6,伊宁市人民医院-门诊,新疆维吾尔自治区伊犁哈萨克自治州伊宁市新华东路125号,新疆维吾尔自治区,伊犁哈萨克自治州,伊宁市,,unknown,
baidu,f2a25726a0974c4b1e5800cf,医齿美口腔诊所,伊犁哈萨克自治州伊宁市新华东路伊宁市第十四小学北侧约50米,新疆维吾尔自治区,伊犁哈萨克自治州,伊宁市,,unknown,
baidu,098b890d2b3966e9fa42b20b,伊宁市维吾尔医医院-发热门诊,伊宁市玉吉买勒克路170号,新疆维吾尔自治区,伊犁哈萨克自治州,伊宁市,(0999)8324163,unknown,
baidu,27fa0bcf9d235a3f2bb97c80,努乐科镶牙店,伊犁哈萨克自治州伊宁市新华东路库尔杆招待所西侧约170米,新疆维吾尔自治区,伊犁哈萨克自治州,伊宁市,,unknown,
baidu,773dddc6e8ced8ac3904b10d,农四师医院-产科急救中心,新疆维吾尔自治区伊犁哈萨克自治州伊宁市新华西路56号,新疆维吾尔自治区,伊犁哈萨克自治州,伊宁市,,unknown,
baidu,1c40493bf527b21309a8d429,弘德医院,伊犁哈萨克自治州伊宁市胜利街108号,新疆维吾尔自治区,伊犁哈萨克自治州,伊宁市,,unknown,
baidu,962c00721d03be8cd23ce38f,为民骨科医院-门诊部,伊犁河路147号,新疆维吾尔自治区,伊犁哈萨克自治州,伊宁市,(0999)8322996,unknown,
baidu,808b1ea9792e8e563586f44c,热合麦口腔诊所,新疆维吾尔自治区伊犁哈萨克自治州伊宁市新华东路243号永和商厦2楼,新疆维吾尔自治区,伊犁哈萨克自治州,伊宁市,,unknown,
baidu,8add33130c179205c356ac38,伊宁市塔什科瑞克乡卫生院-发热门诊,伊犁哈萨克自治州伊宁市新路街七巷26号,新疆维吾尔自治区,伊犁哈萨克自治州,伊宁市,,unknown,
baidu,01b15ba1d03c5a1b0ab93a62,吾自阔替,伊犁哈萨克自治州伊宁市红旗路伊宁市人民医院西侧约140米,新疆维吾尔自治区,伊犁哈萨克自治州,伊宁市,,unknown,
baidu,8a8c43b0b8b6d4ff7069d3c2,康之源大药房(243门店),新疆维吾尔自治区伊犁哈萨克自治州伊宁市新疆伊犁州果园街703号,新疆维吾尔自治区,伊犁哈萨克自治州,伊宁市,13199999057,unknown,
baidu,43f1e9519dc67706c4f02500,伊宁市人民医院-住院部,新疆维吾尔自治区伊犁哈萨克自治州伊宁市人民医院收费处,新疆维吾尔自治区,伊犁哈萨克自治州,伊宁市,,unknown,
baidu,be7948f38e0023ae71455bb0,美玉珠口腔诊所,伊犁哈萨克自治州伊宁市解放南路与新华东路交叉路口往东南约120米,新疆维吾尔自治区,伊犁哈萨克自治州,伊宁市,,unknown,
baidu,1c6af737f96d75df2cb96d96,缇卫佰大药房(第三分公司),新疆维吾尔自治区伊犁哈萨克自治州伊宁市伊犁街果园村(树根)双语幼儿园东侧约100米,新疆维吾尔自治区,伊犁哈萨克自治州,伊宁市,13899723645,unknown,
baidu,8d47914ae5e7daced72ce27a,牙模制作中心,新疆维吾尔自治区伊犁哈萨克自治州伊宁市新华东路243号,新疆维吾尔自治区,伊犁哈萨克自治州,伊宁市,,unknown,
baidu,395484947538085fae045701,伊宁市都来提巴格街道社区卫生服务中心-发热诊室,伊犁哈萨克自治州伊宁市巴哈尔街五巷与喀什街交叉路口往西南约160米,新疆维吾尔自治区,伊犁哈萨克自治州,伊宁市,,unknown,
baidu,ff14af4c0f1870e79900502a,健心西医诊所,伊犁哈萨克自治州伊宁市新华东路库尔杆招待所西侧约190米,新疆维吾尔自治区,伊犁哈萨克自治州,伊宁市,,unknown,
baidu,df51fd374a6747a3ebe582e7,利安社区(恒大绿洲店),伊犁哈萨克自治州伊宁市玉吉买勒克路恒大绿洲,新疆维吾尔自治区,伊犁哈萨克自治州,伊宁市,,unknown,
baidu,714d6062ee1bb827adcb66c9,王晓娟西医诊所,伊犁哈萨克自治州伊宁市斯大林东路伊犁州中医医院南侧约50米,新疆维吾尔自治区,伊犁哈萨克自治州,伊宁市,,unknown,
baidu,1bf85b253799b8d9a1a934fc,伊宁市人民医院-理疗科,伊犁哈萨克自治州伊宁市新华东路伊宁市人民医院,新疆维吾尔自治区,伊犁哈萨克自治州,伊宁市,,unknown,
baidu,1fa08e07e777af8f6fc02c2c,伊宁市人民医院-发热门诊,伊宁市新华东路66号,新疆维吾尔自治区,伊犁哈萨克自治州,伊宁市,(0999)8041079,unknown,
baidu,9e52cd244473e00f2911d1da,敬德大药房,新疆维吾尔自治区伊犁哈萨克自治州伊宁市果园街民安住宅小区南侧约140米,新疆维吾尔自治区,伊犁哈萨克自治州,伊宁市,,unknown,
baidu,74bfb0553c09c5cb02294fa7,琼办英阿亚提社区卫生服务站,伊犁哈萨克自治州伊宁市后滩路锦华家园,新疆维吾尔自治区,伊犁哈萨克自治州,伊宁市,,unknown,
baidu,2c78b31136e6ca0ba5da39eb,伊犁绿洲医院-发热门诊,伊犁哈萨克自治州伊宁市斯大林路23号,新疆维吾尔自治区,伊犁哈萨克自治州,伊宁市,,unknown,
baidu,90535b26eabb497efbf0cba6,地力拜尔西医诊所,伊犁哈萨克自治州伊宁市英阿亚提路英阿亚提小区,新疆维吾尔自治区,伊犁哈萨克自治州,伊宁市,,unknown,
baidu,d5464cf83b0a0756fda7785f,盛兴堂大药房,新疆维吾尔自治区伊犁哈萨克自治州伊宁市新华东路49号,新疆维吾尔自治区,伊犁哈萨克自治州,伊宁市,(0999)8356005,unknown,
baidu,d11e9c12e75d137e430245c0,伊宁市阿依墩村卫生室,伊犁哈萨克自治州伊宁市伊犁河路塔什库勒克乡人民政府南侧约140米,新疆维吾尔自治区,伊犁哈萨克自治州,伊宁市,,unknown,
baidu,136fa5141b7f10ef601c678e,付以明口腔诊所,新疆维吾尔自治区伊犁哈萨克自治州伊宁市白杨丽景2栋119室,新疆维吾尔自治区,伊犁哈萨克自治州,伊宁市,,unknown,
baidu,750368356e7e4cd25e0d02c6,伊宁市琼科瑞克街道社区卫生服务中心,伊犁哈萨克自治州伊宁市红星街3巷14号,新疆维吾尔自治区,伊犁哈萨克自治州,伊宁市,,unknown,
baidu,a2f26f2cf646324c39221cc0,排尔哈提牙模制作店,伊犁哈萨克自治州伊宁市英阿亚提路伊宁伊力特大酒店北侧约60米,新疆维吾尔自治区,伊犁哈萨克自治州,伊宁市,13579724831,unknown,
baidu,2bef4bc2c5b25f635cbe86b0,斯马义力·伊明诊所,伊犁哈萨克自治州伊宁市新华东路伊宁市第十四中学西南侧约50米,新疆维吾尔自治区,伊犁哈萨克自治州,伊宁市,,unknown,
baidu,aad217c0c9b17ed160180969,100大药房(大巴扎店),新疆维吾尔自治区伊犁哈萨克自治州伊宁市新华东路人民医院对面伊犁大巴扎B-段1013号,新疆维吾尔自治区,伊犁哈萨克自治州,伊宁市,(0999)8352596,unknown,
baidu,402a3bb6443a0b52b5f42f3e,药店鑫和民大药房,伊犁哈萨克自治州伊宁市喀什街伊宁市第十四小学,新疆维吾尔自治区,伊犁哈萨克自治州,伊宁市,18997839598,unknown,
baidu,2b28bd01591b674f03ff2d73,医保定点药店,伊犁哈萨克自治州伊宁市红旗街伊犁迪亚尔住宅小区东北侧约140米,新疆维吾尔自治区,伊犁哈萨克自治州,伊宁市,,unknown,
baidu,ef748da5068290879e95de70,弘德医院-发热诊室,新疆维吾尔自治区伊犁哈萨克自治州伊宁市胜利街108号,新疆维吾尔自治区,伊犁哈萨克自治州,伊宁市,,unknown,
baidu,950d29e46cf7b7dc1df74d48,药盛源大药房有限公司,新疆维吾尔自治区伊犁哈萨克自治州伊宁市解放南路1号,新疆维吾尔自治区,伊犁哈萨克自治州,伊宁市,,unknown,
baidu,50fc905c8c86374379b55c0d,伊宁市琼克瑞克街道社区卫生服务中心,伊犁哈萨克自治州伊宁市幸福大街伊宁市第十四中学东南侧约170米,新疆维吾尔自治区,伊犁哈萨克自治州,伊宁市,,unknown,
baidu,6aa7b5abb2c436c3e856faad,亚民大药房(伊犁国际大巴扎店),伊犁哈萨克自治州伊宁市新华东路伊宁市人民医院西北侧约100米,新疆维吾尔自治区,伊犁哈萨克自治州,伊宁市,,unknown,
baidu,fea7d903baea2c377c29bd85,健康咨询中心,伊犁哈萨克自治州伊宁市红旗街伊犁迪亚尔住宅小区西侧约190米,新疆维吾尔自治区,伊犁哈萨克自治州,伊宁市,18099518038,unknown,
baidu,72f4c12f1c23193a364aae75,柏安堂大药房,新疆维吾尔自治区伊犁哈萨克自治州伊宁市解放南路伊宁市第三小学东南侧约110米,新疆维吾尔自治区,伊犁哈萨克自治州,伊宁市,18999586088,unknown,
baidu,062bce31e8a5730914c8f6d5,缇卫佰大药房,新疆维吾尔自治区伊犁哈萨克自治州伊宁市新华西路120号,新疆维吾尔自治区,伊犁哈萨克自治州,伊宁市,(0999)8052852,unknown,
baidu,91c13f9377781bfb21f01736,亚民大药房,新疆维吾尔自治区伊犁哈萨克自治州伊宁市新华东路10号,新疆维吾尔自治区,伊犁哈萨克自治州,伊宁市,(0999)7825091,unknown,
baidu,d6033325e00885d2bda240eb,北京同仁堂(伊犁天百国际购物中心店),迎宾路4号伊犁天百国际购物中心B1,新疆维吾尔自治区,伊犁哈萨克自治州,伊宁市,,unknown,
baidu,b3e56761309d199a1de999b3,盈普淳大药房,新疆维吾尔自治区伊犁哈萨克自治州伊宁市斯大林街13号原23号,新疆维吾尔自治区,伊犁哈萨克自治州,伊宁市,13139995595,unknown,
baidu,5d087f265d8a0957fbf0cb96,好又多健康药房(新华西路店),新疆维吾尔自治区伊犁哈萨克自治州伊宁市新华西路20号,新疆维吾尔自治区,伊犁哈萨克自治州,伊宁市,18099508036,unknown,
baidu,63e9a2436c98ff2db2077dd0,大众药房(第六门店),新疆维吾尔自治区伊犁哈萨克自治州伊宁市新华西路28-38号,新疆维吾尔自治区,伊犁哈萨克自治州,伊宁市,(0999)8031060,unknown,
baidu,05dd7d5f02a46900ad080f36,康之源大药房(第八门店),新疆维吾尔自治区伊犁哈萨克自治州伊宁市新华西路13号,新疆维吾尔自治区,伊犁哈萨克自治州,伊宁市,(0999)8031699,unknown,
baidu,b2e7bdb2157d28a11811d544,特秘艾合散保健服务中心,伊犁哈萨克自治州伊宁市后滩路锦华家园,新疆维吾尔自治区,伊犁哈萨克自治州,伊宁市,,unknown,
baidu,cd9d05dd44f12bb785420e36,仁和堂大药房(新华东路店),新疆维吾尔自治区伊犁哈萨克自治州伊宁市解放南路52号,新疆维吾尔自治区,伊犁哈萨克自治州,伊宁市,13779156251,unknown,
baidu,a89c392f125dd7cd931fc99b,康之源大药房(第155直营店),新疆维吾尔自治区伊犁哈萨克自治州伊宁市斯大林西路10号,新疆维吾尔自治区,伊犁哈萨克自治州,伊宁市,13239999158,unknown,
baidu,eeb6fb19110486bf4afd3f89,康宁健康药房(斯大林街572店),新疆维吾尔自治区伊犁哈萨克自治州伊宁市萨依布依街道青年街40号,新疆维吾尔自治区,伊犁哈萨克自治州,伊宁市,(0999)8830019,unknown,
baidu,79cceb365aad79881e580036,大众药店(第十九门店),伊犁哈萨克自治州伊宁市胜利北路天山宾馆(胜利北路店)北侧约40米,新疆维吾尔自治区,伊犁哈萨克自治州,伊宁市,,unknown,
baidu,22d0951092ba4fea72210b30,吐尔孙牙模制作,伊犁哈萨克自治州伊宁市喀什街伊宁市第四中学西南侧,新疆维吾尔自治区,伊犁哈萨克自治州,伊宁市,,unknown,
baidu,684a49573e95b78f88b98815,创舒口腔诊所,伊犁哈萨克自治州伊宁市解放南路伊宁市第三小学东侧约190米,新疆维吾尔自治区,伊犁哈萨克自治州,伊宁市,,unknown,
baidu,3c6ee406695ce60e40afe6cc,生涯口腔诊所,伊犁哈萨克自治州伊宁市红旗街伊犁迪亚尔住宅小区东北侧约130米,新疆维吾尔自治区,伊犁哈萨克自治州,伊宁市,,unknown,
baidu,9d08279ac12731f1047ce879,伊宁市人民医院-心电图室,伊犁哈萨克自治州伊宁市新华东路伊宁市人民医院,新疆维吾尔自治区,伊犁哈萨克自治州,伊宁市,,unknown,
baidu,971ab4f9be72dacba5da3965,美牙瓷口腔诊所,伊犁哈萨克自治州伊宁市后滩路锦华家园,新疆维吾尔自治区,伊犁哈萨克自治州,伊宁市,,unknown,
baidu,f71ded93d9e0507c51e5c58d,野生百花草蜂蜜店,伊犁哈萨克自治州伊宁市新华东路三巷伊宁市五中北侧约130米,新疆维吾尔自治区,伊犁哈萨克自治州,伊宁市,,unknown,
baidu,af1ae56b3b390d6f4207c1c1,伊宁市第十五中学,新疆维吾尔自治区伊犁哈萨克自治州伊宁市前进街198号,新疆维吾尔自治区,伊犁哈萨克自治州,伊宁市,,unknown,
baidu,ef0b6003f182a2e12d4733e2,伊犁远程驾校,伊犁哈萨克自治州伊宁市果园街民安住宅小区西北侧约180米,新疆维吾尔自治区,伊犁哈萨克自治州,伊宁市,,unknown,
baidu,f1f80ca4434c3d6efd0eb09e,伊宁市塔什科瑞克乡塔什库勒克村小学,新疆维吾尔自治区伊犁哈萨克自治州伊宁市塔什科瑞克乡前进街201号,新疆维吾尔自治区,伊犁哈萨克自治州,伊宁市,,unknown,
baidu,3f9337d6959b6dcef72310c2,伊宁市第四中学,新疆维吾尔自治区伊犁哈萨克自治州伊宁市喀什街75号,新疆维吾尔自治区,伊犁哈萨克自治州,伊宁市,(0999)8352870,unknown,
baidu,3be122e1eea97c531ef74d31,伊宁市第十一中学,新疆维吾尔自治区伊犁哈萨克自治州伊宁市伊犁河路114号,新疆维吾尔自治区,伊犁哈萨克自治州,伊宁市,(0999)8325451,unknown,
baidu,9ba18389602f82f1f4e73b8b,伊宁市第七小学校,新疆维吾尔自治区伊犁哈萨克自治州伊宁市新路街26号,新疆维吾尔自治区,伊犁哈萨克自治州,伊宁市,,unknown,
baidu,4eb3b53318e42c7443024531,伊宁市果园村小学,新疆维吾尔自治区伊犁哈萨克自治州伊宁市伊犁街256号,新疆维吾尔自治区,伊犁哈萨克自治州,伊宁市,,unknown,
baidu,8a190e1d7aa757145810939a,伊宁市第十二小学,新疆维吾尔自治区伊犁哈萨克自治州伊宁市伊犁街256号,新疆维吾尔自治区,伊犁哈萨克自治州,伊宁市,,unknown,
baidu,2d8831322012207ad813181e,伊宁市第十四小学,新疆维吾尔自治区伊犁哈萨克自治州伊宁市新华东路喀什街6号,新疆维吾尔自治区,伊犁哈萨克自治州,伊宁市,,unknown,
baidu,69fcd6df331b8e52ca2915c1,伊宁市阿衣汉小学,新疆维吾尔自治区伊犁哈萨克自治州伊宁市伊犁街28号,新疆维吾尔自治区,伊犁哈萨克自治州,伊宁市,(0999)8351531,unknown,
baidu,e7e235c838a592752fb17ef5,伊宁市塔什科瑞克乡果园村第二幼儿园,新疆维吾尔自治区伊犁哈萨克自治州伊宁市塔什科瑞克乡果园村新光街126号,新疆维吾尔自治区,伊犁哈萨克自治州,伊宁市,,unknown,
baidu,42f135f99760eda39900504e,伊宁市第十四中学,新疆维吾尔自治区伊犁哈萨克自治州伊宁市新华东路407号,新疆维吾尔自治区,伊犁哈萨克自治州,伊宁市,,unknown,
baidu,5afb5d48b792830d2b11d1bf,伊宁市第三小学,新疆维吾尔自治区伊犁哈萨克自治州伊宁市光明街17号,新疆维吾尔自治区,伊犁哈萨克自治州,伊宁市,,unknown,
baidu,ffd6d403ba1da48e17b54b31,第十小学,新疆维吾尔自治区伊犁哈萨克自治州伊宁市啊依东街12巷20号,新疆维吾尔自治区,伊犁哈萨克自治州,伊宁市,,unknown,
baidu,05bc392095644d5326d2bb30,伊宁市第二十二小学,伊犁哈萨克自治州伊宁市新华东路伊宁市第十四中学西侧,新疆维吾尔自治区,伊犁哈萨克自治州,伊宁市,,unknown,
baidu,8cba4bb049764885ad045731,新疆伊宁卫生学校,新疆维吾尔自治区伊犁哈萨克自治州伊宁市青年街8号,新疆维吾尔自治区,伊犁哈萨克自治州,伊宁市,(0999)8022610,unknown,
baidu,57dcbd81963381ddc03644f7,伊宁市十二幼儿园,新疆维吾尔自治区伊犁哈萨克自治州伊宁市前进街160号,新疆维吾尔自治区,伊犁哈萨克自治州,伊宁市,,unknown,
baidu,7010919837a418bcd1f49e9f,第十一幼儿园,新疆维吾尔自治区伊犁哈萨克自治州伊宁市伊犁街15巷183号,新疆维吾尔自治区,伊犁哈萨克自治州,伊宁市,,unknown,
baidu,64ff3be1d94f05ba90114c31,伊宁市五中,新疆维吾尔自治区伊犁哈萨克自治州伊宁市前进街25号,新疆维吾尔自治区,伊犁哈萨克自治州,伊宁市,,unknown,
baidu,96f60783385b8afc4e776eaa,星光幼儿园(新光街),新疆维吾尔自治区伊犁哈萨克自治州伊宁市伊犁河路147号,新疆维吾尔自治区,伊犁哈萨克自治州,伊宁市,,unknown,
baidu,2e69552ce7baf64db5f42fee,塔什科瑞克乡中心双语幼儿园,果园街九巷东200米,新疆维吾尔自治区,伊犁哈萨克自治州,伊宁市,,unknown,
baidu,86cc3f8cd91e9e494d5547d7,伊犁伊宁市特殊教育学校,新疆维吾尔自治区伊犁哈萨克自治州伊宁市伊犁河路5号,新疆维吾尔自治区,伊犁哈萨克自治州,伊宁市,,unknown,
baidu,5e53af1a2ab144224151c0c1,四村双语幼儿园,伊犁哈萨克自治州伊宁市阿依墩街十一巷与新光街交叉路口往北约80米,新疆维吾尔自治区,伊犁哈萨克自治州,伊宁市,,unknown,
baidu,cb81d7789c391e333904b109,伊犁州水利水电规划设计院,伊犁哈萨克自治州伊宁市红旗路人民广场北侧约140米,新疆维吾尔自治区,伊犁哈萨克自治州,伊宁市,,unknown,
baidu,68604f329ed1f679c03644a7,伊宁市第二幼儿园,新疆维吾尔自治区伊犁哈萨克自治州伊宁市伊犁河路一巷18号,新疆维吾尔自治区,伊犁哈萨克自治州,伊宁市,,unknown,
baidu,7603e8b57b43285e6ca3ccde,伊宁市第十八小学,新疆维吾尔自治区伊犁哈萨克自治州伊宁市东梁街10号,新疆维吾尔自治区,伊犁哈萨克自治州,伊宁市,,unknown,
baidu,fcc17a83a6a697ee40afe6ef,睿享空间智能管理中心,伊犁哈萨克自治州伊宁市伊犁街伊犁迪亚尔住宅小区东侧约100米,新疆维吾尔自治区,伊犁哈萨克自治州,伊宁市,,unknown,
baidu,150d6af712b7bfbd047ce80d,恩特尔教育,英阿亚提一巷华瑞批发市场对面,新疆维吾尔自治区,伊犁哈萨克自治州,伊宁市,,unknown,
baidu,769e9d5103634801343a713a,第四幼儿园,伊犁哈萨克自治州伊宁市南院巷与新华西路交叉路口往东南约150米,新疆维吾尔自治区,伊犁哈萨克自治州,伊宁市,,unknown,
baidu,8d52a9a2783a5af222f01738,伊犁哈萨克自治州红旗幼儿园,新疆维吾尔自治区伊犁哈萨克自治州伊宁市斯大林街64号,新疆维吾尔自治区,伊犁哈萨克自治州,伊宁市,,unknown,
baidu,d06291b3cd37e13638221cbb,伊宁市第四小学,新疆维吾尔自治区伊犁哈萨克自治州伊宁市前进街4巷17号,新疆维吾尔自治区,伊犁哈萨克自治州,伊宁市,,unknown,
baidu,09185c569eedb25ff01937a7,伊宁市第13小学,新疆维吾尔自治区伊犁哈萨克自治州伊宁市东梁街111号,新疆维吾尔自治区,伊犁哈萨克自治州,伊宁市,,unknown,
baidu,908a07486cec748dc2364471,伊宁市塔什科瑞克乡中心双语幼儿园,新疆维吾尔自治区伊犁哈萨克自治州伊宁市新路街七巷伊宁市第一中学东南侧约220米,新疆维吾尔自治区,伊犁哈萨克自治州,伊宁市,,unknown,
baidu,2778a4d12504bc61100daa98,伊宁市第十五幼儿园,新疆维吾尔自治区伊犁哈萨克自治州伊宁市伊犁河路92号,新疆维吾尔自治区,伊犁哈萨克自治州,伊宁市,,unknown,
baidu,ab1acfa7a97e653949fd3f02,新时代教育,伊犁哈萨克自治州伊宁市英阿亚提路华瑞国际商贸城南侧约170米,新疆维吾尔自治区,伊犁哈萨克自治州,伊宁市,,unknown,
baidu,b1c556e88e155a0db4265531,伊犁州非物质文化遗产保护研究中心,伊犁哈萨克自治州伊宁市新华东路23号,新疆维吾尔自治区,伊犁哈萨克自治州,伊宁市,,unknown,
baidu,2cc26d563dbdd399ebe58280,伊犁哈萨克自治州园艺科学研究所,伊犁哈萨克自治州伊宁市新华东路伊宁市第十四中学南侧约100米,新疆维吾尔自治区,伊犁哈萨克自治州,伊宁市,,unknown,
baidu,677c3e3425a1f532a2d2307f,伊犁海尔巴格赛乃姆演艺广场-临时停车点,伊犁哈萨克自治州伊宁市前进街八巷伊宁市第四中学西南侧约200米伊犁赛乃姆演艺广场,新疆维吾尔自治区,伊犁哈萨克自治州,伊宁市,,unknown,
baidu,cc4732fe2306a0022ab97cf2,果园街12巷,6路,新疆维吾尔自治区,伊犁哈萨克自治州,伊宁市,,unknown,
baidu,32ff8af8a80875403310afc2,伊犁街路口,6路;7路,新疆维吾尔自治区,伊犁哈萨克自治州,伊宁市,,unknown,
baidu,33e28551a6159dd658f6be23,伊犁街12巷,6路,新疆维吾尔自治区,伊犁哈萨克自治州,伊宁市,,unknown,
baidu,3df4ef49ed7825fc1b11d583,前进街16巷,6路,新疆维吾尔自治区,伊犁哈萨克自治州,伊宁市,,unknown,
baidu,64ca2df4e41a404df6c59c71,精神病医院,7路,新疆维吾尔自治区,伊犁哈萨克自治州,伊宁市,,unknown,
baidu,2fa68e49b5bf8708e81e9764,伊犁街5巷,6路,新疆维吾尔自治区,伊犁哈萨克自治州,伊宁市,,unknown,
baidu,3207732c9b8654b9b64f54b0,第12小学,7路,新疆维吾尔自治区,伊犁哈萨克自治州,伊宁市,,unknown,
baidu,6890a961b778e6abc9e33c7d,哈桑奇派出所,3路;7路,新疆维吾尔自治区,伊犁哈萨克自治州,伊宁市,,unknown,
baidu,ebee8e09fe13bf634c554719,新华东路15巷,5路;501路,新疆维吾尔自治区,伊犁哈萨克自治州,伊宁市,,unknown,
baidu,69b3fef8684e3425d23ce377,伊犁州客运管理服务中心客运一分站,伊犁哈萨克自治州伊宁市喀什街与新华东路交叉路口往东约70米,新疆维吾尔自治区,伊犁哈萨克自治州,伊宁市,,unknown,
baidu,35049f5f5ab94aab26d2bb2d,艾勒开那克大厦南侧-停车场,伊犁哈萨克自治州伊宁市新华东路三巷伊宁市五中北侧约130米,新疆维吾尔自治区,伊犁哈萨克自治州,伊宁市,,unknown,
baidu,8e35150eec9fd18c8605bf88,伊犁国际大巴扎-南侧地上停车场,伊犁哈萨克自治州伊宁市新华东路伊宁市人民医院北侧约30米,新疆维吾尔自治区,伊犁哈萨克自治州,伊宁市,,unknown,
baidu,7ff4720223f52d316ca3cc3b,东城区就业市场-地上停车场,伊犁哈萨克自治州伊宁市后滩路东城区就业市场,新疆维吾尔自治区,伊犁哈萨克自治州,伊宁市,,unknown,
baidu,53989eb473692469dc1e5253,伊犁大酒店,3路,新疆维吾尔自治区,伊犁哈萨克自治州,伊宁市,,unknown,
baidu,5ad21f89bad98412f7b91638,幸福花园西侧-停车场,伊犁哈萨克自治州伊宁市红旗街伊犁迪亚尔住宅小区东北侧约90米,新疆维吾尔自治区,伊犁哈萨克自治州,伊宁市,,unknown,
baidu,f1ac0679ad3b08fe59bbbcd4,前进街16巷,6路,新疆维吾尔自治区,伊犁哈萨克自治州,伊宁市,,unknown,
baidu,4ba797a8bdb06d36f8dc85d5,伊犁第一毛纺织厂,2路;2路[平原林场专线];3路,新疆维吾尔自治区,伊犁哈萨克自治州,伊宁市,,unknown,
baidu,2f5dbe1a283d4d1b79dbd2a2,吉格迪力克村5大队,7路,新疆维吾尔自治区,伊犁哈萨克自治州,伊宁市,,unknown,
baidu,44b7566efa1a33110869d96b,汉人街,1路;5路;6路;7路;10路;12路;401路;501路,新疆维吾尔自治区,伊犁哈萨克自治州,伊宁市,,unknown,
baidu,a89d57c7ac916ae5d3ff23cd,阿依墩街七巷,3路,新疆维吾尔自治区,伊犁哈萨克自治州,伊宁市,,unknown,
baidu,8dd1573a6661b8c095f08c06,恒大绿洲,6路;21路,新疆维吾尔自治区,伊犁哈萨克自治州,伊宁市,,unknown,
baidu,b1af146de40b75a7db13183c,巴哈尔街三巷,7路,新疆维吾尔自治区,伊犁哈萨克自治州,伊宁市,,unknown,
baidu,4a7751fcf8827ce402294fe4,喀尔墩,5路;7路;501路,新疆维吾尔自治区,伊犁哈萨克自治州,伊宁市,,unknown,
baidu,971cb8567a75fe68a8175a00,伊宁市人民医院-地上停车场,伊犁哈萨克自治州伊宁市新华东路66号,新疆维吾尔自治区,伊犁哈萨克自治州,伊宁市,,unknown,
baidu,e7aa9a76399f39ea3010afe9,伊宁市维吾尔医医院停车场,伊犁哈萨克自治州伊宁市前进街伊宁市维吾尔医医院,新疆维吾尔自治区,伊犁哈萨克自治州,伊宁市,,unknown,
baidu,40fea5782c50eaf4d8d891b8,10号小区,5路;7路,新疆维吾尔自治区,伊犁哈萨克自治州,伊宁市,,unknown,
baidu,96bd2aadaaaf9d690b1cc735,药材公司,6路,新疆维吾尔自治区,伊犁哈萨克自治州,伊宁市,,unknown,
baidu,c8a71347689c8aadd0ff2338,前进街19巷,6路,新疆维吾尔自治区,伊犁哈萨克自治州,伊宁市,,unknown,
baidu,4d5714d06d6408d3e9f853ce,停车场,伊犁哈萨克自治州伊宁市解放南路伊宁市第三小学东侧约210米,新疆维吾尔自治区,伊犁哈萨克自治州,伊宁市,,unknown,
baidu,4a97e25f2e97075e96031963,花果山派出所,4路;6路,新疆维吾尔自治区,伊犁哈萨克自治州,伊宁市,,unknown,
baidu,dcb7c50c15fd8650ee74f834,维吾尔医医院,6路,新疆维吾尔自治区,伊犁哈萨克自治州,伊宁市,,unknown,
baidu,3cb62c2f277505169c09f7ce,伊宁市第四中学-停车场,伊犁哈萨克自治州伊宁市喀什街伊宁市第四中学,新疆维吾尔自治区,伊犁哈萨克自治州,伊宁市,,unknown,
baidu,813f5aa0463b8a218b2fb54d,新华东路22巷,5路,新疆维吾尔自治区,伊犁哈萨克自治州,伊宁市,,unknown,
baidu,a768e038a0a5f4c1a204645a,伊犁电厂,2路;2路[平原林场专线],新疆维吾尔自治区,伊犁哈萨克自治州,伊宁市,,unknown,
baidu,8938663d0fbe8a6d9d9d68e7,绒毛厂家属院,7路,新疆维吾尔自治区,伊犁哈萨克自治州,伊宁市,,unknown,
baidu,c6fb95fe8829953a4107c188,星星充电充电站(大巴扎二号站),新疆维吾尔自治区伊犁哈萨克自治州伊宁市新华西路66号,新疆维吾尔自治区,伊犁哈萨克自治州,伊宁市,19199579797,unknown,
baidu,d3e4a2895003f0e9cb213daf,艾勒开那克大厦-停车场,伊犁哈萨克自治州伊宁市新华东路苏碧怡大厦(新华东路)东南侧约140米,新疆维吾尔自治区,伊犁哈萨克自治州,伊宁市,,unknown,
baidu,46362bb06b711211c2f1cfa9,民生商厦停车场,伊犁哈萨克自治州伊宁市新华东路民生商厦,新疆维吾尔自治区,伊犁哈萨克自治州,伊宁市,,unknown,
baidu,07b08e046816858ed618b7d6,伊犁街19巷,7路,新疆维吾尔自治区,伊犁哈萨克自治州,伊宁市,,unknown,
baidu,c7309d9d5dfaa04d4e776e9c,吉格迪力克村五大队,7路,新疆维吾尔自治区,伊犁哈萨克自治州,伊宁市,,unknown,
baidu,771820648df7b42af5eafc1a,喀赞其景区北门(下客站),花城旅游公交,新疆维吾尔自治区,伊犁哈萨克自治州,伊宁市,,unknown,
baidu,b037deba23f8e22057bfffe8,红旗街路口,3路;7路,新疆维吾尔自治区,伊犁哈萨克自治州,伊宁市,,unknown,
baidu,b03b8b5d8986a38af02d833c,民生商厦西南侧-停车场,伊犁哈萨克自治州伊宁市新华东路伊宁市第十四小学北侧,新疆维吾尔自治区,伊犁哈萨克自治州,伊宁市,,unknown,
baidu,44fa399714228d38ca291583,市维吾尔医医院,6路;21路,新疆维吾尔自治区,伊犁哈萨克自治州,伊宁市,,unknown,
baidu,add566a103b7a65bb21e36e6,伊宁市22小,5路;501路,新疆维吾尔自治区,伊犁哈萨克自治州,伊宁市,,unknown,
baidu,1e003e5cd87023d02cb96db8,城南一号,6路;21路,新疆维吾尔自治区,伊犁哈萨克自治州,伊宁市,,unknown,
baidu,f9772b534d4170f3932ca398,桃园宾馆,2路;2路[平原林场专线],新疆维吾尔自治区,伊犁哈萨克自治州,伊宁市,,unknown,
baidu,68341630b8fab3a96ec02c2a,伊宁市第十二小学,7路,新疆维吾尔自治区,伊犁哈萨克自治州,伊宁市,,unknown,
baidu,5302f5c46e396581aeb22ac3,五棵橡,3路;7路;18路;21路,新疆维吾尔自治区,伊犁哈萨克自治州,伊宁市,,unknown,
baidu,f7f700fae20a58bc1e5800c6,州电视台,10路;501路,新疆维吾尔自治区,伊犁哈萨克自治州,伊宁市,,unknown,
baidu,0891c6b72060513838221cd5,伊宁市人民医院-地下停车场,伊犁哈萨克自治州伊宁市新华东路66号,新疆维吾尔自治区,伊犁哈萨克自治州,伊宁市,,unknown,
baidu,53958341defeaa9f2b3a9f07,供电公司,2路;2路[平原林场专线];3路;4路;9路;10路,新疆维吾尔自治区,伊犁哈萨克自治州,伊宁市,,unknown,
baidu,6fb45109f892a98d1894c6ae,塔乡三大队,6路;21路,新疆维吾尔自治区,伊犁哈萨克自治州,伊宁市,,unknown,
baidu,574a981cadc597ed2b201ad1,伊宁市第7小学,7路,新疆维吾尔自治区,伊犁哈萨克自治州,伊宁市,,unknown,
baidu,8422f3eafd9ef6eafbf0cbf8,新华东路36巷,5路;501路,新疆维吾尔自治区,伊犁哈萨克自治州,伊宁市,,unknown,
baidu,4073496df52580588a36ee33,友好天百,1路;9路;10路;301路,新疆维吾尔自治区,伊犁哈萨克自治州,伊宁市,,unknown,
baidu,58154a89aec00640047ce843,喀赞其景区游客服务中心(上客站),花城旅游公交,新疆维吾尔自治区,伊犁哈萨克自治州,伊宁市,,unknown,
baidu,79a2bf3fbaeab19657bfff03,新华东路24巷,5路;501路,新疆维吾尔自治区,伊犁哈萨克自治州,伊宁市,,unknown,
baidu,6f5fa098059cf70f5e17c394,星星充电充电站(富民市场一号站),伊犁哈萨克自治州伊宁市东梁街民生商厦,新疆维吾尔自治区,伊犁哈萨克自治州,伊宁市,19199579797,unknown,
baidu,fe137324cf293397eb12e415,伊宁市人民医院,1路;5路;6路;7路;10路;12路;401路;501路,新疆维吾尔自治区,伊犁哈萨克自治州,伊宁市,,unknown,
baidu,be04ad7c0f7855ded22dd63a,星星充电充电站(新白银停车场一号站),新疆维吾尔自治区伊犁哈萨克自治州伊宁市艾兰木巴格街道英阿亚提路伊力特大酒店(胜利北路与斯大林东路交叉口东北方向57米),新疆维吾尔自治区,伊犁哈萨克自治州,伊宁市,19199579797,unknown,
baidu,e64b61f0a1b98ee1badf8fba,伊宁伊力花城大酒店(喀赞其景区店)-地上停车场,新疆维吾尔自治区伊犁哈萨克自治州伊宁市胜利街98号,新疆维吾尔自治区,伊犁哈萨克自治州,伊宁市,,unknown,
baidu,c1a763ea569bc04fb5f42fff,星星充电充电站(城南壹号一号桩群),新疆维吾尔自治区伊犁哈萨克自治州伊宁市S313,新疆维吾尔自治区,伊犁哈萨克自治州,伊宁市,19199579797,unknown,
baidu,3eeeda4287661768b11e36ae,停车场,伊犁哈萨克自治州伊宁市红旗路人民广场西南侧约110米,新疆维吾尔自治区,伊犁哈萨克自治州,伊宁市,,unknown,
baidu,75e05d50645c389af82d6160,停车场(新华东路),伊犁哈萨克自治州伊宁市新华东路库尔杆招待所西侧约170米,新疆维吾尔自治区,伊犁哈萨克自治州,伊宁市,,unknown,
baidu,4bf8b59f83c6f5f424d2bbeb,停车场,伊犁哈萨克自治州伊宁市解放南路伊犁迪亚尔住宅小区西侧约140米,新疆维吾尔自治区,伊犁哈萨克自治州,伊宁市,,unknown,
baidu,4f34a707f48b8c7eb21e3645,星星充电充电站(大巴扎一号桩群),新疆维吾尔自治区伊犁哈萨克自治州伊宁市都来提巴格街道新华东路伊宁黄金宫大酒店,新疆维吾尔自治区,伊犁哈萨克自治州,伊宁市,19199579797,unknown,
baidu,749ab4b423e28c13ea56fa55,星光小区东门,7路,新疆维吾尔自治区,伊犁哈萨克自治州,伊宁市,,unknown,
baidu,762b8670fc7e0a86a8f7297b,停车场(红旗路),伊犁哈萨克自治州伊宁市红旗路新红旗商城(斯大林东路),新疆维吾尔自治区,伊犁哈萨克自治州,伊宁市,,unknown,
baidu,b5a457fc431deb01ad045735,新华东路32巷,5路;501路,新疆维吾尔自治区,伊犁哈萨克自治州,伊宁市,,unknown,
baidu,cb5afa7dda709e00c27da2a1,新华书店,1路;2路;2路[平原林场专线];4路;10路;301路,新疆维吾尔自治区,伊犁哈萨克自治州,伊宁市,,unknown,
baidu,15851a8b33ec017a2b11d1c6,星星充电充电站(城南一号二号站),新疆维吾尔自治区伊犁哈萨克自治州伊宁市喀赞其街道南环路城南壹号1期,新疆维吾尔自治区,伊犁哈萨克自治州,伊宁市,4008280768,unknown,
baidu,c49cf6f94efb6f71e8e5826a,喀尔墩医院,7路,新疆维吾尔自治区,伊犁哈萨克自治州,伊宁市,,unknown,
baidu,c997019871fd587f15c90575,乔黎繁商场北侧-停车场,伊犁哈萨克自治州伊宁市新华东路人民广场西南侧约250米,新疆维吾尔自治区,伊犁哈萨克自治州,伊宁市,,unknown,
baidu,0040647a80fd3cd7f503b88f,伊犁天百国际购物中心-停车场,伊犁哈萨克自治州伊宁市解放南路伊犁铜锣湾,新疆维吾尔自治区,伊犁哈萨克自治州,伊宁市,,unknown,
baidu,acee426799faee9e6fa3ccd7,州公安局,21路,新疆维吾尔自治区,伊犁哈萨克自治州,伊宁市,,unknown,
baidu,1fee64e8ede6a7f8fa0cad5c,星光小区南门,7路,新疆维吾尔自治区,伊犁哈萨克自治州,伊宁市,,unknown,
baidu,790227eb3c1dc7b7a2a93489,格林豪泰智选酒店(伊宁青年街农四师医院店)东侧-地上停车场,伊犁哈萨克自治州伊宁市青年街白银谷西北侧约60米,新疆维吾尔自治区,伊犁哈萨克自治州,伊宁市,,unknown,
baidu,84605fa9563c5beb94f08ca9,星光小区,3路;6路;18路,新疆维吾尔自治区,伊犁哈萨克自治州,伊宁市,,unknown,
baidu,3d85ba512bf93179f6c59c18,星星充电充电站(创阳新能源汽车展厅一号桩群站),伊犁哈萨克自治州伊宁市S313伊统佳苑东北侧约170米,新疆维吾尔自治区,伊犁哈萨克自治州,伊宁市,19199579797,unknown,
baidu,e4431fa4cef5c839220220b3,星星充电充电站(新白银停车场二号站),伊犁哈萨克自治州伊宁市英阿亚提路伊宁伊力特大酒店西北侧约40米,新疆维吾尔自治区,伊犁哈萨克自治州,伊宁市,19199579797,unknown,
baidu,f8410f98bcc28671eb12e42a,农四师医院,2路;2路[平原林场专线];4路;5路,新疆维吾尔自治区,伊犁哈萨克自治州,伊宁市,,unknown,
baidu,238805d9f1faaed82b06ce27,第四师医院伊宁院区,第四师医院通医专线,新疆维吾尔自治区,伊犁哈萨克自治州,伊宁市,,unknown,
baidu,5b13d779a2f2a7ff78f79675,星星充电充电站(呼勒佳一号站),新疆维吾尔自治区伊犁哈萨克自治州伊宁市喀赞其街道新华西路宝地花苑,新疆维吾尔自治区,伊犁哈萨克自治州,伊宁市,4008280768,unknown,
baidu,afb2a45b70e123d19d95debb,星星充电充电站(创阳新能源汽车展厅二号站),伊犁哈萨克自治州伊宁市S313伊统佳苑东北侧约170米,新疆维吾尔自治区,伊犁哈萨克自治州,伊宁市,19199579797,unknown,
baidu,7a18b1f41a908c46a2046433,停车场,伊犁哈萨克自治州伊宁市S313伊统佳苑北侧约190米,新疆维吾尔自治区,伊犁哈萨克自治州,伊宁市,,unknown,
baidu,cdf5f9806a5a447460180940,停车场,伊犁哈萨克自治州伊宁市红旗路人民广场西侧约80米,新疆维吾尔自治区,伊犁哈萨克自治州,伊宁市,,unknown,
baidu,2c127839797e3b5cdeee8b8a,招呼站,501路,新疆维吾尔自治区,伊犁哈萨克自治州,伊宁市,,unknown,
baidu,df07350d0928fa0914c9054f,星星充电充电站(白银谷二号桩群),新疆维吾尔自治区伊犁哈萨克自治州伊宁市墩买里街道青年街3-5号怡安·白银谷,新疆维吾尔自治区,伊犁哈萨克自治州,伊宁市,19199579797,unknown,
baidu,129a510cad9a1b18fe0eb035,停车场,伊犁哈萨克自治州伊宁市胜利北路伊宁伊力特大酒店西北侧约100米,新疆维吾尔自治区,伊犁哈萨克自治州,伊宁市,,unknown,
baidu,15771f65819f062f5af6bedc,星星充电充电站(伊犁宾馆警务站一号站),伊犁哈萨克自治州伊宁市迎宾路伊犁铜锣湾,新疆维吾尔自治区,伊犁哈萨克自治州,伊宁市,19199579797,unknown,
baidu,20b48f4a84ccb4ccf7b9162c,星星充电充电站(白银谷一号站),伊犁哈萨克自治州伊宁市白银谷,新疆维吾尔自治区,伊犁哈萨克自治州,伊宁市,19199579797,unknown,
baidu,bab1de3309e4e50c3c9a5e32,星星充电充电站(市公安局站),伊宁市公安局,新疆维吾尔自治区,伊犁哈萨克自治州,伊宁市,4008280768,unknown,
baidu,b39ad5130c79b03ab2077d23,伊宁市公安局,2路;2路[平原林场专线];12路;301路;304路,新疆维吾尔自治区,伊犁哈萨克自治州,伊宁市,,unknown,
baidu,f428696df9f5c27a22f01715,停车场,伊犁哈萨克自治州伊宁市斯大林东路伊犁州中医医院西南侧约80米,新疆维吾尔自治区,伊犁哈萨克自治州,伊宁市,,unknown,
baidu,f531a9013348d8660c0e6bf6,白银谷(青年路),2路;2路[平原林场专线];4路,新疆维吾尔自治区,伊犁哈萨克自治州,伊宁市,,unknown,
baidu,57d9b1b493059cf16f3e1b79,伊宁市13小,6路;10路,新疆维吾尔自治区,伊犁哈萨克自治州,伊宁市,,unknown,
baidu,a5682c3935dd9d03d8d8910a,星光小区-停车场,新疆维吾尔自治区伊犁哈萨克自治州伊宁市星光街175号,新疆维吾尔自治区,伊犁哈萨克自治州,伊宁市,,unknown,
baidu,7d919519eff4a8fac61b752b,英阿亚提小区(后滩路),1路;12路;401路,新疆维吾尔自治区,伊犁哈萨克自治州,伊宁市,,unknown,
baidu,0ee09ab22c19d76629fc4897,伊犁托海水电厂家属院-停车场,伊犁哈萨克自治州伊宁市新华西路青年街16号,新疆维吾尔自治区,伊犁哈萨克自治州,伊宁市,,unknown,
baidu,6133e05be8d0f7f7badf8ffd,伊宁市第一中学东侧-停车场,伊犁哈萨克自治州伊宁市新路街七巷伊宁市第一中学,新疆维吾尔自治区,伊犁哈萨克自治州,伊宁市,,unknown,
baidu,95e411d226fb4e10901fc9bf,星星充电充电站(伊犁宾馆警务站二号站),新疆维吾尔自治区伊犁哈萨克自治州伊宁市艾兰木巴格街道迎宾路伊犁铜锣湾,新疆维吾尔自治区,伊犁哈萨克自治州,伊宁市,19199579797,unknown,
baidu,9e6e6ab86dd01957db13185c,伊宁市十小,3路,新疆维吾尔自治区,伊犁哈萨克自治州,伊宁市,,unknown,
baidu,d8edc2cd45a78470a21de90e,伊犁州公安局-停车场,伊犁哈萨克自治州伊宁市新路街七巷伊犁州公安局,新疆维吾尔自治区,伊犁哈萨克自治州,伊宁市,,unknown,
baidu,0f298a8acaa0cbbe4c3a59bb,停车场,伊犁哈萨克自治州伊宁市新路街七巷伊宁市第一中学,新疆维吾尔自治区,伊犁哈萨克自治州,伊宁市,,unknown,
baidu,30d5fa009f3e946deb1e971e,恒大绿洲-停车场,新疆维吾尔自治区伊犁哈萨克自治州伊宁市南环路777号,新疆维吾尔自治区,伊犁哈萨克自治州,伊宁市,,unknown,
baidu,96aaf235e8891bfe0b1cc768,呼勒佳酒店(伊宁喀赞其街道店)-停车场,伊犁哈萨克自治州伊宁市新华西路呼勒佳宾馆,新疆维吾尔自治区,伊犁哈萨克自治州,伊宁市,,unknown,
baidu,b7923e9bd6bd5c1e28d7abed,停车场,伊犁哈萨克自治州伊宁市新华西路白银谷东侧约60米,新疆维吾尔自治区,伊犁哈萨克自治州,伊宁市,,unknown,
baidu,03e3c9698fdb8855a5da3959,和谐大酒店北侧-停车场,伊犁哈萨克自治州伊宁市斯大林西路和谐大酒店,新疆维吾尔自治区,伊犁哈萨克自治州,伊宁市,,unknown,
baidu,4d94df226af8e5294e2fdf6d,白银谷(新华西路),5路,新疆维吾尔自治区,伊犁哈萨克自治州,伊宁市,,unknown,
baidu,e2a4fd253b98c74a5e0d020c,天使大厦(青年街)-停车场,伊犁哈萨克自治州伊宁市青年街8号,新疆维吾尔自治区,伊犁哈萨克自治州,伊宁市,,unknown,
baidu,6dc93755d8784110afee7a22,英买里村委会,7路,新疆维吾尔自治区,伊犁哈萨克自治州,伊宁市,,unknown,
baidu,ebb795bda2ebc426b5147f8c,新华路东路24巷,501路,新疆维吾尔自治区,伊犁哈萨克自治州,伊宁市,,unknown,
baidu,548c78430296404c4afd3f2f,伊犁河民族文化旅游园-停车场,伊犁哈萨克自治州伊宁市S313伊犁河民族文化旅游园,新疆维吾尔自治区,伊犁哈萨克自治州,伊宁市,,unknown,
baidu,30fa63952d97f90b21026212,英买里村,21路,新疆维吾尔自治区,伊犁哈萨克自治州,伊宁市,,unknown,
baidu,a18b17c200130a65b5f42fdd,塔什科瑞克乡政府,21路,新疆维吾尔自治区,伊犁哈萨克自治州,伊宁市,,unknown,
baidu,7d72ce5ce77cd3992bd7ab12,白银谷(青年街),2路;4路,新疆维吾尔自治区,伊犁哈萨克自治州,伊宁市,,unknown,
baidu,947ce1f3abc211a49222e0f0,伊犁河路街道办事处,2路;2路[平原林场专线];3路,新疆维吾尔自治区,伊犁哈萨克自治州,伊宁市,,unknown,
baidu,a238da993bfce49d04026f9e,英阿亚提小区(英阿亚提路),4路;301路;304路;401路,新疆维吾尔自治区,伊犁哈萨克自治州,伊宁市,,unknown,
