source,bd_uid,name,address,province,city,area,tel,poi_type,tag
baidu,81b0a3a98c286f29246e98b3,绘璟轩·MOCHI(书圣故里店),蕺山街29-1号,浙江省,绍兴市,越城区,15336799767,unknown,
baidu,74c933fb77b8455f9f82eaa5,寻宝记绍兴菜(劳动路店),劳动路101号,浙江省,绍兴市,越城区,(0575)85119817,unknown,
baidu,aab95a10faa52ebeb23c8140,西街徐文张饭店,西街33号,浙江省,绍兴市,越城区,(0575)85120717,unknown,
baidu,4d4ea9b67260fcf99cec2b95,老厨神鱼(萧山街店),萧山街,浙江省,绍兴市,越城区,18583062432,unknown,
baidu,5a54be4683a07d390a5cb317,嵊州小吃(萧山街店),府山街道萧山街220号(阿刚饭店对面),浙江省,绍兴市,越城区,13429478869,unknown,
baidu,109b48dc496b8d2f9d95de5a,寻宝记绍兴菜(八佰伴店),解放北路199号八佰伴购物中心1F,浙江省,绍兴市,越城区,(0575)85178877,unknown,
baidu,ac1b9d361661b1c997ec849d,松间,绍兴市浙江省越城区书圣故里斜桥弄2号,浙江省,绍兴市,越城区,15868162814,unknown,
baidu,2cab3c400e1dea97a7c75667,老绍兴印糕(书圣故里店),浙江省绍兴市越城区蕺山街16号,浙江省,绍兴市,越城区,15336765992,unknown,
baidu,9ac6b74bd537943cc9c3db32,再兴烧腊饭店(世贸店),胜利东路278号,浙江省,绍兴市,越城区,18205856165,unknown,
baidu,7ac61c7bd827e180b4265538,牛牛饭店,西街29号,浙江省,绍兴市,越城区,13957569669,unknown,
baidu,daecccd0d640daa626e0a082,顶旺酒楼,西街17号,浙江省,绍兴市,越城区,(0575)88852825,unknown,
baidu,e2c069aad72561c0246e9822,寻宝记绍兴菜(世茂店),世茂湖滨商业中心1幢2F,浙江省,绍兴市,越城区,(0575)88685977,unknown,
baidu,8128c5a001bb12ba28201a5c,北伴岛小海鲜(越城店),胜利东路216号,浙江省,绍兴市,越城区,18366673555,unknown,
baidu,cf2b81c589c08c32a8175a00,诚记小餐馆,胜利东路232号,浙江省,绍兴市,越城区,15957516262,unknown,
baidu,30a77c353103bd07b54f5497,西西里手工烘焙(书圣故里店),蕺山街67号,浙江省,绍兴市,越城区,13567208912,unknown,
baidu,cbe722f719aa6ffad3ff2383,绍兴人家(萧山街店),肖山街260号,浙江省,绍兴市,越城区,15158235525,unknown,
baidu,3b5d4b5513d829b484330487,宋梅桥店,绍兴市越城区中兴中路时代大厦,浙江省,绍兴市,越城区,,unknown,
baidu,c4f7313ace33b8f7d8d8919f,宪正印糕(书圣故里店),蕺山街61号（题扇桥旁）,浙江省,绍兴市,越城区,,unknown,
baidu,4c3e1fb9c593f970d3ff23ef,S-pizza披萨速递(越城店),府山街道胜利东路210号,浙江省,绍兴市,越城区,15059471816,unknown,
baidu,98cf57dfe1863b6cb04c4942,阿刚特色菜馆(保佑桥店),保佑桥直街165号,浙江省,绍兴市,越城区,13675786544,unknown,
baidu,2dda7a39628c6eac45e2745b,香缘聚,蕺山街23号,浙江省,绍兴市,越城区,,unknown,
baidu,152fcb1e7d94bc8d5cd4feb9,桥夏,绍兴市越城区题扇桥直街31号,浙江省,绍兴市,越城区,18657570877,unknown,
baidu,3489a8e0998af9ccbe484239,嘉兴粽子,绍兴市越城区胜利东路香桥小区东南侧,浙江省,绍兴市,越城区,13516750019,unknown,
baidu,9dfec405f19f9701932ca3b9,三嫂嫂菜馆(周恩来祖居店),保佑桥直街154号、156号,浙江省,绍兴市,越城区,13065786286,unknown,
baidu,b0b34cf8bd4f5336c1f1cf87,黄牛肉羊肉,绍兴市越城区白马庙前镜中园公寓,浙江省,绍兴市,越城区,,unknown,
baidu,28b686ed7746d1ddcf04efef,躲婆奶茶,蕺山街104号,浙江省,绍兴市,越城区,(0575)88993399,unknown,
baidu,4ad8e43d72acf6d4fbdc85f1,猫的骑士主义咖啡书吧(蕺山店),蕺山街79号（胜利路新华书店后面）,浙江省,绍兴市,越城区,13858493208,unknown,
baidu,51eb31cfbd0d1c2ab320a8a1,绍兴人家(胜利东路店),胜利东路(香舍丽都)号269-5号,浙江省,绍兴市,越城区,15158235525,unknown,
baidu,8b994d2e12ff4fd333169bd0,蕺山糕点铺,蕺山街66号,浙江省,绍兴市,越城区,15381669655,unknown,
baidu,add46530be958f8502897218,梨泰院韩式烤肉(世茂店),胜利东路252号,浙江省,绍兴市,越城区,15355029428,unknown,
baidu,f299b1478ac696c078f796fc,枫婷早餐店(白马路店),浙江省绍兴市越城区白马路81号,浙江省,绍兴市,越城区,,unknown,
baidu,1552df90d5320ec7c4f50d1b,西街九号茶与咖啡,西街九号,浙江省,绍兴市,越城区,13575580941,unknown,
baidu,01a09f3a60901d16ab175abc,莎莎川菜馆,府山街道胜利东路248号,浙江省,绍兴市,越城区,,unknown,
baidu,2d8eb042e08b6f557702691d,丁来兴酒店(西街店),府山街道书圣故里社区西街160号（近流动人口登记服务站）,浙江省,绍兴市,越城区,13429497597,unknown,
baidu,7d45eae1879f0084343a7105,蜜雪冰城(新建北路店),新建北路429号,浙江省,绍兴市,越城区,"15551696368,18357596870",unknown,
baidu,980e1e077057d3a2f90cadf2,现杀黄牛肉,绍兴市越城区白马庙前镜中园公寓,浙江省,绍兴市,越城区,,unknown,
baidu,c48ce966c0f4b77059bbbcc7,阿庆黄鱼面馆(胜利东路店),胜利东路286号,浙江省,绍兴市,越城区,13757594717,unknown,
baidu,d62fd75c61f1f9ba78f79698,克伟川菜,浙江省绍兴市越城区胜利东路248号,浙江省,绍兴市,越城区,13606559155,unknown,
baidu,df74a9c8edf23a5fafee7a3d,小哥麻辣香锅(胜利东路店),香舍丽都,浙江省,绍兴市,越城区,18057595579,unknown,
baidu,be2e39c47d957b52af080f40,康师傅臭豆腐,浙江省绍兴市越城区府山街道书圣故里91号,浙江省,绍兴市,越城区,,unknown,
baidu,aa4a111440098bc73913fd18,阿巴斯羊肉馆,新建北路485号（十足对面）,浙江省,绍兴市,越城区,19990464646,unknown,
baidu,96a274aa2e9bc69b3fe231ae,不老神鸡(白马路店),白马路6号,浙江省,绍兴市,越城区,(0575)88770999,unknown,
baidu,6f503dbfd61e65812ab97c5d,柴火灶地锅鸡(胜利东路280号店),胜利东路280号,浙江省,绍兴市,越城区,15257590089,unknown,
baidu,8a74cb21647f2878902ca309,寺东边面馆(名都苑店),中兴中路329号名都苑,浙江省,绍兴市,越城区,15158253722,unknown,
baidu,b707c7880c8fb76bd7851fed,粥管家(胜利东路店),胜利东路269号-8,浙江省,绍兴市,越城区,13567218532,unknown,
baidu,81d6a509c8b84c596f20b9ba,杭州佬面馆(新建北路店),新建北路360号,浙江省,绍兴市,越城区,(0575)85226552,unknown,
baidu,ae0e1b093c672cc4f5c59cb7,米酒谣(现代大厦店),保佑桥直街148-152号,浙江省,绍兴市,越城区,18069552837,unknown,
baidu,2d1ce1e9edb774184afc8dfc,维尔纳斯意大利手工艺生日蛋糕(越城店),胜利东路220号,浙江省,绍兴市,越城区,"15079426399,4008078568",unknown,
baidu,6048c746b12269f6ae31e574,小沈生煎烤饺面条(八佰伴店),新建北路487-489号,浙江省,绍兴市,越城区,15267597826,unknown,
baidu,7c664af249153a34aecb6684,陈老伍麻辣烫(新建北路店),新建北路416号,浙江省,绍兴市,越城区,13567371269,unknown,
baidu,845d9b6f8d71fe07c909f097,大食堂,绍兴市越城区保佑桥直街现代大厦,浙江省,绍兴市,越城区,,unknown,
baidu,81c4dafbd39050bf4207c1ae,尝品酥鱼,白马路67号白马市场,浙江省,绍兴市,越城区,"13004606285,13221559198",unknown,
baidu,a28a7d3b9b9d681b6c47601f,鑫源面馆(胜利东路店),浙江省绍兴市越城区胜利东路272号,浙江省,绍兴市,越城区,18249681789,unknown,
baidu,cbee3ee7f8bbb468ae31e580,牧初见1988动物奶油生日蛋糕(世茂店),胜利东路262号,浙江省,绍兴市,越城区,18069645596,unknown,
baidu,c264bc62d7032696c51b75db,社区厨鲜,浙江省绍兴市越城区白马路东池花园西侧约110米,浙江省,绍兴市,越城区,13989585568,unknown,
baidu,38046462042d89091fe999b5,极味肥牛饭炸鸡饭(绍兴店),胜利东路269-6号,浙江省,绍兴市,越城区,18967546983,unknown,
baidu,05085e10fadba4acc356ac07,74110 COFFEE,劳动路273号(城市广场地铁站G口步行460米),浙江省,绍兴市,越城区,19957530902,unknown,
baidu,caff344ad43bc2b6c909f043,麦当劳(绍兴解放北路店),浙江省绍兴市越城区府山街道解放北路193号、195号、197号、199号-1、199号-204、205上大路4号,浙江省,绍兴市,越城区,4009200205,unknown,
baidu,9e1cac8b636a3a0c7f29bd02,半米老油条店,浙江省绍兴市越城区蕺山街道白马路77号,浙江省,绍兴市,越城区,,unknown,
baidu,b48720d75ad64b6e02294fe2,几荷里·寻味绍兴(国金大悦城店),新建北路239号大悦城二楼,浙江省,绍兴市,越城区,15002166001,unknown,
baidu,fb07752149ee60a6adb22a2d,禄妤斋(八佰伴店),利济桥直街4号,浙江省,绍兴市,越城区,13484309411,unknown,
baidu,c85c0d58d3139bc1a21de951,下大路16号炸鸡,府山街道下大路16号(大江市场边上),浙江省,绍兴市,越城区,13588543015,unknown,
baidu,aff589312b5ca501d618b77b,张记烤饺(长桥店),长桥直街106号,浙江省,绍兴市,越城区,13989572363,unknown,
baidu,2624949a451aebccf6eafca3,翻滚吧蛋炒饭(胜利东路店),迪荡街道新财神殿前304室,浙江省,绍兴市,越城区,"13129152193,18966090823",unknown,
baidu,11513aa82dd773b6d7851fe0,海底捞火锅(世茂广场店),浙江省绍兴市越城区胜利东路360号世茂广场3层L303号,浙江省,绍兴市,越城区,(0575)88627172,unknown,
baidu,2372cc6c676150c00e3ddae3,淘记酥鱼(东街店),东街世纪华联超市对面（农贸市场旁）,浙江省,绍兴市,越城区,13626870259,unknown,
baidu,9d8f6e020cdc368b9d82ea54,季食·轻食餐厅(胜利东路店),胜利东路269-7号,浙江省,绍兴市,越城区,13486517343,unknown,
baidu,cfb2b6357b91211896031972,朝秀早餐店(马弄住宅店),马弄住宅西区北门旁,浙江省,绍兴市,越城区,,unknown,
baidu,96950eceecbb7168a8059d15,饮料凉茶,绍兴市越城区长桥直街华丰大厦北侧约60米,浙江省,绍兴市,越城区,,unknown,
baidu,6ff0be6d503de383c6effbc4,馨儿面(日月花园店),日月花园南门西50米(城市广场地铁站B口步行300米),浙江省,绍兴市,越城区,15925885997,unknown,
baidu,9a8a384470a1e888deee8b0d,奶爸蛋糕·动物奶油生日蛋糕(大悦城店),府山街道新建北路430-2号(临),浙江省,绍兴市,越城区,18248634071,unknown,
baidu,72e57fd7164de7d2f8dc8540,肯德基(绍兴中兴店),中兴路与人民路交叉口渔花广场一二楼,浙江省,绍兴市,越城区,(0575)85121601,unknown,
baidu,3aed8623dd78f0d22cb9089a,李氏食品商行熟食,绍兴市越城区白马路镜中园公寓北侧,浙江省,绍兴市,越城区,,unknown,
baidu,4cd5e877c9628f2526e0a06f,享烘焙(唐皇苑南区店),浙江省绍兴市越城区唐皇街97号,浙江省,绍兴市,越城区,13757506889,unknown,
baidu,e575fc40b604d5ed8bb988a7,墨咖啡(书圣故里店),书圣故里60号,浙江省,绍兴市,越城区,18258540722,unknown,
baidu,8536a00a8d545b86940319df,九月海·海鲜自助(大悦城店),东街57号国金大悦城4楼4-7号,浙江省,绍兴市,越城区,13989824661,unknown,
baidu,030bbac706cc0b8c84330428,来点包子,绍兴市越城区白马路镜中园公寓北侧,浙江省,绍兴市,越城区,,unknown,
baidu,010bee5cf3b66ead75e5b68a,广州煲仔饭(越城店),利济桥直街7号,浙江省,绍兴市,越城区,"13615852143,15180629943",unknown,
baidu,4253a3a40becdff7abf0cd3e,牛糖逗,蕺山街123号,浙江省,绍兴市,越城区,18057552575,unknown,
baidu,d737b9a5e20c2f784251c07b,kunkun家(唐皇苑店),唐皇街95号,浙江省,绍兴市,越城区,13989555096,unknown,
baidu,81406d4566394aeb100daa87,阿康烤饺(中兴北路店),汇源公寓-8幢,浙江省,绍兴市,越城区,18858557886,unknown,
baidu,cb8222efc434912071210b16,莱亮营养空间,绍兴市越城区唐皇街唐皇苑-北区,浙江省,绍兴市,越城区,18284075982,unknown,
baidu,99fd8ec6e53195a06240a982,噶尤烤饺(中兴北路店),祥源·72名座,浙江省,绍兴市,越城区,13588517945,unknown,
baidu,06676026917b4257b6265544,西街118咖啡茶饮,西街118号,浙江省,绍兴市,越城区,,unknown,
baidu,83958ac79d4f1a4241d63e5a,鑫伟小吃店,浙江省绍兴市越城区新建北路唐皇街107号,浙江省,绍兴市,越城区,13372361157,unknown,
baidu,a461b1c731faae3a0aa8d479,方氏煲仔饭,马弄30号,浙江省,绍兴市,越城区,13857569438,unknown,
baidu,639273e0220eedae892fb593,舌头很忙麻辣香锅,绍兴市利济桥直街17号,浙江省,绍兴市,越城区,,unknown,
baidu,f50cf4fed08dd28d6240a9a2,永和园,笔架桥33号书圣故里,浙江省,绍兴市,越城区,,unknown,
baidu,5927241e4de61e79bb17e72f,次坞阿生手工打面(唐皇苑店),新建北路394号,浙江省,绍兴市,越城区,13587306767,unknown,
baidu,856596acdd45674195ca078c,股旺金来,浙江省绍兴市越城区保佑桥直街191号,浙江省,绍兴市,越城区,,unknown,
baidu,39ff95b75223b61bb5f42f64,7cake榴莲千层蛋糕(绍兴店),保佑桥直街173号,浙江省,绍兴市,越城区,4008316006,unknown,
baidu,8c475339d4b00a0db020a8fd,大悦城,东街57号,浙江省,绍兴市,越城区,(0575)85091881,unknown,
baidu,38e480371ecde848363a71a4,绍兴小商品城,浙江省绍兴市越城区中兴中路228号,浙江省,绍兴市,越城区,13396856061,unknown,
baidu,62055ec768abc18bc51e51fd,供销超市(宋梅桥店),绍兴市越城区中兴中路273-285号,浙江省,绍兴市,越城区,,unknown,
baidu,119dca62a28087c84207c107,八佰伴购物中心(越城店),浙江省绍兴市越城区解放北路199号,浙江省,绍兴市,越城区,(0575)89195656,unknown,
baidu,3e72ad628dc8859b86420e84,供银超市(胜东店),胜利东路235号,浙江省,绍兴市,越城区,13185755313,unknown,
baidu,fdee6ff4f60637b02b11d145,书圣里食品商行,绍兴市越城区书圣故里20号,浙江省,绍兴市,越城区,13626862225,unknown,
baidu,8f5ef6e20a38d8030c0e6bd7,城市广场(地铁站),绍兴市越城区胜利西路城市广场东北侧,浙江省,绍兴市,越城区,,unknown,
baidu,5027ab6817efa41a6d20b913,永辉超市(越城八佰伴购物中心店),解放北路八佰伴负一楼,浙江省,绍兴市,越城区,(0575)89171088,unknown,
baidu,f10be38aa770e310b1077dd8,云起甄选,浙江省绍兴市越城区胜利东路221号,浙江省,绍兴市,越城区,,unknown,
baidu,750ec165ca36862a4d3a59ac,金凯迪,浙江省绍兴市越城区胜利东路234号2楼,浙江省,绍兴市,越城区,(0575)85132829,unknown,
baidu,ef79040e1ddb04bbfbdc85b5,菁菁副食品店(香桥娄底店),浙江省绍兴市越城区中兴中路265号,浙江省,绍兴市,越城区,13757516736,unknown,
baidu,72e57fd71672e7d2f8dc8579,绍兴白马农贸市场(镜中园公寓北),白马路85号内18号摊位,浙江省,绍兴市,越城区,(0575)88189501,unknown,
baidu,4b26b563b1cdfeb15bf6be36,古街,绍兴市越城区胜利东路香舍丽都西南侧,浙江省,绍兴市,越城区,,unknown,
baidu,67df1a22061adc8b04026f94,小胖肉铺,绍兴市越城区白马庙前镜中园公寓,浙江省,绍兴市,越城区,,unknown,
baidu,3769b80a3d5bf768a0acc427,鸿燕楼,绍兴市越城区保佑桥直街金鑫大厦,浙江省,绍兴市,越城区,,unknown,
baidu,88e513083ebe9ee5a6da396a,阿芳农副产品(东大池住宅小区店),绍兴市越城区白马庙前镜中园公寓,浙江省,绍兴市,越城区,,unknown,
baidu,40d23bbf9e220bd9c4f025f0,至优食品商行,白马庙前50号,浙江省,绍兴市,越城区,13616757261,unknown,
baidu,463fa0d469e2d60378f796eb,题扇桥便民店,绍兴市越城区中兴中路书圣故里,浙江省,绍兴市,越城区,(0575)88993399,unknown,
baidu,2004854f95abfa4b5a3ac86c,范乾富古玩店(蕺山街店),绍兴市越城区蕺山街73号,浙江省,绍兴市,越城区,13004629263,unknown,
baidu,b8de40cd2385eccdc71b757d,鞋依阁,绍兴市越城区萧山街胜利东路178号院北侧约70米,浙江省,绍兴市,越城区,,unknown,
baidu,6bc0ce9d0e7f4c897369d349,绍兴市越城区百顺建材商行(时代大厦店),浙江省绍兴市越城区中兴中路287号时代大厦4楼411号,浙江省,绍兴市,越城区,,unknown,
baidu,8ff6c33015c6047f82288a95,顺英烟酒小百货店,绍兴市越城区萧山街望越中央花园东侧约40米,浙江省,绍兴市,越城区,,unknown,
baidu,b15f78d4bc140f259e9d6845,肖山街烟酒百杂商店,绍兴市越城区萧山街书圣故里,浙江省,绍兴市,越城区,,unknown,
baidu,2aec86f9ef95c4ad8e55ec92,五金百货店,绍兴市越城区白马庙前镜中园公寓,浙江省,绍兴市,越城区,,unknown,
baidu,f4a33da9304b7a743010af24,绍兴市东街农贸市场,东街住宅区5幢,浙江省,绍兴市,越城区,,unknown,
baidu,d2f6ba3e8c331a5fe0110376,舟山水产直销,绍兴市越城区白马庙前镜中园公寓,浙江省,绍兴市,越城区,,unknown,
baidu,f914904130ede0426da3cc70,米色布艺,浙江省绍兴市越城区胜利东路183号,浙江省,绍兴市,越城区,,unknown,
baidu,34e4850808595a9fd8d89124,绍兴市大江农贸市场,下大路33号(城市广场地铁站B口步行490米),浙江省,绍兴市,越城区,(0575)85134029,unknown,
baidu,cb12ce386b43eac3593ac853,广缘佛教用品超市,绍兴市越城区萧山街望越中央花园东侧约50米,浙江省,绍兴市,越城区,(0575)85145451,unknown,
baidu,486b7df3f1ab290e95ca07c2,阿萍大闸蟹,绍兴市越城区白马庙前镜中园公寓,浙江省,绍兴市,越城区,,unknown,
baidu,6a6804ff811b6b7c3f9a5e4b,中老年服装(镜中园公寓店),浙江省绍兴市越城区蕺山街道白马路26号,浙江省,绍兴市,越城区,,unknown,
baidu,5b1710660c2c148686420e18,格力(胜利东路店),绍兴市越城区胜利东路香桥小区南侧约60米,浙江省,绍兴市,越城区,,unknown,
baidu,9eae9af58acc3ded8715418c,邱洋水产,绍兴市越城区白马庙前镜中园公寓,浙江省,绍兴市,越城区,,unknown,
baidu,bcf5ce250dd7db7e5a3ac82e,水产批发,绍兴市越城区白马庙前镜中园公寓,浙江省,绍兴市,越城区,,unknown,
baidu,a67c30095b4bb98604fef5cc,宏扬装饰,绍兴市越城区白马路镜中园公寓,浙江省,绍兴市,越城区,,unknown,
baidu,20025d42e32f78b9d8ecedb8,喜德盛自行车(越城区旗舰店),浙江省绍兴市越城区中兴中路312号,浙江省,绍兴市,越城区,18957559626,unknown,
baidu,81cb1ef34d95d1461ef74d25,红霞羽绒,绍兴市越城区书圣故里22号,浙江省,绍兴市,越城区,13095651711,unknown,
baidu,8980337ec822961a88f15dda,越乡龙井茶专卖店(浙NO.010),浙江省绍兴市越城区中兴中路宋梅桥书圣故里17号(继昌幼儿园对面),浙江省,绍兴市,越城区,15257513057,unknown,
baidu,c66fd33ed5096ed03f9a5e6d,蔬菜生鲜,绍兴市越城区白马路镜中园公寓,浙江省,绍兴市,越城区,,unknown,
baidu,b8f7527b52fc3254f8dc85ae,我们仨书店,浙江省绍兴市越城区蕺山街11号1层,浙江省,绍兴市,越城区,"13355759390,18605855601",unknown,
baidu,16c64d0f68604d5c8d7727ef,拾鲤工厂店(书圣故里店),浙江省绍兴市越城区肖山街312号,浙江省,绍兴市,越城区,15355529590,unknown,
baidu,fc24facfaef6833a41024519,老爷爷书店,书圣故里西街,浙江省,绍兴市,越城区,,unknown,
baidu,44ea08b91152619d0bccddd5,钱大姐旗袍汉服馆,浙江省绍兴市越城区笔架桥3号,浙江省,绍兴市,越城区,13655751206,unknown,
baidu,fd007c5e72010912a9f72991,GIANT捷安特(中兴中路店),浙江省绍兴市越城区中兴中路345~349号,浙江省,绍兴市,越城区,"(0575)88209985,13305753200",unknown,
baidu,057336f8539fc2c394ec8430,世纪果业(镜中园公寓店),白马庙前32号,浙江省,绍兴市,越城区,13867557964,unknown,
baidu,6ed926210b708f199fec2bcd,摩车坊(迪荡店),浙江省绍兴市越城区白马路10号,浙江省,绍兴市,越城区,(0575)88008166,unknown,
baidu,e9ef352435b54b408d7727ae,佩福堂珠宝定制(金鑫大厦店),浙江省绍兴市越城区中兴中路308号,浙江省,绍兴市,越城区,18657595936,unknown,
baidu,5823a720435458e538e4a6d8,雪云食品店,绍兴市越城区白马庙前镜中园公寓,浙江省,绍兴市,越城区,,unknown,
baidu,475ff4192285de32a0acc42a,老刘蔬菜店,绍兴市越城区白马庙前镜中园公寓,浙江省,绍兴市,越城区,,unknown,
baidu,af0fe5c039689944f82d61cb,百样内衣生活馆,浙江省绍兴市越城区萧山街220号,浙江省,绍兴市,越城区,,unknown,
baidu,468d132079422fd9a2d230e9,荒原书店(八字桥直街店),八字桥直街102号,浙江省,绍兴市,越城区,15305850007,unknown,
baidu,33fbfa83d0d27ac00af5ebb0,大田洋布(中兴中路店),中兴中路287号时代大厦F1层,浙江省,绍兴市,越城区,(0575)85119922,unknown,
baidu,c661134c26f9ea830f0a703b,君君衣角,浙江省绍兴市越城区萧山街447号,浙江省,绍兴市,越城区,,unknown,
baidu,8e3def23f8ffff0db23c8125,女儿红(蕺山街店),浙江省绍兴市越城区蕺山街90-5-1号,浙江省,绍兴市,越城区,13575583317,unknown,
baidu,2ec09febcb4c2d953586f4ea,山东张大姐水果店,绍兴市越城区白马庙前镜中园公寓,浙江省,绍兴市,越城区,,unknown,
baidu,568cf17d7815b283a10464ca,贵州茅台专卖店(绍兴市东池路店),绍兴市迪荡街道东池路62号,浙江省,绍兴市,越城区,(0575)88009979,unknown,
baidu,b5f35c48d85806ce40afe6da,欣泽羽绒服,浙江省绍兴市越城区中兴中路书圣故里36号,浙江省,绍兴市,越城区,13575586295,unknown,
baidu,63a92063a64b7cfb9e82ea84,翔源名酒体验馆,浙江省绍兴市越城区胜利东路154-156号,浙江省,绍兴市,越城区,15088850561,unknown,
baidu,41daac94ee43de9bdbd8911f,蛋白熊进口母婴全球购,浙江省绍兴市越城区保佑桥直街金鑫大厦西南侧,浙江省,绍兴市,越城区,,unknown,
baidu,5aceaad4f58ac86f2bb97c76,仙仙布店,绍兴市越城区萧山街书圣故里,浙江省,绍兴市,越城区,,unknown,
baidu,27713ec04788d1679cf779e6,依丽羊绒私人定制,浙江省绍兴市越城区胜利东路233号,浙江省,绍兴市,越城区,"13306752887,18658519851",unknown,
baidu,82b563c56caeb864f5c59cc2,绿见水果店,绍兴市越城区白马庙前镜中园公寓,浙江省,绍兴市,越城区,,unknown,
baidu,f13b94f11c3d78b3902ca31b,万家乐窗帘,浙江省绍兴市越城区胜利东路211号,浙江省,绍兴市,越城区,(0575)85144592,unknown,
baidu,5cde78886620fe039de321c5,倪伟根回山茶业批发部,绍兴市越城区白马路镜中园公寓,浙江省,绍兴市,越城区,13757517338,unknown,
baidu,1ec5973419ca4e41364aae79,浙湘藏吉,绍兴市越城区谢湾咏梅诗廊书圣故里,浙江省,绍兴市,越城区,,unknown,
baidu,23ca97d75f2e6ba5cc06a4ba,定做棉毛衫,绍兴市越城区白马庙前镜中园公寓,浙江省,绍兴市,越城区,,unknown,
baidu,108b1cea33fdb6d13586f448,浪漫满屋布艺生活馆(胜利东路店),浙江省绍兴市越城区胜利东路191号,浙江省,绍兴市,越城区,,unknown,
baidu,15609f5c86d694d5cae33c06,关心水产店,绍兴市越城区白马庙前镜中园公寓,浙江省,绍兴市,越城区,,unknown,
baidu,f4c4a737e65cd0576cc02ce1,艾琳菲家纺工厂直营店,浙江省绍兴市越城区中兴中路时代大厦1楼293号,浙江省,绍兴市,越城区,15957577035,unknown,
baidu,f835df33274d9ec749fd3fd3,依丽羊绒(白马路店),浙江省绍兴市越城区白马路20号,浙江省,绍兴市,越城区,(0575)88858872,unknown,
baidu,8eb3b28d006e00bd3617dc47,厚德滋补品,浙江省绍兴市越城区白马路22号,浙江省,绍兴市,越城区,13989500301,unknown,
baidu,d3d2e8419af37dadd8eced6e,新怡布艺,胜利东路205号,浙江省,绍兴市,越城区,(0575)85116822,unknown,
baidu,d0ca5cff5eb8622d3f9a5e57,低价专营中老年女装,白马路62号,浙江省,绍兴市,越城区,,unknown,
baidu,be8e02c99d6accd8c03644ae,雅丽诗布艺,浙江省绍兴市越城区胜利东路207号,浙江省,绍兴市,越城区,(0575)85133548,unknown,
baidu,a610fccac07c5206badf8fec,VIP中央舞台(胜利东路店),浙江省绍兴市越城区胜利东路251号,浙江省,绍兴市,越城区,,unknown,
baidu,4a1240436b42b669b34c4978,经佛水产,绍兴市越城区白马路镜中园公寓,浙江省,绍兴市,越城区,,unknown,
baidu,3a964001999e1ab258f6beb5,梦之园布艺,浙江省绍兴市越城区胜利东路189号,浙江省,绍兴市,越城区,,unknown,
baidu,dcdb2bbea43677aff60e778c,王芝妹水产,绍兴市越城区白马庙前镜中园公寓,浙江省,绍兴市,越城区,,unknown,
baidu,4831016c5faa14303f9a5e47,倩妮布艺,浙江省绍兴市越城区胜利东路187号,浙江省,绍兴市,越城区,15958549070,unknown,
baidu,2425bcf99449ff88ae31e5a8,悦心蔬菜店,绍兴市越城区白马庙前镜中园公寓,浙江省,绍兴市,越城区,,unknown,
baidu,f0b8df77389ddd8741d63e62,小米之家(绍兴八佰伴店),解放北路199号八佰伴二层F2005号,浙江省,绍兴市,越城区,(0575)88035132,unknown,
baidu,9a846b1a64c3022216b54bb3,一川布艺,浙江省绍兴市越城区胜利东路一川窗帘胜利东路195号,浙江省,绍兴市,越城区,(0575)85111135,unknown,
baidu,e319d179c9f6c29a22026202,华缦布艺,浙江省绍兴市越城区胜利东路201号,浙江省,绍兴市,越城区,,unknown,
baidu,6eefb67a767389456f3e1b08,海蓝布艺,绍兴市越城区胜利东路绍兴薇阁精品酒店东侧约40米,浙江省,绍兴市,越城区,13675738787,unknown,
baidu,1fc44afe862db8637c29bd1f,艾美世家(胡公殿直街店),绍兴市越城区胡公殿直街绍兴薇阁精品酒店东侧约50米,浙江省,绍兴市,越城区,,unknown,
baidu,f738d59f02275b0aad31e58f,全网通手机连锁(胜利路店),绍兴市越城区胜利东路唐皇苑-北区东北侧约30米,浙江省,绍兴市,越城区,,unknown,
baidu,c28375e95c66cffdf82d6163,公共厕所,绍兴市越城区萧山街胜利东路178号院北侧约80米,浙江省,绍兴市,越城区,,unknown,
baidu,a1bbae0b4faab8c2be4842b7,七朵花汉服体验馆,浙江省绍兴市越城区蕺山街35号,浙江省,绍兴市,越城区,13675727082,unknown,
baidu,fc073297ef8a548288fc0699,火车票代售处,浙江省绍兴市越城区萧山街523,浙江省,绍兴市,越城区,,unknown,
baidu,d9c19f156809d64cb5147f2b,航空铁路售票(中兴中路),书圣故里5号,浙江省,绍兴市,越城区,(0575)85166811,unknown,
baidu,9daf27d07253570a6f3e1bcb,公厕,绍兴市越城区笔架桥33号书圣故里,浙江省,绍兴市,越城区,,unknown,
baidu,cb4fd146bd60e33f9d9d68f7,公厕,绍兴市越城区萧山街书圣故里,浙江省,绍兴市,越城区,,unknown,
baidu,4346344a074ef2a2931fc9f9,公共厕所,浙江省绍兴市越城区直街3号,浙江省,绍兴市,越城区,,unknown,
baidu,bff8fa7dc2912edec8213d66,公厕,绍兴市越城区中兴中路书圣故里,浙江省,绍兴市,越城区,,unknown,
baidu,6b19011d176f37a7bfa822c8,中国福利彩票(东大池前店),绍兴市越城区白马庙前镜中园公寓,浙江省,绍兴市,越城区,954168,unknown,
baidu,90d40aead6fb94b336b06c2b,绍兴城管驿站,绍兴市越城区中兴中路金鑫大厦北侧约40米,浙江省,绍兴市,越城区,,unknown,
baidu,ce31246181884290c056ac99,公厕,绍兴市越城区谢湾咏梅诗廊书圣故里,浙江省,绍兴市,越城区,,unknown,
baidu,ad956ecbeda579e86fa3ccda,书圣故里-游客中心,浙江省绍兴市越城区蕺山街62号,浙江省,绍兴市,越城区,(0575)88993399,unknown,
baidu,ff6123702aea527e373a7129,公共厕所,萧山街245阿刚饭店附近,浙江省,绍兴市,越城区,,unknown,
baidu,bccebf8f0d77897b02294f82,菜鸟驿站(绍兴越城香桥店),府山街道胜利东路237号香桥小区1幢4号营业房,浙江省,绍兴市,越城区,,unknown,
baidu,f883dbc09ebe48bf744ff156,书圣故里-售票处,浙江省绍兴市越城区蕺山街62号,浙江省,绍兴市,越城区,,unknown,
baidu,6b9a88b8dd9849d3f942b22f,公厕,绍兴市越城区谢湾咏梅诗廊书圣故里,浙江省,绍兴市,越城区,,unknown,
baidu,fe8d2cceae02bf312b11d1b0,王羲之陈列馆-售票处,绍兴市越城区蕺山街道萧山街345号,浙江省,绍兴市,越城区,(0575)85132739,unknown,
baidu,f4a0e249cba07dd66f4760db,工会驿站(越城区嫦娥弄公厕户外劳动者服务站点),绍兴市越城区中兴中路116号(中兴路与胜利路交叉口),浙江省,绍兴市,越城区,,unknown,
baidu,bcaebff89804b92ac9e33c66,公厕,绍兴市越城区胜利东路101号(近解放路和中兴路),浙江省,绍兴市,越城区,,unknown,
baidu,196939e24c5d7cdfab0dd8c7,揽芳簟汉服体验馆,蕺山街74号书圣故里,浙江省,绍兴市,越城区,15005851680,unknown,
baidu,482c8be020c4cc014afc8d1e,公共厕所,绍兴市越城区谢湾咏梅诗廊书圣故里,浙江省,绍兴市,越城区,,unknown,
baidu,4ea3f2f15a7805d4aecb6618,公共厕所(中兴路店),绍兴市越城区中兴中路金鑫大厦东北侧约30米,浙江省,绍兴市,越城区,,unknown,
baidu,6323847a8201a64c6040a97c,公厕,绍兴市越城区谢湾咏梅诗廊书圣故里,浙江省,绍兴市,越城区,,unknown,
baidu,51f44c91137714fcabf72931,遇白婚纱,胜利东路221号二楼,浙江省,绍兴市,越城区,,unknown,
baidu,2ff6b97cc453b63cf60e7749,绍兴市越城区再生资源回收站(广宁站),绍兴市越城区长桥直街中国工商银行(绍兴分行营业部)东南侧,浙江省,绍兴市,越城区,,unknown,
baidu,410645da96d9d691deee8b18,公共厕所,浙江省绍兴市越城区斜桥弄25号,浙江省,绍兴市,越城区,,unknown,
baidu,5211d219ac4a23267dc87644,公厕,绍兴市越城区萧山街书圣故里,浙江省,绍兴市,越城区,,unknown,
baidu,27a87c05ed0758bab64f54ac,OPPO官方授权服务体验中心（越城区胜利东路店）,浙江省绍兴市越城区胜利东路81号OPPO专卖店二楼(移动公司公交站后面),浙江省,绍兴市,越城区,0575--84964033,unknown,
baidu,75036835c060e6d15e0d02d4,公共厕所,绍兴市越城区唐皇街绍兴市职业教育中心分部东北侧,浙江省,绍兴市,越城区,,unknown,
baidu,6c94a6d9a344c8202afc4813,金典保洁,绍兴市越城区白马庙前白马山公寓,浙江省,绍兴市,越城区,,unknown,
baidu,853a8c78bc5e25144354d7f1,绍兴忠宜家政服务有限公司,白马庙前16号2楼,浙江省,绍兴市,越城区,,unknown,
baidu,f75be513e6f431df16c90538,忠信纸扎店,绍兴市越城区萧山街望越中央花园东侧约40米,浙江省,绍兴市,越城区,(0575)85119770,unknown,
baidu,a0f9ca2e2c9b985388db7335,宏涤洗衣,绍兴市越城区胜利东路香舍丽都,浙江省,绍兴市,越城区,,unknown,
baidu,4deb8567e51e17ff250bd03a,中国移动(胜利东路店),浙江省绍兴市越城区胜利东路61号,浙江省,绍兴市,越城区,,unknown,
baidu,75c53a6e933af511c8213d6c,公共厕所,浙江省绍兴市越城区学士街49号,浙江省,绍兴市,越城区,,unknown,
baidu,440927b8963051b63904b1c7,公共厕所,浙江省绍兴市越城区长桥直街57号旁,浙江省,绍兴市,越城区,,unknown,
baidu,2d0ae39e3bfb79baee74f801,伊尔萨洗衣(中兴中路店),中兴中路252号,浙江省,绍兴市,越城区,(0575)85114848,unknown,
baidu,61085211ca4ea0dfc51b7544,公共厕所,绍兴市越城区利济桥直街日月花园南侧,浙江省,绍兴市,越城区,,unknown,
baidu,f9fd606281e953610e0e6b8b,公共厕所,绍兴市越城区广宁桥直街树人中学东北侧约80米,浙江省,绍兴市,越城区,,unknown,
baidu,2020c193fab615d0373a718b,东鑫电器修理部(长桥直街小区店),浙江省绍兴市越城区蕺山街道长桥直街108号,浙江省,绍兴市,越城区,,unknown,
baidu,3e4d5437fd2a47744c6d4637,公共卫生间(中兴路店),长桥直街134号临,浙江省,绍兴市,越城区,,unknown,
baidu,efcb3197eb9aaf84a80dd851,公共厕所,浙江省绍兴市越城区白马新村23幢西,浙江省,绍兴市,越城区,,unknown,
baidu,b1a3abbba66d5ef3a4c75608,公厕,劳动路369号周恩来纪念馆北区,浙江省,绍兴市,越城区,,unknown,
baidu,005861084b46c9db46e27444,公共厕所,保佑桥直街128号,浙江省,绍兴市,越城区,,unknown,
baidu,2ef74ba974c1967f631c6721,中通快递(胜利东路店),越城区胜利东路269号附5号,浙江省,绍兴市,越城区,95311,unknown,
baidu,d61c7b7a37523d0128201a25,公厕,绍兴市越城区笔架桥6号,浙江省,绍兴市,越城区,,unknown,
baidu,e6166c910ad42cf4bbdf8f53,书圣故里景区-公共厕所,浙江省绍兴市越城区笔架桥6号,浙江省,绍兴市,越城区,,unknown,
baidu,d99a0464b9647de5ae31e555,公厕,绍兴市越城区中兴中路名都苑西2门西侧约50米,浙江省,绍兴市,越城区,,unknown,
baidu,3977bae0d36d852a88fc0651,蔡元培故居-售票处,浙江省绍兴市越城区笔飞弄13号,浙江省,绍兴市,越城区,,unknown,
baidu,a73b0b06238e7dd5077ce841,鞋博士皮具护理(唐皇苑店),新建北路398号（新丹迪后面，电力大厦斜对面）唐皇街2幢103号,浙江省,绍兴市,越城区,(0575)88370597,unknown,
baidu,bc488f3ca61ce9a322f017b4,鲸育宝宝月嫂育儿嫂,日月花园利济桥直街1号,浙江省,绍兴市,越城区,,unknown,
baidu,ad2a0210d0dd5293f5c59cc4,月兔洗衣,浙江省绍兴市越城区利济桥直街7号,浙江省,绍兴市,越城区,13106352683,unknown,
baidu,8d0b08c538f58ce5400245c1,中国体育彩票(唐皇街店),浙江省绍兴市越城区新建北路430号唐皇苑北区1栋406室,浙江省,绍兴市,越城区,95086,unknown,
baidu,07b3a65c7aae2c407069d33b,白马社区再生资源回收站,绍兴市越城区白马路白马新村西南侧,浙江省,绍兴市,越城区,,unknown,
baidu,1c8b7cadc4d0e426ac04572a,小边改衣,绍兴市越城区唐皇街唐皇苑-北区,浙江省,绍兴市,越城区,15957576799,unknown,
baidu,cf0df3c8b96f80002fb96d7c,戒珠讲寺王羲之故宅-售票处,绍兴市越城区西街72号王羲之故宅,浙江省,绍兴市,越城区,,unknown,
baidu,0d96df272af07220f7e73bed,越秀印章字牌店,浙江省绍兴市越城区唐皇街101号,浙江省,绍兴市,越城区,13857502010,unknown,
baidu,0c29c023f3de344446e27497,旧衣回收,绍兴市越城区白马路东池花园,浙江省,绍兴市,越城区,,unknown,
baidu,af9a9800048547941e1d113b,芳涧心舍健康咨询(绍兴)有限公司,中兴中路375号中成大厦B座三楼303,浙江省,绍兴市,越城区,18888705600,unknown,
baidu,336eb09212e514bbe856fa8b,绍兴市越城区进财家政服务部,绍兴市越城区唐皇街唐皇苑-北区,浙江省,绍兴市,越城区,,unknown,
baidu,5a1262e8ada3d6c34d776eff,周恩来纪念馆南区-母婴室,劳动路369号周恩来纪念馆南区,浙江省,绍兴市,越城区,,unknown,
baidu,31870c9e74e773ff344aae8f,迪迪房产,浙江省绍兴市越城区唐皇街103号唐皇苑105号,浙江省,绍兴市,越城区,18458518605,unknown,
baidu,429756f4a3c6ef8aeddfca8b,妈咪小屋(绍兴移动越城分公司站),绍兴市胜利东路140-148号公司二楼,浙江省,绍兴市,越城区,,unknown,
baidu,0796b387062c2a2e0d3ddab7,中国体育彩票(白马路店),浙江省绍兴市越城区白马路东池花园2幢13号,浙江省,绍兴市,越城区,(0575)85225075,unknown,
baidu,291f1dedb17f54a62fb90866,中国福利彩票(东池花园店),浙江省绍兴市越城区白马路东池花园2幢2-15号,浙江省,绍兴市,越城区,954168,unknown,
baidu,a70cdd709d1b6791b11e3615,肯德基(绍兴胜利餐厅)-洗手间,绍兴市越城区胜利东路58号绍兴电力大厦1楼,浙江省,绍兴市,越城区,,unknown,
baidu,eb2febc65e1b6940e812e4dc,中国铁通(绍兴分公司),胜利东路39号中兴商贸大厦商务楼5层,浙江省,绍兴市,越城区,,unknown,
baidu,69420e024c956724d5b74e0d,城市广场乌篷船接待中心,胜利西路与仓桥直街交界处（绍兴一中初中部对面),浙江省,绍兴市,越城区,,unknown,
baidu,f59ca22e3fa3c0f02d47330e,绍兴通卡服务中心,浙江省绍兴市越城区人民中路159号,浙江省,绍兴市,越城区,(0575)85730766,unknown,
baidu,9f97b1c5add59507b74f54a6,公共厕所,浙江省绍兴市越城区胜利西路与试弄交叉口西南方向70米,浙江省,绍兴市,越城区,,unknown,
baidu,385e48b7618c70ffabf0cd5e,公共厕所,浙江省绍兴市越城区仓桥直街与光明路交叉口东南方向30米,浙江省,绍兴市,越城区,,unknown,
baidu,a9139934bdc26483d23ce328,公共厕所,绍兴市越城区后观巷作揖坊41号楼(仓桥直街西),浙江省,绍兴市,越城区,,unknown,
baidu,31dc0cda1697bc1f1ef74da7,公共厕所,浙江省绍兴市越城区仓桥直街139号,浙江省,绍兴市,越城区,,unknown,
baidu,9743baa8a638f6308c55ec0d,鲁迅故里-游客中心,浙江省绍兴市越城区鲁迅中路241号鲁迅故里内,浙江省,绍兴市,越城区,(0575)85132080,unknown,
baidu,9a234306bc7ea266fe0eb02d,浓情摄影STUDIO(人民路店),人民中路575号兴虹文化创意园,浙江省,绍兴市,越城区,(0575)88053666,unknown,
baidu,835701101981e303f603b806,新便民中心,浙江省绍兴市越城区惠利街18号富绅大厦1楼北门,浙江省,绍兴市,越城区,,unknown,
baidu,c715f28dde0fb0780d0e6bfb,公共厕所,浙江省绍兴市越城区解放南路89号(鲁迅故里地铁站B口步行280米)嘉银购物中心F1,浙江省,绍兴市,越城区,,unknown,
baidu,9320c615fd6a7281badf8f60,徐渭故里旅游驿站,浙江省绍兴市越城区后观巷33号,浙江省,绍兴市,越城区,,unknown,
baidu,13c965fa42b710773f9a5e39,公共厕所,浙江省绍兴市越城区鲁迅中路241号(鲁迅故里内),浙江省,绍兴市,越城区,,unknown,
baidu,4c4123a29b4dacca00ec01a2,公共厕所,浙江省绍兴市越城区府山横街208号,浙江省,绍兴市,越城区,,unknown,
baidu,6deee308c77fe66b28fc48a8,中国邮政(鲁迅故里主题邮局),中兴南路171号,浙江省,绍兴市,越城区,17758190106,unknown,
baidu,167e2a970d7591945a3ac8bf,公厕,鲁迅中路179号,浙江省,绍兴市,越城区,,unknown,
baidu,69c53c61d936637e912ca343,公共厕所,绍兴市越城区上寨路宏泽苑北侧,浙江省,绍兴市,越城区,,unknown,
baidu,8a42fcdd338f1acf8f55ecba,公厕,绍兴市越城区鲁迅中路241号鲁迅故里游客中心内,浙江省,绍兴市,越城区,,unknown,
baidu,bae7b1a956fa29776318091c,公厕,绍兴市越城区鲁迅中路229号鲁迅故居,浙江省,绍兴市,越城区,,unknown,
baidu,6e6eac20b8d17bdbb34c49f2,花说花艺工作室,蕺山街51号,浙江省,绍兴市,越城区,,unknown,
baidu,c021a7a6d187cda00c0a70dc,沈氏房产,浙江省绍兴市越城区萧山街539号,浙江省,绍兴市,越城区,,unknown,
baidu,5a1afda873fb76af4f5547aa,可利广告发光字显示屏,越城区白马庙前48号,浙江省,绍兴市,越城区,13957589471,unknown,
baidu,437c746c87826c80ae0457ea,明诚图文广告(胜利东路店),浙江省绍兴市越城区胜利东路206号,浙江省,绍兴市,越城区,"15167576063,15215907875",unknown,
baidu,1d22d2b93206a6cdebe5827a,中国移动(中邮手机大卖场),浙江省绍兴市越城区胜利东路89~91号,浙江省,绍兴市,越城区,18368833758,unknown,
baidu,4201f011920ab542dbd8915b,小培锁具钥匙店,浙江省绍兴市越城区西街23号,浙江省,绍兴市,越城区,13616753938,unknown,
baidu,71c4d60b56b99304c2f1cf00,昌茂中介,绍兴市越城区萧山街望越中央花园东侧约50米,浙江省,绍兴市,越城区,,unknown,
baidu,143d832b248a2441e215f93b,大家乐房产中介,浙江省绍兴市越城区萧山街133号,浙江省,绍兴市,越城区,18969551700,unknown,
baidu,2798780c2e35949e57bfffaf,绍兴市电力局,浙江省绍兴市越城区胜利东路58号电力大厦,浙江省,绍兴市,越城区,(0575)88393808,unknown,
baidu,34629d138fc2bc5788db73ff,小师傅皮具护理,越新建北路唐皇苑小区南区1幢1楼对面,浙江省,绍兴市,越城区,13867552161,unknown,
baidu,af7c9c4b980bb50fc6effbd9,街电(柴火灶地锅鸡胜利东路店),绍兴市越城区胜利东路280号(老海关对面),浙江省,绍兴市,越城区,4006868588,unknown,
baidu,6a3ea4ef58d477b4940319d0,金阳光中介(白马路店),浙江省绍兴市越城区白马路22号,浙江省,绍兴市,越城区,,unknown,
baidu,45d015006c8065a8028972e1,温馨中介,浙江省绍兴市越城区白马路东池花园,浙江省,绍兴市,越城区,,unknown,
baidu,6ff53df5b7b781303904b17b,鑫愿地产,浙江省绍兴市越城区新建北路419号,浙江省,绍兴市,越城区,13325958140,unknown,
baidu,f7ccbf734af6142eb1077dbc,姐妹中介,浙江省绍兴市越城区唐皇街唐皇苑北区2栋111号,浙江省,绍兴市,越城区,,unknown,
baidu,b4d2df372140f419364aae8a,街电(街景奶茶劳动路店),绍兴市越城区劳动路唐皇苑-南区南侧,浙江省,绍兴市,越城区,4006868588,unknown,
baidu,34fd8c8f1ca1071cf7b91630,万豪泓居(家运店),绍兴市越城区白马路东池花园,浙江省,绍兴市,越城区,,unknown,
baidu,26f7881b133322eb1ce999d2,街电(驴脾气火锅胜利东路店),浙江省绍兴市越城区胜利东路314~316号,浙江省,绍兴市,越城区,4006868588,unknown,
baidu,3f81214f86d30f4b80a00cb2,京会养生店,中兴中路315号,浙江省,绍兴市,越城区,13616855301,unknown,
baidu,32daebd9ab3ae783b4265558,指尚眉·美甲美睫连锁(金鑫大厦店),府山街道保佑桥直街168号,浙江省,绍兴市,越城区,(0575)85116682,unknown,
baidu,f2f99d66dc4e162ad42ce2fe,阿海美发(白马庙前),白马庙前88号,浙江省,绍兴市,越城区,13486586808,unknown,
baidu,46b3a5615b9ba15af32d833d,星艺造型(胜利路店),胜利东路253号,浙江省,绍兴市,越城区,15988277335,unknown,
baidu,0b10ad6b1082ac6516a1902b,6度形象公社,迪荡街道胜利东路258号(法院斜对面),浙江省,绍兴市,越城区,(0575)88678119,unknown,
baidu,6010cd80bfeef88a118824db,痣缘宫(绍兴店),新建北路298号,浙江省,绍兴市,越城区,13777325316,unknown,
baidu,875845a6006bf0f1260bd036,糖糖私人订制美甲美睫护肤,新建北路324号一楼,浙江省,绍兴市,越城区,,unknown,
baidu,d052bd327c0f31a84d3a59a3,形美养生会所,新建北路322号2楼（曼都发型二楼）,浙江省,绍兴市,越城区,,unknown,
baidu,564bd74b3192fb5f734b87df,靓丽发型定制工作室(世茂店),白马路东池花园3栋15号,浙江省,绍兴市,越城区,13616857008,unknown,
baidu,c32ba75ce48cbc4b2db17e57,新丹迪美容美发(新建北路店),浙江省绍兴市越城区新建北路400号,浙江省,绍兴市,越城区,(0575)85116660,unknown,
baidu,25f2c8db3ab408f82dfaa7cd,美媚美睫美甲(唐皇苑店),新建北路388号,浙江省,绍兴市,越城区,13625856839,unknown,
baidu,78d720b560fcbfacd22dd6d1,欧阳·禧颜(月池坊店),新建北路月池坊8号,浙江省,绍兴市,越城区,18888722157,unknown,
baidu,380ad7f632304961ec74f82b,LEYI·乐壹美妆美甲,西街52-1号,浙江省,绍兴市,越城区,,unknown,
baidu,95a2bd9f0de107b5babd63b9,女王国际,新建北路340号,浙江省,绍兴市,越城区,13735396797,unknown,
baidu,6f08065aec1d76afc5f50d3e,娇莉芙美颜SPA连锁(大悦城店),府山街道东街57号国金大悦城L4-05(3号门),浙江省,绍兴市,越城区,"(0575)88021717,18057522678",unknown,
baidu,f1c6cbca81ee468e871541f6,星月健康管理中心(迪荡店),东池路江南世家小区商住1号楼202-205,浙江省,绍兴市,越城区,"(0575)85085866,15355512096",unknown,
baidu,a078195462551719a6c75678,叶子彩妆美甲美睫工作室,新建北路住宅区1幢102室(房屋拆迁所对面),浙江省,绍兴市,越城区,13567500090,unknown,
baidu,d9cbd7d3247b5fab7f29bd35,曼都发型(绍兴店),新建北路322号,浙江省,绍兴市,越城区,15215961365,unknown,
baidu,f98827aa81064b4771210bd0,诗臻泊科技护肤养生,县前街114-1号二楼（童画楼上）,浙江省,绍兴市,越城区,"13105754590,13957567535",unknown,
baidu,aba9edd7a6b2d84a88f15dca,沐兮美甲美睫护肤,保佑桥直街86号绍兴小商品城后面,浙江省,绍兴市,越城区,13505852906,unknown,
baidu,79ee3679b890f1233fe2310b,MAKE SALON(八佰伴商场店),解放北路199号八佰伴购物中心2楼F2113室,浙江省,绍兴市,越城区,13022633396,unknown,
baidu,717df8f4250d4d9204026f26,鹿奈美甲美睫(红太阳写字楼店),东街中兴中路158号,浙江省,绍兴市,越城区,18257507920,unknown,
baidu,5cbeb4af45237c46430245ff,潮沙龙(新建路店),府山街道新建北路270号,浙江省,绍兴市,越城区,"(0575)88131712,13757585454",unknown,
baidu,cb55da975fc44f202dfaa75b,宾尼美业品牌烫染接发(世茂广场店),迪荡街道东池路与胜利东路交口红绿灯(东大池公园对面江南世家西门旁边),浙江省,绍兴市,越城区,18248608884,unknown,
baidu,e6f8e7caa872c4a00c0a70f6,美人妆园美发美甲美睫皮肤管理,东池路大地香樟园南区1幢101,浙江省,绍兴市,越城区,"13336716108,13357519849",unknown,
baidu,39af67b7485666ca95f08cad,NONOMIA美甲美睫·沙龙(八佰伴店),解放北路199号八佰伴购物中心二层商铺（吴老幺火锅旁）,浙江省,绍兴市,越城区,15921321970,unknown,
baidu,f2f15ffbc0f31a91631c67d6,美妍集·贝娜妃莎SPA(白马店),中兴中路313号(蓝山咖啡馆旁),浙江省,绍兴市,越城区,,unknown,
baidu,ca2ec58cfad2968d4251c066,美丽汇,绍兴市越城区中兴中路金鑫大厦,浙江省,绍兴市,越城区,,unknown,
baidu,753ec8703797900643ab9a5c,兰可儿女子生活馆,浙江省绍兴市越城区保佑桥直街168号,浙江省,绍兴市,越城区,(0575)85223316,unknown,
baidu,989d4ce786a493e5f82213d1,专业祛斑祛痘,绍兴市越城区唐皇街唐皇苑-南区,浙江省,绍兴市,越城区,,unknown,
baidu,ecc4d5f46ee8d87be5e96576,苏雅理发店,浙江省绍兴市越城区笔架桥4号,浙江省,绍兴市,越城区,15157505302,unknown,
baidu,9218902aa4c0bf07f942b2a0,艾尚俩姐妹美睫中心,新建北路与劳动路交叉口366号,浙江省,绍兴市,越城区,13675722617,unknown,
baidu,4789a3ce4ab6efac6b49f37b,媚妆美甲美睫,浙江省绍兴市越城区长桥直街122号,浙江省,绍兴市,越城区,18888775780,unknown,
baidu,67bfefe648ed45594acc4a5d,眉梦成真美容美体,浙江省绍兴市越城区劳动路69号,浙江省,绍兴市,越城区,13454522335,unknown,
baidu,d7ced95decb086226f47609a,艾米纹绣,绍兴市越城区白马路东池花园,浙江省,绍兴市,越城区,,unknown,
baidu,36ec86dfd155eb91cac3dbdd,梵玛西皮肤管理中心(绍兴店),浙江省绍兴市越城区新建北路322号曼都美发3层,浙江省,绍兴市,越城区,18657565286,unknown,
baidu,fb6974a5789b0ab980a00c35,丹雅造型,绍兴市越城区长桥直街华丰大厦东北侧约60米,浙江省,绍兴市,越城区,,unknown,
baidu,dc983c978f46426a734b87c2,睫作美甲,浙江省绍兴市越城区保佑桥直街95号,浙江省,绍兴市,越城区,,unknown,
baidu,213b7be7e8fbc5a22b11d1ec,牧马人刺青,保佑桥直街75号2楼,浙江省,绍兴市,越城区,15215903167,unknown,
baidu,d60ff3bc833138dab54f5411,美赫诗·护肤SPA·LDM,八佰伴购物中心二楼美赫诗(原美丽田园)绘陶馆对面,浙江省,绍兴市,越城区,,unknown,
baidu,d7fd2ad3074eb8550bccdd17,阿伟造型(新建北路店),新建北路386号,浙江省,绍兴市,越城区,18382734171,unknown,
baidu,d6f2c74981e19cba9d95de62,萱黎诗辰心美肤,新建北路256号,浙江省,绍兴市,越城区,18268768889,unknown,
baidu,9177fccff210fa99102935e9,美琪美发,绍兴市越城区保佑桥直街东连河小区东北侧,浙江省,绍兴市,越城区,18258005827,unknown,
baidu,6a59ddd458e2c62e704b871d,自然堂护肤中心(红太阳写字楼店),浙江省绍兴市越城区中兴中路146号,浙江省,绍兴市,越城区,13575582820,unknown,
baidu,c880cbffe3193cc43517dc6c,关根美业,浙江省绍兴市越城区中兴中路108号,浙江省,绍兴市,越城区,15588500652,unknown,
baidu,534cc72c73b548a017c8f6cd,白云生活纤玉阁,越府名园2-001(世茂广场对面),浙江省,绍兴市,越城区,13626878263,unknown,
baidu,4366201655d74996316212e7,娇莉芙美颜SPA连锁(世茂广场店),胜利东路360号(绍兴世茂广场)第2层L219号商铺,浙江省,绍兴市,越城区,(0575)88246555,unknown,
baidu,445888825cb58840465726e4,3MI·B·GHai专业接发厂家直销,东池路百盛对面,浙江省,绍兴市,越城区,13957550335,unknown,
baidu,4b5cfc135b05e684fbdc8574,MY HAIR ARDOR(大悦城店),"东街57号绍兴国金大悦城2楼L2-16（星巴克正上方,近一号门）",浙江省,绍兴市,越城区,13385852678,unknown,
baidu,4fe5a39d0fabb2db4d2fdfbb,维密娇兰(绍兴形象店),胜利东路360号世茂广场3层320,浙江省,绍兴市,越城区,"(0575)85144758,18858112786",unknown,
baidu,bd85a8ee60fadb92e9f8537d,格格梳HAIR SALON烫染接发(保佑桥店),保佑桥直街93号,浙江省,绍兴市,越城区,,unknown,
baidu,559e796a0e6aabf4c4f50d8a,老谢理发店,绍兴市越城区石家池沿石家池小区西南侧约50米,浙江省,绍兴市,越城区,,unknown,
baidu,248f1b397a448e46ab059d74,A.S.W美甲美睫(国金大悦城店),东街57号国金大悦城三楼,浙江省,绍兴市,越城区,17338408105,unknown,
baidu,d3ea1b47eddc729890114cc4,依起头疗养生馆,世贸湖滨商业中心1幢118号（寻宝记走到底）,浙江省,绍兴市,越城区,"(0575)88010180,13989540636",unknown,
baidu,ade91e750b19d44e8605bff5,关根美发(断河头店),浙江省绍兴市越城区断河头10-2号163-2号,浙江省,绍兴市,越城区,,unknown,
baidu,0942afb0286255d0601c6705,BEAUTY FAMILY八佰伴商场(汇金广场店),浙江省绍兴市越城区解放北路199号八佰伴购物中心F2,浙江省,绍兴市,越城区,(0575)88777780,unknown,
baidu,9106fa7d317d57c293114ca5,曼卡轩美甲美睫(断河头店),保佑桥直街断河头6号,浙江省,绍兴市,越城区,13867528653,unknown,
baidu,30108d239b1be1f24302451c,YASI雅丝接发工厂直营店(大悦城品牌店),保佑桥直街93号-3-1,浙江省,绍兴市,越城区,13626884150,unknown,
baidu,d3273893991f76972d4733a8,BOW TIE博特男士理发馆(越城店),范蠡路湖滨商业中心B区2幢1楼109,浙江省,绍兴市,越城区,(0575)88627211,unknown,
baidu,e10d8520e18b8a7d9cf779b7,指爱你化妆美甲,浙江省绍兴市越城区断河头48号,浙江省,绍兴市,越城区,18267501212,unknown,
baidu,f69393b77a847cd35e17c3e9,阿杨理发,绍兴市越城区朱家弄渔化桥公寓,浙江省,绍兴市,越城区,,unknown,
baidu,78c57e55d76a106a7bf796d4,兴美理发店,浙江省绍兴市越城区九节桥河沿94号,浙江省,绍兴市,越城区,13106437828,unknown,
baidu,c0c95e725302fa382b06ce35,O2有氧无限·科技抗衰中心(大滩店),解放大道大滩坤和壹号大厦2楼216,浙江省,绍兴市,越城区,"(0575)88247686,18057595520",unknown,
baidu,43b9c7397fc93ac80b69d96f,芯予美美容(毓兰华庭店),毓兰华庭,浙江省,绍兴市,越城区,18267579832,unknown,
baidu,2b332ed6c70eb49ac9e33cec,MY HAIR ARDOR(绍兴旗舰店),胜利东路391号（世贸皇冠假日星巴克右边）,浙江省,绍兴市,越城区,18094691926,unknown,
baidu,e331f8358bfe16094f3a5977,阿洪专业烫染,鲁迅中路707号,浙江省,绍兴市,越城区,13094622714,unknown,
baidu,757f0016325c74e6acee7a7c,欣悦造型(燕甸园店),鲁迅中路645号,浙江省,绍兴市,越城区,18258504320,unknown,
baidu,ead067b258ac1703740269d9,经典美发(鲁迅中路店),浙江省绍兴市越城区鲁迅中路575-4号,浙江省,绍兴市,越城区,13735297270,unknown,
baidu,12b6a05050389f0ef33cbaa2,阿彪美发,环城北路45-47号,浙江省,绍兴市,越城区,13957551345,unknown,
baidu,60d6e11d8a687fc415a190cd,kene nail肯园美甲美睫,塔山街道,浙江省,绍兴市,越城区,19857512612,unknown,
baidu,fc0b48c1f5de497245572662,童臻阁理胎发胎毛笔婴儿纪念品(绍兴店),金鑫大厦中兴中路300号5楼507号-3,浙江省,绍兴市,越城区,18964869080,unknown,
baidu,1ad60c420f4efcf0ac080fe7,沐齿美牙,府山街道新建北路222号,浙江省,绍兴市,越城区,,unknown,
baidu,06fcee3b7831c6933a04b1db,新顺活力(迪荡店),胜利东路327号江南世家,浙江省,绍兴市,越城区,13357586580,unknown,
baidu,d2fbd098a0a780a4abf729be,申美会Medical SPA·海菲秀Syndeo·BTL美芙炫(绍兴体验店),迪荡街道黄金时代大厦3幢424室、425室、426室、427室,浙江省,绍兴市,越城区,18658582888,unknown,
baidu,e20882b3a8ef18d4130daae8,Dandy·新丹迪美发沙龙(世茂店),胜利东路元城大厦261号北门,浙江省,绍兴市,越城区,"(0575)85116660,13705753212",unknown,
baidu,15fe7c5268f75263d13ce33d,书圣故里,浙江省绍兴市越城区蕺山街62号,浙江省,绍兴市,越城区,"(0575)85081938,(0575)88993399",unknown,
baidu,25ec69fcedf0887cc36c14b1,鲁迅故里,浙江省绍兴市越城区鲁迅中路241号,浙江省,绍兴市,越城区,(0575)85132080,unknown,
baidu,7a342fd72163d154c7f50db6,八字桥,浙江省绍兴市越城区府山街道八字桥直街11号附近,浙江省,绍兴市,越城区,,unknown,
baidu,39d43f82fe61439fa8059d0a,河清园,绍兴市越城区中兴北路56号,浙江省,绍兴市,越城区,,unknown,
baidu,d20071e0d719e42c81a12ecd,龙华古寺,绍兴市越城区都泗门46号,浙江省,绍兴市,越城区,"(0575)85120129,18905750999",unknown,
baidu,8cba4bb080ee119dac045780,鲁迅祖居,绍兴市越城区鲁迅中路237号,浙江省,绍兴市,越城区,"(0575)85132084,0575-85132080",unknown,
baidu,87248d96e36d4cb22906ceb3,蕺山公园,浙江省绍兴市越城区环城北路620号,浙江省,绍兴市,越城区,,unknown,
baidu,60d1cf098831c4605e17c39d,绍兴塔山,绍兴市越城区解放南路589号,浙江省,绍兴市,越城区,"(0575)85130279,(0575)85135252",unknown,
baidu,50fb64fff7fd6344e8f8539f,周恩来祖居,浙江省绍兴市越城区劳动路369号(周恩来纪念馆),浙江省,绍兴市,越城区,(0575)85133368,unknown,
baidu,75d0881a8c554b543a04b10a,东大池公园,浙江省绍兴市越城区东池路76号,浙江省,绍兴市,越城区,,unknown,
baidu,78bd50f7fc69875a30870ab1,鲁迅故里-百草园,浙江省绍兴市越城区东咸欢河沿23号,浙江省,绍兴市,越城区,(0575)85132080,unknown,
baidu,571317143a6fdc23f4e73bf0,题扇桥,绍兴市越城区笔架桥33号书圣故里,浙江省,绍兴市,越城区,(0575)88993399,unknown,
baidu,bba87388c14623b9bca8223d,仓桥直街历史街区,绍兴市越城区仓桥直街与光明路交叉口西南50米,浙江省,绍兴市,越城区,,unknown,
baidu,18839a12831dd42c5d17c30e,气象博物馆,浙江省绍兴市越城区胜利西路163号,浙江省,绍兴市,越城区,(0575)85022556,unknown,
baidu,a3c657157889c1037ec8763c,古轩亭口,浙江省绍兴市越城区府山横街13号,浙江省,绍兴市,越城区,,unknown,
baidu,a5097bfaa34ed87af03cba0a,大善塔,绍兴市越城区解放北路城市广场,浙江省,绍兴市,越城区,(0575)85225677,unknown,
baidu,7d5f3a0a5783494a2db908a6,戒珠讲寺,绍兴市越城区西街72号,浙江省,绍兴市,越城区,(0575)88993399,unknown,
baidu,88a62cd75a7041097ec876bf,蕺坊桥,绍兴市越城区谢湾咏梅诗廊书圣故里,浙江省,绍兴市,越城区,,unknown,
baidu,480e1b00f6ea3a44d8d89144,吕府,越城区新河弄169号,浙江省,绍兴市,越城区,,unknown,
baidu,fde08a903d6929843362123f,绍兴鲁迅纪念馆,浙江省绍兴市越城区鲁迅中路235号鲁迅故里,浙江省,绍兴市,越城区,"(0575)85132080,0772-3867902",unknown,
baidu,a453359e11ecdfb614b54b55,美人宫,范蠡路138号,浙江省,绍兴市,越城区,,unknown,
baidu,ace1b3f7633a1496dc1e527e,越酿工坊,府山街道书圣故里笔架桥26号(题扇桥过去，躲婆弄出口),浙江省,绍兴市,越城区,(0575)85127299,unknown,
baidu,75d0881acf1b084e3a04b1e6,沈氏园,浙江省绍兴市越城区鲁迅中路318号,浙江省,绍兴市,越城区,(0575)85135140,unknown,
baidu,3a0fbba835bec6409fe321ae,天主堂,绍兴市越城区八字桥直街24号,浙江省,绍兴市,越城区,(0575)88656236,unknown,
baidu,7280ac5d556693348bb98852,书圣故里-探花桥,浙江省绍兴市越城区笔架桥33号书圣故里,浙江省,绍兴市,越城区,(0575)88993399,unknown,
baidu,fda94e16013b3fd75d17c32c,长寿寺,浙江省绍兴市越城区大池弄21号,浙江省,绍兴市,越城区,,unknown,
baidu,90befdcd23c9c8deee74f810,越王台,浙江省绍兴市越城区府山街道府山横街270号(府山公园内(东侧)),浙江省,绍兴市,越城区,,unknown,
baidu,a787d2829820b07ee5e965ae,西施山遗址公园,绍兴市越城区范蠡路89号,浙江省,绍兴市,越城区,,unknown,
baidu,9f97b1c59800ca1fb64f54d3,贺秘监祠,浙江省绍兴市越城区劳动路277号,浙江省,绍兴市,越城区,(0575)85126595,unknown,
baidu,373cf757a05c64774354d70a,戒珠讲寺王羲之故宅,绍兴市越城区西街72号,浙江省,绍兴市,越城区,,unknown,
baidu,0b344f43427b2a26fbf0cb3f,飞翼楼,浙江省绍兴市越城区府横街270号府山公园,浙江省,绍兴市,越城区,,unknown,
baidu,1aa96e0c56a443e5c61b7528,题扇亭,绍兴市越城区笔架桥33号书圣故里,浙江省,绍兴市,越城区,,unknown,
baidu,5c27dd9ce746c8b19e9d6800,西小路历史街区,绍兴市越城区西小路胜利西路405号院西侧约40米,浙江省,绍兴市,越城区,(0575)85145000,unknown,
baidu,79cceb364203618a1f5800e2,环城河,浙江省绍兴市越城区环城河(环城北路北150米),浙江省,绍兴市,越城区,,unknown,
baidu,03beda3e1640e94a3a04b1a8,绍兴古城地图园,绍兴市越城区解放北路城市广场,浙江省,绍兴市,越城区,(0575)85225677,unknown,
baidu,41572e0084f2d5b5b55f1eb1,布业会馆,绍兴市越城区北后街24号,浙江省,绍兴市,越城区,,unknown,
baidu,e94bdc61a30e3b368e1a89ac,书圣故里-墨池,绍兴市越城区书圣故里蕺山街123号,浙江省,绍兴市,越城区,,unknown,
baidu,709971fb9fbb828dd6b74e0d,探花台门,绍兴市越城区萧山街327号,浙江省,绍兴市,越城区,(0575)88993399,unknown,
baidu,99a67373fc18d47f8a36ee1a,红枫园,绍兴市越城区北后街24号,浙江省,绍兴市,越城区,,unknown,
baidu,01f1122904d33f864f3a5969,谐园,绍兴市越城区八字桥直街96号,浙江省,绍兴市,越城区,,unknown,
baidu,49d9593894492f5ac61e5105,绍兴博物馆,绍兴市越城区偏门直街75号,浙江省,绍兴市,越城区,(0575)85096361,unknown,
baidu,dffd4642954a7cb13d9a5ee2,府山,浙江省绍兴市越城区府山横街270号,浙江省,绍兴市,越城区,"(0575)85132255,(0575)85133718",unknown,
baidu,96d939bdee69e9d3c909f0bd,广宁桥,浙江省绍兴市越城区仓弄9号,浙江省,绍兴市,越城区,13645756062,unknown,
baidu,e6ee2fd2c89ac2492a11d1b3,蔡元培故居,绍兴市越城区笔飞弄13号,浙江省,绍兴市,越城区,(0575)85110652,unknown,
baidu,188638b0b8dcff4e43afe635,绍钢纪念公园,绍兴市越城区范蠡路与西施山路交叉路口往东北约80米,浙江省,绍兴市,越城区,4006000574,unknown,
baidu,ef773a0fa1d5352d2202207f,三味书屋,绍兴市越城区鲁迅中路264-1号,浙江省,绍兴市,越城区,(0575)85132080,unknown,
baidu,251374c96f49b126a11de90a,绍兴秋瑾烈士纪念碑,绍兴市越城区解放北路绍兴市国商大厦(解放北路店)东北侧约30米,浙江省,绍兴市,越城区,,unknown,
baidu,8f3177be0027cdfc7dc87641,绍兴名人馆,浙江省绍兴市越城区胜利西路163号,浙江省,绍兴市,越城区,(0575)85022556,unknown,
baidu,e7250eb5649e186cc17da275,蕺山书院,浙江省绍兴市越城区环城北路620号蕺山景区,浙江省,绍兴市,越城区,,unknown,
baidu,44207646decb666adfee8bb6,绍兴儿童公园,浙江省绍兴市越城区人民中路418号,浙江省,绍兴市,越城区,(0575)85141696,unknown,
baidu,d6df91c106bc2e6bf6b916b1,鲁迅笔下风情园,绍兴市越城区鲁迅中路229号,浙江省,绍兴市,越城区,(0575)85132084,unknown,
baidu,c61bd30548ad7271c27da20a,古越藏书楼,绍兴市越城区胜利西路503号,浙江省,绍兴市,越城区,,unknown,
baidu,4bf2248c6d40ef7495ca0706,绍兴市清真寺(环城北路),浙江省绍兴市越城区环城北路31-15号,浙江省,绍兴市,越城区,13754335114,unknown,
baidu,ec84c2646ae4b733a8f0cdd1,绍兴中国钱币博物馆,浙江省绍兴市越城区笔飞弄7号,浙江省,绍兴市,越城区,,unknown,
baidu,560f6d7c794cdc428605bff8,绍兴阳明故里,绍兴市越城区上大路300号,浙江省,绍兴市,越城区,(0575)88150616,unknown,
baidu,4d326a341a33363904026fe4,电影文化公园,绍兴市越城区胜利东路与五云北路交叉路口往西北约150米,浙江省,绍兴市,越城区,,unknown,
baidu,a6a78a757c24b621128824cc,蕺山公园-蕺望亭,绍兴市越城区环城北路620号,浙江省,绍兴市,越城区,,unknown,
baidu,88974a8b65be18ef4c776e71,蕺山公园-半间亭,浙江省绍兴市越城区环城北路626号,浙江省,绍兴市,越城区,,unknown,
baidu,693796d6f5c46ebdd8eced7e,元仁堂台门,绍兴市越城区萧山街书圣故里,浙江省,绍兴市,越城区,,unknown,
baidu,2527be1e23c12daa4bfc8d8e,青藤书屋,绍兴市越城区前观巷大乘弄10号,浙江省,绍兴市,越城区,"(0575)85121132,(0575)85134986",unknown,
baidu,7e4c70ae5a7329affe0eb057,笔飞弄,绍兴市越城区雅舍旅馆(笔飞弄),浙江省,绍兴市,越城区,,unknown,
baidu,255dbc9b5b0d2d9684154140,周恩来纪念馆,劳动路369号,浙江省,绍兴市,越城区,(0575)85133368,unknown,
baidu,90f8776d689ae71ad2f49ee4,中国大运河遗产区界桩,绍兴市越城区环城北路玛格丽特商业中心-东区,浙江省,绍兴市,越城区,,unknown,
baidu,96b672aab5226d74cf04efb3,中国黄酒博物馆,浙江省绍兴市越城区下大路557号,浙江省,绍兴市,越城区,(0575)85397288,unknown,
baidu,0985ad2de7066bcdc7f025e3,书圣故里石家池,绍兴市越城区笔架桥33号书圣故里,浙江省,绍兴市,越城区,,unknown,
baidu,7823b504385f8a93e856fac7,东岳庙,绍兴市越城区下大路汉庭酒店(城市广场鲁迅故里店)西侧,浙江省,绍兴市,越城区,,unknown,
baidu,8f786e648f571700c51b750f,和睦台门,浙江省绍兴市越城区石家池沿(墨池西南侧约50米),浙江省,绍兴市,越城区,,unknown,
baidu,9567e98a30aca7636c3e1bcc,谢湾咏梅诗廊,绍兴市越城区笔架桥33号书圣故里,浙江省,绍兴市,越城区,,unknown,
baidu,72aa2513297b785e077ce80a,秋瑾故居,绍兴市越城区和畅堂35号,浙江省,绍兴市,越城区,(0575)88063369,unknown,
baidu,1eeed5466cd7cbf3b4147fb1,西园,绍兴市越城区府山西路465号(近大龙市场),浙江省,绍兴市,越城区,,unknown,
baidu,eb30bc34441c2210081cc777,长庆寺,绍兴市越城区新建南路339号,浙江省,绍兴市,越城区,(0575)85140239,unknown,
baidu,fd33186f1e144115c7effb4c,状元廊,浙江省绍兴市越城区环城北路620号蕺山景区,浙江省,绍兴市,越城区,,unknown,
baidu,2f336ab6733b826bd6b74ee1,书圣故里-咸宁桥,浙江省绍兴市越城区蕺山街105号墨池,浙江省,绍兴市,越城区,(0575)88993399,unknown,
baidu,6572c4aa24aa0477246e98b1,蕺山公园-冷然亭,浙江省绍兴市越城区中兴中路绍兴市蕺山中心小学(书圣校区)东侧约260米,浙江省,绍兴市,越城区,,unknown,
baidu,aad155c0d7b767ba16c90593,钱业会馆,绍兴市越城区笔飞弄7号,浙江省,绍兴市,越城区,(0575)88993399,unknown,
baidu,81d6a50912ae863d6e20b948,迎恩门,府山街道摩尔城一区（汇景园),浙江省,绍兴市,越城区,(0575)81509666,unknown,
baidu,13ee72425aec48937ec87699,秋瑾雕像,浙江省绍兴市越城区世茂广场范蠡路22-24号(林肯公园),浙江省,绍兴市,越城区,(0575)88063369,unknown,
baidu,c6e75d88806320e7fa0cad02,奉贤堂,浙江省绍兴市越城区劳动路277号贺秘监祠(西南角),浙江省,绍兴市,越城区,(0575)85126595,unknown,
baidu,19f6cb31260648e488b98800,蕺山公园-董昌生祠题记,绍兴市越城区蕺山街道蕺山公园-蕺山书院,浙江省,绍兴市,越城区,,unknown,
baidu,9ea638ed79954510b5147f9d,千秋楼,绍兴市越城区劳动路,浙江省,绍兴市,越城区,,unknown,
baidu,27561900afd3028a704b874b,陆游纪念馆,绍兴市越城区延安路439号,浙江省,绍兴市,越城区,(0575)85135140,unknown,
baidu,0917da787dc3de22343a7111,司马温公祠,浙江省绍兴市越城区南头乡下大路98号,浙江省,绍兴市,越城区,,unknown,
baidu,9cc2012547500692f9f0cb52,摩崖石刻,绍兴市越城区环山路府山公园,浙江省,绍兴市,越城区,(0575)85133718,unknown,
baidu,30b938c04f16497fd6b74ed2,蕺山公园-蕺山亭,绍兴市越城区浙江环宇昌安立交桥蕺山公园,浙江省,绍兴市,越城区,,unknown,
baidu,276a1796e265c821c4f02557,绍兴市基督教城区教堂,浙江省绍兴市越城区东街81号,浙江省,绍兴市,越城区,(0575)85141576,unknown,
baidu,d07bc91d55d819fd940319b9,越大夫文种墓,环山路府山公园,浙江省,绍兴市,越城区,,unknown,
baidu,be9ffb8282bf44c458f6be1c,越王殿,府山横街258号,浙江省,绍兴市,越城区,,unknown,
baidu,869736f82e469170b726557d,都泗门,浙江省绍兴市越城区世茂广场环城东路都泗门,浙江省,绍兴市,越城区,,unknown,
baidu,c3c710437fd8774c28d7abb7,越王兰苑,府山横街270号府山公园,浙江省,绍兴市,越城区,,unknown,
baidu,ca3a3240b320fd632fe67bd8,杜家台门,绍兴市越城区兴文桥直街35号,浙江省,绍兴市,越城区,,unknown,
baidu,7f8ba4637494fda1b5147fbb,越是我故乡,浙江省绍兴市越城区人民中路184号,浙江省,绍兴市,越城区,13336824466,unknown,
baidu,8c34c82bdf9006342efaa7f7,越乡会馆,绍兴市越城区书圣景区内,浙江省,绍兴市,越城区,,unknown,
baidu,5730944b8053178c71210b20,宋家台门,绍兴市越城区新河弄77号,浙江省,绍兴市,越城区,,unknown,
baidu,15df2a6ea525aadd49fd3fc4,团结台门,绍兴市越城区石家池沿(王家台门东北侧约50米),浙江省,绍兴市,越城区,,unknown,
baidu,072a04c66a98327a28d7abd2,王冕雕像,绍兴市越城区范蠡路世茂湖滨商业中心,浙江省,绍兴市,越城区,,unknown,
baidu,1ce3c9cee43787ed9f09f7e7,西施山遗址公园-养刁宫,浙江省绍兴市越城区范蠡路绍兴世茂假日酒店东北侧约80米,浙江省,绍兴市,越城区,,unknown,
baidu,08fc93df6b9756ec9b68b448,解元台门,绍兴市越城区西街136号,浙江省,绍兴市,越城区,,unknown,
baidu,09d03b252e24a1fdfda778ab,浣纱,浙江省绍兴市越城区范蠡路西施山遗址公园,浙江省,绍兴市,越城区,,unknown,
baidu,4952f52edb01273e4c3a590b,春波亭,绍兴市越城区城市广场28附近,浙江省,绍兴市,越城区,,unknown,
baidu,08aa9a1a6e5711fe276e9855,马家台门,绍兴市越城区新河弄79号,浙江省,绍兴市,越城区,,unknown,
baidu,f44609180579f46bb01e36b1,绍兴越国文化博物馆,浙江省绍兴市越城区中兴南路187号,浙江省,绍兴市,越城区,(0575)88095677,unknown,
baidu,0e948387d283aaed774ff18a,诵芬堂,劳动路369号周恩来祖居,浙江省,绍兴市,越城区,,unknown,
baidu,40eabba6b6189345c9e33ce8,八字桥社区家风文化展示廊,绍兴市越城区八字桥直街八字桥公寓东北侧,浙江省,绍兴市,越城区,,unknown,
baidu,a3f051fb5a231d7dfd0eb03b,灶间,浙江省绍兴市越城区劳动路369号周恩来祖居灶间,浙江省,绍兴市,越城区,,unknown,
baidu,c64874c8e8ba7e6d7adbd28d,座楼展厅,劳动路369号周恩来祖居,浙江省,绍兴市,越城区,,unknown,
baidu,2fd2beabaec5cf537bdbd2b3,百花苑,绍兴市越城区天光桥1号,浙江省,绍兴市,越城区,13705757508,unknown,
baidu,40af47a29e7c5a7949fc8d13,百岁堂,劳动路369号周恩来祖居,浙江省,绍兴市,越城区,(0575)85133368,unknown,
baidu,6b686a60839c5cc942d63e6b,周恩来纪念馆-北区,劳动路369号,浙江省,绍兴市,越城区,(0575)85133368,unknown,
baidu,b4df11f9c3e6ced99fec2bdc,绍兴地质科普馆,绍兴市越城区新建南路情乡台门人家酒店,浙江省,绍兴市,越城区,,unknown,
baidu,1e6cc6739643b4c9c6effb72,来王殿,绍兴市越城区下大路101号,浙江省,绍兴市,越城区,,unknown,
baidu,3957a7f2f07ddc7b07fef5d5,蔡元培塑像,浙江省绍兴市越城区解放北路书圣故里,浙江省,绍兴市,越城区,,unknown,
baidu,5479c832dfd91289f6c59c5e,蕺山公园-石亭,绍兴市越城区环城东路蕺山公园,浙江省,绍兴市,越城区,,unknown,
baidu,0dcf99faf47a65d9c7f50d9e,怀贺亭,绍兴市越城区劳动路,浙江省,绍兴市,越城区,(0575)85126595,unknown,
baidu,9d51607ca139d4f29ee321a9,越是我故乡·越城文创体验中心,浙江省绍兴市越城区塔山街道人民中路182号,浙江省,绍兴市,越城区,,unknown,
baidu,32f02285c0c65baf6c3e1bc3,迪荡滑板公园,绍兴市越城区梅龙湖路与西施山路交叉路口北侧,浙江省,绍兴市,越城区,,unknown,
baidu,1529cb73c783c7b6b2077d47,珠算协会国华珠算博物馆,绍兴市越城区深甫西路117号,浙江省,绍兴市,越城区,,unknown,
baidu,6dcee2f9e8476c925d0d02a6,周恩来纪念馆-南区,劳动路369号,浙江省,绍兴市,越城区,(0575)85123023,unknown,
baidu,ab97a5f6f4618142a104642a,鲁迅文学奖领奖博物馆,浙江省绍兴市越城区龙珠里15号,浙江省,绍兴市,越城区,,unknown,
baidu,ef773a0ffc876a35230220b1,章学诚故居,绍兴市越城区辛弄1号,浙江省,绍兴市,越城区,(0575)85130279,unknown,
baidu,b28074560dd9b9b3a7c75677,鲁迅雕像,绍兴市越城区胜利东路,浙江省,绍兴市,越城区,,unknown,
baidu,3da907f35507864ab320a80a,范文澜故居,绍兴市越城区胜利西路500号,浙江省,绍兴市,越城区,,unknown,
baidu,9b9f95b698044e18593ac8cd,烈士纪念碑,府山直街210号(近府山横街),浙江省,绍兴市,越城区,,unknown,
baidu,b3a27b1d10a060a8901fc9f3,长月社汉服体验馆,绍兴市越城区谢湾咏梅诗廊书圣故里,浙江省,绍兴市,越城区,,unknown,
baidu,e5eccbcf57dafe2f705e807e,王家台门,绍兴市越城区斜桥弄24-13号,浙江省,绍兴市,越城区,,unknown,
baidu,5f10b228d531b391b05c6a73,八字桥历史街区,绍兴市越城区八字桥直街东双桥公寓西北侧约70米,浙江省,绍兴市,越城区,,unknown,
baidu,d305db1fab667427932ca30a,光相桥,绍兴市越城区北海桥直街与环城北路交叉路口西北侧,浙江省,绍兴市,越城区,,unknown,
baidu,2fd2beabaecacf537bdbd2a6,北海湾浴场(北海路),绍兴市越城区北海路10-1号,浙江省,绍兴市,越城区,,unknown,
baidu,df5f5f71680d762f3913fd7c,宝珠桥,浙江省绍兴市越城区仓桥直街6号,浙江省,绍兴市,越城区,,unknown,
baidu,435eaa9518a4342748cc4acb,绍兴国画院(绍兴分院),环城东路1970号千客隆超市往南100米,浙江省,绍兴市,越城区,13357539910,unknown,
baidu,74a221e8810ad73e621c67d3,徐渭,绍兴市越城区环城东路与都泗门路交叉口东北150米,浙江省,绍兴市,越城区,,unknown,
baidu,91cfc43f616f0ab622f01739,蓝色沸点量贩KTV(中兴路店),府山街道中兴中路108号4楼(近绍兴夜市),浙江省,绍兴市,越城区,(0575)88055999,unknown,
baidu,c6e5f632bbb8eae729b97cea,江南故事足道SPA(鲁迅故里店),人民中路208号1层109室及2-3楼,浙江省,绍兴市,越城区,,unknown,
baidu,6e67af32703b3b4ed8131899,星乐畅KSOUL KTV(绍兴店),中兴中路225号（地下一层101-105、110-112室）,浙江省,绍兴市,越城区,,unknown,
baidu,df2756327cd837ec00ec0126,闲和棋牌,劳动路63号（红太阳歌舞厅旁）,浙江省,绍兴市,越城区,13857505959,unknown,
baidu,bb274ff5d79d21b0b75f1e02,宏徽电竞(鲁迅电影院店),县前街45号鲁迅电影院四楼东侧,浙江省,绍兴市,越城区,13357596409,unknown,
baidu,dc78705a968f428e601809c6,知不足diy陶艺,塔山街道作揖坊41号(人民西路上的酒务桥阿瓦山寨与人民保险公司),浙江省,绍兴市,越城区,13085687871,unknown,
baidu,78813195cc99049f8f55ec7e,颐和堂足道(世茂店),府山街道东池路88,浙江省,绍兴市,越城区,,unknown,
baidu,8d59825fb0464cd77f29bda2,惜之小院名宿下午茶,书圣故里和睦台门笔架桥46号,浙江省,绍兴市,越城区,19518551607,unknown,
baidu,eb9ce84390e05f75130daa82,一品夫人护肤养生会所(保佑桥直街店),保佑桥直街187号明月湾,浙江省,绍兴市,越城区,13616759240,unknown,
baidu,a6747e60267e31417ab55c5b,夷畅茶馆,城市广场27号楼,浙江省,绍兴市,越城区,"13754378111,15957578837",unknown,
baidu,b628488683ca90b00782c208,御妍美容SPA养生(香舍丽都店),胜利东路265号香舍丽都一楼12号,浙江省,绍兴市,越城区,,unknown,
baidu,7563ae352fe3d42ebc484249,尊龙KTV(山水生活广场店),浙江省绍兴市越城区解放大道59号坤和壹号大厦3楼,浙江省,绍兴市,越城区,,unknown,
baidu,27f20c5ce752ff90f02d833d,艾菲国际抗衰SPA会所,鲁迅电影院旁71号易朴空间二楼,浙江省,绍兴市,越城区,"(0575)85228791,15606857313",unknown,
baidu,c36997f411957bd7ede4a595,浩海沄天汤泉,车站北路83号,浙江省,绍兴市,越城区,(0575)88262288,unknown,
baidu,75d0881a49b38e303a04b148,蔡元培广场,浙江省绍兴市越城区解放北路226号,浙江省,绍兴市,越城区,,unknown,
baidu,3c2f6f19f7422fad1029359d,孑民演艺广场,解放北路222号孑民电影院,浙江省,绍兴市,越城区,,unknown,
baidu,f757e6ee58e3a716270bd0b3,城市广场,浙江省绍兴市越城区胜利西路322号,浙江省,绍兴市,越城区,,unknown,
baidu,29cc667833d0cb544bcc4ab3,爵嘉KTV,浙江省绍兴市越城区中兴中路108号红太阳写字楼5楼,浙江省,绍兴市,越城区,,unknown,
baidu,9e47c87af7884d13100daad6,臻乐头道汤,浙江省绍兴市越城区胜利东路255号,浙江省,绍兴市,越城区,,unknown,
baidu,5b5957b80a72caad283a9f66,清荷棋牌,浙江省绍兴市越城区蕺山街道保佑桥直街168号,浙江省,绍兴市,越城区,,unknown,
baidu,ecf79b681ee76804b020a865,三湾一坞·茶空间,蕺山街44号-2,浙江省,绍兴市,越城区,15257506829,unknown,
baidu,3a13b7b5801df07eabf0cd61,郑远元专业修脚房(绍兴东街店),绍兴东街230号,浙江省,绍兴市,越城区,,unknown,
baidu,dfc496b6e39b3cae8836eeb3,周恩来纪念广场,浙江省绍兴市越城区劳动路208号,浙江省,绍兴市,越城区,,unknown,
baidu,69082ba35cc7c8f484330420,大明推拿(唐皇苑店),唐皇街112号,浙江省,绍兴市,越城区,,unknown,
baidu,62a46e3f3f90a21879b55c8e,珈潞尔·美容美体SPA(保佑桥店),中兴中路与八字桥直街交叉路口西北侧(中兴公寓-南区西北侧),浙江省,绍兴市,越城区,(0575)85116682,unknown,
baidu,087e2ae5e982cf2b21f017a5,小雀舍棋牌,新建北路323号2-3楼,浙江省,绍兴市,越城区,"13429495848,15213625870",unknown,
baidu,b760c5ff46f8d4d98505bffe,绍兴市青少年活动中心(府横街校区),浙江省绍兴市越城区仓桥直街141号,浙江省,绍兴市,越城区,(0575)88903388,unknown,
baidu,a9dc56ca300b64f4fb221360,天发圆浴室,浙江省绍兴市越城区新建北路338号,浙江省,绍兴市,越城区,,unknown,
baidu,2ae9cbeecdf7b18095ca07c2,金耳朵生活馆(越城店),县前街118号三层,浙江省,绍兴市,越城区,15005856355,unknown,
baidu,bd4c578fe6b3bd9681288a62,孑民剧院,府山街道解放北路222号孑民剧院,浙江省,绍兴市,越城区,,unknown,
baidu,b3a6a094ff332dd428b97cd9,月池坊广场,浙江省绍兴市越城区解放北路308号,浙江省,绍兴市,越城区,,unknown,
baidu,78bd50f7d431df4231870a41,鲁迅电影城(艾米1895电影街),县前街45号（劳动路）,浙江省,绍兴市,越城区,(0575)85086616,unknown,
baidu,5ce2637d7c3f0c50af31e5af,丽晶娱乐会所(人民中路店),浙江省绍兴市越城区人民中路433号,浙江省,绍兴市,越城区,,unknown,
baidu,c5ddcc0862a607b8d9131895,九号公馆俱乐部商务会所KTV,胜利东路386号,浙江省,绍兴市,越城区,(0575)85500897,unknown,
baidu,595464d58e2646ac84154132,丽晶飞歌KTV,润和世纪广场解放北路552号米柚酒店3楼,浙江省,绍兴市,越城区,(0575)85505988,unknown,
baidu,ef4ee2dbdf822897095cb32a,左耳采耳文化生活体验馆(世茂广场店),胜利东路305号（江南世家南门西面10米）,浙江省,绍兴市,越城区,,unknown,
baidu,da6e438597eff321e91e97a3,JOY MARK娃娃交易所(绍兴大悦城店),府前街道国金大悦城购物中心L3-09,浙江省,绍兴市,越城区,13564475228,unknown,
baidu,4edbf6ba95661385f503b8a7,东大池垂钓休闲会所,越城区白马路东大池公园内,浙江省,绍兴市,越城区,,unknown,
baidu,1c7f37505eb0208dfea7781a,禾泰棋牌,浙江省绍兴市越城区东池路119号,浙江省,绍兴市,越城区,"15157559097,18657566477",unknown,
baidu,1d906400c03d652bd8131818,优曼美容SPA会所,浙江省绍兴市越城区东池路40号,浙江省,绍兴市,越城区,15325814699,unknown,
baidu,17a23db60e92ea1cb75f1e52,XR,绍兴市越城区劳动路绍兴市职业教育中心分部南侧约70米,浙江省,绍兴市,越城区,,unknown,
baidu,bd3ce66919a733732b201ad6,陕西专业修脚(胜利东路店),胜利东路288号府山街道办事处对面,浙江省,绍兴市,越城区,,unknown,
baidu,0889a6df647b3a3aed74f8c7,宝幢巷新43号推拿,浙江省绍兴市越城区保佑桥直街129号,浙江省,绍兴市,越城区,,unknown,
baidu,7f6057f822cc4611223bf21c,荟赢棋牌,胜利东路264号二层,浙江省,绍兴市,越城区,17357500098,unknown,
baidu,d54e8402791c3ae5c1f1cf3b,白马社区居家养老活动分中心,绍兴市越城区环城东路白马新村,浙江省,绍兴市,越城区,,unknown,
baidu,9c53588358e0c4bc1d1d11c6,博物馆广场,浙江省绍兴市越城区门直街35号,浙江省,绍兴市,越城区,,unknown,
baidu,f6e6bd584d73f3a4725e80e9,嗨乐趣钓鱼达人(八佰伴购物中心店),解放北路199号八佰伴购物中心F3层,浙江省,绍兴市,越城区,13625823288,unknown,
baidu,1c944b24b6cf2f9e471a32c3,雷锋广场,浙江省绍兴市越城区上大路1号,浙江省,绍兴市,越城区,,unknown,
baidu,b81310b42027df10102935f2,梦多多玩育成长乐园(八佰伴购物中心店),解放北路199号-318、319,浙江省,绍兴市,越城区,(0575)85121126,unknown,
baidu,6d24e00804bdf22d7f29bd76,寰映影城(绍兴国金大悦城PRIME店),东街57号国金大悦城4楼,浙江省,绍兴市,越城区,(0575)85122266,unknown,
baidu,a26fb20f247c417cc256ac6e,汇金缪斯影城(八佰伴店),解放北路211号汇金购物中心地下一层1011铺位,浙江省,绍兴市,越城区,(0575)89199566,unknown,
baidu,0e3841940161b32be81e9790,智汇棋牌,浙江省绍兴市越城区胜利东路1号绍兴智慧汇大酒店3楼,浙江省,绍兴市,越城区,(0575)85148888,unknown,
baidu,e1def5c290d2b889373a718d,YAKINIKU.BAR,绍兴市越城区解放北路石家池小区西北侧约50米,浙江省,绍兴市,越城区,,unknown,
baidu,9615aea792cb2f2f2202628b,阿兰修脚,绍兴市越城区东街渔化桥公寓,浙江省,绍兴市,越城区,,unknown,
baidu,55a81f21447635c4d4851fd5,奇妙童玩(八佰伴购物中心店),解放北路199号八佰伴购物中心F3层,浙江省,绍兴市,越城区,18969922458,unknown,
baidu,d2e207eb00e95c1dfea77808,邵师傅修脚店,都泗门30号13室,浙江省,绍兴市,越城区,,unknown,
baidu,2286f81cddeba84d96ca0708,南瑾苑茶室,八字桥直街99号,浙江省,绍兴市,越城区,18185909000,unknown,
baidu,59b75c99775e3dfd2fb96dd2,艾羽科技美肤养生SPA会所,解放北路103号（绍兴兰欧国际M酒店南30米）,浙江省,绍兴市,越城区,,unknown,
baidu,18ca1c913dcc4af96340a9fa,绍兴剧院,绍兴市越城区人民中路61号,浙江省,绍兴市,越城区,(0575)85125777,unknown,
baidu,a3f21eee2c300d5d2fb17e41,咸亨国际影城,鲁迅中路115号咸亨新天地3楼,浙江省,绍兴市,越城区,(0575)88782222,unknown,
baidu,3a5b673b8fb75966c03644cf,夹叽联盟(八佰伴店),解放北路199号-203八佰伴2楼,浙江省,绍兴市,越城区,,unknown,
baidu,9797b890b1728a3d250bd028,轻云晓山茶室,浙江省绍兴市越城区胜利东路227号,浙江省,绍兴市,越城区,15158230610,unknown,
baidu,06ee0e869d2736d228d7ab4e,紫运东来棋牌,八字桥直街116号,浙江省,绍兴市,越城区,,unknown,
baidu,2a61ad4ff95ceabc59bbbc5f,沈园之夜剧场,浙江省绍兴市越城区塔山街道鲁迅路318号,浙江省,绍兴市,越城区,(0575)85135140,unknown,
baidu,4da7dc0f100ad1980a5cb30b,格子乐翻天(八佰伴店),府山街道八佰伴购物中心3楼（少儿篮球旁）,浙江省,绍兴市,越城区,,unknown,
baidu,b626ab33e7d4d3dc0f0e6b8b,按摩椅(越城八佰伴购物中心店),浙江省绍兴市越城区解放北路199号八佰伴购物中心F4,浙江省,绍兴市,越城区,,unknown,
baidu,eb6199e85f7e1bb0047ce894,茶香瓷悦,绍兴市越城区劳动路月池坊西南侧约50米,浙江省,绍兴市,越城区,,unknown,
baidu,507419e9cdf4a23ff4eafc81,绍兴苏宁影城有限公司,浙江省绍兴市越城区灵芝街道解放大道190号绍兴苏宁广场5层第512号商铺,浙江省,绍兴市,越城区,,unknown,
baidu,dfd2721e47ffac37b9df8ffa,乐泰亮甲(书圣故里店),绍兴市越城区中兴中路宋梅桥书圣故里17号,浙江省,绍兴市,越城区,,unknown,
baidu,c60d44abecfcc3c750e5c55c,好柒烘焙Diy手工坊,浙江省绍兴市越城区书圣故里题扇桥直街11-1号,浙江省,绍兴市,越城区,13575563640,unknown,
baidu,64e3158d7308d9c1b35c6ade,海诺美容(中兴中路店),中兴中路303号,浙江省,绍兴市,越城区,15258512629,unknown,
baidu,2c40146f4ee813506140a979,泥来泥往陶艺馆·调香·团建,解放北路8号古城北7号楼1F-7-04室,浙江省,绍兴市,越城区,15355519652,unknown,
baidu,3e8cbaa6420636a27adbd2f7,洛雁宫美容养身SPA,浙江省绍兴市越城区保佑桥直街169号,浙江省,绍兴市,越城区,(0575)85127706,unknown,
baidu,6015f97be932374f85420ebf,福山日夜商店,府横街235号,浙江省,绍兴市,越城区,18367618071,unknown,
baidu,9c8914c319379b859e9d68d9,云端绿色,上大路65-67号,浙江省,绍兴市,越城区,13508508534,unknown,
baidu,75036835c688e4ae5f0d02b1,塔山文化广场,浙江省绍兴市越城区解放南路589号,浙江省,绍兴市,越城区,"(0575)85129957,(0575)85131136",unknown,
baidu,606ab0d003d2b7330f3dda98,绍兴咸亨酒店,绍兴市越城区鲁迅中路179号,浙江省,绍兴市,越城区,(0575)85116666,unknown,
baidu,a7c56ee07b1d1fb2a2acc4a7,绍兴仓桥一家快捷宾馆,绍兴越城区府横街23号,浙江省,绍兴市,越城区,13306851870,unknown,
baidu,cb0e78871187b8aef7e73b4b,维也纳酒店(鲁迅故里店),浙江省绍兴市越城区解放北路128号,浙江省,绍兴市,越城区,(0575)88778787,unknown,
baidu,72c84555ca1ccb6407fef515,芭拉顿酒店(绍兴仓桥直街鲁迅故里店),胜利东路17号福隆大厦5层,浙江省,绍兴市,越城区,(0575)85209090,unknown,
baidu,f3f1b7a6ac86b0391676430e,如家酒店(绍兴人民中路鲁迅故里店),人民中路368号,浙江省,绍兴市,越城区,(0575)85126999,unknown,
baidu,6420133037dd40574207c192,蓝波湾酒店(绍兴城市广场书圣故里店),解放北路230号,浙江省,绍兴市,越城区,(0575)85148666,unknown,
baidu,ba2f83154372adf140afe60c,如家云上四季酒店(绍兴鲁迅故里店),浙江省绍兴市越城区中兴路33号中惠百货旁边,浙江省,绍兴市,越城区,(0575)88328899,unknown,
baidu,ae49a4fd207d3abf1811d515,开元曼居酒店(绍兴鲁迅故里店),中兴南路203号,浙江省,绍兴市,越城区,"(0575)89105888,18368585799",unknown,
baidu,4bba8be1216c152cc9c3db35,有巢·云境酒店(绍兴城市广场地铁站鲁迅故里店),胜利东路1号25楼,浙江省,绍兴市,越城区,"(0575)88061818,13325955565",unknown,
baidu,844a750e164775a063685895,如家酒店·neo(绍兴摩尔城风情水街店),环城西路国际摩尔城御景园13幢,浙江省,绍兴市,越城区,(0575)85338000,unknown,
baidu,72764f37e8bafcac704b874f,如家精选酒店(绍兴人民西路鲁迅故里店),人民西路19号,浙江省,绍兴市,越城区,(0575)88161777,unknown,
baidu,9b73c04ea6ef013b88db73eb,米柚酒店(绍兴解放路店),解放北路588号,浙江省,绍兴市,越城区,(0575)85112233,unknown,
baidu,beabdbf4a2db9e997169d3af,绍兴天龙旅馆,稽山路27号,浙江省,绍兴市,越城区,18358509060,unknown,
baidu,54ac8d3a616ecac72b3a9fbd,绍兴栖玥酒店(鲁迅故里店),胜利西路299号,浙江省,绍兴市,越城区,(0575)85086999,unknown,
baidu,75366060539cf8a175e5b6e2,绍兴五云招待所,东街655号,浙江省,绍兴市,越城区,"13588576717,13588578643",unknown,
baidu,80f490c301c16a53afee7a8a,创e家君怡酒店(绍兴鲁迅故居城市广场店),东街27号,浙江省,绍兴市,越城区,(0575)88678777,unknown,
baidu,be8bed20c337954807026f0d,绍兴东心悦酒店,府山街道东街338号2幢8号,浙江省,绍兴市,越城区,(0575)88265938,unknown,
baidu,0cb988cd391be1e2e9f8532e,柒遇酒店(绍兴仓桥直街店),府山横街175号,浙江省,绍兴市,越城区,(0575)88097799,unknown,
baidu,5be10bfd1b0d3013f7b91683,如家酒店(仓桥直街店),府山街道府横街13号,浙江省,绍兴市,越城区,(0575)84909099,unknown,
baidu,6fddd7fda9ee357e3417dca7,绍兴老台门鲁迅故里青年旅舍,塔山街道新建南路558号(鲁迅中路与新建南路交汇处、鲁迅故里后门),浙江省,绍兴市,越城区,(0575)85080288,unknown,
baidu,41572e00df718cadb45f1e0c,银泰大酒店(绍兴鲁迅故里店),浙江省绍兴市越城区人民西路255号,浙江省,绍兴市,越城区,"(0575)85080800,(0575)85117788",unknown,
baidu,2b2cbdaaaa7551df15b54b05,如家云上四季酒店(绍兴客运中心鲁迅故里店),中兴北路541号,浙江省,绍兴市,越城区,(0575)81168855,unknown,
baidu,81be1cb490dcfeb4c7f50d2e,汉庭酒店(绍兴人民西路鲁迅故里店),人民西路342号,浙江省,绍兴市,越城区,(0575)88665858,unknown,
baidu,f041a55a0ea2c2242bd7ab7a,汉庭酒店(绍兴客运中心店),中兴北路月利大厦660号,浙江省,绍兴市,越城区,(0575)88530888,unknown,
baidu,7388dffd7f2c00f2d2ff2388,绍兴稽山宾馆(鲁迅故里银泰店),钱王祠前16号,浙江省,绍兴市,越城区,(0575)88063838,unknown,
baidu,857b51e57cb2f13d7c29bdc5,枫林酒店(绍兴城市广场地铁站鲁迅故里店),绍兴市越城区府山街道胜利东路39号中兴商贸大厦9层,浙江省,绍兴市,越城区,"(0575)85170006,18058680066",unknown,
baidu,f3a6b1f5ae883360b220a8be,绍兴世茂皇冠假日酒店,浙江省绍兴市越城区胜利东路379号,浙江省,绍兴市,越城区,(0575)89108888,unknown,
baidu,435d7aeaf893a92c5bbbbc94,绍兴鲁迅故里大悦城亚朵酒店(绍兴鲁迅故里大悦城店),塔山街道解放北路469号,浙江省,绍兴市,越城区,(0575)85123588,unknown,
baidu,dc1879c4a9735f75400245c4,绍兴越府仓桥酒店,仓桥直街1号,浙江省,绍兴市,越城区,(0575)85187777,unknown,
baidu,764672e5d4f93aac95ec84b6,绍兴咸亨大酒店,浙江省绍兴市越城区解放南路680号,浙江省,绍兴市,越城区,(0575)88068688,unknown,
baidu,0cce21f0036d9cb0593ac8b8,绍兴鲁迅故里兰欧国际M酒店,解放北路91号,浙江省,绍兴市,越城区,(0575)88151818,unknown,
baidu,28e6b4d5b69102cab21e360e,蘭语·唯悦酒店(绍兴鲁迅故里店),延安路43号,浙江省,绍兴市,越城区,(0575)85162666,unknown,
baidu,c17f147bffee89244e776e31,桔子酒店(绍兴鲁迅故里店),人民西路185号,浙江省,绍兴市,越城区,(0575)88960666,unknown,
baidu,bc73069fd9e63f17abf729b4,璞伦酒店(绍兴鲁迅故居世茂广场店),迪荡新城崇贤路9-11号,浙江省,绍兴市,越城区,"(0575)88008000,17757559188",unknown,
baidu,b338f4ac9f2223c86c3e1b27,绍兴越府宾馆,解放北路石家池沿7号,浙江省,绍兴市,越城区,(0575)85122170,unknown,
baidu,6b8be9f1c37b9d9b4e5547d7,全季酒店(绍兴鲁迅故里店),延安路261号,浙江省,绍兴市,越城区,(0575)89585959,unknown,
baidu,dfe41c2124041990f603b852,绍兴拾贰朴宿(鲁迅故里店),书圣故里19-1号,浙江省,绍兴市,越城区,(0575)85209520,unknown,
baidu,3dc9befd0d8cf20fbfa24099,绍兴饭店,浙江省绍兴市越城区环山路8号,浙江省,绍兴市,越城区,(0575)85155888,unknown,
baidu,fa01e9370fd87553764ff18e,绍兴国际大酒店,浙江省绍兴市越城区府山西路100号,浙江省,绍兴市,越城区,(0575)85166788,unknown,
baidu,28ba9d78717997f5acee7af5,绍兴咸亨新青年酒店,上大路138号,浙江省,绍兴市,越城区,(0575)89106661,unknown,
baidu,20f6e5287a809476f7b9169a,绍兴风光大酒店,人民路108号,浙江省,绍兴市,越城区,(0575)88002258,unknown,
baidu,feeacce3966050b742d63ed5,花筑·五十七号院(仓桥直街历史街区店),浙江省绍兴市越城区龙山后街57号,浙江省,绍兴市,越城区,"(0575)85172999,18905750357",unknown,
baidu,2170cb4273b2824f5fd4fe18,安玥酒店(绍兴客运中心鲁迅故里店),中兴北路390号3-4楼,浙江省,绍兴市,越城区,(0575)88026666,unknown,
baidu,911ad54719f5a4119d82eaa6,悦庭宾馆(绍兴鲁迅故里店),府山街道天宇大厦14号二层,浙江省,绍兴市,越城区,15258539177,unknown,
baidu,d6ee8724c639d2f9a8f0cd09,绍兴浙纸建国宾馆(鲁迅故里店),人民中路471号,浙江省,绍兴市,越城区,(0575)85206988,unknown,
baidu,bcfbeab1302c8a44593ac8db,绍兴时晴一半酒店(鲁迅故里店),利济桥直街51号,浙江省,绍兴市,越城区,(0575)85206866,unknown,
baidu,b28ecd2d1aa6ff90cac3db9d,冬悦里酒店(绍兴鲁迅故里仓桥直街店),龙山后街20号,浙江省,绍兴市,越城区,(0575)87996666,unknown,
baidu,0b2efe224e021e8e246e981c,绍兴诗田宾馆,保佑桥直街19号,浙江省,绍兴市,越城区,(0575)85110708,unknown,
baidu,d53cc2f3e5fedb44ebe582f6,星蝶尚酒店(绍兴鲁迅故里店),浙江省绍兴市越城区保佑桥直街72号,浙江省,绍兴市,越城区,(0575)88201111,unknown,
baidu,867ecab1a298798f774ff1b0,学士公寓,浙江省绍兴市越城区学士街52号（劳动路周恩来祖居背后）,浙江省,绍兴市,越城区,13615757922,unknown,
baidu,0772f24b9ce5320eb24c499d,白头主题酒店(绍兴鲁迅故里店),解放北路489号,浙江省,绍兴市,越城区,(0575)88330555,unknown,
baidu,f87e63f552f1bfa8233bf236,水无痕,浙江省绍兴市越城区直街31号,浙江省,绍兴市,越城区,,unknown,
baidu,bcaebff89948ba55c8e33caf,绍兴俊磊商务酒店,浙江省绍兴市越城区解放北路558号（供销大厦对面肯德基旁）,浙江省,绍兴市,越城区,13116851860,unknown,
baidu,cc2edbbbf3a39d67c17da23f,安铂公寓(四马路店),浙江省绍兴市越城区劳动路101号(红红串串香旁边),浙江省,绍兴市,越城区,,unknown,
baidu,4bb049d9ae084946980050b3,绍兴大剧院,解放北路375号,浙江省,绍兴市,越城区,"(0575)85202255,(0575)85202256",unknown,
baidu,4e33487bd1fdf43486420e6b,绍兴遇见你公寓,浙江省绍兴市越城区府山街道人民中路239号十楼、十一楼,浙江省,绍兴市,越城区,17306750650,unknown,
baidu,3a0a78bd56ed90e3621809e2,南都酒店(人民中路店),浙江省绍兴市越城区人民中路245号,浙江省,绍兴市,越城区,(0575)85136655,unknown,
baidu,6ad480be7ad1ff6990114c77,乐隐山房,浙江省绍兴市越城区蕺山街道环城北路620号,浙江省,绍兴市,越城区,,unknown,
baidu,108c64655ed4f45009b93af2,雪花宾馆,绍兴市越城区解放北路兴文公寓东侧约100米,浙江省,绍兴市,越城区,,unknown,
baidu,e915b25db1586efeb75f1e41,新唐皇大酒店,浙江省绍兴市越城区新建北路418号,浙江省,绍兴市,越城区,,unknown,
baidu,37ec75b99176742201294f76,璞尚酒店,绍兴市越城区中兴中路中兴公寓-南区东北侧,浙江省,绍兴市,越城区,,unknown,
baidu,0259f9c87b37a1ded12dd67c,乐平公寓酒店,浙江省绍兴市越城区解放北路98号,浙江省,绍兴市,越城区,,unknown,
baidu,f2f15ffb10244a89621c67b2,兴文公寓,浙江省绍兴市越城区兴文桥直街14号,浙江省,绍兴市,越城区,,unknown,
baidu,e8c9aa88cd14fc517c29bd48,绍兴小牛家公寓,越城区中兴路188号中兴公寓南区一号楼(鲁迅故里周恩来故居书圣故居),浙江省,绍兴市,越城区,18057501615,unknown,
baidu,e4f31743ed7dae85b2077db4,越国宾馆(石家池沿),浙江省绍兴市越城区蕺山街道石家池沿27,浙江省,绍兴市,越城区,,unknown,
baidu,4ab9a0f72cc3f85bdf1e52d8,绍兴世茂假日酒店-大堂,浙江省绍兴市越城区胜利东路355号世茂湖滨商业中心,浙江省,绍兴市,越城区,,unknown,
baidu,75d2afccd708e2e19ff77917,德国马牌轮胎(明驰汽车维修中心店),越城区府山街道北海桥直街179号,浙江省,绍兴市,越城区,13216789959,unknown,
baidu,cab05650261a21e5f02d8393,途虎养车(绍兴东池路店),浙江省绍兴市越城区东池路116号,浙江省,绍兴市,越城区,(0575)85386009,unknown,
baidu,d462091225d7b654901fc99e,蔚来中心(绍兴世茂广场店),浙江省绍兴市越城区迪荡街道胜利东路360号(绍兴世茂广场)第一层1-A-15A、第二层2-A-15A,浙江省,绍兴市,越城区,13162596801,unknown,
baidu,a4d5fed8d3c91506f4eafc6a,中立皇汽车美容服务中心,仓弄与东池路交叉口西南120米,浙江省,绍兴市,越城区,(0575)85229193,unknown,
baidu,af006c415d121038db131846,驰加汽车服务中心(东池路店),府山街道东池路20、22、24、28、30号,浙江省,绍兴市,越城区,"(0575)85085688,13777316650",unknown,
baidu,300995dbf693f84f79b55c6a,尚酷汽车4S(绍兴店),昌安农贸市场北20-22号,浙江省,绍兴市,越城区,15157548457,unknown,
baidu,e2d9f5fb6b0f83b354bfff2b,乐洗车(世茂广场绍兴越城店),胜利东路欧尚超市3楼停车场,浙江省,绍兴市,越城区,18157537859,unknown,
baidu,600fe85bb45de737b05c6a65,创世纪汽修,浙江省绍兴市越城区环城东路1807号,浙江省,绍兴市,越城区,15958556608,unknown,
baidu,10270ff0f34040f7b6147faf,腾势汽车(绍兴迪荡腾势体验店),浙江省绍兴市越城区胜利东路410号,浙江省,绍兴市,越城区,(0575)88329688,unknown,
baidu,15d117fc383cc53ec72ba151,万豪汽车美容养护中心,中兴北路247号(洪欣家园旁),浙江省,绍兴市,越城区,13095668510,unknown,
baidu,2ae5188246d98438cd06a4ee,钟乐汽修24小时救援拖车补胎搭电,环城东路1809号-1811,浙江省,绍兴市,越城区,13170229915,unknown,
baidu,0eaf084e619e2b70d8ecedf0,TOP+汽车服务,浙江省绍兴市越城区兴文桥直街98号,浙江省,绍兴市,越城区,13615759292,unknown,
baidu,6f39e3251d20f19335b06ce6,口袋汽车(极速摩尔城一店),北海桥直街167号,浙江省,绍兴市,越城区,(0575)85163030,unknown,
baidu,b94ce0c86456e01e2ab97c01,东站微型车配件,浙江省绍兴市越城区东池路仓弄1号,浙江省,绍兴市,越城区,"(0575)85147034,13395755342",unknown,
baidu,33955cece7d791915fd4fe50,绍兴风影轮胎店,浙江省绍兴市越城区延安路669号,浙江省,绍兴市,越城区,13004608196,unknown,
baidu,31d5de9cb53d2d7931169b2b,黑崎汽车服务,浙江省绍兴市越城区引虎弄95号,浙江省,绍兴市,越城区,15857584260,unknown,
baidu,325d576b47c037c85cd4fea7,途虎养车工场店(绍兴车站北路店),车站北路186—194号(途虎养车工场店),浙江省,绍兴市,越城区,,unknown,
baidu,cfdeafa4d5d7c2b845e274c6,一嗨租车(绍兴火车站店),浙江省绍兴市越城区车站路玛格丽特商业中心西区3幢22号,浙江省,绍兴市,越城区,(0575)88583070,unknown,
baidu,11614c5a2b85c1fba8f0cd94,阿伟轿修搭电补胎换电瓶拖车救援,北海桥直街133号,浙江省,绍兴市,越城区,18154000879,unknown,
baidu,18963cbe0db10262c17da2f3,城东原汽车城,绍兴市越城区迪荡街道人民东路179号,浙江省,绍兴市,越城区,,unknown,
baidu,db7fd2aabed94a6a13293519,唯美汽车服务,浙江省绍兴市越城区环城北路33号摩尔城御景园13幢14~16号,浙江省,绍兴市,越城区,18106808051,unknown,
baidu,5092baf4e9b8d3d80ab93aad,联乡汽车出租服务部,浙江省绍兴市越城区昌安街224号,浙江省,绍兴市,越城区,13906751082,unknown,
baidu,7efc1236f67ef7b63010afd2,绍兴市区出租汽车综合服务中心,绍兴市越城区车站西路清水嘉苑西北侧约80米,浙江省,绍兴市,越城区,,unknown,
baidu,f976b4e337997919704b8736,明华轿车维修搭电换电瓶,绍兴市越城区车站西路清水嘉苑西北侧约70米,浙江省,绍兴市,越城区,18154000879,unknown,
baidu,35e96b930c88f615d518b76d,光华汽车轮胎电瓶店,浙江省绍兴市越城区后墅南路129号,浙江省,绍兴市,越城区,15305850562,unknown,
baidu,dad37f6d5909b5bc1e580052,车享家汽车养护中心(车站北路店),车站北路,浙江省,绍兴市,越城区,(0575)88265705,unknown,
baidu,89d20bf265c89f124f3a599a,小久窝城市展厅,浙江省绍兴市越城区中兴北路569-10号,浙江省,绍兴市,越城区,,unknown,
baidu,d8eba85297c7f9aa147643c0,亿界租车,浙江省绍兴市越城区环城北路79号,浙江省,绍兴市,越城区,15068526617,unknown,
baidu,86273845b31383ad6d20b925,禹建汽车修理站,浙江省绍兴市越城区延安东路4号,浙江省,绍兴市,越城区,13325959116,unknown,
baidu,9b5b203ec2eb4c714002450d,钜轩汽车微修全国连锁(官渎路店),浙江省绍兴市越城区官渎路辕门水景公寓东北侧约170米,浙江省,绍兴市,越城区,,unknown,
baidu,82beb2305ec887f00f0a7024,车辆配件商行(北海花园店),浙江省绍兴市越城区北海路186号,浙江省,绍兴市,越城区,,unknown,
baidu,593ccc3659b5a27b100daacd,神州连合租车(东池路店),浙江省绍兴市越城区东池路282号,浙江省,绍兴市,越城区,(0575)85229998,unknown,
baidu,961622e0bebf0f9f1c389482,绍兴市路垚汽车租赁有限公司,浙江省绍兴市越城区胜利东路392号阳光大厦1601-10号,浙江省,绍兴市,越城区,"13357527907,13732475761",unknown,
baidu,3d6088988b15f2999ee321fc,派特医疗 · 绍兴井康诊所(世贸店),浙江省绍兴市越城区东池路32、34、36、38-1号,浙江省,绍兴市,越城区,18957551900,unknown,
baidu,7e5300b679236c613310afe9,绍兴爱尔眼科,"浙江省绍兴市越城区胜利东路289号(老海关,世茂广场向西200米)",浙江省,绍兴市,越城区,0575-89111000,unknown,
baidu,719c86a552239bf03913fda8,绍兴市越城区府山街道社区卫生服务中心(白马分中心),浙江省绍兴市越城区白马路白马新村41幢,浙江省,绍兴市,越城区,,unknown,
baidu,7e61247f5527122a08f5ebee,王秀全中医门诊,浙江省绍兴市越城区长桥直街126号,浙江省,绍兴市,越城区,13626860128,unknown,
baidu,75d0881afedb194c3b04b1a4,浙江震元(香桥药店),浙江省绍兴市越城区胜利东路181号,浙江省,绍兴市,越城区,(0575)85118292,unknown,
baidu,2baa085486d8277b4107c15c,绍兴爱尔眼科医院-视光中心,绍兴市越城区胜利东路绍兴爱尔眼科医院,浙江省,绍兴市,越城区,,unknown,
baidu,10f53e98e3a1e36b441a32c8,越中牙科美容,浙江省绍兴市越城区中兴中路353号,浙江省,绍兴市,越城区,,unknown,
baidu,c049b5548205812381a12eab,府山街道团结社区卫生服务站,浙江省绍兴市越城区团箕巷52号,浙江省,绍兴市,越城区,,unknown,
baidu,2527be1e17d271b24bfc8da7,章伟诊所,浙江省绍兴市越城区白马路145号,浙江省,绍兴市,越城区,(0575)88852117,unknown,
baidu,69cc5c598f36d9b1902ca37b,华肤中医皮肤专科,浙江省绍兴市越城区中兴中路72号,浙江省,绍兴市,越城区,(0575)88828885,unknown,
baidu,b9c11e3bb8a1a28bf6c59c14,下方桥里西房三六九吕大陆伤科,越城区龙山后街54号,浙江省,绍兴市,越城区,,unknown,
baidu,33ee662ebfd72163d92f28af,肝病专科,越城区长桥直街126号,浙江省,绍兴市,越城区,13626860128,unknown,
baidu,62a15629d8876c25cc06a4ca,Hyoung禾漾医疗,浙江省绍兴市越城区人民中路575号兴虹文创园3幢,浙江省,绍兴市,越城区,,unknown,
baidu,a6091f28c3531d82f1193725,王永明中医诊所,绍兴市越城区东街马弄住宅-西区西北侧,浙江省,绍兴市,越城区,,unknown,
baidu,8cfe1d5ef4ebc64f6b49f3ca,绍兴维美美容医院,浙江省绍兴市越城区解放北路玛格丽特商业中心3幢,浙江省,绍兴市,越城区,(0575)88016872,unknown,
baidu,4b0c9c984b68e013c8c3db4a,迪荡街道蕺山社区卫生服务站,绍兴市越城区鞋子畈路昌安鞋子畈-北区西侧,浙江省,绍兴市,越城区,,unknown,
baidu,8cb565164754c5d01894c6dd,杭州口腔医院(越城分院),浙江省绍兴市越城区解放北路180号,浙江省,绍兴市,越城区,4000600763,unknown,
baidu,936a27c326c72cca21f017c5,绍兴第二医院,浙江省绍兴市越城区延安路123号,浙江省,绍兴市,越城区,(0575)88055555,unknown,
baidu,c8b5cdef83ea8602120daaaf,越城区疾病预防控制中心,浙江省绍兴市越城区保佑桥直街37号,浙江省,绍兴市,越城区,(0575)85098509,unknown,
baidu,06738038628b8cf7bd484235,康合营养家(金鑫大厦店),浙江省绍兴市越城区中兴中路298金鑫大厦F1,浙江省,绍兴市,越城区,,unknown,
baidu,65c27b600a807577fe0eb072,绍兴市妇幼保健院-发热门诊,绍兴市越城区东街305号绍兴市妇幼保健院,浙江省,绍兴市,越城区,,unknown,
baidu,f2668dc225640b652806ce64,绍兴市妇幼保健院-独立诊疗室,绍兴市越城区东街305号绍兴市妇幼保健院,浙江省,绍兴市,越城区,,unknown,
baidu,6eb85db110fde0d558f6be59,震元堂(胜利东路店),浙江省绍兴市越城区胜利东路1号,浙江省,绍兴市,越城区,(0575)85125631,unknown,
baidu,8b6190f29a37361707026f49,绍兴市越城区府山街道社区卫生服务中心,浙江省绍兴市越城区司狱使前15号,浙江省,绍兴市,越城区,(0575)88774000,unknown,
baidu,fccb205ebbdc4fa0130daa0e,绍兴市中医院,浙江省绍兴市越城区人民中路641号,浙江省,绍兴市,越城区,(0575)89102208,unknown,
baidu,553ed8842a54908baaf0cd57,绍兴市康复医院绍兴文理学院附属医院(昌安分院),浙江省绍兴市越城区中兴北路310号,浙江省,绍兴市,越城区,(0575)81506122,unknown,
baidu,04bdf4a3ec951e4e344aaea4,浙江震元老三瑞药店,浙江省绍兴市越城区中兴中路276号现代大厦A座8楼,浙江省,绍兴市,越城区,(0575)85132784,unknown,
baidu,f9fd1853c687866dc61b751b,绍兴锦乐健康管理,绍兴市越城区保佑桥直街东连河小区东北侧,浙江省,绍兴市,越城区,,unknown,
baidu,c53d345f6ce3de8f9122e020,绍兴市中医院-医疗便民服务,人民中路641号绍兴市中医院,浙江省,绍兴市,越城区,,unknown,
baidu,cfaf48d743f34fcccbfa5f6f,何奇一口腔诊所,浙江省绍兴市越城区中兴北路206号,浙江省,绍兴市,越城区,,unknown,
baidu,3ae730ba294a272159bbbced,医保定点药店,绍兴市越城区中兴中路现代大厦,浙江省,绍兴市,越城区,,unknown,
baidu,48c369c8591771fd744ff1f3,黄志芳牙科,浙江绍兴市越城区解放北路564号商业中心6号楼215室,浙江省,绍兴市,越城区,,unknown,
baidu,3f9337d694fc6ecef7231021,越城区塔山街道社区卫生服务中心,浙江省绍兴市越城区稽山路273号,浙江省,绍兴市,越城区,,unknown,
baidu,a74435ff2cd707a3b34c49fb,绍愈堂,浙江省绍兴市越城区中兴北路311号,浙江省,绍兴市,越城区,,unknown,
baidu,56efbe9925749b5876e5b611,绍兴市人民医院,浙江省绍兴市越城区中兴北路568号,浙江省,绍兴市,越城区,"(0575)82308888,(0575)88508888",unknown,
baidu,218c9fa8817d12c843e192bd,绍兴京韩口腔医院,延安路662号1-5层,浙江省,绍兴市,越城区,13095699792,unknown,
baidu,74f9e7fe5bbf8c08c6effb7b,诊所,浙江省绍兴市越城区城市广场仓桥直街25号,浙江省,绍兴市,越城区,,unknown,
baidu,d991e1160568d4541e3894a4,华枫医药(宝仁堂店),浙江省绍兴市越城区府山街道解放北路286号一楼-1,浙江省,绍兴市,越城区,(0575)85132797,unknown,
baidu,06f19aff38ad4475b13c8123,牙科,绍兴市越城区鞋子畈路昌安鞋子畈-北区西侧约30米,浙江省,绍兴市,越城区,,unknown,
baidu,beabdbf40d2b35e57069d3da,绍兴市人民医院-门诊,浙江省绍兴市越城区中兴北路568号,浙江省,绍兴市,越城区,,unknown,
baidu,f78208fdcf757aacfbf0cbba,高师傅灰指甲(东双桥老店),浙江省绍兴市越城区东街115号,浙江省,绍兴市,越城区,15958503030,unknown,
baidu,41cc8f74d0ee9a6d59bbbc30,菱朝博爱献血屋,浙江省绍兴市越城区东街35号,浙江省,绍兴市,越城区,(0575)85081616,unknown,
baidu,750ec16551bc2d564c3a5926,绍兴市人民医院-住院部,浙江省绍兴市越城区中兴北路568号,浙江省,绍兴市,越城区,,unknown,
baidu,71b69738d37912422dfaa741,浙江震元医药门市部(交通大厦店),解放北路158号(火车站地铁站C2口步行460米),浙江省,绍兴市,越城区,(0575)85138881,unknown,
baidu,73c6a171dc0aaa05901fc94b,绍兴市中医院-急诊住院楼,人民中路绍兴市中医院4号楼,浙江省,绍兴市,越城区,,unknown,
baidu,2a0f0f46d9366a59250bd084,迪荡街道昌安社区卫生服务站,绍兴市越城区昌安街昌安东村社区,浙江省,绍兴市,越城区,,unknown,
baidu,b64e14c7145ad0d82a02e18d,绍兴市人民医院-健康管理(体检)中心,中兴北路568号绍兴市人民医院,浙江省,绍兴市,越城区,,unknown,
baidu,a2ec17f0f8aa5099ca1b951d,杭康眼科诊所,绍兴市越城区胜利东路阳光大厦,浙江省,绍兴市,越城区,,unknown,
baidu,8ab0dfc404826b17d9ecedac,老百姓大药房(绍兴店),浙江省绍兴市越城区人民中路399号,浙江省,绍兴市,越城区,"13305753152,4006252888",unknown,
baidu,966bda81d638ccd1b6f42f04,自然之声助听器(越城店),浙江省绍兴市越城区中兴中路116号,浙江省,绍兴市,越城区,15325250659,unknown,
baidu,ccb71a6bfd4749feca2915a9,儿诚康诊所,浙江省绍兴市越城区环城北路362-1号,浙江省,绍兴市,越城区,,unknown,
baidu,dadf46bdfd8999ae42d63ea3,数字化隐形矫正中心,浙江省绍兴市越城区胜利东路355号世茂湖滨商业中心F1,浙江省,绍兴市,越城区,,unknown,
baidu,774d6baab71ad75308ccdde3,绍兴市中医院-肠道门诊,人民中路641号绍兴市中医院,浙江省,绍兴市,越城区,,unknown,
baidu,251374c9bdcfe33ea01de9ac,惠民堂药店(新建南路店),浙江省绍兴市越城区新建南路16号,浙江省,绍兴市,越城区,18505755335,unknown,
baidu,fea5ff12ee64db0b5cbe864b,新时优品健康管理服务中心,绍兴市越城区中兴北路家宜花园,浙江省,绍兴市,越城区,,unknown,
baidu,dbe2e6580d763cba72210bd5,老钱家妇科,绍兴市越城区宣化坊越园东侧约50米,浙江省,绍兴市,越城区,,unknown,
baidu,ab0b6ddc068da1932bb97c24,绍兴市中医院-发热门诊CT室,人民中路641号绍兴市中医院,浙江省,绍兴市,越城区,,unknown,
baidu,09830c14a2f39e9bad31e567,绍兴市中医院-儿科发热门诊,人民中路641号绍兴市中医院,浙江省,绍兴市,越城区,,unknown,
baidu,c17fa2017c64836ed5b74ecb,门诊,绍兴市越城区中兴北路绍兴市康复医院绍兴文理学院附属医院(昌安分院),浙江省,绍兴市,越城区,,unknown,
baidu,5682e1cb0f7de74678b55c87,绍兴市中医院-医技楼,人民中路绍兴市中医院6号楼,浙江省,绍兴市,越城区,,unknown,
baidu,24c2ddd5aa6a4a9890114cc0,世茂大药房(迪荡中心店),浙江省绍兴市越城区胜利东路365富绅大厦F1,浙江省,绍兴市,越城区,(0575)81507771,unknown,
baidu,fa3b3db5580cea8b71455bd2,艾灸养生诊所,绍兴市越城区中兴北路绍兴市康复医院绍兴文理学院附属医院(昌安分院),浙江省,绍兴市,越城区,,unknown,
baidu,e3d3f7b895473fdf1e1d110d,卒中中心,绍兴市越城区人民中路绍兴市中医院,浙江省,绍兴市,越城区,,unknown,
baidu,8435043eeda04f73ad0457bf,绍兴市中医院-急诊,人民中路641号绍兴市中医院,浙江省,绍兴市,越城区,,unknown,
baidu,8595eec9b675110276e5b6b2,绍兴极草5X冬虫夏草,浙江省绍兴市越城区迪荡湖路73号北辰广场1幢14层1403室,浙江省,绍兴市,越城区,,unknown,
baidu,5aa6dbd2a583e03b79dbd267,浙江震元(昌安药店),浙江省绍兴市越城区中兴北路105~109号,浙江省,绍兴市,越城区,(0575)88023853,unknown,
baidu,4e320d0f1de3636e96ca07ae,同仁堂(仓桥直街历史街区店),浙江省绍兴市越城区人民西路168号,浙江省,绍兴市,越城区,,unknown,
baidu,1d7b84fb0ef3175c6218098a,华枫医药(仁寿堂),浙江省绍兴市越城区中兴北路96~100号,浙江省,绍兴市,越城区,(0575)88018538,unknown,
baidu,108b688eeecf0f523010af29,浙江震元(稽山路大药房),浙江省绍兴市越城区稽山路87号、89号、91号,浙江省,绍兴市,越城区,(0575)88129904,unknown,
baidu,e45d108dcb23135000ff2dee,越城景岳堂国药馆,越城区塔山街道中兴南路81-87号,浙江省,绍兴市,越城区,(0575)88368368,unknown,
baidu,764672e5d4e33aac95ec84ac,浙江震元人民药店(人民公寓店),浙江省绍兴市越城区人民中路357-359号,浙江省,绍兴市,越城区,(0575)85135575,unknown,
baidu,15e1e85e9113a7a3591093ac,震元(光裕堂药店),浙江省绍兴市越城区解放南路235号,浙江省,绍兴市,越城区,(0575)85131118,unknown,
baidu,cd01e5b81f277191df1e529b,AED(鲁迅电影成),绍兴市越城区县前街45号一楼大厅,浙江省,绍兴市,越城区,,unknown,
baidu,541af476d71d53e804fef532,绍兴市北方大药房(玛格丽特商业中心店),浙江省绍兴市越城区解放北路玛格丽特商业中心西区3幢18号,浙江省,绍兴市,越城区,18267112118,unknown,
baidu,c5be5d07c0e05ffde115f9c8,原张氏御草堂,浙江省绍兴市越城区龙山后街53号,浙江省,绍兴市,越城区,13505756096,unknown,
baidu,608dfdef17943790aeb22ac9,华枫医药(玛格丽特店),浙江绍兴市越城区金柯桥大道绍兴玛格丽特商业中心6幢810室,浙江省,绍兴市,越城区,,unknown,
baidu,8eb48fa160a098dbf32d8379,浙江震元善禄堂药店,浙江省绍兴市越城区中兴北路636号,浙江省,绍兴市,越城区,(0575)88202070,unknown,
baidu,e514e4dafd88b8c70ab93a34,净肤堂胡氏正方全国连锁(人民中路店),浙江省绍兴市越城区人民中路378号,浙江省,绍兴市,越城区,,unknown,
baidu,087acd4ee25d7fb13617dc06,AED(绍兴市越城区行政中心),绍兴市越城区迪荡新城惠利街20号三楼,浙江省,绍兴市,越城区,,unknown,
baidu,dd15b3ac161767a05d17c398,寿仙谷药业(绍兴店),浙江省绍兴市越城区环城东路1855号,浙江省,绍兴市,越城区,(0575)88193097,unknown,
baidu,d1e763da63d567821188246e,华通医药(海圣医药店),浙江省绍兴市越城区中兴南路20号,浙江省,绍兴市,越城区,,unknown,
baidu,fc19dfde50298c48c42ba116,聆希助听器,绍兴市越城区人民西路鲁迅小学(人民路校区)东南侧约60米,浙江省,绍兴市,越城区,,unknown,
baidu,c373ed0ea4c50c15b23c8198,益草堂参茸,浙江省绍兴市越城区府横街200号,浙江省,绍兴市,越城区,,unknown,
baidu,c53a730ef3606e0b47e274b0,王方灰指甲,绍兴市越城区胜利西路绍兴市第一初级中学教育集团(胜利西路)西南侧约40米,浙江省,绍兴市,越城区,,unknown,
baidu,2da33928bcec1f98774ff116,蜜拓蜜国人健康管理中心(绍兴总店),浙江省越城区玛格丽特开元休闲楼下,浙江省,绍兴市,越城区,,unknown,
baidu,28ae63d773fb358640e1927e,大越医疗美容,浙江省绍兴市越城区县前街23号2楼,浙江省,绍兴市,越城区,,unknown,
baidu,a0281402262b452e28201ac7,仁慈堂,浙江省绍兴市越城区八字桥直街102号,浙江省,绍兴市,越城区,,unknown,
baidu,4dfd1aa48e6a8c339d82ea13,张国兴口腔,浙江省绍兴市越城区惠利街23号,浙江省,绍兴市,越城区,(0575)88126558,unknown,
baidu,e9509e267c23709f2102624e,松丰口腔(绍兴旗舰店),浙江省绍兴市越城区人民中路231号,浙江省,绍兴市,越城区,,unknown,
baidu,eebbb196aa61b583bea240a7,MOUTH RAINBOW(绍兴国金大悦城店),东街57号大悦城F1,浙江省,绍兴市,越城区,,unknown,
baidu,75517b67e97d826f9122e047,春华教育(越城校区),浙江省绍兴市越城区胜利西路157号2楼北门（假日新天地）,浙江省,绍兴市,越城区,13396663365,unknown,
baidu,890548341d19bcfdd1f49ec4,花泽美学形象设计培训学校(越城校区),府山街道现代大厦B楼2楼,浙江省,绍兴市,越城区,"15267265210,15505750079,15505750089",unknown,
baidu,bd066d14346ce844db13185e,中兴会计培训(白马庙前),浙江省绍兴市越城区中兴中路287号时代大厦706室,浙江省,绍兴市,越城区,(0575)85126169,unknown,
baidu,523737d2e55fec3dfbf0cb73,琴悦音乐培训,浙江省绍兴市越城区保佑桥直街207号,浙江省,绍兴市,越城区,13675727507,unknown,
baidu,a109697423de60f4f8221308,果乐成长中心(世茂店),浙江省绍兴市越城区东池路78号2层,浙江省,绍兴市,越城区,(0575)88755787,unknown,
baidu,7b81593f6f9fe1db6f4760da,天鹅湖芭蕾舞(胜利东路校区),浙江省绍兴市越城区胜利东路306号（爱尔眼科对面）,浙江省,绍兴市,越城区,18657536872,unknown,
baidu,b54be01e2fba39360482c25d,优一儿童发展中心,浙江省绍兴市越城区中兴中路288号现代大厦B座3楼,浙江省,绍兴市,越城区,18106890020,unknown,
baidu,63874bfcd1c8b7740aa8d46f,党员电教大楼-电教中心,浙江省绍兴市越城区胜利东路132号党员电教大楼7楼,浙江省,绍兴市,越城区,,unknown,
baidu,0738520ef0e8845f4002455f,小燕子艺术中心(假日新天地店),浙江省绍兴市越城区胜利西路157号假日新天地北1楼,浙江省,绍兴市,越城区,(0575)85139880,unknown,
baidu,af20a0fede410fc4364aae47,西街书画社,浙江省绍兴市越城区书圣故里西街99号,浙江省,绍兴市,越城区,13157583662,unknown,
baidu,f7523264068b76446ca3ccee,海亮优智少儿编程(越城校区),浙江省绍兴市越城区胜利西路155-157号假日新天地一楼海亮优智越城校区,浙江省,绍兴市,越城区,18329199154,unknown,
baidu,1e150b4703687de129fc48fe,新舞止境艺术中心(国金大悦城店),浙江省绍兴市越城区东街57号国金大悦城L3-01号商铺,浙江省,绍兴市,越城区,(0575)85120868,unknown,
baidu,1ab0b6fb6efcfd7801897204,武杰跆拳道培训中心(府山横街店),浙江省绍兴市越城区府山横街93号越都商城F4,浙江省,绍兴市,越城区,(0575)85125259,unknown,
baidu,61e93f1cddf564e829b97c31,优路教育(绍兴校区),浙江省绍兴市越城区迪荡湖路73号北辰广场1幢13楼01室,浙江省,绍兴市,越城区,15088780336,unknown,
baidu,949f3206f35a14da02897233,有琴有艺培训中心(迪荡店),绍兴市越城区东池路白马新村东南侧约50米,浙江省,绍兴市,越城区,,unknown,
baidu,beabdbf4a2d19e997169d3a1,继昌幼儿园(宋梅桥园区),浙江省绍兴市越城区中兴中路271号,浙江省,绍兴市,越城区,(0575)85146010,unknown,
baidu,1500d086861d2bbd1b11d5ba,绍兴才思国际象棋培训中心,浙江省绍兴市越城区解放北路399号,浙江省,绍兴市,越城区,,unknown,
baidu,a8aa502c0f6b2445f33cbaf7,绍兴市铭智外语培训学校(绍兴迪荡街道校区),浙江省绍兴市越城区迪荡湖路79号北辰广场1幢8楼,浙江省,绍兴市,越城区,,unknown,
baidu,25a19068fb1c57c1c4f50dc4,舞秀舞蹈培训(十四年老店),浙江省绍兴市越城区中兴中路108号红太阳写字楼7楼701室（东街与中心路交叉口）,浙江省,绍兴市,越城区,15925888088,unknown,
baidu,37cd625de3ded212ddee8b54,绍兴淘宝电商培训中心,浙江省绍兴市越城区胜利东路17号凯盛国际大厦16楼1640室,浙江省,绍兴市,越城区,"(0575)85086673,13675771635",unknown,
baidu,2a169a59f8e923b3eb1e973a,培飞思维馆(国金大悦城店),东街57号大悦城F3,浙江省,绍兴市,越城区,,unknown,
baidu,e73ed638b0a1225f6140a974,红火舞蹈街舞工作室,胜利东路世贸湖滨新天地1幢225号,浙江省,绍兴市,越城区,15258378065,unknown,
baidu,7dca7de58f63ee0c49fc8d25,路径艺体家(八佰伴购物中心越城店),浙江省绍兴市越城区解放北路199号八佰伴购物中心F2,浙江省,绍兴市,越城区,,unknown,
baidu,a072ed5717512ddef942b283,绍兴教师证培训学校,浙江省绍兴市越城区胜利东路17号凯盛国际大厦16楼1645号,浙江省,绍兴市,越城区,,unknown,
baidu,d716195956118eab15a190af,绍兴在职研究生培训中心,浙江省绍兴市越城区胜利东路17号1608室,浙江省,绍兴市,越城区,(0575)85086673,unknown,
baidu,172e74c0cfa27ac3eedfca6d,壹叶筝舍,浙江省绍兴市越城区人民中路575号2幢402室,浙江省,绍兴市,越城区,15068548805,unknown,
baidu,c99d9d38b2effb56715e8067,世天儿童发展中心(阳光大厦店),浙江省绍兴市越城区胜利东路390-394号阳光大厦3层,浙江省,绍兴市,越城区,(0575)88120821,unknown,
baidu,dfcc0c27bd632bb32dfaa7be,爱米儿创艺美术馆(八佰伴店),浙江省绍兴市越城区解放北路199号八佰伴购物中心F3,浙江省,绍兴市,越城区,(0575)88777873,unknown,
baidu,3527e40748a735905abbbccc,誉鹰娃娃幼儿足球成长中心,绍兴市越城区解放北路绍兴市国商大厦(解放北路店)东侧约60米,浙江省,绍兴市,越城区,,unknown,
baidu,12a35dba5800b1e8f6eafc8d,棒棒堂培训学校(堂劳动路校区),浙江省绍兴市越城区劳动路6号2楼,浙江省,绍兴市,越城区,,unknown,
baidu,4fc3161aaced13a83b13fda1,树人中学,浙江省绍兴市越城区长桥直街38号,浙江省,绍兴市,越城区,(0575)85135014,unknown,
baidu,2150fcacf4735e3e1df74d19,惠风棋院(少儿围棋国象),浙江省绍兴市越城区人民中路575号兴虹文创园17幢(水塔旁),浙江省,绍兴市,越城区,17369620882,unknown,
baidu,d8829a22b2888f9b7ab55c27,宇州古筝,浙江省绍兴市越城区迪荡街道东池路118号三楼322-323室,浙江省,绍兴市,越城区,13606555880,unknown,
baidu,4ac18857a9225eb86f3e1be0,广电星学院,浙江省绍兴市越城区胜利西路287号4楼,浙江省,绍兴市,越城区,,unknown,
baidu,1e1cba5ddc9b433543afe677,乾元书法学堂,浙江省绍兴市越城区胜利西路3楼,浙江省,绍兴市,越城区,18248621798,unknown,
baidu,fb79d3177432d403f50e7728,孑民图书馆,浙江省绍兴市越城区毗邻蔡元培故居书圣故里历史街区的西入口,浙江省,绍兴市,越城区,(0575)87372003,unknown,
baidu,89ea4d34d0475c5daa0dd898,一飞画廊,浙江省绍兴市昌安街40号,浙江省,绍兴市,越城区,13626862200,unknown,
baidu,2e9a56993e4e0f4e6cc02c83,童憬美术(大悦城校区),浙江省绍兴市越城区东街57号绍兴国金大悦城F3,浙江省,绍兴市,越城区,(0575)85551069,unknown,
baidu,bafe63501a60bdbf3be4a69f,立青艺术,浙江省绍兴市越城区胜利西路287号,浙江省,绍兴市,越城区,13989578054,unknown,
baidu,d5f1c7f02c9af2fcd81318b8,对面美术美术培训中心,浙江省绍兴市越城区范蠡路世贸阳光大厦301室,浙江省,绍兴市,越城区,,unknown,
baidu,2cc3c8e8760c79d74c2fdfa1,阳光幼儿园,浙江省绍兴市越城区白马路前赵22幢,浙江省,绍兴市,越城区,(0575)88026483,unknown,
baidu,e399847b6b931de15cd4fe9c,绍兴技师学院老年大学,浙江省绍兴市越城区学士街49号,浙江省,绍兴市,越城区,,unknown,
baidu,e313614f815eb7b5471a32e5,百盛购物中心-员工区域,浙江省绍兴市越城区胜利东路360号绍兴世茂百盛百盛购物中心F3,浙江省,绍兴市,越城区,,unknown,
baidu,bd2956206cfc96c99a0050d7,图芭蕾·专业芭蕾艺术教育中心(大滩校区),浙江省绍兴市越城区大滩坤和壹号大厦山水广场东侧2楼,浙江省,绍兴市,越城区,18957525181,unknown,
baidu,08760d3368e7baa517b54be1,思蒂编程科技(越都商城店),越城区府横街馥馨阁3楼,浙江省,绍兴市,越城区,(0575)88601568,unknown,
baidu,fa01e937f7c92d4b764ff1a1,绍兴市蕺山中心小学(书圣校区),浙江省绍兴市越城区石家池沿131号,浙江省,绍兴市,越城区,"(0575)85086317,(0575)85086318",unknown,
baidu,fbd7d9b715ae17222cb17e1f,新雷艺术培训中心(越都商城店),浙江省绍兴市越城区府山横街93号越都商城F4,浙江省,绍兴市,越城区,15157571010,unknown,
baidu,b3f0ee2d4060fdbf17948e86,李世南大写意艺术研究中心,浙江绍兴市越城区扇桥直街20号,浙江省,绍兴市,越城区,,unknown,
baidu,1feabfa2eb94f3a9ca09f064,新航道优加青少英语(胜利东路),绍兴市越城区北辰广场8楼,浙江省,绍兴市,越城区,(0575)88001776,unknown,
baidu,849ac256fdc3bb6c09b93ad0,树澜技校职业技能培训,浙江省绍兴市越城区塔山街道环城西路440,浙江省,绍兴市,越城区,13305757006,unknown,
baidu,cf3b3d35daa07d5d7dc87693,沉墨自习室,范蠡路与胜利东路交叉口东南60米阳光大厦15层1502-2室,浙江省,绍兴市,越城区,,unknown,
baidu,f4212d3e076fad124bfc8d98,秋枫书院,浙江省绍兴市越城区中兴北路138-142号,浙江省,绍兴市,越城区,15257585202,unknown,
baidu,b54522ea9fd1fcf0c4f02562,伟哲国际创意中心(三楼),绍兴市越城区胜利东路江南世家(胜利东路),浙江省,绍兴市,越城区,,unknown,
baidu,51efd887a6dafb144e5547ff,绍兴市第一初级中学教育集团(胜利西路),浙江省绍兴市越城区胜利西路213号（城市广场地铁站F口步行480米）,浙江省,绍兴市,越城区,(0575)85023606,unknown,
baidu,458a8fd5c7a7829da20464dc,北京华栋练字大讲堂(北海分部),浙江省绍兴市越城区丁家弄22号(北海小学新河弄校区对面),浙江省,绍兴市,越城区,18069610719,unknown,
baidu,e24b287900d54674cc06a482,绍兴市老年大学(公安分校),浙江省绍兴市越城区学士街49号,浙江省,绍兴市,越城区,(0575)85208140,unknown,
baidu,5508504d2b2bf6cac6f025a8,鲁迅小学(人民路校区),浙江省绍兴市越城区人民西路57号,浙江省,绍兴市,越城区,"(0575)89197500,(0575)89197507",unknown,
baidu,5985653379ce00104acc4a79,未来之星幼儿园,浙江省绍兴市越城区东街马弄78号,浙江省,绍兴市,越城区,(0575)85128519,unknown,
baidu,6fee6134fd33978336b06ca7,绍兴市标准化研究院,浙江省绍兴市越城区东池路105号特种设备检测院特种作业人员考试部,浙江省,绍兴市,越城区,,unknown,
baidu,dbf4d6eeeaf592546fa3ccce,北海小学(新河弄校区),浙江省绍兴市越城区新河弄129号（营桥直街交叉口东140米）,浙江省,绍兴市,越城区,(0575)85146245,unknown,
baidu,c3d321947fa525ac593ac874,绍兴市继昌幼儿园天下园区,环城北路绍兴天下花园东南门,浙江省,绍兴市,越城区,,unknown,
baidu,6fddd7fda9ec357e3417dca1,北海小学教育集团(胜利校区),浙江省绍兴市越城区胜利西路309号,浙江省,绍兴市,越城区,(0575)85146245,unknown,
baidu,9d4fc1f1f8e7403d5abbbc6e,鲁迅幼托中心(御景园区),浙江省绍兴市越城区迪荡湖路御景华庭14号楼,浙江省,绍兴市,越城区,(0575)88758150,unknown,
baidu,86bd85433707f4b3a7c7562c,未来之星中英文启步园,浙江省绍兴市越城区马弄78号,浙江省,绍兴市,越城区,(0575)85128519,unknown,
baidu,8edae9cf2ac1de720782c28a,绍兴鲁迅文学院,府山街道城市广场明珠苑旁龙珠里15号,浙江省,绍兴市,越城区,,unknown,
baidu,997ceadb094f19a29403192e,绍兴图书馆,绍兴市越城区塔山街道延安路565号,浙江省,绍兴市,越城区,(0575)88338211,unknown,
baidu,005861084077f0db46e27475,绍兴市塔山中心小学(延安路校区),浙江省绍兴市越城区延安路265号,浙江省,绍兴市,越城区,,unknown,
baidu,09185c56b5ee555cf01937a8,稽山中学,浙江省绍兴市越城区投醪河路105号,浙江省,绍兴市,越城区,(0575)88064620,unknown,
baidu,504d6113a64f23b2475726a8,鲁迅小学(和畅堂校区),浙江省绍兴市越城区环城西路501号,浙江省,绍兴市,越城区,(0575)85113296,unknown,
baidu,24d055081b7578ae138824a8,培新小学,浙江省绍兴市越城区塔山街道大教场沿80号,浙江省,绍兴市,越城区,(0575)85141550,unknown,
baidu,0523a141bfd00160b23c8178,北海小学教育集团(龙洲校区),浙江省绍兴市越城区迪荡湖路399号（龙洲花园西南）,浙江省,绍兴市,越城区,(0575)88005212,unknown,
baidu,661e665a828b1338c51b7544,绍兴市文物考古研究所,浙江省绍兴市越城区人民中路444号,浙江省,绍兴市,越城区,,unknown,
baidu,75036835c69fe4ae5f0d02a8,鲁迅幼托中心,浙江省绍兴市越城区环城西路499号,浙江省,绍兴市,越城区,(0575)85116297,unknown,
baidu,7c260c229a29881743ab9a93,乐汇托育,浙江省绍兴市越城区迪荡湖路龙洲花园,浙江省,绍兴市,越城区,17369593800,unknown,
baidu,2c63ded46926b9862fe67b86,蕺山中心小学(行知校区),浙江省绍兴市越城区寺池26号,浙江省,绍兴市,越城区,,unknown,
baidu,87248d96e3634cb22906cea1,三之三龙洲智能开发双语幼儿园,龙洲花园99幢,浙江省,绍兴市,越城区,(0575)88335133,unknown,
baidu,fdd6c4cd70d8f9cac4f025ba,昌安实验学校,浙江省绍兴市越城区引虎弄129号,浙江省,绍兴市,越城区,(0575)88267114,unknown,
baidu,99e4ac0fe3bb7e542d473320,大先生书房,绍兴市越城区鲁迅中路241号鲁迅故里,浙江省,绍兴市,越城区,,unknown,
baidu,f2b3739ac4d0be7480a00c82,绍兴文理学院附属中学,浙江省绍兴市越城区和畅堂路93号,浙江省,绍兴市,越城区,(0575)88062476,unknown,
baidu,1777c127e54ccd01374aae7b,越城区教研室,浙江省绍兴市越城区上大路248号,浙江省,绍兴市,越城区,,unknown,
baidu,bba873889ac57aa1bda822a8,绍兴市塔山中心小学(成章校区),浙江省绍兴市越城区大禅法弄4号,浙江省,绍兴市,越城区,(0575)85146121,unknown,
baidu,92e82b851ca71647acee7a3e,浙江省清廉文史研究(绍兴)基地,浙江省绍兴市越城区胜利西路163号,浙江省,绍兴市,越城区,,unknown,
baidu,b4f9e0ad212152758f55ec8b,上海建筑设计研究院,绍兴市越城区环城北路玛格丽特商业中心-东区东南侧约70米,浙江省,绍兴市,越城区,,unknown,
baidu,b2bb3fd161b73a083c9a5e83,小校场,浙江省绍兴市越城区胜利西路157号,浙江省,绍兴市,越城区,,unknown,
baidu,b9abfba3214ab7372b3a9fa2,越阅城市阅读空间,绍兴市越城区人民中路浙纸建国宾馆东侧约70米,浙江省,绍兴市,越城区,,unknown,
baidu,4ce661456512920eb45f1e91,新东方(府横街校区),浙江省绍兴市越城区府山横街140号盛财楼一楼,浙江省,绍兴市,越城区,0575-86582138,unknown,
baidu,71fff779f208f66cb13c81c3,绍兴市特种设备检测院,浙江省绍兴市越城区东池路105号,浙江省,绍兴市,越城区,,unknown,
baidu,e308284811e7cdbeb24c49b2,水木清华幼儿园,浙江省绍兴市越城区北海街道城北桥水木清华小区21幢旁,浙江省,绍兴市,越城区,,unknown,
baidu,ed2929d79ec879c58f55ec9a,绍兴市中医药文化研究所,绍兴市越城区马弄马弄东区,浙江省,绍兴市,越城区,,unknown,
baidu,cd9d05dd4c6223b784420ea7,时代大厦-地下停车场,绍兴市越城区中兴中路287号时代大厦,浙江省,绍兴市,越城区,,unknown,
baidu,bb6a1f0ac0dbd0d02ce67b34,公共自行车租赁点,绍兴市越城区胜利东路图书发行大楼,浙江省,绍兴市,越城区,,unknown,
baidu,af552b2b027187d0d8d891ae,乌篷船码头,蕺山街道题扇桥直街31号题扇桥,浙江省,绍兴市,越城区,(0575)85383760,unknown,
baidu,7613f180a8f4799b8505bf4e,宋梅桥(书圣故里),3A路;3B路;3路;8A路;8路;9路;13A路;13路;13路夜;18路;21路;25路;26路;68路;88路;111路;319路;BRT1号线;大禹号;快61路;快63路;快70路;快88路;专0005A路;专0005B路;专0005C路;专0005路;专0011路;专0017路,浙江省,绍兴市,越城区,,unknown,
baidu,990ebe0650e300ad2dfaa789,移动公司,3A路;3B路;3路;6A路;6B路;6路;9路;15路;18路;19路;22路;30路;37路;51路;57路;108A路;108路;166路;专0018路,浙江省,绍兴市,越城区,,unknown,
baidu,14f4cb922de700e70aa8d456,中国工商银行(绍兴分行)-停车场,浙江省绍兴市越城区中兴中路239号,浙江省,绍兴市,越城区,,unknown,
baidu,f0fa306a67b9803940e192de,书圣故里-地下停车场,浙江省绍兴市越城区中兴中路书圣故里,浙江省,绍兴市,越城区,,unknown,
baidu,767d9ca5ed297d3d8936ee23,书圣故里石家池-地上停车场,绍兴市越城区石家池沿92号,浙江省,绍兴市,越城区,,unknown,
baidu,7b2a0dc9be9bcc92f60e7770,书圣故里社区-地上停车场,浙江省绍兴市越城区环城北路620号,浙江省,绍兴市,越城区,,unknown,
baidu,68fbf37e36ff7a0be5073835,老妇保院,8A路;8路;13A路;13路;21路;22路;25路;30路;50路;57路;88路;111路;滨海定制公交2号线;快88路;专0011路;专0018路,浙江省,绍兴市,越城区,,unknown,
baidu,5677a96e0b3c3d42c27da2cc,月池坊广场-地下停车场,绍兴市越城区胜利东路电力大厦,浙江省,绍兴市,越城区,,unknown,
baidu,9be800c11cc1bc41a21de95d,城市广场,绍兴地铁1号线,浙江省,绍兴市,越城区,,unknown,
baidu,804a57f5b0e975ca82a12ec0,城市广场,绍兴地铁1号线,浙江省,绍兴市,越城区,,unknown,
baidu,b42553c53873106131870ada,绍兴市妇幼保健院南区-地上停车场,浙江省绍兴市越城区东街305号妇幼保健院内,浙江省,绍兴市,越城区,,unknown,
baidu,cf1d88aec0f01cb922026277,大悦城-地下停车场,浙江省绍兴市越城区东街57号,浙江省,绍兴市,越城区,,unknown,
baidu,8fac1dfe8795d63728d7ab0e,乌篷船码头,浙江省绍兴市越城区城市广场仓桥直街乌蓬船码头,浙江省,绍兴市,越城区,(0575)85383760,unknown,
baidu,43b7e889cb190f1758f6be43,城市广场-地下停车场,绍兴市越城区胜利西路(城市广场),浙江省,绍兴市,越城区,(0575)85178360,unknown,
baidu,f445b03be630981012882416,火车站,绍兴地铁1号线,浙江省,绍兴市,越城区,,unknown,
baidu,f11cc883f3a841309d82ea16,八佰伴购物中心(越城店)-地下停车场,绍兴市越城区解放北路199号八佰伴购物中心,浙江省,绍兴市,越城区,(0575)89190656,unknown,
baidu,531344699242bf5c03ec015e,绍兴大剧院-停车场,绍兴市越城区龙珠里绍兴大剧院,浙江省,绍兴市,越城区,,unknown,
baidu,d1814ce343ac443743ab9a4d,迪荡始发站,7路;13路夜;15路;19路;33路;38路;166路;319路,浙江省,绍兴市,越城区,,unknown,
baidu,18ac695892f21e10f33cba78,现代大厦-地下停车场,绍兴市越城区中兴中路276号,浙江省,绍兴市,越城区,,unknown,
baidu,66654db4f8c5e9d938e4a66e,蔡元培故居(杭港眼镜),1A路;1路;2路;5B路;5路;15路;23路;30路;52路;57路;60A路;60路;108A路;108路;快5A路;专0012路;专0018路,浙江省,绍兴市,越城区,,unknown,
baidu,610e1c6214662088e856faca,绍兴市越城区城市管理局-停车场,绍兴市越城区胡公殿直街香桥小区西南侧约30米,浙江省,绍兴市,越城区,,unknown,
baidu,7ab7644530b1f1e6e956fab4,八字桥直街路南侧临时停车点,绍兴市越城区八字桥直街八字桥公寓东侧约60米,浙江省,绍兴市,越城区,,unknown,
baidu,5dd59e6095d23f9ad22dd633,中国铁塔充电站(浙江绍兴越城区高家弄充电站),浙江省绍兴市越城区塔山街道高家弄6号-1,浙江省,绍兴市,越城区,10096,unknown,
baidu,eaaef304595f42364afd3f5d,八字桥公寓-地下停车场,绍兴市越城区八字桥直街八字桥公寓,浙江省,绍兴市,越城区,,unknown,
baidu,0dd84a45208f68bde115f9f4,府山派出所,6A路;6B路;6路;13路夜;15路;19路;26路;37路;50路;51路;68路;108A路;108路;166路;319路,浙江省,绍兴市,越城区,,unknown,
baidu,4912ddd46a23e10cb7265536,绍兴站,绍兴市越城区车站路210号,浙江省,绍兴市,越城区,(0575)12306,unknown,
baidu,1bb87a8905c7a572715e80ff,香桥小区-停车场,浙江省绍兴市越城区胜利东路树人中学北侧约170米,浙江省,绍兴市,越城区,,unknown,
baidu,50f7d146b2d2d5c573210baf,红太阳写字楼-地下停车场,绍兴市越城区中兴中路108号红太阳写字楼,浙江省,绍兴市,越城区,,unknown,
baidu,fb1de36cfc6d7c3dbadf8f47,孑民图书馆-地下停车场,绍兴市越城区局弄书圣故里,浙江省,绍兴市,越城区,,unknown,
baidu,ec35b748521796155c17c349,月池坊广场-停车场,浙江省绍兴市越城区解放北路308号,浙江省,绍兴市,越城区,,unknown,
baidu,50c5e580d612ced1eb1e971e,小桔充电充电站(越电江南世家充电站),浙江省绍兴市越城区迪荡街道江南世家(胜利东路),浙江省,绍兴市,越城区,4000610999,unknown,
baidu,f32c1e84203faa28d23ce381,越府名园,6A路;6B路;6路;13路夜;15路;19路;26路;37路;50路;51路;68路;108A路;108路;166路;319路,浙江省,绍兴市,越城区,,unknown,
baidu,31d73b87df83bcbe58f6bec3,望越中央花园-地下停车场,小江桥河沿60号,浙江省,绍兴市,越城区,,unknown,
baidu,4986e4b447a505fd16c90586,都泗门,13路夜;15路;19路;26路;68路;104专线;166路;319路;滨海1号线;滨海定制公交1号线;快7路;专0013路,浙江省,绍兴市,越城区,,unknown,
baidu,4caf82af50dc6a98120daad8,绍兴鲁迅故里兰欧国际M酒店-停车场,浙江省绍兴市越城区解放北路93号,浙江省,绍兴市,越城区,,unknown,
baidu,0215685fdd0ac2f50c0a705b,绍兴爱尔眼科医院-地上停车场,浙江省绍兴市越城区胜利东路289号,浙江省,绍兴市,越城区,,unknown,
baidu,a313b14917b5cd2ba7c756ba,鲁迅故里-南1门地上停车场,浙江省绍兴市越城区中兴南路146号,浙江省,绍兴市,越城区,,unknown,
baidu,907bdcaeebbf98c4eae58227,中成大厦-停车场,绍兴市越城区中兴中路中成大厦,浙江省,绍兴市,越城区,,unknown,
baidu,c253577464763ae317c8f60c,鲁迅故里,绍兴地铁1号线,浙江省,绍兴市,越城区,,unknown,
baidu,2d5d13d65a02e7f0a1d2305b,东大池住宅小区-地上停车场,绍兴市越城区东大池前东大池住宅小区,浙江省,绍兴市,越城区,,unknown,
baidu,c1b2a53aa83ec04cc829154e,鲁迅故里-地下停车场,绍兴市越城区鲁迅中路241号鲁迅故里,浙江省,绍兴市,越城区,,unknown,
baidu,8063c66bc19ad5cf75e5b64e,世茂广场,地铁4号线一期,浙江省,绍兴市,越城区,,unknown,
baidu,ac02fc8980e2487bbda240df,白马新村,104专线;快7路;专1013路,浙江省,绍兴市,越城区,,unknown,
baidu,5d3edf1fc4f1c8f6c7f025b1,城北桥(杭州口腔医院越城分院),1A路;1路;2路;5B路;5路;15路;23路;30路;52路;57路;60A路;60路;108A路;108路;快196路;专0012路;专0018路,浙江省,绍兴市,越城区,,unknown,
baidu,5329e9efc37d41998bb988bc,绍兴白马农贸市场(镜中园公寓北)-停车场,绍兴市越城区白马路白马新村西南侧,浙江省,绍兴市,越城区,,unknown,
baidu,d9ca232133f2cb88c2f1cf15,小桔充电充电站(越电江南世家充电站二期),浙江省绍兴市越城区迪荡街道江南世家(胜利东路),浙江省,绍兴市,越城区,4000610999,unknown,
baidu,8a903574f683ca129e82ea84,城市广场,地铁4号线一期,浙江省,绍兴市,越城区,,unknown,
baidu,0d7bea04c1d175741894c605,唐皇苑-北区-停车场,浙江省绍兴市越城区新建北路430-2(临),浙江省,绍兴市,越城区,,unknown,
baidu,ef85b32d6557f25ab35c6ae7,绍兴白马农贸市场(镜中园公寓北)-地下停车场,浙江省绍兴市越城区白马路85号内18号摊位,浙江省,绍兴市,越城区,,unknown,
baidu,230615065e24b2f7b2077ddb,白马新村-地上停车场,浙江省绍兴市越城区蕺山街道环城东路白马新村,浙江省,绍兴市,越城区,,unknown,
baidu,3f836d6c9368f01bafee7ac4,中兴公寓南区-地下停车场,浙江省绍兴市越城区中兴中路182号,浙江省,绍兴市,越城区,,unknown,
baidu,2351bef8bf8391e951e5c58c,绍兴市妇幼保健院北区-地下停车场,绍兴市越城区东街305号绍兴市妇幼保健院,浙江省,绍兴市,越城区,,unknown,
baidu,7b0ad16b76fe1d20c356ac0f,博物馆广场-地下停车场,偏门直街35号,浙江省,绍兴市,越城区,,unknown,
baidu,853da366cfca52587f29bd54,塔山文化广场-停车场,浙江省绍兴市越城区解放南路塔山文化广场,浙江省,绍兴市,越城区,,unknown,
baidu,cdff823c98d5a0218b2fb593,电力大厦,24A路;24路,浙江省,绍兴市,越城区,,unknown,
baidu,18b00a59c5139c3b2bd7ab06,八佰伴购物中心(越城店)-地上停车场,绍兴市越城区解放北路八佰伴购物中心,浙江省,绍兴市,越城区,,unknown,
baidu,9e9da0738f059138b2077d24,电力大厦-停车场,区胜利东路58号,浙江省,绍兴市,越城区,,unknown,
baidu,8cfa81aae53492e6bf484282,香舍丽都-停车场,绍兴市越城区世茂广场白马路香舍丽都北,浙江省,绍兴市,越城区,,unknown,
baidu,4a2ed533d0002e166040a946,香舍丽都-停车场,胜利东路269-10号附近,浙江省,绍兴市,越城区,,unknown,
baidu,4688ed19f7779f08631c67a6,鲁迅电影城(艾米1895电影街)-地下停车场,绍兴市越城区劳动路鲁迅电影城,浙江省,绍兴市,越城区,,unknown,
baidu,575e6872fb5c931358109329,绍兴市人才大楼-停车场,浙江省绍兴市越城区胜利东路285号,浙江省,绍兴市,越城区,,unknown,
baidu,a9420524793731043ce23109,县前街路北侧临时停车点,绍兴市越城区县前街绍兴市非同时尚酒店东南侧,浙江省,绍兴市,越城区,,unknown,
baidu,986bb5dd07047282b2077d0b,鲁迅故里,绍兴地铁1号线,浙江省,绍兴市,越城区,,unknown,
baidu,6fa272105dd44fd44151c0ae,东连河小区停车场,绍兴市越城区断河头东连河小区,浙江省,绍兴市,越城区,,unknown,
baidu,99e1f4050d6d4317a0a93428,新建北路东侧临时停车点,绍兴市越城区新建北路望越中央花园,浙江省,绍兴市,越城区,,unknown,
baidu,12af5374138df5f04302453b,城市广场东自行车租赁点,绍兴市越城区解放北路城市广场,浙江省,绍兴市,越城区,,unknown,
baidu,01e971dfda04ae32fbf0cba4,大滩,绍兴地铁1号线,浙江省,绍兴市,越城区,,unknown,
baidu,b03a517b190e0a9a4d3a5931,石家池沿路北侧临时停车点,绍兴市越城区石家池沿石家池小区南侧约40米,浙江省,绍兴市,越城区,,unknown,
baidu,2e524e16a208dbccdbd8910d,中兴商贸大厦-停车场,绍兴市越城区新建北路望越中央花园西侧,浙江省,绍兴市,越城区,,unknown,
baidu,f0770e3555616028eb56fa23,绍兴市蕺山中心小学(书圣校区)南侧临时停车点,绍兴市越城区石家池沿绍兴市蕺山中心小学(书圣校区)南侧约30米,浙江省,绍兴市,越城区,,unknown,
baidu,70760fa2a88e3e7c9ff77958,新建北路西侧临时停车点,绍兴市越城区新建北路唐皇苑-北区,浙江省,绍兴市,越城区,,unknown,
baidu,3239245862a136a2283a9f0d,名都苑-停车场,浙江省绍兴市越城区中兴中路329号,浙江省,绍兴市,越城区,(0575)85178360,unknown,
baidu,e91d7d22349d0375c16c149a,绍兴交通大厦-立体停车场,浙江省绍兴市越城区石家池沿57号,浙江省,绍兴市,越城区,,unknown,
baidu,65c6e344a7cd06cdd0ff232e,中兴公寓-地下停车场,绍兴市越城区劳动路282号,浙江省,绍兴市,越城区,,unknown,
baidu,4cacd2172208314b4bcc4af7,恒信农商银行(中兴中路)西侧停车场,绍兴市越城区中兴中路159号,浙江省,绍兴市,越城区,,unknown,
baidu,f594fec3b58127db4d2fdfbb,日月花园-停车场,绍兴市越城区小江桥河沿日月花园,浙江省,绍兴市,越城区,,unknown,
baidu,92988f6a7e263677b320a8aa,金元商务大楼-地下停车场,浙江省绍兴市越城区利济桥直街69-1号,浙江省,绍兴市,越城区,,unknown,
baidu,6208a66b1c0a0d746040a937,绍兴市妇幼保健院北区-地上停车场,浙江省绍兴市越城区东街305号,浙江省,绍兴市,越城区,,unknown,
baidu,099952a61f49e0a83c9a5eae,越府名园-停车场,绍兴市越城区胜利东路越府名园,浙江省,绍兴市,越城区,,unknown,
baidu,50e357d2266fb36676e5b693,县前街,24A路;24路,浙江省,绍兴市,越城区,,unknown,
baidu,120633ca9b7460a8364aae00,城市广场(秋瑾纪念碑),1A路;1路;2路;5B路;5路;6A路;6B路;6路;9路;11路;18路;22A路;23路;60A路;60路;快5A路,浙江省,绍兴市,越城区,,unknown,
baidu,c5bd07dc2d997b2c07fef5f6,绍钢三村居民小区-停车场,绍兴市越城区五云仓弄2号,浙江省,绍兴市,越城区,,unknown,
baidu,b2a39618665e5785fa42b2bb,绍兴市体育总会-停车场,绍兴市越城区劳动路月池坊西侧约30米,浙江省,绍兴市,越城区,,unknown,
baidu,92d74f25ac14e588e31103ba,下大路北侧临时停车点,绍兴市越城区下大路汉庭酒店(城市广场鲁迅故里店)西侧约30米,浙江省,绍兴市,越城区,,unknown,
baidu,10b286c567c5f0faa2a934cc,绍钢三村居民小区北侧临时停车点,绍兴市越城区东池路绍钢三村居民小区北侧约30米,浙江省,绍兴市,越城区,,unknown,
baidu,f8320b38149815694f6d4607,江南世家(胜利东路)-停车场,浙江省绍兴市越城区胜利东路327号,浙江省,绍兴市,越城区,,unknown,
baidu,e05aa5a9fa8d5c290782c22d,县前街路北侧临时停车点,绍兴市越城区县前街绍兴市非同时尚酒店东南侧约50米,浙江省,绍兴市,越城区,,unknown,
baidu,8b89925c9c24ddd917948e0d,小龙华桥,绍兴市越城区长桥直街绍钢三村居民小区西北侧,浙江省,绍兴市,越城区,,unknown,
baidu,07c572109253459697ec84d9,中国人寿保险股份有限公司绍兴分公司-停车场,绍兴市越城区中兴中路309号,浙江省,绍兴市,越城区,,unknown,
baidu,0895ff8406298dc814a190a3,越城区疾病预防控制中心-停车场,绍兴市越城区保佑桥直街绍兴市越城区疾病预防控制中心,浙江省,绍兴市,越城区,,unknown,
