source,bd_uid,name,address,province,city,area,tel,poi_type,tag
baidu,a51d3027eac8895bb1077d75,回味鸭血粉丝汤(西安门店),中山东路301-1号熊猫万谷金融科技中心负1层9-1号,江苏省,南京市,玄武区,(025)57060229,unknown,
baidu,a211f133e8198e4030169bc4,霸王茶姬(南京玄武区熊猫中央广场店),中山东路301-1号B1层001号商铺,江苏省,南京市,玄武区,13390779133,unknown,
baidu,f68a1eacee5ccfe0fda77863,小厨娘淮扬菜(金城大厦店),龙蟠中路216号金城大厦B座4楼,江苏省,南京市,秦淮区,(025)52118107,unknown,
baidu,36dfc9608603d6f978f796ab,肯德基(西安门店),中山东路301号B1层028号,江苏省,南京市,玄武区,(025)87781372,unknown,
baidu,0068acb2bb192f4843ab9a9c,喜茶(南京玄武熊猫广场店),中山东路30号熊猫科技金融中心B1层万谷里美食街区B1-033号铺,江苏省,南京市,玄武区,13851508797,unknown,
baidu,935b342fc2b327d98e77278d,龙吟九品(西安门熊猫集团店),中山东路301号熊猫·万谷金融科技中心2楼201室,江苏省,南京市,玄武区,(025)52175777,unknown,
baidu,f18c2e90698146b525d2bbea,淮风逸仙楼·南京菜(中山东路店),中山东路486号亚朵隔壁（距离总统府300米左右）,江苏省,南京市,秦淮区,(025)86809998,unknown,
baidu,ff71595d2c96e0f787330457,老娘舅(中山东路熊猫万谷店),中山东路301号熊猫大厦地下一层018号,江苏省,南京市,玄武区,(025)58705729,unknown,
baidu,6e2c9619659dc08d0f0a700a,八方灶,二条巷64号-1,江苏省,南京市,秦淮区,15335199253,unknown,
baidu,d0fae8d2da9923c6db2f2871,万谷里甄选美食(熊猫中央广场项目店),中山东路301号熊猫·万谷金融科技中心B1层,江苏省,南京市,玄武区,17366399090,unknown,
baidu,9f97b1c58f5fb71fb64f5400,刘长兴(逸仙桥店),中山东路506号,江苏省,南京市,秦淮区,(025)84411031,unknown,
baidu,d70f8ce2c9ec2ce7ede4a5ff,强烨饭店(长白街店),江苏省南京市秦淮区五老村街道长白街636号,江苏省,南京市,秦淮区,"(025)84459099,13915973379",unknown,
baidu,6c359273ccdb6f99dbd89113,天一阁家常菜,中山东路如家酒店旁,江苏省,南京市,秦淮区,(025)84548876,unknown,
baidu,640cd47221b356046fc02cfe,永和大王(西安门店),中山东路301-1号熊猫万谷金融科技中心负一楼023商铺,江苏省,南京市,玄武区,13611508772,unknown,
baidu,a8db4a26b778686a32870a59,池塘边小馆·南京家常菜(总统府三条巷店),三条巷145号,江苏省,南京市,秦淮区,(025)84456406,unknown,
baidu,dffca92d6b20380757bfff3d,赛百味SUBWAY(西安门熊猫万谷店),中山东路301号熊猫金融中心b1层,江苏省,南京市,玄武区,(025)83288860,unknown,
baidu,f5e3bcaefea9c6d85f17c3ab,许记大碗皮肚面馆(三条巷店),三条巷104号,江苏省,南京市,秦淮区,13512536228,unknown,
baidu,08204cd3e78d8b85c4f0250a,胜百川麻辣香锅(熊猫万古店),中山东路301号熊猫万古金融科技中心B1层005号铺,江苏省,南京市,玄武区,13943916567,unknown,
baidu,3c3639df0ed5b37a0bccdddd,老乡鸡(南京中山东路三条巷店),中山东路472号,江苏省,南京市,秦淮区,(025)85800117,unknown,
baidu,840564ca8b307c93a20464cb,润宝田西安美食(二条巷店),江苏省南京市秦淮区中山东路二条巷64号,江苏省,南京市,秦淮区,13770703370,unknown,
baidu,9c36863b8674440ecf06a447,阿香米线(南京熊猫·万谷金融科技中心店),中山东路301-1号,江苏省,南京市,玄武区,17721118290,unknown,
baidu,6679371445269dd1e507384f,吴记祖传茶糕(中山东路小区店),三条巷127号,江苏省,南京市,秦淮区,13851863568,unknown,
baidu,9a83ef8ce55b79dfb04c49e7,星巴克(南京熊猫大厦店),中山东路301号101室,江苏省,南京市,玄武区,(025)52611716,unknown,
baidu,a56ef7053b0f694bcf06a490,妙生活名厨私房菜,中山东路二条巷64号（逸仙桥旁）,江苏省,南京市,秦淮区,"(025)84454619,15335199253",unknown,
baidu,bedc9fc493fe5aa1df1e523a,luckincoffee瑞幸咖啡(熊猫广场店),中山东路301号熊猫大厦万谷金融中心B1层030号商铺,江苏省,南京市,玄武区,4000100100,unknown,
baidu,9e42bd60cbaa7cd6c1f1cfb8,COSTA COFFEE(南京西安门万谷里店),中山东路301号熊猫大厦万谷金融中心B1层002号商铺,江苏省,南京市,玄武区,(025)86663683,unknown,
baidu,2fe5f2d7ec139f3f88f15d75,南京凯宾斯基酒店·金凯楼中餐厅,龙蟠中路218号金凯楼,江苏省,南京市,秦淮区,(025)86950896,unknown,
baidu,1e196fe1187c867dc42ba185,如意馄饨(西安门万谷熊猫店),中山东路301-1号熊猫中央广场B1层017号商铺,江苏省,南京市,玄武区,15805198944,unknown,
baidu,5ad026cd3c345423f92d616e,煎饼道·中国煎饼(南京西安门店),中山东路301-1号熊猫·万谷金融科技中心B1层025号商铺,江苏省,南京市,玄武区,17701588752,unknown,
baidu,32f04dd9a1e286d44f6d46f1,聪聪早点,南京市秦淮区逸明巷逸仙名居北侧约30米,江苏省,南京市,秦淮区,,unknown,
baidu,14076dee2e7a14ed02294f45,经典震东香私房菜馆(三条巷店),三条巷112号102室,江苏省,南京市,秦淮区,(025)84502719,unknown,
baidu,33b62135e67eb74a631c67a3,山水大酒店-中餐厅,龙蟠中路118号山水大酒店2楼,江苏省,南京市,玄武区,(025)84811888,unknown,
baidu,eb2a6129072ca6343310af34,兰州拉面(三条巷店),三条巷110号,江苏省,南京市,秦淮区,13260800069,unknown,
baidu,b3574b6ed8409a67a6c75619,聚味轩私家菜馆(三条巷店),三条巷121号,江苏省,南京市,秦淮区,"025-84523347,13809023567",unknown,
baidu,7241cb56d15c30f43ce231be,龙凤卤菜(三条巷店),三条巷137号（西安门地铁站3号口步行500米）,江苏省,南京市,秦淮区,13914722649,unknown,
baidu,65022d97370bbfe4b11e363e,邱成宝汤包王(三条巷店),三条巷131号-4,江苏省,南京市,秦淮区,"13815429995,18061430078",unknown,
baidu,152399b9032dce7bc16c149f,富城利苑餐饮管理有限公司,江苏省南京市秦淮区龙蟠中路216号金城大厦,江苏省,南京市,秦淮区,(025)52336768,unknown,
baidu,5ab9ea3a621f9341d8d891f0,川浦·谢兰燕桂(中航店),龙蟠中路218号中航科技大厦一楼,江苏省,南京市,秦淮区,(025)58581587,unknown,
baidu,9e5d06d24ff0c3b842d63ef3,BNJ COFFEE(金城大厦店),龙蟠中路216号（BNJ HOME 二楼）,江苏省,南京市,秦淮区,18100603699,unknown,
baidu,63e57c671901bdbff7b91680,一家人面馆(三条巷店),三条巷40号（一家人面馆）,江苏省,南京市,秦淮区,"13404144984,13655194140",unknown,
baidu,66e181b666ad3e1b32870adb,金手鼓·新疆菜(南京店),中山东路300号长发中心CFC生活广场负一层,江苏省,南京市,秦淮区,(025)84523338,unknown,
baidu,9bf9d0f4b7b947b317c8f6f5,luckincoffee瑞幸咖啡(金城大厦店),龙蟠中路216号金城大厦A区一层大堂,江苏省,南京市,秦淮区,4000100100,unknown,
baidu,21d8c2ff42c0e1c49d95de3a,陈氏虾神龙虾烧烤,江苏省南京市秦淮区三条巷98号,江苏省,南京市,秦淮区,,unknown,
baidu,8b172f342aa67410047ce862,青谷食堂(金城店),龙蟠中路216号中航科技大厦负一楼,江苏省,南京市,秦淮区,,unknown,
baidu,3b2766b3e727aec05fbe86f7,冯三孃跷脚牛肉(科巷店),利济巷6号（勿相忘串串香旁）,江苏省,南京市,秦淮区,13390772428,unknown,
baidu,23c7132612c601adf32d83ea,沙县小吃(三条巷店),三条巷123号(西安门地铁站3号口步行490米),江苏省,南京市,秦淮区,"13616959459,15950479431",unknown,
baidu,a369fc35e7462c5c9c09f725,博弈棋牌餐饮(三条巷小区店),三条巷与仁寿里交叉口东20米,江苏省,南京市,秦淮区,13851683100,unknown,
baidu,90f065f7d23c7264a2d23075,大松汤包(长白街店),五老村街道长白街658号(中山东路小区门口),江苏省,南京市,秦淮区,13851681959,unknown,
baidu,cdce969abd7a4816b817e76a,香饽饽包子店(三条巷店),三条巷95号,江苏省,南京市,秦淮区,13813993855,unknown,
baidu,77ea803506117c4c40e1922f,叶新鸭血粉丝汤(科巷店),科巷104号,江苏省,南京市,秦淮区,15895972420,unknown,
baidu,75d0881a827745543a04b168,竺桥兄弟烤鸭馆,珠江路竺桥10号,江苏省,南京市,玄武区,13851893572,unknown,
baidu,8ca2dc8a42c1281907fef5c3,小兜老爸水饺(解放路店),解放路23-3号,江苏省,南京市,秦淮区,13813998958,unknown,
baidu,eb0593fba1743860f11937b2,白下元宵铺(三条巷店),三条巷36号106室,江苏省,南京市,秦淮区,"13515112854,13851866436",unknown,
baidu,069e9db1c13e6e74a4c756e0,川菜淮扬,江苏省南京市秦淮区三条巷110号,江苏省,南京市,秦淮区,,unknown,
baidu,81144109fad74b8a7f29bdb4,安庆小吃(三条巷小区店),五老村街道三条巷三条巷小区,江苏省,南京市,秦淮区,,unknown,
baidu,780f2ef90f5e0cd371455b0d,哈尔滨水饺,南京市秦淮区三条巷中山东路小区,江苏省,南京市,秦淮区,,unknown,
baidu,958a5f4c31d62f11bb17e726,早点吃吧(科巷店),科巷104号北3门面,江苏省,南京市,秦淮区,13951630170,unknown,
baidu,a44c76bd405d9948eb56fa80,W JAMES积佳牛排·酒庄(瑞金路店),龙蟠中路中航科技大厦旁王字楼1楼,江苏省,南京市,秦淮区,17849906364,unknown,
baidu,2bbe153fee1e1c883c9a5ec1,武汉米粑(中山东路小区店),普华巷1号门面,江苏省,南京市,秦淮区,18851602595,unknown,
baidu,40551aad1856dfffeb12e41b,全福面店(三条巷店),三条巷41号附近,江苏省,南京市,秦淮区,13327825850,unknown,
baidu,923ffd00511c73aed82f28ba,海底捞火锅(大行宫科巷店),太平南路1号新世纪广场四层（近中山东路）,江苏省,南京市,秦淮区,"(025)84861728,(025)84861838",unknown,
baidu,9a40dc0c5662aa0a9e95de7a,和善园(三条巷店),普华巷2号楼门面,江苏省,南京市,秦淮区,4000001927,unknown,
baidu,24ee37f12d8f686500ff2dc6,Manner Coffee(南京中航科技大厦店),龙蟠中路218号中航科技大厦一楼,江苏省,南京市,秦淮区,13062694734,unknown,
baidu,150a20b566188c720c0a7041,金中鲜花蛋糕店,中山东路472号,江苏省,南京市,秦淮区,,unknown,
baidu,9944dc106907275cd3ff23bd,荣川鲜菜馆(解放路店),解放路20-2号,江苏省,南京市,秦淮区,17714204401,unknown,
baidu,3b7c9ca10d3beaa10ab93a1d,阿成面馆(三条巷小区店),三条巷小区40号,江苏省,南京市,秦淮区,15850527167,unknown,
baidu,dee1a152832af30b16c905b1,王记西部牛肉饼(中山东路小区店),三条巷95号102号门面,江苏省,南京市,秦淮区,,unknown,
baidu,d83ef90d2d7a610138221c5e,鸭血粉丝·汤包(解放路店),解放路9号,江苏省,南京市,秦淮区,18298246595,unknown,
baidu,05da0aca6f860c73ca09f0fb,来客家常菜,解放路23-1号231号,江苏省,南京市,秦淮区,18901595534,unknown,
baidu,b17ad5d39b0d7809a2d23053,南京凯宾斯基酒店·本味Local Palate,龙蟠中路218号凯宾斯基酒店4层,江苏省,南京市,秦淮区,(025)86950888,unknown,
baidu,564029c4eb1ae05bcac3dbb1,宝应长鱼面(解放路店),解放路13号,江苏省,南京市,秦淮区,13851773785,unknown,
baidu,33fcba996a104e2bd22dd6ac,正宗六合猪头肉(长白街店),四条巷98号对面,江苏省,南京市,秦淮区,15155063190,unknown,
baidu,6efc3655e0cdd2986e20b97e,老米记酒酿铺(科巷店),科巷37号-12,江苏省,南京市,秦淮区,13913843431,unknown,
baidu,e56bf5e3ffa4845d0682c2f2,GANSO元祖食品(中山店),中山东路307号,江苏省,南京市,玄武区,(025)84807549,unknown,
baidu,9b5fc894afa299ee93114c19,钟山名点,黄埔路南京钟山宾馆(会议中心),江苏省,南京市,玄武区,13967683889,unknown,
baidu,ce26c2963b114214a3acc4fb,科巷点心店(长白街店),四条巷96号对面普华巷1号,江苏省,南京市,秦淮区,13605162365,unknown,
baidu,78390b6f8665a7b138e4a607,丰富路阿财菜饼(长白街店),中山东路小区,江苏省,南京市,秦淮区,,unknown,
baidu,7b72f4969f2d4972a20464d3,茶一,南京市秦淮区三条巷中山东路小区,江苏省,南京市,秦淮区,13952000363,unknown,
baidu,87ce1f80ce5bd616d518b7cf,兴乐面馆(四条巷店),四条巷92号,江苏省,南京市,秦淮区,,unknown,
baidu,13d1a8ddc5510b7bc61b7508,重庆三峡切面(中山东路小区店),三条巷95-104号,江苏省,南京市,秦淮区,13851812468,unknown,
baidu,5e9caf485b1e5abf79dbd230,黄记烤鸭熏鱼店(三条巷店),三条巷30号-6,江苏省,南京市,秦淮区,15951807746,unknown,
baidu,161a0ed265268c495dd4fe85,多唻小馆(解放路店),解放路15号,江苏省,南京市,秦淮区,15805151160,unknown,
baidu,978d717a3b3b76c6aeb22aa3,齐粮记杂粮煎饼,南京市秦淮区仁孝里中山东路小区,江苏省,南京市,秦淮区,,unknown,
baidu,e198d64d66177213a6da39f1,常记六鲜皮肚大碗面(解放路36号小区店),解放路36号小区,江苏省,南京市,秦淮区,13151565776,unknown,
baidu,f01a433ac6863bda2cb17ec2,烧饼可口酱菜店,四条巷94号,江苏省,南京市,秦淮区,,unknown,
baidu,68ae1de9849aac23b426557c,徐州风味(中山东路小区店),仁孝里中山东路小区,江苏省,南京市,秦淮区,13912940744,unknown,
baidu,9e056a81d67d3915f32d83c2,红而火特色老卤面(解放路店),解放路36号红而火特色老卤面,江苏省,南京市,秦淮区,15895993540,unknown,
baidu,e66c24cb6dd828f66fc02cf8,护康快餐(四条巷店),四条巷90号,江苏省,南京市,秦淮区,15205195048,unknown,
baidu,1278057be836c4c1dbd891db,重庆鲜面店(仁孝里店),江苏省南京市秦淮区五老村街道普华巷1幢109室,江苏省,南京市,秦淮区,13914717086,unknown,
baidu,5b25f446273419f31129358c,龙冠楼酒店,瑞金路街道解放路11号(华润苏果右边),江苏省,南京市,秦淮区,(025)84483801,unknown,
baidu,11b70385e3e88e29b05c6a4a,新世纪广场,江苏省南京市秦淮区太平南路1号,江苏省,南京市,秦淮区,,unknown,
baidu,c38c6bc7128ae47e07fef52b,悦购钟山超市,江苏省南京市玄武区中山东路307号,江苏省,南京市,玄武区,,unknown,
baidu,e38605630c0b238fc3364409,冷饮批发超市,秦淮区仁寿里28号-4(西安门地铁站3号口步行260米),江苏省,南京市,秦淮区,,unknown,
baidu,cd9d51100eff9dc02b06ceee,长发中心-CFC商业广场,中山东路300号,江苏省,南京市,秦淮区,(025)84518888,unknown,
baidu,aaef5d41afdea0a0c5effbea,国粮好管家超市(三条巷店),江苏省南京市秦淮区三条巷121号,江苏省,南京市,秦淮区,,unknown,
baidu,d0f2be7bf7c393a7fb2d6129,世纪华联超市(三条巷店),三条巷30号,江苏省,南京市,秦淮区,13776570307,unknown,
baidu,06d2dffd681d69f688f15d41,苏果超市(科巷店),科巷(近长白街),江苏省,南京市,秦淮区,(025)86644338,unknown,
baidu,f0f1bb204f6e7dcc80a00ca8,百果园(三条巷店),三条巷115号,江苏省,南京市,秦淮区,(025)86508985,unknown,
baidu,89662434b7215a813f9a5e51,红苹果果品商场(三条巷店),三条巷131号许记大碗皮肚面馆对面,江苏省,南京市,秦淮区,18651806269,unknown,
baidu,fd13a3f2e0d8e8e3b0077d81,大润发(瑞金店),龙蟠中路260号,江苏省,南京市,秦淮区,(025)66877188,unknown,
baidu,1baa53c666781150912ca35a,皖客平价超市,南京市秦淮区解放路6号小区东南侧约50米,江苏省,南京市,秦淮区,,unknown,
baidu,a45d8dec5374cdc67dc87692,名创优品(南京科巷店),科巷66号科巷菜市场一层L101,江苏省,南京市,秦淮区,15665536105,unknown,
baidu,a5097bfa019d7e63f03cba40,科巷新市集,科巷66号,江苏省,南京市,秦淮区,(025)86641486,unknown,
baidu,0a3051b2b90ef5e631870a41,夏记小卖部(西华东村小区店),江苏省南京市秦淮区瑞金路街道中山东路518号,江苏省,南京市,秦淮区,,unknown,
baidu,91b8853540c3356d2fb9081d,南京1912步行街(珠江路店),江苏省南京市玄武区太平北路南京外国语学校(太平北路校区)东南侧约70米,江苏省,南京市,玄武区,,unknown,
baidu,0ac1a9f4cc9c9d94cc06a4ce,南京消防设备修配厂有限责任公司,江苏省南京市秦淮区三条巷113号,江苏省,南京市,秦淮区,(025)84411868,unknown,
baidu,c469dc48a903f10b475726a4,万象芥子园,江苏省南京市秦淮区五老村街道中山东路398号,江苏省,南京市,秦淮区,13905180965,unknown,
baidu,aa491ab8735e9e390bf5ebb2,富士(南京飞越授权体验店),江苏省南京市玄武区珠江路657号锦创书城一楼A-1-7号,江苏省,南京市,玄武区,19852841478,unknown,
baidu,8c444ca6f36637b609a8d448,果忠水果超市(解放路店),解放路29-7号,江苏省,南京市,秦淮区,13813387757,unknown,
baidu,fac983d24792968fdb13184b,南京数码港,江苏省南京市玄武区珠江路648号,江苏省,南京市,玄武区,,unknown,
baidu,90b203edd0e7d64f5b109344,玉锦堂(金城大厦店),龙蟠中路216号金城大厦F3层,江苏省,南京市,秦淮区,13913985688,unknown,
baidu,571a82ac01a31abcf503b894,罗森便利店(科巷店),科巷66号科巷菜场一层北三门面,江苏省,南京市,秦淮区,15951770208,unknown,
baidu,22a02b7c1de59d9258f6beaf,吾丰堂南京梅园蜂产品直销,汉府街一号,江苏省,南京市,玄武区,,unknown,
baidu,7ae4cfd1756a757af33cba08,帝尊珠宝首饰有限公司,龙蟠中路216号金城大厦F15层,江苏省,南京市,秦淮区,,unknown,
baidu,c8f894149400d1008c55ec70,王立成日用百货店,江苏省南京市秦淮区普华巷2号104室,江苏省,南京市,秦淮区,15851810885,unknown,
baidu,09a0a963126b1d229cf779dd,碧桂便利超市(解放路6号小区店),解放路6号,江苏省,南京市,秦淮区,13913934066,unknown,
baidu,9763dd2925b29854734b870e,福缘翠玉珠宝体验中心(金城大厦店),龙蟠中路216号金城大厦B区3层324室,江苏省,南京市,秦淮区,(025)83739324,unknown,
baidu,d717d78add9b984e4bcc4a0f,轩发门窗(三条巷),江苏省南京市秦淮区三条巷64号,江苏省,南京市,秦淮区,13770506474,unknown,
baidu,db7eb3152c6d6751724b8788,郭记渔行,三条巷95号112室,江苏省,南京市,秦淮区,"(025)84416950,13675144993",unknown,
baidu,cf6614e569faf17c17c8f698,马记干货店,江苏省南京市秦淮区三条巷41号,江苏省,南京市,秦淮区,,unknown,
baidu,187617120f8475f5c61e513e,南京云锦,龙蟠中路山水大酒店楼下,江苏省,南京市,玄武区,18662711911,unknown,
baidu,24fb218a73bd97144d776edc,古月兴休闲食品(中山东路小区店),普华巷2号103室,江苏省,南京市,秦淮区,"13852064621,15005228949",unknown,
baidu,39f5da6699a09fe9fa0cad73,韩田智能电动车,江苏省南京市秦淮区三条巷小区,江苏省,南京市,秦淮区,,unknown,
baidu,8712936b06473b2515c905d6,君元堂商贸,南京市玄武区梅园新村雍园-2号小区西侧约50米,江苏省,南京市,玄武区,,unknown,
baidu,bbac2c22ab8d2efc59bbbc37,秦淮康健健康食品店,南京市秦淮区三条巷仁义里小区,江苏省,南京市,秦淮区,,unknown,
baidu,c73ede13aa0d8d94fbdc8519,仁孝里蔬果平价店,三条巷93号302-306室西50米,江苏省,南京市,秦淮区,15805167494,unknown,
baidu,91efb47be95995bb2b06ce2f,ITALJET南京旗舰店,江苏省南京市秦淮区龙蟠中路218号A101,江苏省,南京市,秦淮区,,unknown,
baidu,4cfceba0e71629c959f6beb8,苏豪丝绸总汇,江苏省南京市秦淮区中山东路472号,江苏省,南京市,秦淮区,(025)84785228,unknown,
baidu,d05fef952a9ce9f64354d7e0,金老头鲜生(一店),三条巷20号,江苏省,南京市,秦淮区,13915949006,unknown,
baidu,8d0f7eb502ed7fa0233bf2fa,鹏程烟酒(逸仙桥店),中山东路508号(西安门地铁站3号口步行220米),江苏省,南京市,秦淮区,18072581083,unknown,
baidu,39cdabd96c2b90b7dc1e521e,优廉果业(三条巷店),江苏省南京市秦淮区三条巷92号,江苏省,南京市,秦淮区,,unknown,
baidu,b79887f5874d7057a1a934d1,锦创书城(珠江路店),珠江路699号-3号锦创数字产业园A栋,江苏省,南京市,玄武区,(025)68570555,unknown,
baidu,f279e4c802d85cfcbe4842b4,颖黛玉(新世纪广场店),太平南路1号新世纪广场F1-120,江苏省,南京市,秦淮区,13802922297,unknown,
baidu,a7c56ee08740ebb3a3acc440,易事达文具(科巷店),文昌巷58号,江苏省,南京市,秦淮区,(025)84511271,unknown,
baidu,56f2f696b99a7d990ba8d4a0,零食工坊(三条巷店),三条巷110号附近,江苏省,南京市,秦淮区,18052036888,unknown,
baidu,75d0881a9aa73d543b04b1b8,南京友谊灯具厂(二条巷),中山东路二条巷50号,江苏省,南京市,秦淮区,02584526416,unknown,
baidu,75d0881a68c0af303b04b1b5,博仁眼镜(解放路店),瑞金路街道解放路29-2号（近中山东路南京军区总医院）,江苏省,南京市,秦淮区,"(025)84592658,18951840081",unknown,
baidu,251374c94dd9d341a01de9b9,来伊份(解放路店),解放路樱桃鸭隔壁,江苏省,南京市,秦淮区,,unknown,
baidu,f3c2373ca25ddb4bd32dd6f2,吴良材眼镜(总店),太平南路2号日月大厦1楼1号,江苏省,南京市,秦淮区,(025)84658009,unknown,
baidu,2a90db6284970bf5223bf2be,明亮眼镜(大行宫店),中山东路218号长安国际中心一楼（中山东路与太平南路交叉口西南角）,江苏省,南京市,秦淮区,025-84650980,unknown,
baidu,b7021bf8ef1435fbf5e73bb2,红福祥花业(解放路6号小区店),解放路6-1号,江苏省,南京市,秦淮区,13016971185,unknown,
baidu,d6f827b62fdda3ba1f3894bb,福鑫银饰(金城大厦店),秦淮区江苏省南京市龙蟠中路216号,江苏省,南京市,秦淮区,"15361037019,18951933676",unknown,
baidu,421e9011fb690406d0ff2314,品之益酒行(中山东路小区店),长白街658号102室,江苏省,南京市,秦淮区,(025)84409078,unknown,
baidu,9c923f969b68a72daecb6634,孟令军炒货·板栗季(三条巷店),三条巷30-6,江苏省,南京市,秦淮区,18151833531,unknown,
baidu,855470ee584f59c9130daab4,小郭水果店现榨甘蔗汁(四条巷店),普华巷2号102小郭水果店现榨甘蔗汁,江苏省,南京市,秦淮区,13347706132,unknown,
baidu,1c07001cb40c523327d2bbfd,翁家小店,二条巷56号(西安门地铁站3号口步行360米),江苏省,南京市,秦淮区,13951844873,unknown,
baidu,0d057eda2585591af7b91684,闲玩茶器礼(中山东路小区店),江苏省南京市秦淮区三条巷109号,江苏省,南京市,秦淮区,13952000363,unknown,
baidu,f3df5c517e332d1a8bdb736a,柔和双沟(三条巷店),南京市秦淮区三条巷中山东路小区,江苏省,南京市,秦淮区,,unknown,
baidu,874057f12f241c1c14b54b0d,西龙农场果蔬直销(中山东路小区店),仁孝东巷与三条巷交叉口西北20米,江苏省,南京市,秦淮区,,unknown,
baidu,35ece2062430432a4afd3f4c,醇乡果园,南京市秦淮区解放路6号小区东南侧约60米,江苏省,南京市,秦淮区,,unknown,
baidu,cb2e8c901ae6e15188db73cd,油条批发,四条巷96号附近,江苏省,南京市,秦淮区,13776664661,unknown,
baidu,b538aca0627a36adf03cbad9,春香烟酒店(长白街店),长白街658号101室迎街门面房,江苏省,南京市,秦淮区,,unknown,
baidu,c999092ad6b7bfbc28d7ab9c,洒令服饰,大悲巷12号,江苏省,南京市,玄武区,17712410964,unknown,
baidu,b2e3fbe69c9b93d09fec2b0c,实惠玻璃店(三条巷店),三条巷92号,江苏省,南京市,秦淮区,15996483642,unknown,
baidu,e037f3c89ec0242c50e5c552,永盛茶庄(长白街店),长白街640号（大行宫地铁站出入口步行470米),江苏省,南京市,秦淮区,,unknown,
baidu,15b85925288ec79943024565,郑记专业杂粮黑芝麻糊(中山东路小区店),三条巷95号,江苏省,南京市,秦淮区,,unknown,
baidu,bd990511605b84f88605bfb9,起程冷饮批发(中山东路小区店),仁孝里与四条巷交叉口东50米(三条巷小区西150米),江苏省,南京市,秦淮区,13401967437,unknown,
baidu,adb5d63cfbfd01f3c61b75e3,南京梦金园珠宝首饰有限公司,南京市秦淮区龙蟠中路216号-2,江苏省,南京市,秦淮区,,unknown,
baidu,da1f92eda1c039eab64f5477,南京亿福珠宝首饰有限公司,南京市秦淮区龙蟠中路216号金城大厦第二层211-1,江苏省,南京市,秦淮区,,unknown,
baidu,1941e6ad126e1ea786420e71,Cartie(金城大厦店),江苏省南京市秦淮区龙蟠中路216号,江苏省,南京市,秦淮区,,unknown,
baidu,871f9556d9b794062bd7ab2b,诚德清真牛羊肉,普华巷2号108室,江苏省,南京市,秦淮区,13337824445,unknown,
baidu,76900610f463f2355dbe8692,亚光不锈钢制作中心,仁义里17号105室,江苏省,南京市,秦淮区,13851532252,unknown,
baidu,9ea59c76c4119c113a13fdc6,源来装饰,南京市秦淮区三条巷仁义里小区,江苏省,南京市,秦淮区,13851474648,unknown,
baidu,ab6c846ec021880328201af2,珠宝赏石公司,江苏省南京市玄武区龙蟠中路118号,江苏省,南京市,玄武区,,unknown,
baidu,96f00b3ab6ca5e9940afe660,家和塑料五金店,江苏省南京市秦淮区四条巷87号,江苏省,南京市,秦淮区,,unknown,
baidu,0af8da769be43e574acc4a41,红泥窖藏,南京市秦淮区三条巷仁义里小区,江苏省,南京市,秦淮区,,unknown,
baidu,350e3ffe8a9a034b6cc02c27,学而思1对1-中山东路学习中心,江苏省南京市秦淮区中山东路416号物资大厦,江苏省,南京市,秦淮区,,unknown,
baidu,d8a1d77351c3a7f717c8f640,公厕,中山东路518号,江苏省,南京市,秦淮区,,unknown,
baidu,d3181150d161c408c27da2ee,南京温纳心理咨询中心,中山东路301号熊猫万谷金融科技中心7层FG单元,江苏省,南京市,玄武区,025-83366999,unknown,
baidu,325b8a081f63487a30621221,中国邮政(西华东巷),江苏省南京市秦淮区西华东巷东部战区总医院西南侧约90米,江苏省,南京市,秦淮区,11185,unknown,
baidu,cd585b4fec52ee5bbfa822f3,毗卢寺-售票处,大悲巷与汉府街交叉口东110米,江苏省,南京市,玄武区,(025)84405431,unknown,
baidu,04bdf4a3f3b51b31344aae83,公共厕所,南京市秦淮区三条巷100号三条巷小区北区,江苏省,南京市,秦淮区,,unknown,
baidu,50f7d146b68ed1ba72210b76,公共厕所,南京市秦淮区龙蟠中路头条巷小区东北侧约30米,江苏省,南京市,秦淮区,,unknown,
baidu,e93761f6a60c9672223bf2e1,公共厕所,江苏省南京市玄武区中山东路297号小区旁,江苏省,南京市,玄武区,,unknown,
baidu,5bf9e91cfec86caa0aa8d468,紫金农商银行玄武营业部爱心驿站,南京市玄武区中山东路301号102室,江苏省,南京市,玄武区,,unknown,
baidu,a7dc5f2122db4612bea240a8,恒盛快印工厂店(中山东路店),中山东路416-2号,江苏省,南京市,秦淮区,,unknown,
baidu,3e4d3dad0c7a1acb5b10938f,小红梅信仰生活空间,江苏省南京市玄武区梅园新村34号,江苏省,南京市,玄武区,,unknown,
baidu,74218dc0e9e83ddb8b2fb54e,公共厕所,三条巷小区东北(仁孝里东),江苏省,南京市,秦淮区,,unknown,
baidu,077b24eb23903e31b21e3682,公厕,汉府街4号毗卢寺,江苏省,南京市,玄武区,,unknown,
baidu,2ba6ae5a035848ebb5f42fcf,中国共产党代表团梅园新村纪念馆-游客服务中心,江苏省南京市玄武区汉府街18-1号,江苏省,南京市,玄武区,(025)84504828,unknown,
baidu,f11982eb86f0a9af42d63e98,公共厕所,江苏省南京市秦淮区解放路6号小区东南侧约40米,江苏省,南京市,秦淮区,,unknown,
baidu,4e060cebfbf641e32fb17e98,巨龙图文,解放路秦淮区人民检察院南侧,江苏省,南京市,秦淮区,(025)84587338,unknown,
baidu,8fa14fc385072710f6eafc82,公共厕所,南京市秦淮区五老村街道长白街658号4单元,江苏省,南京市,秦淮区,,unknown,
baidu,0385cc1e17827dec4302450f,公厕,汉府街梅园新村纪念馆,江苏省,南京市,玄武区,,unknown,
baidu,4cec9477379f2b2acc06a436,菜鸟驿站(南京二条巷7号门店),五老村街道二条巷7号,江苏省,南京市,秦淮区,951966,unknown,
baidu,23a54398d804f187a1a934a1,公共厕所,南京市秦淮区二条巷三条巷小区,江苏省,南京市,秦淮区,,unknown,
baidu,34e48508a02ff29cd8d891cd,公共厕所,南京市玄武区龙蟠中路101号,江苏省,南京市,玄武区,,unknown,
baidu,9033fcc76df3bdca3ce23154,金佛缘佛品中心(梅园新村店),梅园新村大悲巷8号,江苏省,南京市,玄武区,(025)84529513,unknown,
baidu,a969d54f4e4c764a36b06c92,公共厕所,江苏省南京市秦淮区仁孝里仁义里7号楼(中山东路小区旁),江苏省,南京市,秦淮区,,unknown,
baidu,6b399f102c9ec7db611c6771,中国福利彩票(中山东路店),中山东路416号汉庭优佳酒店边,江苏省,南京市,秦淮区,954168,unknown,
baidu,a1525533f57c0b4226e0a0df,中国体育彩票(南京物资大厦普华巷店),江苏省南京市秦淮区中山东路416号,江苏省,南京市,秦淮区,95086,unknown,
baidu,db3026d563140704a5da39a3,手机维修配件,江苏省南京市秦淮区解放路26-1号博启承酒业旁,江苏省,南京市,秦淮区,13813907175,unknown,
baidu,f2b3f95d7fa7c5900f0e6b41,二毛摄影图片社(中山东路),梅园新村大悲巷4号,江苏省,南京市,玄武区,13912933713,unknown,
baidu,df143d43762e99892bd7abf9,中国体育彩票(三条巷店),三条巷18号304室附近,江苏省,南京市,秦淮区,95086,unknown,
baidu,94c76e9a704ffae3f82d61d5,龙蟠中路宠物医院,江苏省南京市秦淮区龙蟠中路215号(金龙蟠商苑酒店对面),江苏省,南京市,秦淮区,"(025)83725619,18914706389",unknown,
baidu,a9baecb22e51884fafee7ac2,总统府景区-南门售票处,长江路292号,江苏省,南京市,玄武区,(025)84578888,unknown,
baidu,59f0020c337994f4c6effb75,公共厕所,长江路292号,江苏省,南京市,玄武区,,unknown,
baidu,0fd0e157c37ea1c6f8dc85a6,公共厕所,江苏省南京市秦淮区复成里42号小区西门(头条巷小区西南),江苏省,南京市,秦淮区,,unknown,
baidu,5b8caaa9dd7222f0f503b890,公共厕所,江苏省南京市秦淮区西白菜园29号,江苏省,南京市,秦淮区,,unknown,
baidu,277b362f10c5437fee74f83d,公共厕所,江苏省南京市玄武区长江路296号,江苏省,南京市,玄武区,,unknown,
baidu,3a7919dab56c76112fb17e8e,华为授权服务中心(东来大厦),江苏省南京市玄武区珠江路609-4号(东来科技大厦),江苏省,南京市,玄武区,"(025)51872100,13376080533",unknown,
baidu,f2f006afc2ffedf00b69d9e7,总统府游客中心,江苏省南京市玄武区梅园新村街道长江路288号,江苏省,南京市,玄武区,,unknown,
baidu,7e411b92bcf5ea2b78f796ce,中国电信(长白街店),江苏省南京市秦淮区长白街632号,江苏省,南京市,秦淮区,18951611314,unknown,
baidu,52c689e312cd1e0731870aa1,人瑞人才,江苏省南京市秦淮区瑞金路街道龙蟠中路218号中航科技大厦31楼,江苏省,南京市,秦淮区,,unknown,
baidu,142bcbf828f792fb21022075,菜鸟驿站(南京三条巷33号门面店),五老村街道三条巷33号五老村分局对面,江苏省,南京市,秦淮区,951966,unknown,
baidu,2581221c75ba2fca2b11d1d3,中通快递(常府街营业点),南京市秦淮区二条巷三条巷小区,江苏省,南京市,秦淮区,"(025)83355033,17701582333",unknown,
baidu,440691e610fe302f28201a75,菜鸟驿站(南京四条巷社区店),江苏省南京市秦淮区四条巷74号乘风破浪网咖1楼门面,江苏省,南京市,秦淮区,951966,unknown,
baidu,72feaf99ae0bf2d4d42ce27d,南京钟山宾馆(江苏省会议中心)-洗手间,南京市玄武区中山东路307号,江苏省,南京市,玄武区,,unknown,
baidu,f4a2f8e2e7240ea4d13ce387,新世纪广场-洗手间,江苏省南京市秦淮区太平南路1号新世纪广场F5,江苏省,南京市,秦淮区,,unknown,
baidu,709bf6fd89336385b13c817d,中国共产党代表团梅园新村纪念馆-存包处,汉府街18-1号中国共产党代表团梅园新村纪念馆,江苏省,南京市,玄武区,,unknown,
baidu,f67373c2605c9ef72b11d1f5,中国共产党代表团梅园新村纪念馆-领票处,汉府街18-1号中国共产党代表团梅园新村纪念馆,江苏省,南京市,玄武区,,unknown,
baidu,b68a1731d7fa8287f8f0cb66,六朝博物馆服务台,江苏省南京市玄武区长江路302号,江苏省,南京市,玄武区,,unknown,
baidu,851ad6a034d8bdf3b64f5431,黄金回收,江苏省南京市秦淮区瑞金路10号,江苏省,南京市,秦淮区,18061691913,unknown,
baidu,91e39c0d7d3541e9d8d891c5,菜鸟驿站(南京市瑞金北村35栋106店),江苏省南京市秦淮区解放路23号,江苏省,南京市,秦淮区,951966,unknown,
baidu,becf98644fed8d63e9f8533d,舒佳棉店,常府街三条巷46号舒佳棉花店三条巷46号,江苏省,南京市,秦淮区,13645168979,unknown,
baidu,e8c96daa6981dc343be4a638,公共厕所(西花园),江苏省南京市玄武区长江后街8号-1,江苏省,南京市,玄武区,,unknown,
baidu,dec6bd15d12ebc423c9a5e19,中国体育彩票(竞彩店),江苏省南京市秦淮区解放路29-1号,江苏省,南京市,秦淮区,(025)85771507,unknown,
baidu,b17efa75dec0616d5fbe866d,长生洗衣,江苏省南京市秦淮区科巷66号菜场西门东白菜园与西白菜园交叉口处,江苏省,南京市,秦淮区,15996241678,unknown,
baidu,e85e25270cd0bf2d95f08ccd,公共厕所,太平北路1912号11号楼1-3楼(近大行宫),江苏省,南京市,玄武区,,unknown,
baidu,efd69f0e796e851a2fe67b5b,南京百影(索尼影像核心店),江苏省南京市玄武区珠江路657号东鼎大厦1F-23,江苏省,南京市,玄武区,13611500267,unknown,
baidu,17d9d1a81e037098eedfca5b,中国福利彩票(三条巷店),江苏省南京市秦淮区三条巷55号,江苏省,南京市,秦淮区,954168,unknown,
baidu,cecdebe7825b48d807026f5d,余学贵再生资源回收中心,南京市秦淮区二条巷三条巷小区,江苏省,南京市,秦淮区,,unknown,
baidu,ba127442447bd166eb1e97d3,洁丰干洗(四条巷店),南京市秦淮区仁孝里仁义里小区,江苏省,南京市,秦淮区,18651837855,unknown,
baidu,691931eb084868382e4733a4,公共厕所,江苏省南京市秦淮区蔡家花园东南侧约30米,江苏省,南京市,秦淮区,,unknown,
baidu,dc0f0adcd082d75ff822137f,公共厕所,南京市玄武区太平北路太和紫金大酒店,江苏省,南京市,玄武区,,unknown,
baidu,db4206b388eed369047ce81e,老兵数码儿童摄影(四条巷店),四条巷77-7号7幢107号,江苏省,南京市,秦淮区,13151082285,unknown,
baidu,e629ba11abbada37d0ff23c8,丰巢快递柜(黄埔花园店),南京市玄武区黄埔路2号黄埔花园15幢,江苏省,南京市,玄武区,,unknown,
baidu,638b5c708420ca626ca3cc4b,三条巷社区党群服务中心,江苏省南京市秦淮区五老村街道仁寿里16号,江苏省,南京市,秦淮区,(025)84538233,unknown,
baidu,ea10cd5fc08601dcb64f54aa,中国共产党代表团梅园新村纪念馆-母婴室,汉府街18-1号中国共产党代表团梅园新村纪念馆,江苏省,南京市,玄武区,,unknown,
baidu,87b04e721cbbafce88b988ac,光明水电,江苏省南京市秦淮区五老村街道中山东路三条巷45号,江苏省,南京市,秦淮区,13851474648,unknown,
baidu,3a9cfc86f70057f2dc1e5268,公厕,长江路123号江宁织造博物馆F1,江苏省,南京市,玄武区,,unknown,
baidu,ad80262745b85b318c55ec4f,爱创空间,江苏省南京市玄武区长江路266号国立美术陈列馆旧址一楼西侧咖啡馆,江苏省,南京市,玄武区,,unknown,
baidu,97aa9a067bbc68c08a36ee5a,中国福利彩票(新巷店),江苏省南京市秦淮区三条巷15号,江苏省,南京市,秦淮区,954168,unknown,
baidu,42681c106362e6272ad7ab54,月强房产家政,南京市秦淮区解放路36号院东北侧,江苏省,南京市,秦淮区,,unknown,
baidu,1b79fd1ce5a63e53c7f50df8,顺达字牌,江苏省南京市秦淮区四条巷仁寿里7号,江苏省,南京市,秦淮区,,unknown,
baidu,e305a5df0107132842d63e9d,山水大酒店-洗手间,南京市玄武区龙蟠中路118号(新街口地区市中心近珠江路),江苏省,南京市,玄武区,,unknown,
baidu,0b835a5d1bbbaf158bfc0647,桔子水晶酒店(南京博物院店)-大堂,江苏省南京市玄武区黄埔路2号黄埔科技大厦b座,江苏省,南京市,玄武区,,unknown,
baidu,774d761a4e34d97d5a3ac835,秦淮区妇幼保健所爱心母婴室,南京市玄武区红花地43号,江苏省,南京市,玄武区,,unknown,
baidu,fc81f9d7df10fb361f3894a9,电脑维修服务中心,江苏省南京市秦淮区常府街复成里30号,江苏省,南京市,秦淮区,"13057523639,13951774130",unknown,
baidu,55ec48c49ccd88822a11d1a8,黄埔大酒店-洗手间,南京市玄武区黄埔路2-2号(近中山东路)地铁2号线西安门站1号出口步行5分钟,江苏省,南京市,玄武区,,unknown,
baidu,48fd2d8391d4191c6240a91e,老同志之家,江苏省南京市玄武区龙蟠中路118号,江苏省,南京市,玄武区,,unknown,
baidu,1a9b7060423c3e07c7f0253d,芊芃制衣,南京市秦淮区四条巷仁义里小区,江苏省,南京市,秦淮区,13905190538,unknown,
baidu,9a33bd0c4ec7a1532902e14a,佑佳房地产(五老村小区店),江苏省南京市秦淮区五老村街道长白街473号,江苏省,南京市,秦淮区,,unknown,
baidu,d7539c1d270aaa534054d77d,便民报亭,2号线西安门地铁四号口对面,江苏省,南京市,秦淮区,,unknown,
baidu,7de49337b14302cc1ef74d1e,街电(如家快捷酒店西安门地铁站店),南京市秦淮区中山东路二条巷64号,江苏省,南京市,秦淮区,4006868588,unknown,
baidu,78286115a7db2754f5c59c84,南京总统府亚朵酒店-大堂,江苏省南京市秦淮区中山东路486号近西安门地铁站,江苏省,南京市,秦淮区,,unknown,
baidu,c51319d184b95943dbd8911a,桔子水晶南京总统府中山东路酒店-大堂,江苏省南京市秦淮区中山东路472号,江苏省,南京市,秦淮区,,unknown,
baidu,5a66e62aff57669c8f1a89a5,中艺图文(三条巷),江苏省南京市秦淮区三条巷127号,江苏省,南京市,秦淮区,18052029818,unknown,
baidu,fa3358c40b771b858a36ee80,小电(鸿星海鲜酒家中山东路店),江苏省南京市秦淮区中山东路518号,江苏省,南京市,秦淮区,,unknown,
baidu,b77862c49971ba0eb8bd63f2,南京凯宾斯基酒店-大堂,江苏省南京市秦淮区龙蟠中路218号凯宾斯基酒店5层,江苏省,南京市,秦淮区,,unknown,
baidu,a5472533ce451b6f6140a9c8,二条巷钟表行(三条巷小区店),江苏省南京市秦淮区二条巷24号,江苏省,南京市,秦淮区,,unknown,
baidu,cac987de45afe5bb6fa3cc7b,山水大酒店-大堂,江苏省南京市玄武区龙蟠中路118号,江苏省,南京市,玄武区,,unknown,
baidu,4daedcc5d53a67c494031928,巨成广告,三条巷30-4号,江苏省,南京市,秦淮区,(025)86643146,unknown,
baidu,f1988954ad38dbb738e4a609,尘界西装定制,中山东路300号长发中心B座3楼（大行宫3号口）,江苏省,南京市,秦淮区,"(025)85318977,17368479411",unknown,
baidu,56d535788c031b43e01103df,中国移动(龙蟠中路营业厅),江苏省南京市玄武区珠江路699号锦创数字产业园A座,江苏省,南京市,玄武区,,unknown,
baidu,fb6cfda7e90b3eab54bfff84,巨宏广告(长白街),长白街632号(大行宫地铁站出入口步行490米),江苏省,南京市,秦淮区,15094311522,unknown,
baidu,1bc7c07f79675e9b04fef500,宏亚图文(解放路店),江苏省南京市秦淮区解放路29号-4号,江苏省,南京市,秦淮区,(025)84680523,unknown,
baidu,304ab11f4b0d5ec059bbbc4d,中国移动,江苏省南京市秦淮区瑞金路1-61号,江苏省,南京市,秦淮区,4006668800,unknown,
baidu,7994780167721310ad080f90,床上用品修补换拉链,普华巷2号,江苏省,南京市,秦淮区,,unknown,
baidu,15a938100e8516bd14c8f6e4,中国移动(未来城营业厅),江苏省南京市玄武区珠江路588号未来城b座4楼,江苏省,南京市,玄武区,"15895872711,4006668800",unknown,
baidu,e0e36bb37196aa0b8d7727ac,中国电信(南京分公司秦淮区营销中心),江苏省南京市秦淮区游府西街8号(大行宫地铁站出入口步行490米),江苏省,南京市,秦淮区,,unknown,
baidu,a65b654d676e8b4dd0ff234c,中国移动(头条巷店),南京市秦淮区头条巷三条巷小区南侧,江苏省,南京市,秦淮区,,unknown,
baidu,0c3419826f7e739958f6be44,国航南京营业部,黄埔路2号黄埔大厦b座14楼,江苏省,南京市,玄武区,(025)84815540,unknown,
baidu,d4ff8d0ba7b27bbca8059dc0,润万嘉置业(中山东路小区店),长白街632号(大行宫地铁站出入口步行480米),江苏省,南京市,秦淮区,15951896319,unknown,
baidu,ad74b2e79cc65403ae080fb0,黄埔大酒店·宴会厅,梅园新村街道黄埔路2-2号(近黄埔科技大厦),江苏省,南京市,玄武区,(025)84069777,unknown,
baidu,21e76a4901a89f781ce999eb,南京圣和府邸豪华精选酒店-大堂,江苏省南京市玄武区长江路300号,江苏省,南京市,玄武区,,unknown,
baidu,b408d9ea62272d5b07fef5dd,汇丽连锁酒店(南京军区总院店)-大堂,江苏省南京市秦淮区解放路42号,江苏省,南京市,秦淮区,,unknown,
baidu,d8159c50434a2f3b374aae1a,禹梦美容(黄埔路店),黄埔路2-15号（军区总院）,江苏省,南京市,玄武区,(025)84827655,unknown,
baidu,1ad18261d41ecbbaadcb66c8,言叶之庭皮肤管理(大行宫店),太平南路新世纪广场B座12层1219室,江苏省,南京市,秦淮区,18114474009,unknown,
baidu,3f770a7f8d0d660c42d63edb,skin79皮肤管理中心(大行宫店),五老村街道新世纪广场B幢1205,江苏省,南京市,秦淮区,18936040672,unknown,
baidu,0f3dc77d2af3733b6849f3c7,亮尔肤美容美体中心(大行宫店),中山东路新世纪广场B栋715室,江苏省,南京市,秦淮区,13218023398,unknown,
baidu,1154b08e04520b0bf82d613f,潮尚发型,解放路29号,江苏省,南京市,秦淮区,13584086094,unknown,
baidu,0ad5e316e3d386d5fbdc8526,AKOYI日式美甲美睫,长白街660号,江苏省,南京市,秦淮区,"13851898002,13952034533",unknown,
baidu,73ebc50f27e0c87fa0acc412,大美堂·养生美容(解放路店),解放路62-6号,江苏省,南京市,秦淮区,(025)84617892,unknown,
baidu,88c059d7ba0478774c2fdfca,俊一沙龙(黄埔路店),黄埔路2号-9,江苏省,南京市,玄武区,(025)84812271,unknown,
baidu,2133024fdc9961cbbd484230,新名萱(中山东路小区店),长白街632号106室,江苏省,南京市,秦淮区,17798528769,unknown,
baidu,a86a60475c74f9b8c91b95f1,梵莎轻奢美学(大行宫店),中山东路300号长发中心A座10楼1009室,江苏省,南京市,秦淮区,"13921449286,15996249367",unknown,
baidu,27b525fcc82df3d155bfff56,指如柔荑·韩氏美甲美睫,新世纪广场B座912室,江苏省,南京市,秦淮区,"13851898002,13952034533",unknown,
baidu,301fa19c0b9a47b01d5800c1,绣罗问题皮肤调理中心,中山东路新世纪广场B座1702室,江苏省,南京市,秦淮区,,unknown,
baidu,05773fe0256b8f4796f08c53,蕾特恩专业祛痘国际连锁(常府街店),户部街24号（地铁三号线常府街站4出口往左，公交车八一站、常府街站）,江苏省,南京市,秦淮区,(025)83316698,unknown,
baidu,b3812e2fd685e411a6da398a,SWANK SALON(南京1912店),太平北路1912街区9号楼下沉式广场,江苏省,南京市,玄武区,(025)85347771,unknown,
baidu,2527be1e28bb56aa4bfc8da4,子如发型(瑞金路总店),瑞金路1-58号（近解放路 瑞金路第一中学对面）,江苏省,南京市,秦淮区,"(025)84621483,13805171588",unknown,
baidu,d7c50d6a95e267223b13fd83,圣雅·野生眉半永久纹眉(南京店),太平南路新世纪广场B座8楼,江苏省,南京市,秦淮区,18115174344,unknown,
baidu,c5519f19dd985b52d91318a3,咪咪专业脱毛连锁机构(大行宫店),全国直营:太平南路1号新世纪广场B座1916（地铁2/3号线大行宫站3号出口旁）,江苏省,南京市,秦淮区,18936863619,unknown,
baidu,45c5f94717f072c7a8f0cdcc,瞧·享轻奢美甲美睫(新世纪店),科巷1号新世纪广场B座21楼2109室,江苏省,南京市,秦淮区,18013935659,unknown,
baidu,31f815ddb853fd6816c905aa,一品接发造型(大行宫店),"中山东路新世纪广场B栋8楼806号（近大行宫地铁站,靠近92酒吧街）",江苏省,南京市,秦淮区,15050561351,unknown,
baidu,c5e3cb300323e9d0c909f05b,乐活轻奢皮肤管理(大行宫店),太平南路日月大厦29层2905室,江苏省,南京市,秦淮区,18114499085,unknown,
baidu,1e978027f3c688a98c1a89ea,美妍集·柔婷ESPA(新国百店),户部街29号力联大厦底商,江苏省,南京市,秦淮区,,unknown,
baidu,4c1b9cb6dacecfe58c1a89d5,点靓妞妞连锁店,江苏省南京市秦淮区三条巷61号,江苏省,南京市,秦淮区,17749558867,unknown,
baidu,7eff0c3f91f054c50e0e6b8e,东方美容院(普华巷店),南京市秦淮区普华巷中山东路小区,江苏省,南京市,秦淮区,,unknown,
baidu,4023e0674feff6305fd4fe98,洋东发艺,大悲巷12号,江苏省,南京市,玄武区,13851808005,unknown,
baidu,b0a95cf3e00dd4514c6d4698,小马理发店(解放路店),解放路26-2号临,江苏省,南京市,秦淮区,13770709032,unknown,
baidu,b3aa435dc5a77d12147643ae,秀域科技美容(秀域中山东路),长白街486号,江苏省,南京市,秦淮区,(025)84560458,unknown,
baidu,2eb9805f2d1a9c8058109369,晓王美发,江苏省南京市秦淮区四条巷76号,江苏省,南京市,秦淮区,17714531251,unknown,
baidu,e705ff79dd8e2a905e0d025d,丝丝如意坊,四条巷102号101室,江苏省,南京市,秦淮区,,unknown,
baidu,c72c5275649c00167bf7963f,衣着美甲,三条巷43号附近,江苏省,南京市,秦淮区,,unknown,
baidu,c7a0b7f09edfe556d4851fc1,六其林头疗美容,江苏省南京市玄武区长江后街8-3号-13幢-1层,江苏省,南京市,玄武区,13951925329,unknown,
baidu,2f16dd8f09b6822a14c90565,Colorchange造型美发设计工作室,南京市秦淮区三条巷仁义里小区,江苏省,南京市,秦淮区,,unknown,
baidu,b2b9d68c0693b3b06b49f33f,小丁发屋(大杨村),江苏省南京市秦淮区大杨村1号6幢102室,江苏省,南京市,秦淮区,13813932550,unknown,
baidu,9c46066d99ae14ff40e192ff,MS魅舍·综合美学生活馆,科巷1号新世纪广场B座22楼2222室,江苏省,南京市,秦淮区,13913899088,unknown,
baidu,6740d6171ebc63c526d2bb52,梦思发型,四条巷仁寿里28-8号,江苏省,南京市,秦淮区,13951916796,unknown,
baidu,78c52a1c4ccaa1242cb96d98,匠心快剪,科巷66号科巷菜场一楼扶梯口左侧,江苏省,南京市,秦淮区,17712664501,unknown,
baidu,48312af56655d54482288ab9,嘟嘟美甲,珠江路竺桥新村3-101门面房,江苏省,南京市,玄武区,,unknown,
baidu,5ae4e541adfe8d810b1cc791,玉明发艺(太平桥南店),江苏省南京市玄武区太平桥南15号,江苏省,南京市,玄武区,13952034518,unknown,
baidu,af6eaa24c09effcac929151a,蝶姿兰皮肤管理中心,南京市玄武区太平桥北太平桥南小区-北区,江苏省,南京市,玄武区,,unknown,
baidu,e2c734e416f5284415a190ff,莎蔓莉莎美容会所(大光路店),大光路142号金陵尚府水晶街3楼,江苏省,南京市,秦淮区,(025)84583995,unknown,
baidu,72032c3b65bc211b1d1d1190,凌尚造型,江苏省南京市秦淮区瑞北街瑞金北村-2区,江苏省,南京市,秦淮区,18656517716,unknown,
baidu,da01fa40a6105cbd09b93ab6,猫九TATTOO艺术工作室,珠江路卓越大厦848室,江苏省,南京市,玄武区,15365131018,unknown,
baidu,66d67a554fe11c056240a9b3,纤颜美容养生馆,东郊小镇二街区6栋203,江苏省,南京市,秦淮区,,unknown,
baidu,27b7dae8ca74ada1223bf26e,木森焕肤美容中心,新世纪广场B坐1228室,江苏省,南京市,秦淮区,,unknown,
baidu,83ec4cb6431452f04054d792,秦淮区太平南路1号大行宫B座露儿皮肤管理中心,江苏省南京市秦淮区太平南路1号大行宫B座2919室,江苏省,南京市,秦淮区,,unknown,
baidu,f38ae24a60081342f7eafc0a,普瑞缇皮肤管理中心(新街口店),洪武北路55号斯亚·置地广场12楼（江苏银行楼上）,江苏省,南京市,玄武区,(025)86611588,unknown,
baidu,5cc36146d26c415e75e5b6a8,嘉一化妆造型·彩妆私教(新街口店),中山东路198号龙台国际大厦2016号,江苏省,南京市,秦淮区,19895595320,unknown,
baidu,3a0a78bd5a0dece3631809c2,严华发型(裕德里小区店),太平桥南11号品味鸭血粉丝快餐店附近,江苏省,南京市,玄武区,13404153838,unknown,
baidu,5bf844249adcc91a9de3219d,英格造型(申家巷20号小区店),申家巷20号小区3栋申家巷20号,江苏省,南京市,秦淮区,15295525238,unknown,
baidu,269fe8f39b9a92db0b1cc73c,奈斯NICE·美甲美睫(东白菜园小区店),东白菜园103号,江苏省,南京市,秦淮区,,unknown,
baidu,e359691e6c5660e74d554751,英思菲尔专业脱毛连锁机构(大行宫店),新世纪广场b座1028,江苏省,南京市,秦淮区,(025)86557266,unknown,
baidu,3db63d3c589f75f3990050c6,点击造型,科巷新世纪广场B座1021室,江苏省,南京市,秦淮区,,unknown,
baidu,8edcb6e563985fcd24d2bbcb,FAS SALON(大行宫店),新世纪广场B座18楼1810号,江苏省,南京市,秦淮区,,unknown,
baidu,dc35de7eb2bd534aab175adb,三子美发沙龙,江苏省南京市玄武区梅园新村街道太平桥南12号,江苏省,南京市,玄武区,,unknown,
baidu,7ab97bd1cd6349e6980050d7,魔龄·美甲美睫·设计师店(瑞金路店),瑞金路8号小区1幢101室,江苏省,南京市,秦淮区,18136858565,unknown,
baidu,94c916da5c7e1fbcda2f28f5,清河发艺,江苏省南京市秦淮区瑞金路街道大清河7号,江苏省,南京市,秦淮区,,unknown,
baidu,21166a9730848be50ab93a4f,Beauty&eyes美少女美甲美睫(大行宫分店),新世纪广场B座2108,江苏省,南京市,秦淮区,17372288251,unknown,
baidu,65ae909092df96e7c17da263,雅妍美妆,太平南路1号新世纪广场B座1205室（近地铁2号线大行宫站）,江苏省,南京市,秦淮区,13301582510,unknown,
baidu,d6c5d991762880f131169bbe,永琪美容美发(珠江店),成贤街50号成贤大厦1层,江苏省,南京市,玄武区,025-89672676,unknown,
baidu,6aa1f1a64063ed34451a32a5,Kanagawa·川日式美甲美睫(新世纪广场店),新世纪广场A座4104,江苏省,南京市,秦淮区,15295531139,unknown,
baidu,b0fa40bda567af3b76e5b6fb,雪儿美甲美睫(竺桥新村店),竺桥新村1-6,江苏省,南京市,玄武区,,unknown,
baidu,d44213b6f4c0283496ca0719,永琪美容美发(龙蟠店),龙蟠中路荷包套百仕园4幢楼下,江苏省,南京市,玄武区,025-89672676,unknown,
baidu,517bcabf1361afb6a11de9f3,二六零八美甲美睫美容馆,江苏省南京市秦淮区五老村街道太平南路5号,江苏省,南京市,秦淮区,15380917357,unknown,
baidu,88dcf2325ad1b25982a12e56,伊美专佳专业减肥塑型馆(大行宫店),新世纪广场B座2008,江苏省,南京市,秦淮区,15062258021,unknown,
baidu,927c66d72c9f17c0aeb22a4b,黄氏一手整骨·减肥(大行宫店),延龄巷龙台国际大厦21层2103号,江苏省,南京市,秦淮区,,unknown,
baidu,24aced507451a9a4fb2d61b3,沫兮美学研究所,南京市太平南路新世纪广场B座21楼2115,江苏省,南京市,秦淮区,13770609632,unknown,
baidu,e0831e434d0667d1bfa822e2,AZ STUDIO阿紫美学,新世纪广场B座2218室,江苏省,南京市,秦淮区,,unknown,
baidu,2bef3c1d071362292ee67bc0,同庆发屋(新巷小区店),东白菜园51号101室,江苏省,南京市,秦淮区,,unknown,
baidu,66f53b0dab2e5cf81f1d11e9,Ninety-nine美学(天之都店),户部街天之都大厦805,江苏省,南京市,秦淮区,13814152741,unknown,
baidu,16c41bb41b43d717ad080fa5,叶子家半永久纹绣纹眉美瞳线工作室(新世纪广场B幢店),新世纪广场B-1627,江苏省,南京市,秦淮区,15850606142,unknown,
baidu,3c6fb048a6f943f7e5e965ce,金蔓秀减肥塑形养生馆(四条巷6号小区店),常府街14号,江苏省,南京市,秦淮区,15724884678,unknown,
baidu,7d8d40670c726509c9e33ce8,MARUI嘛噜咿(东方福来德店),汉中路东方福来德3楼,江苏省,南京市,秦淮区,(025)86713995,unknown,
baidu,b366e840b752fe1b0a5cb3de,js灰指甲,江苏省南京市秦淮区常府街8-9号,江苏省,南京市,秦淮区,,unknown,
baidu,e6de304ae7870ed10b1cc71e,西安门遗址公园,龙蟠中路202号,江苏省,南京市,秦淮区,,unknown,
baidu,d24e48eb4aac8db4afee7aec,南京博物院,江苏省南京市玄武区中山东路321号,江苏省,南京市,玄武区,(025)84807923,unknown,
baidu,d991e11656ad21551f3894eb,毗卢寺,汉府街4号,江苏省,南京市,玄武区,(025)84405431,unknown,
baidu,1135806737316b6102294f42,南京地质博物馆,江苏省南京市玄武区珠江路700号,江苏省,南京市,玄武区,(025)51816587,unknown,
baidu,6cdd6c03b678c6dfb5147fd6,六朝博物馆,江苏省南京市玄武区长江路302号,江苏省,南京市,玄武区,"(025)52326021,(025)52326032",unknown,
baidu,2c0bd6c594aa68d742ab9aa1,郑和公园,江苏省南京市秦淮区长太平巷35号,江苏省,南京市,秦淮区,(025)84419742,unknown,
baidu,945502b80f9ce3bff503b807,511公园,南京市秦淮区航城路16号,江苏省,南京市,秦淮区,,unknown,
baidu,faebb2f474acf713b05c6a74,古桃叶渡,南京市秦淮区桃叶渡8号,江苏省,南京市,秦淮区,,unknown,
baidu,b67f9da7101eaa1a6cc02cf6,中共代表团梅园新村纪念馆,江苏省南京市玄武区汉府街18-1号,江苏省,南京市,玄武区,(025)84540739,unknown,
baidu,c13c74fbc6f54a3b6fc02cd1,励志社旧址,南京市玄武区梅园新村街道中山东路307号钟山宾馆内,江苏省,南京市,玄武区,(025)84818888,unknown,
baidu,b7021bf855d293fbf4e73be9,南京美术馆,南京市秦淮区四条巷12号,江苏省,南京市,秦淮区,(025)84512018,unknown,
baidu,871e4aa2c576017d02294f44,中央陆军军官学校旧址,南京市玄武区黄埔路3号,江苏省,南京市,玄武区,,unknown,
baidu,866fad0c23418e3407fef594,西白菜园历史风貌区,江苏省南京市秦淮区五老村街道东白菜园14号-4,江苏省,南京市,秦淮区,,unknown,
baidu,83ec9f4c6c0f792c5bf6be3a,南京城墙富贵山登城口,北安门街富贵山景区内,江苏省,南京市,玄武区,,unknown,
baidu,5ac35bd4e63ef0c848cc4a1a,明故宫,中山东路311-3号,江苏省,南京市,玄武区,(025)84807135,unknown,
baidu,5c035c7390c589d22b06ced9,古秦淮牌坊,南京市秦淮区平江府路58号,江苏省,南京市,秦淮区,,unknown,
baidu,1e33fefa61574abe9222e02d,江苏省美术馆(长江路新馆),江苏省南京市玄武区长江路333号,江苏省,南京市,玄武区,(025)89610840,unknown,
baidu,39c4f7e36f2200982b06ce31,蒋介石办公室,江苏省南京市玄武区长江路292号总统府内,江苏省,南京市,玄武区,(025)84578716,unknown,
baidu,5ffb181667c0725f6f4760ec,行政院,江苏省南京市玄武区东箭道19号总统府内,江苏省,南京市,玄武区,,unknown,
baidu,bcc1abb6ae457a7e631c6741,基督教圣保罗堂,江苏省南京市太平南路396号(近白下路),江苏省,南京市,秦淮区,(025)86647225,unknown,
baidu,1eb01478288a139c6fc02cca,周恩来铜像,汉府街18-1号,江苏省,南京市,玄武区,"(025)84504828,(025)84540739",unknown,
baidu,ece69a00b6947b4f744ff167,南京城墙中山门登城口,江苏省南京市玄武区前半山园与中山门大街交叉口东南方向130米,江苏省,南京市,玄武区,(025)83608359,unknown,
baidu,550fd5f9a6304a79921fc9a6,东园桥,南京市秦淮区大石坝街金陵闸小区西北1门西南侧约60米,江苏省,南京市,秦淮区,,unknown,
baidu,01eac687c88551b8b6147f64,午朝门公园,御道街27号(明故宫遗址),江苏省,南京市,秦淮区,(025)84807135,unknown,
baidu,762ab635d81769a05bf6be7e,南京雨花石,南京市玄武区长江路292号总统府内,江苏省,南京市,玄武区,,unknown,
baidu,88c9033e9b1b17daaf31e5ea,东水关遗址公园,江苏省南京市秦淮区龙蟠中路408号,江苏省,南京市,秦淮区,,unknown,
baidu,adb50e6e4d9a7bb2882fb5ae,太平门,江苏省南京市玄武区11路24路48路Y17路(夜间线路)等16条线路,江苏省,南京市,玄武区,(025)83614286,unknown,
baidu,eaf230b78cef3cb6b817e707,文殊殿,汉府街4号毗卢寺,江苏省,南京市,玄武区,,unknown,
baidu,f0727638947ef7bb5bf6be43,长江路历史文化街区,南京市玄武区梅园新村纪念馆,江苏省,南京市,玄武区,,unknown,
baidu,dc2cf1b0fcd14c6c9a0050da,龙门,汉府街4号毗卢寺,江苏省,南京市,玄武区,,unknown,
baidu,bcc74daf9d34e52ffb221399,天王府遗址,南京市玄武区长江路292号总统府内,江苏省,南京市,玄武区,(025)84578716,unknown,
baidu,5e21f1a371912ba77c29bd86,梅园新村路与雍园交叉口-44号民国住宅,江苏省南京市玄武区梅园新村44号,江苏省,南京市,玄武区,,unknown,
baidu,6e6eacf715a4a8a4f942b264,总统府-门楼,南京市玄武区长江路292号总统府内,江苏省,南京市,玄武区,(025)84578888,unknown,
baidu,be00f697586e6de7dbd89191,南京城墙东水关登城口,南京市秦淮区七里街408号附近,江苏省,南京市,秦淮区,,unknown,
baidu,2fe615d5b164c8f529fc486b,南京利济巷慰安所旧址陈列馆,江苏省南京市秦淮区利济巷2号,江苏省,南京市,秦淮区,(025)58598353,unknown,
baidu,101bc61b20f637a3c42ba1ed,九华山公园,南京市玄武区北京东路,江苏省,南京市,玄武区,,unknown,
baidu,dfe5c4f9f55f124e25d2bb6f,江宁织造博物馆,江苏省南京市玄武区长江路123号,江苏省,南京市,玄武区,"(025)83410337,(025)83416802",unknown,
baidu,befdb292a1f1aee187154145,西华门遗址广场,江苏南京市秦淮区中山东路524号,江苏省,南京市,秦淮区,,unknown,
baidu,726635807d8428ea0aa8d49a,国民政府总统府办公楼,江苏省南京市玄武区长江路292号总统府内,江苏省,南京市,玄武区,(025)84578888,unknown,
baidu,21ab627b7b535e473904b11a,南京税收博物馆,南京市秦淮区复成里5号,江苏省,南京市,秦淮区,"(025)84793095,(025)84793405",unknown,
baidu,d1a2dfee433669bc07fef521,万佛宝楼,汉府街4号毗卢寺,江苏省,南京市,玄武区,,unknown,
baidu,697770d215c7e5def92213ad,西玉带河水系流域花园,南京市瑞金路41号,江苏省,南京市,秦淮区,,unknown,
baidu,fb43e49ecd80a0942ce67b23,总统府会客厅,南京市玄武区长江路292号总统府内,江苏省,南京市,玄武区,(025)84578716,unknown,
baidu,d080760aed4c8e417dc876c1,大堂,南京市玄武区长江路292号总统府内,江苏省,南京市,玄武区,,unknown,
baidu,831273dec1da08fd230262ab,文昌巷19号民国建筑群,江苏省南京市秦淮区文昌巷19号,江苏省,南京市,秦淮区,,unknown,
baidu,b16a84646658d1b13904b165,国民政府行政院楼(北楼),南京市玄武区长江路292号总统府,江苏省,南京市,玄武区,,unknown,
baidu,1ce25221e81decb43a04b1f3,中共代表团办公原址,梅园新村17号,江苏省,南京市,玄武区,,unknown,
baidu,81d7cf6cfcfce32e2afc4816,喷水池,南京市玄武区长江路292号总统府内,江苏省,南京市,玄武区,(025)84578716,unknown,
baidu,372b43c510d28e098d772734,观音阁,汉府街4号毗卢寺,江苏省,南京市,玄武区,,unknown,
baidu,698ff4b27cbaec586cc02ccc,梅园新村40号民国住宅,南京市玄武区梅园新村40号,江苏省,南京市,玄武区,,unknown,
baidu,37a2152764be0794f6c59c69,天下为公,南京市玄武区长江路292号总统府内,江苏省,南京市,玄武区,,unknown,
baidu,3bf430c7624f0a71f32d83c3,南京中国近代史遗址博物馆-东苑,南京市玄武区长江路292号总统府内,江苏省,南京市,玄武区,(025)84578700,unknown,
baidu,2480f3b4e06a917840ab9a38,天王宝座,南京市玄武区长江路292号总统府东苑内,江苏省,南京市,玄武区,,unknown,
baidu,c47fa56dc7a0be5b3617dc62,观自在大佛,汉府街4号毗卢寺,江苏省,南京市,玄武区,,unknown,
baidu,df91eda4be5a291d57bfffbf,南京世界文学客厅,江苏省南京市玄武区北京东路37-5号,江苏省,南京市,玄武区,15295516652,unknown,
baidu,f11d6146b46351080c0a70ad,李鸿章祠堂,江苏省南京市秦淮区五老村街道常府街四条巷77号,江苏省,南京市,秦淮区,,unknown,
baidu,99905ef9cd0df685ca09f0d2,中国共产党代表团办事处旧址,汉府街18-1号,江苏省,南京市,玄武区,(025)84540739,unknown,
baidu,175da45b1d84ee1e09b93ad8,忘飞阁(水榭),南京市玄武区长江路292号总统府内,江苏省,南京市,玄武区,(025)84578716,unknown,
baidu,0738735000f9abe4abf0cd2e,古井,南京市玄武区长江路292号总统府东苑内,江苏省,南京市,玄武区,,unknown,
baidu,7304717188d4b08b31f71d34,东朝房,南京市玄武区长江路292号总统府内,江苏省,南京市,玄武区,,unknown,
baidu,e5aeea5fe792c65ff8f0cb70,藏经楼,汉府街4号毗卢寺,江苏省,南京市,玄武区,,unknown,
baidu,6d89ad4ad8c5eaee471a32ad,西方三圣殿,汉府街4号毗卢寺,江苏省,南京市,玄武区,(025)84405431,unknown,
baidu,183d18a98e8472f0cf06a41a,花房,南京市玄武区长江路292号总统府内,江苏省,南京市,玄武区,13770847229,unknown,
baidu,cf67e6eed9dc85eb6fc02c97,地藏阁,汉府街4号毗卢寺,江苏省,南京市,玄武区,(025)84405431,unknown,
baidu,6ad41f904aa50dd3373a710e,明故宫飞机场旧址-及附属建筑,江苏省南京市秦淮区瑞金路街道龙蟠中路226号,江苏省,南京市,秦淮区,,unknown,
baidu,4e522221037dfc9cf4b916fa,漪澜阁,江苏省南京市玄武区长江路292号总统府内,江苏省,南京市,玄武区,,unknown,
baidu,f41a453699313b311894c65f,西华门遗址公园,江苏省南京市秦淮区瑞金路街道中山东路524号,江苏省,南京市,秦淮区,,unknown,
baidu,278e805e16dd4290ab175ab5,周恩来邓颖超同志卧室,汉府街18号梅园新村纪念馆内,江苏省,南京市,玄武区,,unknown,
baidu,937f333e80f111950f0e6b7c,桐音馆,南京市玄武区长江路292号总统府内,江苏省,南京市,玄武区,,unknown,
baidu,22942224bfd09fef4f6d461f,林则徐像,南京市玄武区长江路292号,江苏省,南京市,玄武区,,unknown,
baidu,2a9d4237cb61cea5eb1e97c5,石缘轩,南京市玄武区长江路292号总统府内,江苏省,南京市,玄武区,,unknown,
baidu,35ba9e2bc67a93f3128824fb,钟山红岭,江苏省南京市玄武区中山东路307号钟山宾馆内,江苏省,南京市,玄武区,,unknown,
baidu,e6d90c7059f6cf27f5eafc50,毗卢寺史料博物馆,汉府街4号毗卢寺,江苏省,南京市,玄武区,,unknown,
baidu,2f7ae6a878679df92ce67b87,观戏台,南京市玄武区长江路292号总统府内,江苏省,南京市,玄武区,(025)84578716,unknown,
baidu,e32c8972b1dbdf73d81318ac,大门石狮子,南京市玄武区长江路292号总统府内,江苏省,南京市,玄武区,(025)84578716,unknown,
baidu,c39dfa4bd854a21684420ee2,梅园新村路与雍园交叉口-43号民国住宅,南京市玄武区梅园新村43号,江苏省,南京市,玄武区,,unknown,
baidu,66b09164bc952ef30f0e6b50,禅堂,汉府街4号毗卢寺,江苏省,南京市,玄武区,,unknown,
baidu,bd172dd97479220f8bdb7317,御碑亭,南京市玄武区长江路292号总统府内,江苏省,南京市,玄武区,"(025)84578700,(025)84578716",unknown,
baidu,21e2359da4b5721caaf7296c,江苏警察博物馆,南京市玄武区长江路292号总统府内,江苏省,南京市,玄武区,,unknown,
baidu,f3dfe5d3b45698ecc909f0a9,毗卢寺-中国佛教会旧址,江苏省南京市玄武区汉府街4号,江苏省,南京市,玄武区,(025)84405431,unknown,
baidu,51998e311d2abadb45572674,南京游侠客旅游上车点,江苏省南京市玄武区长江路333号,江苏省,南京市,玄武区,15158183432,unknown,
baidu,f80929ed06463a4a9ff77908,观音楼,汉府街4号毗卢寺,江苏省,南京市,玄武区,(025)84405431,unknown,
baidu,86b0cc3894776e3e9f9d681d,总统府会客厅-麒麟门,江苏省南京市玄武区长江路292号总统府内,江苏省,南京市,玄武区,(025)84578716,unknown,
baidu,034aaab819e1c5136849f36e,政肃两江,江苏省南京市玄武区东箭道与长江路交叉口北200米,江苏省,南京市,玄武区,(025)84578716,unknown,
baidu,85c01aa1b9ef0d8394031993,梅园新村52号民国住宅,南京市玄武区梅园新村22号,江苏省,南京市,玄武区,,unknown,
baidu,d8c7779807e6ddbf71455b13,文书局,南京市玄武区长江路292号总统府内,江苏省,南京市,玄武区,(025)84578716,unknown,
baidu,662bbba53fd98ac17adbd239,党史史料陈列馆旧址,江苏省南京市玄武区梅园新村街道中山东路309号,江苏省,南京市,玄武区,,unknown,
baidu,d5931517886467c8932ca3c4,大雄宝殿,汉府街4号毗卢寺,江苏省,南京市,玄武区,,unknown,
baidu,1b75baedf61f0eb5fd0eb02a,梅园新村1-4-9-12号民国住宅,南京市玄武区梅园新村9-12号,江苏省,南京市,玄武区,,unknown,
baidu,77a7fc5222b9fad88c1a8948,法堂,汉府街4号毗卢寺,江苏省,南京市,玄武区,,unknown,
baidu,606a7d6eda86e709d518b7f7,太平湖-马厩,江苏省南京市玄武区梅园新村街道长江路292号总统府东苑内,江苏省,南京市,玄武区,(025)84578716,unknown,
baidu,8e917410600fcd5bcb213d5b,西朝房,江苏省南京市玄武区梅园新村街道长江路292号总统府内,江苏省,南京市,玄武区,(025)84578700,unknown,
baidu,16a5fff6fbc675bf01294fdd,天王机密室,南京市玄武区长江路292号总统府东苑内,江苏省,南京市,玄武区,,unknown,
baidu,fa99dab2b0355be6eb1e97f8,大悲巷/竺桥(路口),南京市玄武区太平桥南,江苏省,南京市,玄武区,,unknown,
baidu,202aec484e2e9699c1f1cf0f,五老村爱国卫生运动纪念馆,南京市秦淮区文昌宫南京市五老村小学(崇实校区)西南侧约30米,江苏省,南京市,秦淮区,,unknown,
baidu,8572cfc4657e0c817369d362,孙中山就任临时大总统宣誓处(暖阁),南京市玄武区长江路292号总统府内,江苏省,南京市,玄武区,(025)84578716,unknown,
baidu,6deee30834bc136a29fc48ec,黄裳将军故居,南京市玄武区梅园新村街道汉府街3号,江苏省,南京市,玄武区,,unknown,
baidu,255351e7bbb5535c4054d754,普贤殿,汉府街4号毗卢寺,江苏省,南京市,玄武区,(025)84405431,unknown,
baidu,a1daeb8a0506dcc0b14c4974,东方三圣药师殿,汉府街4号毗卢寺,江苏省,南京市,玄武区,,unknown,
baidu,594f45af27fc84108b2fb50b,六角亭,南京市玄武区长江路292号总统府内,江苏省,南京市,玄武区,(025)84578716,unknown,
baidu,1491b8566e7fa76852e5c5c9,扬帆,南京市玄武区长江路292号总统府内,江苏省,南京市,玄武区,,unknown,
baidu,b1dac565d94a75bc095cb3d9,含秀,南京市玄武区长江路292号总统府内,江苏省,南京市,玄武区,(025)84578716,unknown,
baidu,05ee00b479244f8e31870a3e,花厅,江苏省南京市长江路292号总统府内,江苏省,南京市,玄武区,,unknown,
baidu,73b2c5265e698c0436b06c36,黎磊石院士雕像,江苏省南京市玄武区中山东路305号中国人民解放军东部战区总医院,江苏省,南京市,玄武区,,unknown,
baidu,4c0902d0e19b17b4cae33c4e,晚清与民国历史陈列,南京市玄武区长江路292号总统府东苑内,江苏省,南京市,玄武区,,unknown,
baidu,0a7b74e0465afa67c9c3db72,谷知府(大润发瑞金路店),江苏省南京市秦淮区龙蟠中路260号大润发,江苏省,南京市,秦淮区,4009966315,unknown,
baidu,cdad39cace68619085420e44,二堂(中堂),南京市玄武区长江路292号总统府内,江苏省,南京市,玄武区,,unknown,
baidu,7c62748b4071077629fc48b7,陶林二公祠,江苏省南京市玄武区长江路292号总统府东苑内,江苏省,南京市,玄武区,"(025)84578700,025-84578888",unknown,
baidu,1d2e34321d37037f7bf796bf,天王书房,长江路292号总统府东苑内,江苏省,南京市,玄武区,,unknown,
baidu,454b2550a3710cbf220220f1,天玺记功碑,南京市玄武区太平北路54号煦园内,江苏省,南京市,玄武区,(025)84578716,unknown,
baidu,30b14aff9f5c0d906c47604d,赵朴初故居,汉府街4号毗卢寺,江苏省,南京市,玄武区,,unknown,
baidu,bbbbb986f8f15b9128b97c69,临时大总统府秘书处,江苏省南京市玄武区太平北路54号煦园,江苏省,南京市,玄武区,,unknown,
baidu,f853a9af6067e6ee14b54bbe,高二适故居,江苏省南京市白下区六合里3号,江苏省,南京市,秦淮区,,unknown,
baidu,32e85fad51e9015b8c1a89c5,棕榈亭,江苏省南京市玄武区梅园新村街道长江路292号总统府内,江苏省,南京市,玄武区,,unknown,
baidu,5b422181ac97b5ecf7b91640,典礼局,南京市玄武区长江路292号总统府内,江苏省,南京市,玄武区,(025)84578716,unknown,
baidu,f5cd175d21f715150e3ddae3,南京中国近代史遗址博物馆-第二展室,南京市玄武区长江路292号总统府内,江苏省,南京市,玄武区,(025)84578716,unknown,
baidu,b45c176c4703c4dd2fb17ec6,侍卫府胡衙界碑,南京市玄武区长江路292号总统府东苑内,江苏省,南京市,玄武区,,unknown,
baidu,b7a657afbe385054f8dc8571,枫桥夜泊诗碑,南京市玄武区长江路292号总统府内,江苏省,南京市,玄武区,(025)84578716,unknown,
baidu,c33589ad9cd634a6fbdc8595,天朝宫殿内宫,南京市玄武区长江路292号总统府内,江苏省,南京市,玄武区,(025)84578716,unknown,
baidu,6e466aadd9fe58874afc8df3,印心石屋碑,南京市玄武区长江路292号总统府内,江苏省,南京市,玄武区,(025)84578716,unknown,
baidu,1f368fe6997fdcf06fa3ccd1,勋高柱石碑,南京市玄武区长江路292号总统府东苑内,江苏省,南京市,玄武区,(025)84578716,unknown,
baidu,6aee4f77e86be72f4afd3f73,太平天国起义百年纪念碑,南京市玄武区长江路292号总统府内,江苏省,南京市,玄武区,(025)84578716,unknown,
baidu,ae10d3c5119cb84dbca822e4,秦淮戏院里,江苏省南京市秦淮区贡院街112-2号,江苏省,南京市,秦淮区,(025)85568880,unknown,
baidu,f923d7fc229b34f68bf15dd4,复园,南京市玄武区长江路292号总统府,江苏省,南京市,玄武区,"(025)84578700,(025)84578888",unknown,
baidu,b32142d729687ad5eedfcac9,中共代表团梅园新村纪念馆-33号民国住宅,南京市玄武区梅园新村31号,江苏省,南京市,玄武区,,unknown,
baidu,6186a015a5ac450ac16c14ce,总统府礼堂,南京市玄武区长江路292号总统府内,江苏省,南京市,玄武区,(025)84578716,unknown,
baidu,3ff086d1142d5a4cc0364421,国民政府行政院办公厅(南楼),南京市玄武区长江路292号总统府东苑内,江苏省,南京市,玄武区,,unknown,
baidu,9ed7f5dd1e6aa3df441a3221,大悲巷-11号民国住宅,南京市玄武区大悲巷9号,江苏省,南京市,玄武区,,unknown,
baidu,250ec166048034a5373a71a0,桃源新村-4号民国住宅,江苏省南京市玄武区桃源新村1~4号,江苏省,南京市,玄武区,,unknown,
baidu,5ccffe304f641964abf7293c,桃源新村50号民国住宅,江苏省南京市玄武区桃源新村50号,江苏省,南京市,玄武区,,unknown,
baidu,74f9cd28d6a4c1dc74e5b622,总统府-国务会议厅,长江路292号总统府,江苏省,南京市,玄武区,,unknown,
baidu,f6dcfdb85e0ed22449fc8df2,印铸局,南京市玄武区长江路292号总统府内,江苏省,南京市,玄武区,(025)84578716,unknown,
baidu,0a424a097efb1daed72ce230,军乐队营房,南京市玄武区长江路292号总统府东苑内,江苏省,南京市,玄武区,,unknown,
baidu,375129b0aa6d2368cb213d2d,外宾接待室,南京市玄武区长江路292号总统府内,江苏省,南京市,玄武区,(025)84578716,unknown,
baidu,9604b96f3f58637c2afc4850,夕佳楼,江苏省南京市玄武区长江路292号总统府内,江苏省,南京市,玄武区,,unknown,
baidu,944036dcd20426f5bb17e7b6,李宗仁办公室,南京市玄武区长江路292号总统府内,江苏省,南京市,玄武区,,unknown,
baidu,fd007c5e56c06d75a8f7292d,陆琴脚艺(黄埔路店),梅园新村街道黄埔路2号科技大厦4楼(近军区总医院侧门),江苏省,南京市,玄武区,(025)58811433,unknown,
baidu,b44e0c4b2b721eba8bfc064a,乘风破浪网咖(大行宫店),四条巷74号,江苏省,南京市,秦淮区,,unknown,
baidu,eb3dbfc6e43442e9f4e73b62,青春飞扬网咖(大行宫店),科巷37-14号商业综合楼二楼,江苏省,南京市,秦淮区,(025)84549668,unknown,
baidu,1cc150d6ca90679ae5e96529,菩缇·私人会馆,珠江路688号卓越大厦1509室,江苏省,南京市,玄武区,13851982837,unknown,
baidu,0c4f10c798d2df546c3e1b47,极客电竞(大行宫店),五老村街道科巷37号3楼(大行宫新世纪广场肯德基往科巷20米),江苏省,南京市,秦淮区,(025)83530106,unknown,
baidu,da874c0b5d63dfc2a8f7290a,温莎KTV(珠江路店),珠江路600号谷阳世纪大厦1-3层,江苏省,南京市,玄武区,(025)83277777,unknown,
baidu,c3a2353b0b52ec3b08f5eb54,朋来洗浴,四条巷49号,江苏省,南京市,秦淮区,18994133807,unknown,
baidu,144b2e60de665710e8e58224,云上棋牌会所(大行宫科巷店),五老村街道大行宫科巷37号4楼（霸王茶姬旁入口电梯4楼）,江苏省,南京市,秦淮区,(025)58805365,unknown,
baidu,4ac0e02040dab61c130daab1,新凯越酒庄·雪茄吧,长白街502号,江苏省,南京市,秦淮区,(025)52238408,unknown,
baidu,c9292412432841b75bf6be55,云中月·米酒馆,雍园19-1号,江苏省,南京市,玄武区,13770667371,unknown,
baidu,c2b0adea0f8c60bf770269fa,陆琴脚艺(大行宫店),五老村街道科巷37-3号五楼(二号线大行宫站3号口新世纪广场东侧科巷鸭品记楼上),江苏省,南京市,秦淮区,(025)85522133,unknown,
baidu,5a9a8cbf9df2fbec88db73da,Helens海伦司小酒馆(南京洪武路店),洪武路199号长发银座2层,江苏省,南京市,秦淮区,(025)83132169,unknown,
baidu,6646face5832e90688fc0620,和子足浴SPA会馆(曼度店),新街口街道杨将军巷9号曼度广场3楼（新宝都楼上）,江苏省,南京市,玄武区,18018313188,unknown,
baidu,57199efec720ee9d118824e1,温莎24K(新街口店),中山南路49号商茂世纪广场3层3001室,江苏省,南京市,秦淮区,,unknown,
baidu,4935b11001ca5a858c1a8902,米贩KTV量贩(新街口店),洪武路23号隆盛大厦西入口,江苏省,南京市,秦淮区,,unknown,
baidu,4f7289df80df8ca3e3110380,手天下专业足疗推拿(文昌巷店),五老村街道文昌巷37号(文昌巷苏果社区店大门旁),江苏省,南京市,秦淮区,,unknown,
baidu,a45957c3a65f2a091894c63b,风云再起游乐汇(新街口天丰大厦店),五老村街道洪武路26号天丰大厦1楼(中山东路与洪武路交叉口),江苏省,南京市,秦淮区,(025)84700130,unknown,
baidu,a6290226395cda675e0d02f3,天籁KTV (新街口店),抄纸巷4号1-10地下室,江苏省,南京市,秦淮区,"(025)52200955,18502502888",unknown,
baidu,5b0c8d80766e2c6e2ce67bf8,云上棋牌会所(新街口店),洪武路162号3楼（洪武路与羊皮巷交叉口马伍旺楼上）,江苏省,南京市,秦淮区,(025)85525365,unknown,
baidu,eb69c8dc91dda23316a190d3,李琴经络养生馆(大行宫店),科巷1号2215、2212室（新世纪广场B座2712室）,江苏省,南京市,秦淮区,,unknown,
baidu,ea58b3684308bdb6f11937eb,禾亭SPA(珠江路店),梅园新村街道太平桥南38号-1,江苏省,南京市,玄武区,18761845738,unknown,
baidu,ce2fbba1dbf4d4abb45f1ebb,熊猫集团老科协活动中心,江苏省南京市玄武区龙蟠中路158号熊猫集团45号楼301室,江苏省,南京市,玄武区,,unknown,
baidu,0ee79e87f29d84653a04b1be,大行宫市民广场,江苏省南京市玄武区中山东路298号大行宫,江苏省,南京市,玄武区,13813839297,unknown,
baidu,013af7d31747681358f6beed,1911·私沐·氧生,珠江路688号卓越大厦10楼1033,江苏省,南京市,玄武区,,unknown,
baidu,1864e9ffb8a3df84f4eafc4f,足疗保健,江苏省南京市玄武区重庆新村16号正东方向40米,江苏省,南京市,玄武区,,unknown,
baidu,b18219b22a2b4afb213bf27f,天天赢老年活动室,江苏省南京市秦淮区新巷中山东路小区西侧约70米,江苏省,南京市,秦淮区,(025)85114531,unknown,
baidu,c600fbef724b7c98f92213af,六初采耳·推拿·足疗·spa(大行宫店),大行宫科巷37号3楼(新世纪广场肯德基旁科巷往里20米电梯三楼极客网咖旁),江苏省,南京市,秦淮区,"(025)57013338,15655315006",unknown,
baidu,a369fc35e7462c5c9c09f725,博弈棋牌餐饮(三条巷小区店),三条巷与仁寿里交叉口东20米,江苏省,南京市,秦淮区,13851683100,unknown,
baidu,5ca416eb89835cce54bfff94,郑远元专业修脚房(常府街店),常府街10号,江苏省,南京市,秦淮区,15619966775,unknown,
baidu,5121dcb3b9b1cf63b34c49b0,圣和文化广场,江苏省南京市玄武区长江路300号,江苏省,南京市,玄武区,,unknown,
baidu,041a3b73aae8cab1c056ac86,WOO CLOUD唱片酒吧,长江后街8号1912街区15号楼（近太平北路）,江苏省,南京市,玄武区,13913013692,unknown,
baidu,bc88d4cb88bab5f8e215f9ef,云尚网咖,解放路101号2楼,江苏省,南京市,秦淮区,19852828061,unknown,
baidu,2da3aed989bf804bf8dc8501,品暮足浴馆,江苏省南京市玄武区太平桥南17号,江苏省,南京市,玄武区,,unknown,
baidu,71c36935894af45e4bcc4afb,悬壶盲人推拿按摩保健中心(太平桥南店),太平桥南15号（靠近1912，温莎KTV）,江苏省,南京市,玄武区,(025)83345380,unknown,
baidu,0a8144ae912287ab0d3dda25,经禅和·中医推拿(新世纪广场店),江苏省南京市秦淮区太平南路新世纪广场三楼,江苏省,南京市,秦淮区,(025)84846366,unknown,
baidu,4d4ff9e26be15e541b94c603,纤纤足浴养生馆,南京市玄武区太平桥南裕德里小区,江苏省,南京市,玄武区,,unknown,
baidu,eb9473d7b47ba71542afe664,天天赢棋牌贵宾楼,南京市秦淮区新巷五老村,江苏省,南京市,秦淮区,(025)85114531,unknown,
baidu,e7015cafb9898fefb320a81c,黄埔大酒店KTV,江苏省南京市玄武区黄埔路2号,江苏省,南京市,玄武区,17626043088,unknown,
baidu,bdaabd812cbf6246d5b74e2f,苏珥可视采耳(瑞金路店),瑞金路街道瑞金路2号西起第四间门面房,江苏省,南京市,秦淮区,,unknown,
baidu,e494ee8f2d51c70788db73bb,好康盲人推拿艾灸,长白街431号,江苏省,南京市,秦淮区,13222039970,unknown,
baidu,7579972954e116832cb17e2b,静沐岩华,三条巷4-5号,江苏省,南京市,秦淮区,13002548688,unknown,
baidu,5acc922af20e8da9f6c59c84,心缘足疗,江苏南京市秦淮区中山北路200-5号,江苏省,南京市,秦淮区,,unknown,
baidu,e7b305f6691110c4fa0cadef,悠然艾灸养生馆,南京市玄武区竺桥桃源新村,江苏省,南京市,玄武区,,unknown,
baidu,f220d4534e4df6fa3913fde1,足疗坊,常府街与复成里交叉口西北40米,江苏省,南京市,秦淮区,,unknown,
baidu,af2185be2f4566f83010afc0,众缘棋牌室,文昌巷东白菜园118号众缘棋牌室,江苏省,南京市,秦淮区,(025)84511966,unknown,
baidu,42499ea5c71f56e4eb1e97b6,郑远元专业修脚房(文昌巷店),文昌巷58号,江苏省,南京市,秦淮区,,unknown,
baidu,906410043cee4e14a80dd850,耐安盲人推拿按摩馆(珠江路店),珠江路688号卓越大厦12楼1219室,江苏省,南京市,玄武区,,unknown,
baidu,be187a738aa2e3a21ce999a8,旺望推拿足浴馆,南京市秦淮区西白菜园东白菜园小区,江苏省,南京市,秦淮区,,unknown,
baidu,3ca43835313994f758f6be33,苏珥可视采耳(南京珠江路店),江苏省南京市玄武区珠江路603号-6号,江苏省,南京市,玄武区,,unknown,
baidu,821e49d90b7e7022ede4a5a3,南京霞韵足疗有限公司,南京市秦淮区三条巷51号103室,江苏省,南京市,秦淮区,,unknown,
baidu,9c0af7f6d0b774eec0364425,康顺网咖,解放路295号解放路南京市解放路64号,江苏省,南京市,秦淮区,,unknown,
baidu,e3a7fd135074574b28b97c71,光阳大舞台,太平南路杨公井25号,江苏省,南京市,秦淮区,(025)86665088,unknown,
baidu,794db3f7812f569808f5eb80,STAFF ONLY Bar(南台巷店),南台巷西10号101室,江苏省,南京市,秦淮区,(025)86303036,unknown,
baidu,574e024e20d05356fb2d61a8,雨江南足浴推拿,南京市秦淮区东白菜园小区,江苏省,南京市,秦淮区,,unknown,
baidu,ab2577795f03ca0ffa42b29e,寒莹养生艾灸馆,江苏省南京市玄武区竺桥17号,江苏省,南京市,玄武区,,unknown,
baidu,d809fb88847ac96e471a327f,张氏盲人推拿(东白菜园小区店),文昌巷东白菜园小区98号,江苏省,南京市,秦淮区,,unknown,
baidu,afcaf853ab07af9d72455b91,科普广场,江苏省南京市秦淮区长白街445号,江苏省,南京市,秦淮区,,unknown,
baidu,fbfd8424e359e83f250bd0c9,东城娱乐会所·商务ktv·夜总会,江苏省南京市秦淮区瑞金路街道瑞金路3-1号,江苏省,南京市,秦淮区,19852264887,unknown,
baidu,b492423c26ec13984151c0b1,BMT泰式按摩精油(大行宫店),中山东路300号长发中心CFC商业广场B1,江苏省,南京市,秦淮区,,unknown,
baidu,298ac1da8b2b940da9175a09,Zero零剧沉浸式剧本体验殿堂,"南京市秦淮区中山东路300号长发中心A栋2706,2703",江苏省,南京市,秦淮区,"13770729614,18013027900",unknown,
baidu,6faf6fe7666a9c9d71210b30,原创休闲,南京市秦淮区常府街汉庭酒店(常府街店)北侧约30米,江苏省,南京市,秦淮区,,unknown,
baidu,25ec69fcc3c7ae64c36c14e0,大华大戏院,五老村街道中山南路67号(大华大戏院位置),江苏省,南京市,秦淮区,"(025)84715020,(025)84717617",unknown,
baidu,047c85662a21721f2bd7ab84,南京乐富豪娱乐,江苏省南京市秦淮区瑞金路街道瑞金路3号,江苏省,南京市,秦淮区,,unknown,
baidu,9d22d003d13d4c61240bd040,银座广场,江苏南京市玄武区梅园新村街道卓越大厦,江苏省,南京市,玄武区,,unknown,
baidu,7dba35c33b2c5e39326212c8,踏浪网咖(大行宫店),大行宫科巷37号3楼,江苏省,南京市,秦淮区,(025)84415781,unknown,
baidu,09bc64929af30d230ba8d4fe,十三区棋牌区,南京市玄武区太平桥南小区-北区,江苏省,南京市,玄武区,,unknown,
baidu,5e1133c9b369dacb39e4a67b,游客服务中心影视放映室,南京市玄武区长江路292号总统府内,江苏省,南京市,玄武区,,unknown,
baidu,40b26af3eb66bdce5fbe86f7,来就行茶社(长发中心店),中山东路300号长发中心-CFC商业广场B2,江苏省,南京市,秦淮区,,unknown,
baidu,3085d571bd678031b2077d46,南京Time会客厅,江苏省南京市玄武区梅园新村街道龙蟠中路88-3号,江苏省,南京市,玄武区,18976166754,unknown,
baidu,bfa39f4581a92c2188fc06a9,谜生剧本推理社,中山东路300号长发中心A座2001室,江苏省,南京市,秦淮区,18852056788,unknown,
baidu,9d2013839c8e1178a8059dc8,踏浪网咖(新街口店),淮海路2号三层,江苏省,南京市,秦淮区,18951732879,unknown,
baidu,0cbc86cb26c75e04157643d3,李公祠广场,江苏省南京市秦淮区四条巷77号,江苏省,南京市,秦淮区,,unknown,
baidu,47a2cab25ea40454c51e514d,spring wild萨摩耶天使主题狗咖·猫咖,南京国际贸易中心30楼3007室,江苏省,南京市,秦淮区,18205087835,unknown,
baidu,e7881ef83b840e11ddee8bd3,赵州茶社,汉府街4号毗卢寺,江苏省,南京市,玄武区,,unknown,
baidu,a519e2888396adfa81288a56,春秀美容美体(裕德里小区店),珠江路1912长江后街太平桥南15号,江苏省,南京市,玄武区,,unknown,
baidu,1b64a433213bc21c2d47339c,派恩宜灰指甲(瑞金路店),瑞金路2-45号,江苏省,南京市,秦淮区,13770599941,unknown,
baidu,850815e17bf11e8243e19209,如家酒店(南京新街口中山东路西安门地铁站店),中山东路二条巷64号,江苏省,南京市,秦淮区,(025)84548876,unknown,
baidu,2e56274493a17ace7adbd2b4,金陵行宫网红酒店(南京新街口总统府店),科巷37-3号1楼前台,江苏省,南京市,秦淮区,18013342832,unknown,
baidu,65ce6abbe3e6ab739cf77938,南京汇丽酒店(东部战区总医院南京博物院店),解放路42号,江苏省,南京市,秦淮区,18913044855,unknown,
baidu,81f54b8896668b8ec17da212,我得家酒店(南京东部军区总院总统府店),江苏省南京市玄武区珠江路648号太平洋安防01幢5层,江苏省,南京市,玄武区,(025)83682899,unknown,
baidu,80fbf040d32dfe9c725e80bc,南京闪耀精品酒店(南京博物院西安门地铁站店),江苏省南京市玄武区黄埔路2号黄埔大厦,江苏省,南京市,玄武区,(025)52217171,unknown,
baidu,2b4d7fa05a713551c16c1461,汉庭优佳酒店(南京中山东路总统府店),中山东路416号,江苏省,南京市,秦淮区,(025)86636161,unknown,
baidu,bcaebff8c51e9e4dc9e33c55,南京奥悦宾馆(东部战区总医院解放路店),白下区解放路101号,江苏省,南京市,秦淮区,(025)84680475,unknown,
baidu,c879fa019a4e5c53c909f043,南京维景国际大酒店,江苏省南京市玄武区中山东路319号,江苏省,南京市,玄武区,(025)84808888,unknown,
baidu,76f7702f9d107b45ce04ef0b,春强旅社(南京总统府店),东箭道31-5号,江苏省,南京市,玄武区,"(025)84213092,13245213510",unknown,
baidu,266f210060455c8ffe0eb0cd,南京龙英旅馆,三条巷16号105室,江苏省,南京市,秦淮区,(025)84528501,unknown,
baidu,d694982fa332ec73725e8093,轻住·悦享酒店(南京东部战区总院店),解放路53号,江苏省,南京市,秦淮区,(025)68775188,unknown,
baidu,bcb05fdb47c8519b6fa3cc29,肯定铂金酒店(常府街店),江苏省南京市秦淮区常府街29-1号,江苏省,南京市,秦淮区,18005181870,unknown,
baidu,43b7e8891ac3bc7358f6be71,黄埔大酒店,江苏省南京市玄武区黄埔路2-2号(近中山东路),江苏省,南京市,玄武区,"(025)84069999,(025)84668888",unknown,
baidu,5705cac9016e7b2454bfff1b,全季酒店(南京明故宫店),中山东路御道街12号,江苏省,南京市,秦淮区,(025)83690888,unknown,
baidu,b39dd019f9f95ecf2d4733e2,皖客之家旅馆,江苏省南京市秦淮区解放路19-3号,江苏省,南京市,秦淮区,(025)84639335,unknown,
baidu,43075980e81f21f317c8f6ca,沐雅铂金酒店(南京总统府浮桥地铁站店),江苏省南京市玄武区珠江路600号5楼,江苏省,南京市,玄武区,18120197067,unknown,
baidu,e404ce6e027282008a36eed9,国力宾馆(南京博物院总统府店),珠江路699号锦创数字产业园A座5楼,江苏省,南京市,玄武区,(025)84822866,unknown,
baidu,9445abe84d007eb6c5effb2f,瑞澜庭院酒店(南京博物院店),瑞金路街道解放路46号,江苏省,南京市,秦淮区,(025)83308199,unknown,
baidu,be54cde977a1094178f79656,南京中心大酒店,江苏省南京市鼓楼区中山路75号,江苏省,南京市,鼓楼区,(025)83155888,unknown,
baidu,8fd9ef7039c5cd4b4354d78f,遇见公寓(解放路店),瑞金路街道解放路迎微公寓二楼,江苏省,南京市,秦淮区,18521718086,unknown,
baidu,a5097bfab17cae7af03cba78,南京汉府饭店,江苏省南京市玄武区长江路262号,江苏省,南京市,玄武区,"(025)83553001,(025)83553002,(025)83553003",unknown,
baidu,e93761f64599b715223bf249,南京东南大学榴园宾馆(玄武湖店),进香河路38号,江苏省,南京市,玄武区,"(025)83680666,(025)83680667",unknown,
baidu,0b77d0ca769c76d729d7abaa,全季酒店(南京总统府店),江苏省南京市玄武区中山东路139号,江苏省,南京市,玄武区,(025)52357778,unknown,
baidu,281ae23f4c20d412a8f72937,和颐至尚酒店(南京新街口广场店),新街口丰富路140号,江苏省,南京市,秦淮区,(025)84204200,unknown,
baidu,befdb29271c07ef88715414d,如家商旅酒店(南京新街口张府园地铁站店),中山南路234号,江苏省,南京市,秦淮区,(025)68751888,unknown,
baidu,d6ee8724ddb2a9f9a9f0cd94,江苏饭店,江苏省南京市秦淮区太平南路305号,江苏省,南京市,秦淮区,"(025)85658300,(025)85658400,(025)85658422,(0258)5658888",unknown,
baidu,98b251ac46de6574d81318fd,南京金鹰珠江壹号国际酒店,珠江路1号珠江壹号大厦56楼501604单元,江苏省,南京市,玄武区,(025)83218888,unknown,
baidu,1dcea1cfa0cf1cb4bfa240e8,多园青年旅舍(南京新街口地铁站店),江苏省南京市秦淮区石鼓路56号建华大厦3F,江苏省,南京市,秦淮区,18005156316,unknown,
baidu,c8b5cdefe7ada21a130daa4a,南京金太隆国际酒店,江苏省南京市秦淮区中山东路160号,江苏省,南京市,秦淮区,(025)84555111,unknown,
baidu,53349ee3733c3b7722026277,南京天丰大酒店,江苏省南京市秦淮区洪武路26号近中山东路距新街口地铁站24号出口50米,江苏省,南京市,秦淮区,(025)84737777,unknown,
baidu,43bbb4d39ee6226da8f0cdb3,白领公寓珠江路(珠江路1号分店),江苏省南京市玄武区梅园新村街道珠江路670-2号卓越大厦,江苏省,南京市,玄武区,,unknown,
baidu,7b105db7a41719fb43e192c9,速8酒店(南京金陵总统府店),中山东路412号冶金大厦,江苏省,南京市,秦淮区,(025)85869888,unknown,
baidu,11a75f0d0512716a60180932,麦迪公寓(南京大行宫店),长白街普华巷11号109室,江苏省,南京市,秦淮区,13814077631,unknown,
baidu,8e9ea251b929b882aeb22afd,爱沐精品酒店(南京博物院东部战区总医院店),解放路46号,江苏省,南京市,秦淮区,"(025)84520521,13327727024",unknown,
baidu,0f5a2cd2ffcff333e81e976d,金陵梦巢家庭民宿(解放路分店),中国工商银行解放路支行（南京市秦淮区）解放路26号院,江苏省,南京市,秦淮区,,unknown,
baidu,8666de82393c3edd93114ce8,南京新宿π公寓(5号店),太平桥南小区(27号三单元),江苏省,南京市,玄武区,,unknown,
baidu,082522ed808e7ebb9fe321e0,南京158宾馆,中山东路二条巷56号,江苏省,南京市,秦淮区,(025)84407508,unknown,
baidu,e609fdb84e0df4c6c16c1459,轻轻青年旅舍(南京大行宫地铁站总统府店),江苏省南京市秦淮区中山东路288号,江苏省,南京市,秦淮区,,unknown,
baidu,a2103d3d54b04f8af50e7761,熊猫新兴宾馆,江苏省南京市秦淮区中山东路512号,江苏省,南京市,秦淮区,(025)51802288,unknown,
baidu,6ed3083adabc66ae2a3a9fb6,雍园宾馆,江苏省南京市玄武区雍园6号,江苏省,南京市,玄武区,,unknown,
baidu,ec7e197caf2792cb100daa96,缘来是你青年旅舍(南京大行宫地铁站总统府店),南京市科巷39号科巷新寓2幢1407室,江苏省,南京市,秦淮区,13949328778,unknown,
baidu,8d96925c1968e85cc1f1cf51,世纪之星快捷酒店(南京中山东路店),中山东路逸仙桥二条巷56号,江苏省,南京市,秦淮区,"(025)86981866,(025)86981877",unknown,
baidu,5a6c2977130ad1470c0e6bde,王翔民宿(明故宫及南京博物院商圈1号店),江苏省南京市秦淮区瑞金路街道解放路6号,江苏省,南京市,秦淮区,,unknown,
baidu,8eafe87497a15dfdb23c816e,南京小丫旅家公寓,南京市秦淮区三条巷102号,江苏省,南京市,秦淮区,,unknown,
baidu,48eb0058864e1cb42ee67bb1,和江商务宾馆(解放路店),江苏省南京市秦淮区解放路46号,江苏省,南京市,秦淮区,,unknown,
baidu,3d71833be7fec4280b69d9c0,南京热河路的柯基公寓(头条巷分店),南京市秦淮区头条巷小区,江苏省,南京市,秦淮区,,unknown,
baidu,794739c316bbc2795abbbc62,南京有间客栈,南京市玄武区珠江路688号卓越大厦14层21号,江苏省,南京市,玄武区,15062225948,unknown,
baidu,9692c83aee1961252efaa7e2,南京周周舟公寓(科巷分店),南京秦淮区科巷新寓1幢,江苏省,南京市,秦淮区,(025)11978387,unknown,
baidu,d967ff7d4a7d5a4f250bd00a,南京颜雪公寓,南京市玄武区黄埔花园-09幢,江苏省,南京市,玄武区,19951722298,unknown,
baidu,09aeb50e45babeafa11de9af,大卫之家民宿(明故宫及南京博物院商圈1号店),江苏省南京市玄武区梅园新村街道黄埔路2号,江苏省,南京市,玄武区,,unknown,
baidu,4ce49bd0b6ae5527ee74f847,南京陌上花公寓,江苏省南京市玄武区太平桥南小区-25号楼五单元,江苏省,南京市,玄武区,,unknown,
baidu,f8b1f3aff9a1e0090aa8d448,南京善恩公寓(文德里分店),南京市玄武区珠江路卓越大厦,江苏省,南京市,玄武区,,unknown,
baidu,a3070217d3930fabf03cba82,南京生南国公寓(科巷分店),江苏省南京市秦淮区中山东路288号（科巷新寓）,江苏省,南京市,秦淮区,,unknown,
baidu,d48e689494a132e543ab9aa6,艺享空间之秦淮风韵公寓(南京2号店),科巷新寓-1幢(长白街中山东路39号科巷新寓),江苏省,南京市,秦淮区,,unknown,
baidu,4b8e8aacee785a32c16c1413,听花青年旅社(科巷新寓店),江苏省南京市秦淮区中山东路科巷新寓2幢2107室,江苏省,南京市,秦淮区,19154045189,unknown,
baidu,79c8a6903a1eb39c6e20b9a1,花皙颜公寓(南京4号店),江苏省南京市秦淮区三条巷102号,江苏省,南京市,秦淮区,,unknown,
baidu,46575dc694b4e21e1df74ddf,钟山宾馆主楼,中山东路307号钟山宾馆,江苏省,南京市,玄武区,,unknown,
baidu,236d55ff161ea4ecc9e33c6e,南京落落z公寓(头条巷分店),江苏省南京市秦淮区头条巷21号,江苏省,南京市,秦淮区,,unknown,
baidu,5ca6b2dc996224f2a20464f6,南京东图酒店,江苏省南京市玄武区珠江路699号东鼎大厦,江苏省,南京市,玄武区,,unknown,
baidu,d73a2369722bca59f50e7788,南京印象公寓,太平南路1号科巷新寓,江苏省,南京市,秦淮区,,unknown,
baidu,634bcd7ff4ac22702a02e1fb,南京兜了个兜兜酒店式公寓,南京秦淮区三条巷18号,江苏省,南京市,秦淮区,,unknown,
baidu,435d7aea8238d32c5abbbc69,南京钟山宾馆-贵宾楼,江苏省南京市玄武区中山东路307号,江苏省,南京市,玄武区,,unknown,
baidu,38df6585c927ab39a10464de,南京城宿南京九店公寓(西白菜园分店),江苏省南京市秦淮区西白菜园31号,江苏省,南京市,秦淮区,,unknown,
baidu,1943b1f4b49860a9fbf0cbdd,南京ANdy公寓,南京市玄武区长江后街10号卓越·SOHO大厦,江苏省,南京市,玄武区,,unknown,
baidu,ae6ad955ef9b8891e0110360,大行宫两居室公寓(三条巷分店),江苏省南京市秦淮区三条巷小区白下-30号楼,江苏省,南京市,秦淮区,13584099379,unknown,
baidu,3eaf79654fdff921e856fa97,湖景温馨花园普通公寓(南京长江东街店),南京市秦淮区长白街山东路39号科巷新寓1栋3305室,江苏省,南京市,秦淮区,,unknown,
baidu,1cc51adf85cfad93f72310d8,蓝色I海岸公寓(珠江路分店),江苏省南京市玄武区珠江路670-2号,江苏省,南京市,玄武区,,unknown,
baidu,be29e0b4ad925649c42ba192,月亮月亮小屋(珠江路分店),江苏省南京市玄武区梅园新村街道珠江路688-20,江苏省,南京市,玄武区,,unknown,
baidu,cef759f6f3252f502afc4850,小屋儿(珠江路分店),南京市玄武区珠江路卓越大厦,江苏省,南京市,玄武区,,unknown,
baidu,66fa73535295aaa7e81e9795,南京友和公寓,江苏省南京市玄武区珠江路670-2号,江苏省,南京市,玄武区,,unknown,
baidu,3c3ef921b4de82c8acee7ade,ZU艺雅公寓(珠江路分店),江苏省南京市玄武区梅园新村街道珠江路670-2号,江苏省,南京市,玄武区,,unknown,
baidu,86e9a4f1dbeac451a8059d0b,北欧简约风格遇所度假别墅(三条巷分店),江苏省南京市秦淮区三条巷10号院,江苏省,南京市,秦淮区,,unknown,
baidu,df364133e72462eee115f9e1,美奇酒店,珠江路688号,江苏省,南京市,玄武区,,unknown,
baidu,dde32975a096beaca4c75625,南京快乐小家公寓,南京市秦淮区大清河巷瑞金北村,江苏省,南京市,秦淮区,,unknown,
baidu,e8539703912a0616eedfcac0,南京Locals-南京路客夫子庙之家普通公寓(长江东街店),江苏省南京市秦淮区中山东路288号,江苏省,南京市,秦淮区,,unknown,
baidu,24e26fceb7a26fe55d0d0285,南京杰驰汽配,江苏省南京市秦淮区解放路35-2号,江苏省,南京市,秦淮区,13914749179,unknown,
baidu,4bc5ebb6ac1f861103ff2d5c,南京赛运台城汽车维修服务有限公司,江苏省南京市秦淮区中山东路518号,江苏省,南京市,秦淮区,,unknown,
baidu,4f9bf51466d92cfcca2915e7,上汽大众(玄武区店),江苏省南京市玄武区珠江路659号,江苏省,南京市,玄武区,,unknown,
baidu,f3406d789c14c9ba5e0d02b0,驰展汽车装潢,黄埔路2-10号,江苏省,南京市,玄武区,13770505202,unknown,
baidu,363f37e4691210d2badf8fda,黄埔大众4s店(珠江路店),江苏省南京市玄武区珠江路659号,江苏省,南京市,玄武区,,unknown,
baidu,9d06b24e59d1bd2f97031931,南京AMG中心,江苏省南京市玄武区龙蟠中路82号,江苏省,南京市,玄武区,(025)58862777,unknown,
baidu,44f905e8c803dd313913fd7f,驰永航汽车维修中心,珠江路675号,江苏省,南京市,玄武区,19951930233,unknown,
baidu,5b29bdca69afe7eafbdc85fc,途虎养车工场店(南京龙蟠中路店),龙蟠中路37号1栋102,江苏省,南京市,玄武区,17361806581,unknown,
baidu,f14a39e76bfbd72436b06c2d,南京双飞汽车服务有限公司北京东路分公司,南京市玄武区北京东路42-2号附近,江苏省,南京市,玄武区,13905165856,unknown,
baidu,52ffe6a8a10d064fafee7acf,天天有精洗汽车服务中心,江苏省南京市秦淮区太平南路458号,江苏省,南京市,秦淮区,"13016934906,13770553025",unknown,
baidu,e60ba95210543fd93de2316a,南京市秦淮区酷车族汽车服务中心(新世纪广场店),新世纪广场地下停车场负一楼,江苏省,南京市,秦淮区,13951039256,unknown,
baidu,5e53af1aa7a7cb464151c02c,铨富汽车(长白街店),太平巷长白街交叉口（郑和公园对面）,江苏省,南京市,秦淮区,"15724346847,17301482124",unknown,
baidu,6a34f5426b8495d46c3e1bdd,天知润汽车服务中心,珠江路675号-1,江苏省,南京市,玄武区,18913984458,unknown,
baidu,62fb05796cc4824b8f55ec89,南京鸿星汽车服务中心,珠江路675一2号,江苏省,南京市,玄武区,13003412027,unknown,
baidu,ac875d1c1034332a441a32ef,神鑫州汽车维修服务中心,龙蟠中路37号百仕园4幢101室,江苏省,南京市,玄武区,,unknown,
baidu,a1cbea099417f4fb7ab55cae,轩轼贴膜工作室,中山东路300号长发中心负三A栋电梯旁,江苏省,南京市,秦淮区,13951850870,unknown,
baidu,05dd7d5f319e4618ad080f64,南京黄埔汽车销售服务有限公司,南京市玄武区珠江路659号,江苏省,南京市,玄武区,(025)84826093,unknown,
baidu,5aa87592cb80cc9732f71d19,比亚迪汽车海洋网(南京新景卓御苏宁广场店),南京市秦淮区新街口淮海路88号苏宁生活广场F1-101号,江苏省,南京市,秦淮区,18036933389,unknown,
baidu,835062a8c82c6809d12dd6d4,炜程汽车维修贴膜服务,新世纪广场地下停车场负一楼,江苏省,南京市,秦淮区,,unknown,
baidu,964aa5c52df040609d9d68c2,玉达汽车装潢,江苏南京市玄武区黄埔路2-21号,江苏省,南京市,玄武区,13951631605,unknown,
baidu,055b70b5c02b131732f71d7d,上汽大众南京业众汽车销售服务有限公司,江苏省南京市玄武区珠江路523号,江苏省,南京市,玄武区,,unknown,
baidu,81e3c690f5bacb21a2046484,南京中升星徽汽车销售服务有限公司(玄武分公司),江苏省南京市玄武区梅园新村街道龙蟠中路82号,江苏省,南京市,玄武区,(025)58862777,unknown,
baidu,2028a3bf124b3115d6b74e18,车霖汽车服务xp隐形车衣,佛心桥38号,江苏省,南京市,玄武区,13851993651,unknown,
baidu,958333f0560754a8bfa240ac,尚书里汽车服务,八宝东街9号南门地下B2楼,江苏省,南京市,秦淮区,,unknown,
baidu,d1e91e577392dc8d373a7117,国泰汽车装璜(黄埔路店),黄埔路2-11号,江苏省,南京市,玄武区,(025)84806300,unknown,
baidu,5010b8c728e9fa644207c1d1,格耐国际美容·途博汽车养护中心(新街口苏宁生活广场店),淮海路88号苏宁生活广场店B2层停车厂,江苏省,南京市,秦淮区,,unknown,
baidu,4fea1b3023c49368c6effb08,西祠胡同西祠汽车,秦淮区太平南路2号日月大厦24层,江苏省,南京市,秦淮区,,unknown,
baidu,5613f8f3b5b87c74c16c1471,南京市玄武区海之腾汽车服务中心,南京市玄武区新街口街道长江路109号721室,江苏省,南京市,玄武区,,unknown,
baidu,7afc69c44a60b772b64f54e3,中尊汽修(华山店),江苏省南京市玄武区珠江路23号,江苏省,南京市,玄武区,18051024123,unknown,
baidu,8dc5bd1f12b352a41811d5ee,蔚来中心(南京新街口店),江苏省南京市鼓楼区中山路75号,江苏省,南京市,鼓楼区,16602188934,unknown,
baidu,2692944c84f726e59fec2b83,杜记车行,江苏省南京市秦淮区常府街36号,江苏省,南京市,秦淮区,13605196235,unknown,
baidu,281fa67b207f2048343a71ce,众达汽修,大光路143号,江苏省,南京市,秦淮区,18795955908,unknown,
baidu,0721f2e5a5adbf547069d312,南京绍峰汽修,江苏省南京市玄武区梅园街道珠江路675号-3号,江苏省,南京市,玄武区,,unknown,
baidu,5748776b56dbce68efe4a54b,极速车友俱乐部,江苏省南京市秦淮区白下路琥珀巷高层小区门口,江苏省,南京市,秦淮区,13951937676,unknown,
baidu,d1bcf76bf78beef98b2fb57d,苏舜车联,江苏省南京市玄武区珠江路355号-3号,江苏省,南京市,玄武区,17805246160,unknown,
baidu,07a3c0308778652846e27492,小吴汽车美容养护服务中心,大光路141号,江苏省,南京市,秦淮区,,unknown,
baidu,ac38343ab2695220631809e2,特斯拉(南京德基广场体验店),江苏省南京市玄武区中山路18号德基广场二期B1,江苏省,南京市,玄武区,(025)66088188,unknown,
baidu,bcd871e88db6cdd85cd4fe89,理想汽车(南京德基广场零售中心),江苏省南京市玄武区德基广场二期B1层,江苏省,南京市,玄武区,13813922520,unknown,
baidu,7d1335b3b3e7d02cf822131f,南京车乐家汽车服务有限公司,南京市秦淮区太平南路2号日月大厦29楼E座,江苏省,南京市,秦淮区,,unknown,
baidu,d52831f9e47a2ba72efaa743,迎客隆租车,江苏省南京市秦淮区常府街54号（常府街地铁站3号口步行420米）,江苏省,南京市,秦淮区,(025)84507610,unknown,
baidu,645703c7d2875941f60e7759,比亚迪汽车王朝网(盛世新景新街口城市展厅),江苏省南京市鼓楼区华侨路街道中山路179号易发信息大厦一楼,江苏省,南京市,鼓楼区,(025)86600101,unknown,
baidu,bc069bf0781f1c4daeee7aac,浩能汽车维修服务有限公司(玄武富贵山店),富贵山4号9栋-103室,江苏省,南京市,玄武区,18914708739,unknown,
baidu,211591964457dfb046e27486,南京鑫妹汽车服务有限公司,南京市秦淮区太平南路137号美好商务中心310室,江苏省,南京市,秦淮区,,unknown,
baidu,7f77847cc1f767b80f0a7050,极氪空间(南京德基广场),江苏省南京市玄武区中山路18号德基广场二期B1-C126,江苏省,南京市,玄武区,18667085651,unknown,
baidu,a27513ea82c75219871541ef,南京永达路诚汽车销售服务有限公司,江苏省南京市秦淮区中山南路1号,江苏省,南京市,秦淮区,,unknown,
baidu,e61670e8a53bcfe843d63e97,南京禹盛业达汽车销售有限公司,南京市秦淮区中山东路198号1505室,江苏省,南京市,秦淮区,,unknown,
baidu,4c6e2f6d36f2bd0fd3f49e35,贵亮服务,南京市玄武区珠江路新世界大厦2206室,江苏省,南京市,玄武区,,unknown,
baidu,3f0ced4c9fff2e32e215f99d,南京鑫佰安汽车服务有限公司,南京市玄武区长江路109号820室,江苏省,南京市,玄武区,,unknown,
baidu,ee5b01ffdd440651f82d61f7,南京天扬汽车销售服务有限公司,南京市鼓楼区汉中路8号金轮新天地1楼A113-115铺,江苏省,南京市,鼓楼区,,unknown,
baidu,2c019b291a6f3761f4eafcee,易发汽车美容中心,中山路179号易发信息大厦1层,江苏省,南京市,鼓楼区,13912976510,unknown,
baidu,af8a1b33b8fc6057b5f42f19,马长明轮胎店,江苏省南京市秦淮区建康路246号(夫子庙地铁站2号口步行410米),江苏省,南京市,秦淮区,18651600571,unknown,
baidu,06d3cdce1d658776ea56fa4c,BOP保镖隐形车衣(张府园店),中山南路344号紫晶环球广场负二楼（建邺路进入）,江苏省,南京市,秦淮区,19941518313,unknown,
baidu,029f5782067ac3ca9868b43d,南京优之腾汽车服务有限公司,南京市玄武区珠江路88号1幢1901室,江苏省,南京市,玄武区,17555222425,unknown,
baidu,9ac4dee1b15418cf8c1a8912,神州汽车,龙蟠中路37号百仕园4幢101室,江苏省,南京市,玄武区,,unknown,
baidu,9553fe696f30f106631c67d3,美优卡名车护理·车衣改色(金轮店),汉中路8号金轮国际广场B2层,江苏省,南京市,鼓楼区,18021527171,unknown,
baidu,f8790af1b31fe4932b11d188,南京仁商汽车服务有限公司,南京市秦淮区大光路118号金陵尚府8幢,江苏省,南京市,秦淮区,,unknown,
baidu,123478dfdd12c97d353a7178,南京协众麟宝,江苏南京市秦淮区太平南路450号,江苏省,南京市,秦淮区,,unknown,
baidu,5c8a313fbe96b31d5cbe8612,普利司通轮胎(健康路店),江苏省南京市秦淮区建康路246号,江苏省,南京市,秦淮区,18651600571,unknown,
baidu,f51782871ed9b037e6e96558,捷轮家(珠江路店),珠江路683-3号附近,江苏省,南京市,玄武区,,unknown,
baidu,9b15910d67f6e5d5bda240ec,喜车堂汽车美装工作室(新街口总店),洪武路88号印象汇负二层（淮海路北）,江苏省,南京市,秦淮区,15005190447,unknown,
baidu,601412bdc20460c3d1f49e21,嘉宝迪奥(白下路店),江苏省南京市秦淮区洪武路街道白下路7-11号806,江苏省,南京市,秦淮区,,unknown,
baidu,a600f63053a424576140a911,优米汽车,江苏省南京市秦淮区中山东路90号隆盛大厦8楼,江苏省,南京市,秦淮区,,unknown,
baidu,caa76bcbc37df74f6fa3ccf6,瑞安服务,江苏省南京市秦淮区淮海路50号扬子大厦,江苏省,南京市,秦淮区,,unknown,
baidu,fcecb15e276c658584154121,博而达汽车租赁,江苏省南京市秦淮区白下路264-3号3层附近,江苏省,南京市,秦淮区,(025)87766536,unknown,
baidu,a6920aad235e18d84d2fdfea,南京驰祥舜汽车有限公司,南京市玄武区珠江路88号2幢3515室,江苏省,南京市,玄武区,,unknown,
baidu,aeb1e515c6e4c3321811d561,海福汽车修理厂搭电,南京市秦淮区御道街南京航空航天大学附属高级中学蓝旗街校区,江苏省,南京市,秦淮区,186-55272547,unknown,
baidu,15b1dda3fe36459f43afe6ff,南京秦淮龙蟠汇店,南京市秦淮区象房村路诚通商业中心,江苏省,南京市,秦淮区,,unknown,
baidu,09651ced815c088f9e95de08,名爵俱乐部,江苏省南京市五老村街道西区中山东路160号金太隆国际酒店3楼,江苏省,南京市,秦淮区,,unknown,
baidu,7be729352f9351569f09f765,南京福尔汽车租赁,江苏省南京市玄武区中山东路319号维景国际大酒店商务楼B座西1楼101室,江苏省,南京市,玄武区,(025)84818005,unknown,
baidu,05e923f8696609bbdf1e5295,南京帕维思叉车吊车出租公司,南京市秦淮区白下路273号,江苏省,南京市,秦淮区,4008058953,unknown,
baidu,44d5ef9e1bb867363586f457,南京圆心门诊部,江苏省南京市秦淮区中山东路448号,江苏省,南京市,秦淮区,,unknown,
baidu,7fc0d67b4e450ed4aeb22add,南京军区南京总医院门诊部,江苏省南京市玄武区中山东路305号,江苏省,南京市,玄武区,(025)80860425,unknown,
baidu,f60a15ed31a582f5bb17e74d,东部战区总医院,江苏省南京市玄武区中山东路305号,江苏省,南京市,玄武区,(025)80860114,unknown,
baidu,5d1818fd65a2aa1d15948eb9,南京华美美容医院,江苏省南京市秦淮区龙蟠中路218号科技大厦裙楼1至二楼,江苏省,南京市,秦淮区,4009285880,unknown,
baidu,faf687d4b94698d12d4733c7,东部战区总医院-内科楼,江苏省南京市玄武区中山东路305号,江苏省,南京市,玄武区,,unknown,
baidu,c7e70a154820b2d40f0a7074,东部战区总医院-医技楼,江苏省南京市玄武区中山东路305号,江苏省,南京市,玄武区,,unknown,
baidu,5aee0c39733dc4a5a3acc490,东部战区总医院-儿科,江苏省南京市玄武区中山东路305号,江苏省,南京市,玄武区,,unknown,
baidu,18d5521cbc4cf1c9ae31e55e,大光路社区卫生服务中心,江苏省南京市秦淮区龙蟠中路221号,江苏省,南京市,秦淮区,,unknown,
baidu,13fa67a186d7796ed5851f79,东部战区总医院研究所,南京市玄武区中山东路东部战区总医院,江苏省,南京市,玄武区,,unknown,
baidu,e79425dc8beddcf46fa3cce3,中国电子科技集团公司-职工医院,江苏省南京市秦淮区解放路25号,江苏省,南京市,秦淮区,,unknown,
baidu,82551c79a66f9dc57369d3b3,核医学科,江苏省南京市玄武区中山东路305号,江苏省,南京市,玄武区,,unknown,
baidu,37d60a46df1346791f1d119c,中国人民解放军东部战区总医院(秦淮医疗区),南京市秦淮区杨公井34标34号,江苏省,南京市,秦淮区,(025)85868181,unknown,
baidu,3810c8793e63048b9c09f742,秦淮区长白街社区卫生服务站,江苏省南京市秦淮区长白街642号,江苏省,南京市,秦淮区,,unknown,
baidu,23b7017a068e73ab80a00cd3,南京幸元会综合门诊部,江苏省南京市秦淮区龙蟠中路218号中航科技大厦4-6层,江苏省,南京市,秦淮区,,unknown,
baidu,7372bead7b3102bf70210b52,东部战区总医院-发热门诊,南京市玄武区中山东路305号,江苏省,南京市,玄武区,(025)80861234,unknown,
baidu,6d20a30a34052a8cb11e367a,和熙口腔门诊部,江苏省南京市秦淮区瑞金路街道解放路46号瑞澜和院酒店2楼,江苏省,南京市,秦淮区,,unknown,
baidu,b4e8af5b0231eea1af31e5e7,东部战区总医院-胸痛救治中心,江苏省南京市玄武区中山东路305号,江苏省,南京市,玄武区,,unknown,
baidu,6efd1bd668166b9b31f71de2,东部战区总医院重症医学科,南京市玄武区中山东路东部战区总医院,江苏省,南京市,玄武区,,unknown,
baidu,bc22dcbeef67da2f7ec8767c,麦禾健康咨询服务中心,江苏省南京市秦淮区中山东路522-1号,江苏省,南京市,秦淮区,,unknown,
baidu,a2a833996353e5a3c61b756f,南京邦德中医医院名医堂,江苏省南京市玄武区龙蟠中路97号1楼,江苏省,南京市,玄武区,,unknown,
baidu,84251e90733977e1250bd07a,南京华美权威隆胸中心,江苏省南京市玄武区珠江路655号,江苏省,南京市,玄武区,,unknown,
baidu,aea2a43948c42bcda21de96d,中汉堂中医馆,江苏省南京市秦淮区瑞金路8号1幢,江苏省,南京市,秦淮区,,unknown,
baidu,9a010985f3252732f21937ee,东白中西医诊所,江苏省南京市秦淮区东白菜园50号,江苏省,南京市,秦淮区,,unknown,
baidu,7fd72311bc71e89f5cbe8642,南京秦淮五老村门诊,南京市秦淮区五老村12号101室,江苏省,南京市,秦淮区,(025)84412092,unknown,
baidu,681c00b38df03a50a5da39aa,南京蜂源蜂产品,江苏省南京市秦淮区东白菜园52号101室,江苏省,南京市,秦淮区,(025)84510489,unknown,
baidu,3669f8b2b44e1ca7343a7178,八一医院-门诊部,江苏省南京市秦淮区三十四标34号1号楼,江苏省,南京市,秦淮区,,unknown,
baidu,4e13d5db323211fdbea240a4,东部战区总医院超声诊断科,南京市玄武区黄埔路东部战区总医院,江苏省,南京市,玄武区,,unknown,
baidu,af1b5a10e6a4a909c9c3dbf7,口腔科,南京市秦淮区龙蟠中路头条巷小区南侧约30米,江苏省,南京市,秦淮区,,unknown,
baidu,723f6f492406cd99b9bd635a,幸元会国际健检中心,江苏省南京市秦淮区龙蟠中路218号中航科技大厦4-6楼,江苏省,南京市,秦淮区,,unknown,
baidu,12e7679b9350b5a8a1d230a2,大光路社区卫生服务中心,南京市秦淮区大光路142号际华国际广场F1,江苏省,南京市,秦淮区,"(025)84590839,(025)84645357",unknown,
baidu,c8e8f633393e8f75aa0dd8a4,东部战区空军医院,南京市秦淮区马路街1号,江苏省,南京市,秦淮区,(025)80865000,unknown,
baidu,e5344d0b1e3425b6d23ce3bc,益丰大药房(中山东路店),江苏省南京市秦淮区中山东路472号,江苏省,南京市,秦淮区,(025)57059165,unknown,
baidu,3dc9befd0390fc0fbfa240f5,兰园社区卫生服务中心,珠江路318号,江苏省,南京市,玄武区,"(025)83352398,(025)83367164",unknown,
baidu,6d573c7dca4a7abe932ca3cd,南京市玄武医院,南京市玄武区杨将军巷21号,江苏省,南京市,玄武区,(025)86642930,unknown,
baidu,459e28f6bfd5a04b8936ee2e,南京解放路医院,江苏省南京市秦淮区解放南路150号,江苏省,南京市,秦淮区,(025)84632770,unknown,
baidu,83a91047e5edfbc25d17c355,萌瞳视光中心,南京市秦淮区五老村街道五老村29号104室,江苏省,南京市,秦淮区,15950589648,unknown,
baidu,6d45983dfd33b3b76140a9de,江苏药研所中医诊所,江苏省南京市秦淮区中山东路300号负2层,江苏省,南京市,秦淮区,,unknown,
baidu,7194d127615c5626c51b7509,南京市急救中心南京邦德骨科医院分站,江苏省南京市玄武区龙蟠中路88号,江苏省,南京市,玄武区,(025)58525722,unknown,
baidu,3da907f333ef2053b320a84a,南京市红十字医院,南京市秦淮区白下路242号,江苏省,南京市,秦淮区,(025)52008166,unknown,
baidu,401c2dac7966e811db1318c5,邦德骨科保险伤员VIP病区,江苏省南京市玄武区龙蟠中路97号-8,江苏省,南京市,玄武区,,unknown,
baidu,dfd8ced0fcec36316c3e1b82,南京扬子运动康复医学研究院(秦淮诊所),江苏省南京市秦淮区龙蟠中路221号金龙蟠商苑b区5楼,江苏省,南京市,秦淮区,,unknown,
baidu,657507f5baa010190aa8d42f,秦淮区蓝旗社区卫生服务中心,江苏省南京市秦淮区蓝旗街16号,江苏省,南京市,秦淮区,(025)84494391,unknown,
baidu,0adce3e2fff71f6380a00c75,南京市中心医院,南京市玄武区成贤街116号,江苏省,南京市,玄武区,(025)68781555,unknown,
baidu,43e1a71d6da0cdeb2d473359,南京紫金医院象房村病区,南京市秦淮区象房村路56号,江苏省,南京市,秦淮区,(025)84275767,unknown,
baidu,aa3ce437f50b1a9e734b8707,皮健康,江苏省南京市秦淮区长白街486号,江苏省,南京市,秦淮区,,unknown,
baidu,11de7b99369b3b5d8f55ecc0,南京秦淮肤康皮肤病研究所,江苏省南京市秦淮区建康路281号,江苏省,南京市,秦淮区,02552332066,unknown,
baidu,bcaebff8cb47e84dc8e33c82,君和堂中医馆(中山南路店),江苏省南京市秦淮区中山南路219号,江苏省,南京市,秦淮区,"(025)84347980,(025)84414286,(025)84414344,4000945120",unknown,
baidu,ebf778833a0d744d9cf77984,南京市市级机关医院-健康管理中心,江苏省南京市秦淮区太平南路371号,江苏省,南京市,秦淮区,(025)69067814,unknown,
baidu,c9cc850d9ad0a06975e5b66c,鼓楼区华侨路社区卫生服务中心(新华大厦西),江苏省南京市鼓楼区管家桥63号,江苏省,南京市,鼓楼区,(025)68156020,unknown,
baidu,be54cde97213765b78f796ce,南京海生堂大药店有限公司,江苏省南京市秦淮区解放路20号,江苏省,南京市,秦淮区,(025)84493966,unknown,
baidu,2bc18f8d469ff77088fc06fb,南京市医保定点机构单位,南京市秦淮区解放路瑞金北村-南区西侧约30米,江苏省,南京市,秦淮区,,unknown,
baidu,79890720337dbd3f4107c152,南京邦德中医院,江苏省南京市玄武区龙蟠中路97号,江苏省,南京市,玄武区,15380791653,unknown,
baidu,670899b6e1866009b34c4907,海王星辰健康药房(常府街店),江苏省南京市秦淮区常府街813号,江苏省,南京市,秦淮区,(025)83206860,unknown,
baidu,ec0248f984047084441a329b,润天好药房(钟山大药房),江苏省南京市秦淮区中山东路522E幢一层,江苏省,南京市,秦淮区,(025)52635660,unknown,
baidu,65342d31a70312a22fb96d12,安美健,江苏省南京市秦淮区东白菜园118号,江苏省,南京市,秦淮区,,unknown,
baidu,7a9134ee6ffa65ad36b06cfb,南京中山东路大药房,江苏省南京市秦淮区中山东路522号,江苏省,南京市,秦淮区,(025)83295715,unknown,
baidu,454512e1728d6b30cd04ef8b,瑞听听力奥迪康助听器(中山东路店),江苏省南京市秦淮区中山东路416号,江苏省,南京市,秦淮区,13851515808,unknown,
baidu,d4c1f4513fbfa361ee74f81a,益丰大药房(南京常府街三店),江苏省南京市秦淮区常府街29-8号,江苏省,南京市,秦淮区,(025)86521781,unknown,
baidu,a74481d61c57445ff503b85e,海王星辰健康药房(南京科巷店),江苏省南京市秦淮区科巷37号,江苏省,南京市,秦淮区,(025)84452289,unknown,
baidu,5fd80601af4f3e7ed2f49e7b,益丰大药房(南京瑞金路店),江苏省南京市秦淮区瑞金路6-7号,江苏省,南京市,秦淮区,(025)86309557,unknown,
baidu,3a9f4a5c637c322ac51e515a,益丰大药房(南京珠江路二店),江苏省南京市玄武区珠江路603-1号,江苏省,南京市,玄武区,(025)83372155,unknown,
baidu,e77e0317e16cd87e2811d1fb,诗迈医药,江苏省南京市秦淮区中山东路300号长发中心A座3楼307室,江苏省,南京市,秦淮区,,unknown,
baidu,9dedfbd9dbc4da47d72ce29f,中梦健康生活馆(科巷店),南京市秦淮区四条巷仁寿里26号,江苏省,南京市,秦淮区,4008880723,unknown,
baidu,556de8477cda45ded518b782,润寿堂大药房(大润发店),南京市秦淮区龙蟠中路金润发(龙蟠路店),江苏省,南京市,秦淮区,,unknown,
baidu,02317c6ff3b0e748b5f42ffc,海王星辰健康药房(南京文昌巷店),江苏省南京市秦淮区太平南路54-64-5号,江苏省,南京市,秦淮区,(025)68378228,unknown,
baidu,5668668fe3c52c18c51b75bd,先声再康药房(长白街药店),江苏省南京市秦淮区长白街520号,江苏省,南京市,秦淮区,4000266660,unknown,
baidu,6bedce18d8fe959a4e5547d8,南京鼓楼大药店(第二药店),江苏省南京市秦淮区东白菜园14号,江苏省,南京市,秦淮区,18005176940,unknown,
baidu,295cd32603eb37bd626858db,友声听力奥迪康助听器(瑞金路店),江苏省南京市秦淮区瑞金路2-47号,江苏省,南京市,秦淮区,18915946732,unknown,
baidu,5f6125009f3a7cdeeb12e4bc,珍爱成人情趣,江苏省南京市秦淮区东白菜园107号,江苏省,南京市,秦淮区,,unknown,
baidu,429d385a62718317ad31e541,灰指甲治疗店,江苏省南京市秦淮区瑞金路8-6号,江苏省,南京市,秦淮区,,unknown,
baidu,cd8656c645eb5f205e0d02a4,兰雅口腔(黄埔路店),江苏省南京市玄武区黄埔路2号黄埔科技大厦A座2楼,江苏省,南京市,玄武区,"(025)85550958,15380930191",unknown,
baidu,29f603e6e14affa2441a3263,沃雅口腔,江苏省南京市秦淮区三条巷48号,江苏省,南京市,秦淮区,,unknown,
baidu,f36b1347eea90471c7f02572,7度医疗美容,江苏省南京市玄武区解放路2-5号,江苏省,南京市,玄武区,(025)83657171,unknown,
baidu,6accd374aa2ab772c1f1cf69,天使福乐氏口腔(大行宫店),江苏省南京市秦淮区科巷10号联威置业4楼401室,江苏省,南京市,秦淮区,18068846540,unknown,
baidu,4d98aec554e16110eee4a54c,苏瑞口腔门诊部,江苏省南京市秦淮区解放路101号2层,江苏省,南京市,秦淮区,,unknown,
baidu,dd2fa73358c4fabceee4a5de,华航口腔,江苏省南京市秦淮区瑞金路2号,江苏省,南京市,秦淮区,,unknown,
baidu,b6f1c151a04aa009b05c6a1f,萌牙口腔,江苏省南京市秦淮区文昌巷58号,江苏省,南京市,秦淮区,,unknown,
baidu,f757e6ee10a2ef0e260bd048,南京市口腔医院(第一门诊部),南京市秦淮区大光路139号,江苏省,南京市,秦淮区,"(025)84680070,(025)84683106",unknown,
baidu,79980d98429dd60df50e77e6,雯雅口腔门诊部,江苏省南京市秦淮区解放路62-8号号,江苏省,南京市,秦淮区,,unknown,
baidu,109e62eed094ba6796f08cc1,惠耳听力助听器(南京珠江路店),江苏省南京市玄武区珠江路648-5号,江苏省,南京市,玄武区,025-84588120,unknown,
baidu,00f1c7fba1a4b306c156ace3,立聪堂助听器(南京中山东路店),江苏省南京市秦淮区中山东路402号,江苏省,南京市,秦淮区,025-84400344,unknown,
baidu,54f450300d02a2e02cb96d13,小银星艺术团(龙蟠路校区),江苏省南京市秦淮区龙蟠中路229号天同苑1楼、2楼、3楼,江苏省,南京市,秦淮区,"(025)84483010,(025)84489667",unknown,
baidu,ee87fbacd214fa251ef74dc9,秦淮区教师发展中心,江苏省南京市秦淮区三条巷92-1号,江苏省,南京市,秦淮区,,unknown,
baidu,2080bba2493b5d6f7dc876a2,鲜橙职教,江苏省南京市秦淮区解放路53号万谷南报新媒体产业园c栋301室,江苏省,南京市,秦淮区,"(025)85272339,17712909274",unknown,
baidu,27e532b5a9924ca8f4231008,爵对莱斯南京摇摆舞,江苏省南京市玄武区中山东路402号新时代大厦负一楼,江苏省,南京市,秦淮区,"13584020083,19822611017",unknown,
baidu,df8c63f422d6074828d7abef,蓝鲸有戏阅读馆(解放路中心),江苏省南京市秦淮区解放路53号万谷耘致文化产业园C栋103室,江苏省,南京市,秦淮区,15895956118,unknown,
baidu,8b84ff53bc42fa803ce2310a,汉天锦辰文化艺术,江苏省南京市玄武区珠江路714号,江苏省,南京市,玄武区,(025)84818261,unknown,
baidu,f18767ad8665c64f03ec01c5,吴华英皇芭蕾舞,江苏省南京市秦淮区中山东路378号（南京外贸口岸大楼一楼）,江苏省,南京市,秦淮区,"13390905887,19961898130",unknown,
baidu,a95a84aa5e91bf9e9fe32189,南京博坤武道会,江苏省南京市秦淮区解放路53号万谷南报新媒体产业园C栋4楼401号,江苏省,南京市,秦淮区,"(025)52330419,13770546147",unknown,
baidu,95b93f038360977e213bf2b5,一歌教育,江苏省南京市玄武区梅园新村街道珠江路609号东来科技大厦101层,江苏省,南京市,玄武区,,unknown,
baidu,e927b550cefc2fce32870a7b,筱蓓芭蕾工作室(解放路校区),江苏省南京市秦淮区解放路53号南报新媒体产业园C栋201室,江苏省,南京市,秦淮区,17368126335,unknown,
baidu,e4c9ae10cad3100a8d77279c,偏锋出国雅思托福·PTE·GRE,江苏省南京市秦淮区中山东路300号长发中心A座8楼806室,江苏省,南京市,秦淮区,(025)83434479,unknown,
baidu,616d298a098735e79d9d6847,秦淮区教师进修学校,江苏省南京市秦淮区五老村街道三条巷92号,江苏省,南京市,秦淮区,,unknown,
baidu,dc2c8a4c87bc28967dc876fb,信德教育(瑞金路校区),江苏省南京市秦淮区瑞金路8号,江苏省,南京市,秦淮区,13382098980,unknown,
baidu,16ecc10205dbceb741d63ef0,凯奔教育雅思托福,江苏省南京市秦淮区中山东路300号长发中心B座1908室,江苏省,南京市,秦淮区,"17798538686,18551845328",unknown,
baidu,9c704592a892e6604e776e9d,学了么教育,江苏省南京市秦淮区中山东路288号新世纪广场A座37楼,江苏省,南京市,秦淮区,,unknown,
baidu,49e9d2abe8e69a70276e989a,远帆生涯规划中心,中山东路300号长发中心CFC商业广场B2,江苏省,南京市,秦淮区,,unknown,
baidu,f05e64109e98cb7b1c38946e,力学堂教育(大行宫校区),江苏省南京市秦淮区中山东路300号长发广场A座301,江苏省,南京市,秦淮区,"18651818006,18994020009",unknown,
baidu,d2f44796bcf3542bc26c14c7,奇林考研(南京校区),江苏省南京市秦淮区中山东路300号长发中心B座9层909室,江苏省,南京市,秦淮区,13913883252,unknown,
baidu,833fd2c60b74e0bb0bccddbf,南京市国家统一法律职业资格考试服务中心,南京市秦淮区普华巷普华大厦,江苏省,南京市,秦淮区,,unknown,
baidu,029c6f7706f236f9704b8727,学丞教育,江苏省南京市秦淮区四条巷75号,江苏省,南京市,秦淮区,13770618757,unknown,
baidu,89d7f3af983a4bad5cd4fee1,怡弦阁古琴·书法·国画·艺术美学,江苏省南京市玄武区中山东路307号钟山宾馆院内,江苏省,南京市,玄武区,13301598102,unknown,
baidu,0e1a13cd6c46c312eaf853f2,赢科国际教育,江苏省南京市秦淮区中山东路300号长发中心B座1903号,江苏省,南京市,秦淮区,17774631166,unknown,
baidu,9bf5dd0872ebc5a54bcc4ac6,苏建职业培训学校,江苏省南京市秦淮区瑞金路街道解放路53号万谷南报新媒体产业园C栋2层203室,江苏省,南京市,秦淮区,"(025)84484269,(025)84601838",unknown,
baidu,3222885cf58471b9f503b89d,编玩边学少儿编程机器人(大行宫猿爸爸校区),江苏省南京市秦淮区五老村街道中山东路300号-负2层,江苏省,南京市,秦淮区,18913959139,unknown,
baidu,550fd5f92aaed604931fc93c,江苏省戏剧学校,江苏省南京市秦淮区长白街334号,江苏省,南京市,秦淮区,"(025)84450485,(025)86649048",unknown,
baidu,ac605bd5ad3f890d9222e0a0,生物技术研究所,江苏省南京市玄武区中山东路293号,江苏省,南京市,玄武区,,unknown,
baidu,79a7b221d0de9174fbdc852d,南京市逸仙小学,江苏省南京市玄武区汉府街2号(西安门地铁站2号口步行400米),江苏省,南京市,玄武区,(025)84400765,unknown,
baidu,7c21c1fae1339a1b22f017d3,南京文思荟智育儿园,江苏省南京市秦淮区航城路16号金城一号101室,江苏省,南京市,秦淮区,"(025)86505757,18094242817",unknown,
baidu,698a6cb7d7a4495f0bf5eb53,思美优托管培优,江苏省南京市秦淮区五老村街道四条巷69-75号,江苏省,南京市,秦淮区,18061663247,unknown,
baidu,4510704bcf97da999868b4d4,钟山宾馆集团党员教育实境课堂示范点,江苏省南京市玄武区中山东路307号,江苏省,南京市,玄武区,,unknown,
baidu,f6686d8a8083ee9ad72ce23d,南京市普通话培训测试站(马府街),江苏省南京市秦淮区马府街18号,江苏省,南京市,秦淮区,,unknown,
baidu,4cecf0436d9ec9dd16948e53,麓明学会Lumi Academy,南京市秦淮区中山东路300号长发中心B座27楼B室,江苏省,南京市,秦淮区,(025)83215864,unknown,
baidu,1a574ec483f5e347f8dc85a3,书香文化·江苏广电荔枝小主播,江苏省南京市玄武区珠江路699号锦创书城三楼,江苏省,南京市,玄武区,18913987987,unknown,
baidu,297e10a02a0f757ff4eafc58,乐道老年文化大学,江苏省南京市秦淮区解放路53号万谷新媒体产业园四楼,江苏省,南京市,秦淮区,13372018922,unknown,
baidu,8362700113a0588d0e3dda15,猿爸爸,江苏省南京市秦淮区中山东路300号长发中心A座3楼303室,江苏省,南京市,秦淮区,,unknown,
baidu,eaa1ad648ed2810221f017fc,江苏现代交通规划设计院,江苏省南京市玄武区中山东路291号,江苏省,南京市,玄武区,,unknown,
baidu,db1e8f65dc2fb1c1a2a93437,南京市科利华中学(梅园校区),江苏省南京市玄武区大悲巷13号,江苏省,南京市,玄武区,(025)84511136,unknown,
baidu,d5f93c0e3ea3835ceddfca7e,南京市体育运动学校,江苏省南京市秦淮区公园路42号,江苏省,南京市,秦淮区,(025)84498563,unknown,
baidu,8efe47c3a53b5fd60c0a7063,高清艺术,江苏省南京市秦淮区中山东路300号长发中心B座3楼,江苏省,南京市,秦淮区,,unknown,
baidu,c8b5cdefb4247303130daae5,玄武高中(梅园校区),江苏省南京市玄武区大悲巷13号,江苏省,南京市,玄武区,(025)84511136,unknown,
baidu,696c821e697d8c47c2f1cf30,小铁鹰幼儿园,江苏省南京市玄武区汉府街18号29幢201室,江苏省,南京市,玄武区,(025)84511441,unknown,
baidu,66ad57a8a17d1ae2bea240af,南京玄武外国语学校,江苏省南京市玄武区珠江路653号,江苏省,南京市,玄武区,(025)84820810-8117,unknown,
baidu,b85a3ad17686c5870f0e6ba6,南京英小加艺术培训有限公司,南京市秦淮区中山东路288号1105室,江苏省,南京市,秦淮区,,unknown,
baidu,23a6909219c8ae49250bd037,畅思英语,江苏省南京市秦淮区五老村街道中山东路300号-负2层,江苏省,南京市,秦淮区,,unknown,
baidu,41ff1e0ffeb5cf72c6effb22,南京市第一中学(初中部),江苏省南京市秦淮区瑞金路6-1号,江苏省,南京市,秦淮区,(025)68202707,unknown,
baidu,c15c3f7ca93e6bbd2d4733d5,国家肾脏疾病临床医学研究中心,江苏省南京市玄武区梅园新村街道中山东路305号,江苏省,南京市,玄武区,,unknown,
baidu,cde9e2c7b946c1ade81e971a,南京图书馆,南京市玄武区梅园新村街道大行宫社区中山东路189号,江苏省,南京市,玄武区,(025)84356000,unknown,
baidu,96b672aadf37db08cf04efbb,五老村幼儿园,江苏省南京市秦淮区新巷34号,江苏省,南京市,秦淮区,"(025)84405665,(025)84405789",unknown,
baidu,0b610f71e45f67b5102935fa,学之道,新世纪广场A座2403,江苏省,南京市,秦淮区,,unknown,
baidu,72efbbbb6d3e7e7e4afd3fba,向优留学,江苏省南京市秦淮区中山东路288号新世纪广场A幢3107室,江苏省,南京市,秦淮区,,unknown,
baidu,5d9fb1cf8eefb2424c6d4645,美冀GRE·GMAT·SAT,中山东路300号长发中心B座29楼,江苏省,南京市,秦淮区,(025)86380187,unknown,
baidu,23c799b916dbc4b8455726c7,南京市五老村小学,江苏省南京市秦淮区文昌巷74号,江苏省,南京市,秦淮区,"(025)84401622,(025)86647207",unknown,
baidu,f52ca75300ad3b8e4f2fdf73,南京移动卫星通信工程技术研究发展中心,南京市玄武区中山东路301号,江苏省,南京市,玄武区,,unknown,
baidu,cb4fd1468f7c15419d9d68ec,周恩来图书馆,江苏省南京市玄武区汉府街梅园新村18号,江苏省,南京市,玄武区,"(025)84504828,(025)84540739",unknown,
baidu,4e6caac7149fd58ec056ac75,金陵老年大学,江苏省南京市秦淮区白下路314号,江苏省,南京市,秦淮区,(025)84804991,unknown,
baidu,7524cb4f0bdbfc3504026f06,南京市第九中学东南大学附属中学,江苏省南京市玄武区长江路碑亭巷51号,江苏省,南京市,玄武区,(025)84414656,unknown,
baidu,bba87388ae9b8ea0bca8227e,南京市瑞金北村小学,江苏省南京市秦淮区大清河18号（清河公寓西）,江苏省,南京市,秦淮区,(025)84494836,unknown,
baidu,c392e4bff54cf0d484330436,南京开放大学,江苏省南京市秦淮区游府西街46号,江苏省,南京市,秦淮区,(025)82212100,unknown,
baidu,3a0fbba801ee32419ee3217e,南京市瑞金路小学,江苏省南京市秦淮区瑞金路38号,江苏省,南京市,秦淮区,(025)84488700,unknown,
baidu,694dcd3a7ad3580217a19075,益智达教育,南京市秦淮区文昌宫海宇公寓,江苏省,南京市,秦淮区,,unknown,
baidu,e45c3e804495b94654bfff57,南京市第三中学(文昌校区),江苏省南京市秦淮区文昌巷63号,江苏省,南京市,秦淮区,(025)84407208,unknown,
baidu,083a55fac0f03a79246e98e5,南京市长江路小学,江苏省南京市玄武区长江路260号,江苏省,南京市,玄武区,(025)84413517,unknown,
baidu,601b621bc00ea265bd484242,南京市第九初级中学,江苏省南京市玄武区杨将军巷46号,江苏省,南京市,玄武区,(025)84414656,unknown,
baidu,601ee19281e0d66cf603b843,南京航空航天大学(明故宫校区),南京市秦淮区御道街29号,江苏省,南京市,秦淮区,(025)84892424,unknown,
baidu,b2a8a69aa8b94d5a97031908,金诺成长中心,江苏省南京市秦淮区解放路55号,江苏省,南京市,秦淮区,17721781636,unknown,
baidu,4ce10ce6dd4b2fa1441a327e,南京市第三中学(文濬校区),江苏省南京市秦淮区白下路193号,江苏省,南京市,秦淮区,(025)84501691,unknown,
baidu,850815e10aa5c99b43e192e5,南京市成贤街小学,江苏省南京市玄武区太平北路120号,江苏省,南京市,玄武区,(025)83613499,unknown,
baidu,209fe1a953bb3ed2badf8fd4,南京城市职业学院(新街口校区),江苏省南京市秦淮区游府西街46号,江苏省,南京市,秦淮区,(025)82212100,unknown,
baidu,a15b51e4e39cba55a5da39c2,南京军区医学动物实验中心,南京市玄武区中山东路东部战区总医院,江苏省,南京市,玄武区,,unknown,
baidu,cdef4edf6644024e28d7abe5,南京市第五十四中学,江苏省南京市玄武区后宰门西村20号,江苏省,南京市,玄武区,(025)68032035,unknown,
baidu,e240d472856ef11684330427,金卯智慧,南京市秦淮区大杨村文泽园,江苏省,南京市,秦淮区,,unknown,
baidu,6d2f2116af509cfe7f29bda4,南京航空航天大学附属高级中学蓝旗街校区,江苏省南京市秦淮区御道街35号,江苏省,南京市,秦淮区,(025)84499737,unknown,
baidu,0ae9b8d2c2c66982f8221364,南京新蓝文化教育研究所,江苏省南京市秦淮区三条巷4-1号,江苏省,南京市,秦淮区,,unknown,
baidu,04bdf4a3c352eb4f354aaee5,南京外国语学校(北京东路校区),江苏省南京市玄武区北京东路30号,江苏省,南京市,玄武区,(025)83282300,unknown,
baidu,d6c5d99108ed52e830169be5,小营小学,江苏省南京市玄武区龙蟠中路21号,江苏省,南京市,玄武区,"(025)83372015,(025)83372348",unknown,
baidu,ae4c1091073c8dd935b06c0a,东南大学(四牌楼校区),江苏省南京市玄武区新街口街道大石桥社区四牌楼2号,江苏省,南京市,玄武区,(025)83793095,unknown,
baidu,bfa666f26e3df13e3804b154,南京市游府西街小学分校(南京市火瓦巷小学),南京市秦淮区火瓦巷32号,江苏省,南京市,秦淮区,(025)84455058,unknown,
baidu,86341bee3bc16bb51c580049,思睿留学,江苏省南京市秦淮区中山东路300号长发中心A座2805室,江苏省,南京市,秦淮区,,unknown,
baidu,55fa2c0b43569b2e1ce9990f,南京图书馆古籍部,江苏省南京市玄武区梅园新村街道中山东路189号南京图书馆,江苏省,南京市,玄武区,(025)84356243,unknown,
baidu,18eb257d07bed53933621200,南京图书馆-24小时自助图书馆,江苏省南京市玄武区中山东路189号南京图书馆东门负1楼,江苏省,南京市,玄武区,,unknown,
baidu,e936148e699a77cc4251c046,南京外贸中专学校,江苏省南京市秦淮区中山东路378号南京外贸口岸大楼18层,江苏省,南京市,秦淮区,,unknown,
baidu,aed19610ff0f4967240bd072,中交水运规划设计院有限公司南京分公司,江苏省南京市秦淮区中山东路300号长发大厦a栋,江苏省,南京市,秦淮区,(025)84563816,unknown,
baidu,418d47a24b2bd0ddcafa5fc8,中航电科建筑规划设计研究(院)集团,南京市秦淮区解放路建筑大厦南侧约30米,江苏省,南京市,秦淮区,,unknown,
baidu,9cab1782dde0ee20eee4a57b,南京博纳能源环保科技有限公司设计研究院,江苏省南京市秦淮区中山东路300号B幢22层,江苏省,南京市,秦淮区,,unknown,
baidu,de37294e22dea8bdd72ce20c,华东凯亚南京研发中心,江苏省南京市秦淮区中山东路288号,江苏省,南京市,秦淮区,,unknown,
baidu,dd6dc8a3bdb81bdd0b1cc7f1,逸仙小学附属幼儿园,江苏省南京市玄武区汉府街1-4号汉府大厦东北门西北60米,江苏省,南京市,玄武区,,unknown,
baidu,0261ffae1b827d89b05c6acf,保障楼,南京市玄武区黄埔路东部战区总医院,江苏省,南京市,玄武区,,unknown,
baidu,2848ffd6ceffa20f48cc4ae4,江苏省地质调查研究院,江苏省南京市玄武区珠江路700号地质大楼,江苏省,南京市,玄武区,(025)51816516,unknown,
baidu,2657c6780921806d5d17c328,东部战区总医院幼儿园,南京市玄武区黄埔路与珠江路交叉路口往西约160米,江苏省,南京市,玄武区,,unknown,
baidu,96cb925b456d90af7bf7961a,北楼,南京市玄武区黄埔路西150米,江苏省,南京市,玄武区,,unknown,
baidu,06d54c06cba49865210262c6,江苏省地调院测试研究所,江苏南京市玄武区珠江路700号6楼,江苏省,南京市,玄武区,,unknown,
baidu,251b9144fc27944a42d63ebe,西安门遗址公园东侧临时停车点,南京市秦淮区西华东巷西安门遗址公园,江苏省,南京市,秦淮区,,unknown,
baidu,f0c7706ea1ee78e233169bed,西安门·浦发银行,地铁2号线,江苏省,南京市,秦淮区,,unknown,
baidu,686c234836e5eb5c5abbbca7,小桔充电充电站(西安门充电站),江苏省南京市秦淮区瑞金路街道西华东巷中航科技城,江苏省,南京市,秦淮区,4000610999,unknown,
baidu,b0ef014c59038546f23cba69,东骏燕窝鱼翅海鲜酒家中山东路店-停车场,江苏省南京市秦淮区中山东路518号,江苏省,南京市,秦淮区,,unknown,
baidu,e09672bb8cd660adddee8b3c,逸仙桥,南京市玄武区龙蟠中路熊猫中央广场项目西侧约60米,江苏省,南京市,玄武区,,unknown,
baidu,c8158b1f1a86ae74f1193763,西安门,5路;25路;29路;34路;34路区间;65路;Y24路夜间;Y5路夜间,江苏省,南京市,秦淮区,,unknown,
baidu,d229be187615801c0b5cb315,熊猫中央广场-地下停车场,南京市玄武区内环东线熊猫中央广场项目,江苏省,南京市,玄武区,,unknown,
baidu,8e3eda503dcf6403c336443a,南京总统府亚朵酒店(南京总统府店)-停车场,江苏省南京市秦淮区中山东路486号南京总统府亚朵酒店,江苏省,南京市,秦淮区,,unknown,
baidu,1844f914d1324db12dfaa773,熊猫大厦-停车场,南京市玄武区内环东线熊猫中央广场项目,江苏省,南京市,玄武区,,unknown,
baidu,6f00cac900637f2f43ab9a1e,东部战区总医院-地下停车场,江苏省南京市玄武区中山东路305号东部战区总医院,江苏省,南京市,玄武区,,unknown,
baidu,9d3d2447ab5336da465726e3,龙蟠中路·逸仙桥,40路;47路;93路;Y8路夜间;机场巴士1号线,江苏省,南京市,秦淮区,,unknown,
baidu,7420c9c2167a39ed95f08c96,511公园-P1停车场,江苏省南京市秦淮区航城路16号,江苏省,南京市,秦淮区,,unknown,
baidu,9094405009929d969fec2bcb,中山东路·逸仙桥(毗卢寺),5路;25路;29路;34路;34路区间;65路;G17路[假日旅游玄武线];Y24路夜间;Y5路夜间,江苏省,南京市,秦淮区,,unknown,
baidu,521557210aa16a792cb9087d,南京凯宾斯基酒店-地下停车场,南京市秦淮区龙蟠中路中航科技城,江苏省,南京市,秦淮区,,unknown,
baidu,c9fee01cd240c06420026224,瑞金北村,25路;29路;52路;55路;190路;Y24路夜间,江苏省,南京市,秦淮区,,unknown,
baidu,270a424856d57b7c04fef5d1,熊猫万谷金融科技中心-地下停车场,江苏省南京市玄武区中山东路301号,江苏省,南京市,玄武区,,unknown,
baidu,e2c5689ebac837e107026ff6,六朝博物馆-地下停车场,南京市玄武区东箭道六朝博物馆,江苏省,南京市,玄武区,,unknown,
baidu,fa357051bacee652250bd06a,汉府雅苑-停车场,南京市玄武区汉府街6号,江苏省,南京市,玄武区,,unknown,
baidu,bda99fec8a4b6f474e776ef3,大行宫,地铁2号线;地铁3号线,江苏省,南京市,玄武区,,unknown,
baidu,f3b7d55f35e78f9d4207c144,龙蟠中路·毗卢寺,40路;47路;93路,江苏省,南京市,玄武区,,unknown,
baidu,c6d6f6867cb79a2b26e0a0f5,南京图书馆-地下停车场,江苏省南京市玄武区中山东路189号南京图书馆,江苏省,南京市,玄武区,,unknown,
baidu,9c0ee352a37d19cb14c8f6e4,金城大厦-地下停车场,南京市秦淮区龙蟠中路216号,江苏省,南京市,秦淮区,,unknown,
baidu,f360c7e28c6d21d302294f28,中山东路北侧临时停车点,南京市玄武区中山东路东部战区总医院,江苏省,南京市,玄武区,,unknown,
baidu,d683fc23735e0dc36f476064,逸仙名居-地下停车场,南京市秦淮区头条巷50号,江苏省,南京市,秦淮区,,unknown,
baidu,b5afbfe2f91d160e6dc02c6c,科巷,44路;304路,江苏省,南京市,秦淮区,,unknown,
baidu,33ee034439a457351e1d1192,熊猫新兴宾馆东侧-地上停车场,南京市秦淮区中山东路506号,江苏省,南京市,秦淮区,,unknown,
baidu,a68e36436e907e674f6d46e6,南京1912街区-地下停车场,南京市玄武区长江后街8号南京1912街区,江苏省,南京市,玄武区,(025)84401510,unknown,
baidu,a3e8341cb9bf52954afd3f43,中国石化加油站(公园路站),江苏省南京市秦淮区龙蟠中路321号,江苏省,南京市,秦淮区,95388,unknown,
baidu,92004319cbcecb9f9a005091,三条巷小区-地上停车场,江苏省南京市秦淮区二条巷三条巷小区100号,江苏省,南京市,秦淮区,,unknown,
baidu,6321f9fa89de077de3110393,长发中心CFC-北侧地上停车场,江苏省南京市秦淮区中山东路300号长发中心C座,江苏省,南京市,秦淮区,,unknown,
baidu,62aa0334964e0ece0f0a701d,龙台国际大厦-停车场,江苏省南京市秦淮区中山东路198号龙台国际大厦,江苏省,南京市,秦淮区,(025)58007019,unknown,
baidu,d7493e0a300b01204c6d4606,中航科技大厦-地下停车场,南京市秦淮区龙蟠中路中航科技城,江苏省,南京市,秦淮区,,unknown,
baidu,5d96a38c04742ae3ca2915be,大润发(瑞金店)-地下停车场,南京市秦淮区龙蟠中路260号,江苏省,南京市,秦淮区,,unknown,
baidu,0b097f3a996927a040ab9aed,明故宫,地铁2号线,江苏省,南京市,玄武区,,unknown,
baidu,2c71c98166310314f8dc854f,浮桥,地铁3号线,江苏省,南京市,玄武区,,unknown,
baidu,65cffbbed7c61ac6f5c59cc8,常府街,地铁3号线,江苏省,南京市,秦淮区,,unknown,
baidu,a1786a8e14f2d7d425e0a08c,汉府大厦-停车场,南京市玄武区中山东路291号,江苏省,南京市,玄武区,,unknown,
baidu,74126ff6585def5a931fc942,浩瀚能源充电站(ZEEKRPower南京中航科技大厦地下站),南京市秦淮区龙蟠中路216号中航科技大厦地下停车场负三层,江苏省,南京市,秦淮区,4000036036,unknown,
baidu,b0203db9d88bf15e2902e1e2,纺织大厦-地上停车场,南京市秦淮区二条巷熊猫新兴宾馆西南侧,江苏省,南京市,秦淮区,,unknown,
baidu,0587160180930de78bf15d8c,南京水务集团有限公司(普华巷)-地上停车场,南京市秦淮区中山东路298号,江苏省,南京市,秦淮区,,unknown,
baidu,ccd474032b5cfb919868b43d,三条巷路西侧临时停车点,南京市秦淮区三条巷中山东路小区,江苏省,南京市,秦淮区,,unknown,
baidu,754d08c088ebdbf85a3ac8b7,三条巷路西侧临时停车点,南京市秦淮区三条巷中山东路小区,江苏省,南京市,秦淮区,,unknown,
baidu,65673df4c97958be841541e5,南苑小区-停车场,南京市秦淮区中山东路520号,江苏省,南京市,秦淮区,,unknown,
baidu,0772f6e6ae3dcff6d8eced91,黄埔路,52路;190路,江苏省,南京市,玄武区,,unknown,
baidu,409421e55fe7c2c538e4a66c,报业大厦-接送点,南京市秦淮区报业大厦附近,江苏省,南京市,秦淮区,,unknown,
baidu,db1b92778a5362ae14b54b9d,解放路42号综合楼-停车场,江苏省南京市秦淮区解放路42号4-6楼,江苏省,南京市,秦淮区,,unknown,
baidu,9e1da5445ac0ff782cb17efc,西华东村小区-停车场,南京市秦淮区中山东路518号,江苏省,南京市,秦淮区,,unknown,
baidu,a56918ac8495026f2cb908c3,停车场(英威街),南京市秦淮区三条巷中山东路小区,江苏省,南京市,秦淮区,,unknown,
baidu,32960ccdbec03b9571455b2d,南京圣和府邸豪华精选酒店-地下停车场,江苏省南京市玄武区长江路300号南京圣和府邸豪华精选酒店,江苏省,南京市,玄武区,18952003125,unknown,
baidu,ed1399bf0f266e2f95ca0723,汉府雅苑-私家车专用地下停车场,南京市玄武区龙蟠中路118号,江苏省,南京市,玄武区,,unknown,
baidu,5a2121bf75af61053362122e,中山东路小区-地上停车场,江苏省南京市秦淮区普华巷11号中山东路小区,江苏省,南京市,秦淮区,,unknown,
baidu,5fccd52264a66cd6b75f1e45,江苏省美术馆(长江路新馆)-地下停车场,南京市玄武区长江东街江苏省美术馆,江苏省,南京市,玄武区,,unknown,
baidu,29dbec5194aa1d5bf423104c,金龙蟠商苑-地下停车场,南京市秦淮区龙蟠中路头条巷小区南侧约30米,江苏省,南京市,秦淮区,,unknown,
baidu,91d1dafcd704b6e625e0a04f,南京城市职业学院(新街口校区)-地下停车场,南京市秦淮区游府西街46号南京广播电视大学,江苏省,南京市,秦淮区,,unknown,
baidu,e40fa972d2f814ff4afc8dc1,标营,4路;7路;17路;25路;52路;65路;118路;202路;202路区间;Y17路夜间;Y24路夜间;Y7路夜间,江苏省,南京市,秦淮区,,unknown,
baidu,1a2c2ea0f50a211e95f08ca2,黄埔大酒店-地上停车场,南京市玄武区黄埔路2-2号黄埔大酒店,江苏省,南京市,玄武区,,unknown,
baidu,ce72f67d18afdff02afc4842,中航金城1号-地下停车场,南京市秦淮区解放路中航科技城,江苏省,南京市,秦淮区,,unknown,
baidu,22db4b48d53bb76b43afe638,解放路,地铁13号线,江苏省,南京市,秦淮区,,unknown,
baidu,012f45f5aac7b2ccfbf0cb3b,南京市逸仙小学-停车场,江苏省南京市玄武区汉府街2号,江苏省,南京市,玄武区,,unknown,
baidu,b50a8fa1a1cc330f35b06c14,解放路6号小区-停车场,南京市秦淮区解放路6号,江苏省,南京市,秦淮区,,unknown,
baidu,989deeed69b8bc64acee7a7a,钟山颐府-停车场,江苏省南京市玄武区内环东线钟山颐府,江苏省,南京市,玄武区,,unknown,
baidu,82010da0699942a0b1077d9e,万谷南报新媒体产业园-停车场,南京市解放路53号,江苏省,南京市,秦淮区,,unknown,
baidu,eeb8e24f09219f8eae0457ec,新街口,地铁1号线;地铁2号线,江苏省,南京市,秦淮区,,unknown,
baidu,13d66fa80f31284729fc48b9,金城大厦-接送点,南京市秦淮区金城大厦附近,江苏省,南京市,秦淮区,,unknown,
baidu,4487c5897edc961428201a69,新安商务大厦-地上停车场,南京市玄武区中山东路293号新安大厦,江苏省,南京市,玄武区,,unknown,
baidu,c68b7636a6ad90b73be4a6c5,南京市秦淮区人民检察院(东区)-地上停车场,南京市秦淮区解放路20号,江苏省,南京市,秦淮区,,unknown,
baidu,371ec30fbe0a6e5835b06cf3,瑞金北村-停车场,南京市秦淮区解放路瑞金北村37~39栋,江苏省,南京市,秦淮区,,unknown,
baidu,8c49531059c55cd00a5cb366,青岛瓴维2充电站(南京东鼎大厦充电站),江苏省南京市玄武区珠江路699号东鼎大厦地下一层,江苏省,南京市,玄武区,4000657888,unknown,
baidu,02761d8a4a088ca5ebe582db,九华山,地铁4号线,江苏省,南京市,玄武区,,unknown,
baidu,09180cf76a5ec5d3118824c6,仁义里小区西北侧-地上停车场,江苏省南京市秦淮区五老村中山东路小区西南(四条巷东),江苏省,南京市,秦淮区,,unknown,
baidu,743235a75ba6157928201a62,黄埔科技大厦B座-地上停车场,南京市玄武区黄埔路2-2号,江苏省,南京市,玄武区,,unknown,
baidu,db5b4f94a90b927a940319d2,秦淮区教师发展中心-停车场,南京市秦淮区仁孝东巷三条巷小区,江苏省,南京市,秦淮区,,unknown,
baidu,0014584ebfd8fcaedbd8913d,马标,地铁13号线,江苏省,南京市,玄武区,,unknown,
baidu,cb39724c7b4f114cabf0cd77,黄埔花园-地上停车场,江苏省南京市玄武区黄埔路2-1号,江苏省,南京市,玄武区,,unknown,
baidu,27b98eabe9b25d2190114c56,鸡鸣寺,地铁3号线;地铁4号线,江苏省,南京市,玄武区,,unknown,
baidu,39294dc4c20d961e6c20b9fa,三条巷路东侧临时停车点,南京市秦淮区三条巷小区,江苏省,南京市,秦淮区,,unknown,
baidu,2ab2e02619c0964d9a0050ec,张府园,地铁1号线,江苏省,南京市,秦淮区,,unknown,
baidu,ed193ecac3f6c1613010afab,复成里-停车场,南京市秦淮区复成里南京市五老村小学(崇实校区),江苏省,南京市,秦淮区,,unknown,
baidu,35ea25450b488f6fa7c756ec,珠江路,地铁1号线,江苏省,南京市,玄武区,,unknown,
baidu,cc3f154a8f08be1e3913fd6f,熊猫集团-停车场,南京市玄武区内环东线钟山颐府西南侧,江苏省,南京市,玄武区,,unknown,
baidu,5a44afbc3a8d68594251c003,大润发(瑞金店)-地下停车场,南京市秦淮区龙蟠中路中航科技城,江苏省,南京市,秦淮区,,unknown,
baidu,30a85a243ef6bce0f6e73b5d,仁孝里-路侧停车场,南京市秦淮区仁孝里仁义里小区,江苏省,南京市,秦淮区,,unknown,
baidu,4252143d29b70685fea7781f,中山门,5路;34路;34路区间;36路;55路;59路;80路;G17路[假日旅游玄武线];Y5路夜间,江苏省,南京市,玄武区,,unknown,
baidu,70030d3b04967101efe4a560,熊猫集团-地上停车场,南京市玄武区梅园新村街道龙蟠中路118号,江苏省,南京市,玄武区,,unknown,
baidu,c723050a8de954826240a9ae,雍园宾馆-地上停车场,江苏省南京市玄武区梅园新村雍园6号雍园宾馆,江苏省,南京市,玄武区,,unknown,
baidu,f63f11d6f7fadd4ea4da39cd,太平门,2路;11路;20路;20路区间;40路;48路;59路;68路;70路;91路;G17路[假日旅游玄武线];G25路[钟山5号线];Y11路夜间;Y8路夜间,江苏省,南京市,玄武区,,unknown,
baidu,135d6a021a42fc6d0482c2c7,六朝博物馆站公共自行车租赁点,南京市玄武区长江路江苏省美术馆(长江路新馆),江苏省,南京市,玄武区,,unknown,
baidu,a7a90f64d63366e8ee74f85b,三条巷小区-地上停车场,江苏省南京市秦淮区三条巷与仁寿里交叉口东北50米,江苏省,南京市,秦淮区,,unknown,
baidu,c9e8683178fba0768715416a,夫子庙,地铁3号线;地铁5号线,江苏省,南京市,秦淮区,,unknown,
baidu,33fc3ccccf91492d8f55ec2a,五十五所宿舍区-地上停车场,江苏省南京市秦淮区中山东路522号8-2106号,江苏省,南京市,秦淮区,,unknown,
baidu,197212db879b5b98e607389d,七里街,47路;60路;87路;98路;190路;304路;704路;G19路[假日旅游老城南线];Y8路夜间;机场巴士1号线,江苏省,南京市,秦淮区,,unknown,
baidu,afd81511c0c57b160289728e,南京凯旋电力抄表有限公司-地上停车场,江苏省南京市秦淮区解放路8号,江苏省,南京市,秦淮区,,unknown,
baidu,ac10ebf187654514e912e483,江苏冶金大厦-地上停车场,南京市秦淮区中山东路412号江苏冶金大厦,江苏省,南京市,秦淮区,,unknown,
baidu,2af6c310c72e57427369d335,黄埔科技大厦-接送点,南京市玄武区黄埔科技大厦附近,江苏省,南京市,玄武区,,unknown,
baidu,7cd0987b32e6db2d88fc06ce,新时代大厦-停车场,南京市秦淮区中山东路402号新时代大厦,江苏省,南京市,秦淮区,,unknown,
baidu,6c19d9298a2400a42811d18e,玄武高中(梅园校区)-停车场,江苏省南京市玄武区大悲巷13号,江苏省,南京市,玄武区,,unknown,
baidu,c2d99f541d17c6faf503b863,汉府雅苑北侧-地上停车场,南京市玄武区雍园路段汉府雅苑至兰竺路口,江苏省,南京市,玄武区,,unknown,
baidu,fa7d342cc7cb26cc1ce99947,雍园61号小区-停车场,南京市玄武区雍园雍园61号小区,江苏省,南京市,玄武区,,unknown,
baidu,4e27887c2ba08884da2f287e,解放路26号院东北侧-停车场,南京市秦淮区解放路26号院东北侧,江苏省,南京市,秦淮区,,unknown,
baidu,fcab07a1b29a2c796cc02cd9,中共代表团梅园新村纪念馆-地上停车场,江苏省南京市玄武区汉府街18-1号,江苏省,南京市,玄武区,,unknown,
baidu,66bc7cfb7bb94c3c78b55cac,东鼎大厦汽车充电站(地下一层),江苏省南京市玄武区珠江路699-3号,江苏省,南京市,玄武区,,unknown,
baidu,28a1ea45c85d67a51894c6c7,雍园2号小区-地下停车场,南京市玄武区梅园新村雍园2号,江苏省,南京市,玄武区,,unknown,
baidu,f69cd04b357fb5bd26e0a08e,锦创中心-停车场,南京市秦淮区龙蟠中路233号,江苏省,南京市,秦淮区,,unknown,
baidu,26ad20110def58fde5e96575,仁义里小区-停车场,南京市秦淮区仁孝里5号,江苏省,南京市,秦淮区,,unknown,
baidu,41853874bd0cd40e250bd0ac,地质大厦(珠江路)-地下停车场,珠江路700号,江苏省,南京市,玄武区,,unknown,
baidu,c692353dc75ba40114948ee8,南京市秦淮区人民政府五老村街道办事处-停车场,江苏省南京市秦淮区仁寿里8号,江苏省,南京市,秦淮区,,unknown,
