source,bd_uid,name,address,province,city,area,tel,poi_type,tag
baidu,2478f890a390482e0b1cc757,汉口水塔美食街,水塔街道前进五路与中山大道交叉口西侧,湖北省,武汉市,江汉区,"(027)82836638,15927413814",unknown,
baidu,2c2de1998fa0d78596ca073b,严记聚珍园·湖北菜·老武汉藕汤(江汉路一店),统一街295号附3,湖北省,武汉市,江汉区,(027)82859299,unknown,
baidu,6eb5dc423ad537a6a5da3951,吴长子卤菜馆(统一街店),民权街街道统一街洪益巷108号(近武汉关小学),湖北省,武汉市,江汉区,18986272087,unknown,
baidu,4104e672dcd91ea028b97c23,刘二菜馆(江汉路店),小江家院西门旁(江汉路地铁站G口步行380米),湖北省,武汉市,江汉区,13871420887,unknown,
baidu,165aa60e681341609d82eac6,冷记卤品(花楼街店),花楼街146号,湖北省,武汉市,江汉区,13517288390,unknown,
baidu,0123c7eca04c6f48990050ac,正宗北京片皮烤鸭(花楼街店),打铜街6-8号,湖北省,武汉市,江汉区,13986030961,unknown,
baidu,39f9340a00decc086ca3ccd6,憨老三·湖北菜·招牌武昌鱼(江汉路店),民生路153号,湖北省,武汉市,江汉区,13545224321,unknown,
baidu,6ce358a0e58a5a9928d7ab71,潮汕石磨肠粉(广益·天下北区店),民权路打铜街菜市场门口74号(楚风阁大楼对面),湖北省,武汉市,江汉区,15072371428,unknown,
baidu,30c7500367cab6beda2f281b,本本相传·王瞎子小炉烧烤·湖北菜(江汉路店),花楼街悦荟广场江汉印象城B座1楼B43号临街商铺（6号门旁）,湖北省,武汉市,江汉区,13308639918,unknown,
baidu,abf9e2dc11fa010ffea77820,老武汉·油焖虾·湖北菜(江汉路店),民生路189号,湖北省,武汉市,江汉区,17762456601,unknown,
baidu,c19bd97a6a81838b7bf79645,亮鑫农家菜(统一街店),统一街295号附2(江汉路地铁站G口步行370米),湖北省,武汉市,江汉区,(027)85650841,unknown,
baidu,c7f4961d952223b348cc4af7,刘记热干面(花楼街店),民权街街道花楼街182号(近民生路),湖北省,武汉市,江汉区,"13367259085,15071414198",unknown,
baidu,1f998f3d5516a91ed618b774,花楼馋嘴鸭(大江家院店),花楼街157号附近,湖北省,武汉市,江汉区,13971265700,unknown,
baidu,6d765ae06d72f82508ccdd60,萍姐火锅·公路夜市(武汉首店),花楼街198号宝丽金国际广场1楼,湖北省,武汉市,江汉区,18368517510,unknown,
baidu,55bcfc63691b6659b817e779,广东烧鹅饭·猪脚饭(江汉路统一街店),统一街307-2号铺,湖北省,武汉市,江汉区,17720557277,unknown,
baidu,0b87a92c14597f7a2cb96d0d,黄陂三鲜,湖北省武汉市江汉区民权街街道花楼街157号,湖北省,武汉市,江汉区,,unknown,
baidu,edc1133eb996058dab0dd8cc,新疆祖传烤羊肉餐厅(花楼街店),民生路花楼街198号,湖北省,武汉市,江汉区,17690651975,unknown,
baidu,6c28abd748dc53423904b1ee,天龙农家菜(统一街店),江汉路统一街293号（大洋百货附近）,湖北省,武汉市,江汉区,(027)85652826,unknown,
baidu,629567d8c68b4abc9900507c,北方老面馒头(打铜街店),湖北省武汉市江汉区打铜街49号,湖北省,武汉市,江汉区,15660660022,unknown,
baidu,d6602a713199b7bc283a9f44,Happy站台美食购物广场(HAPPY站台1号仓店),中山大道818号新佳丽时尚广场B1,湖北省,武汉市,江汉区,(027)82623606,unknown,
baidu,03b666b0f5b70789d13ce332,伍界烧烤(江汉路店),花楼街街道民生路花楼街198号宝丽金广场1楼萍姐火锅隔壁,湖北省,武汉市,江汉区,15826598370,unknown,
baidu,4f0b406e37c4b9d5ad31e55e,食之源,湖北省武汉市江汉区花楼街132号,湖北省,武汉市,江汉区,,unknown,
baidu,b453c3c76ac716a304026ff0,长江饭店(江汉路步行街店),武汉工艺大楼东北门旁(江汉路地铁站G口步行240米),湖北省,武汉市,江汉区,,unknown,
baidu,cf94984d704166078c55ecca,胖姐快餐烧烤(花楼街店),花楼街209号,湖北省,武汉市,江汉区,15391569779,unknown,
baidu,633da1e3a17299e2bbbd63a7,牛蛙鲜,武汉市江汉区花楼街大江家院,湖北省,武汉市,江汉区,,unknown,
baidu,3895866cd729cfa04054d743,鼎元升官渡圆子(广益·天下北区店),湖北省武汉市江汉区民权街街道花楼街165号,湖北省,武汉市,江汉区,17720512601,unknown,
baidu,436176fbd216ab8a8a36ee14,鹏记热干面(花楼街店),花楼街182号(江汉路地铁站G口步行480米),湖北省,武汉市,江汉区,18827016269,unknown,
baidu,6d487e056ab28fbe08ccdd0e,好客土鸡(花楼街店),湖北省武汉市江汉区民权街道花楼街154号,湖北省,武汉市,江汉区,13554298370,unknown,
baidu,92a47a8f6f1d1ad2246e981c,巴比坊大包(花楼街店),花楼街153号附近,湖北省,武汉市,江汉区,15926318608,unknown,
baidu,3a770d711c1955f59d9d6856,川卤先生(大江家院店),大江家院东南门西50米,湖北省,武汉市,江汉区,18120210123,unknown,
baidu,e3438a2f5d82ca2621f017a9,川味源卤品(大江家院店),文书巷与统一街交叉口东100米,湖北省,武汉市,江汉区,13128137607,unknown,
baidu,1a7f23c85762c816128824f9,明亮小吃(花楼街店),湖北省武汉市江汉区花楼街181号,湖北省,武汉市,江汉区,13797016959,unknown,
baidu,7c37653a8a49ea0fd0ff2368,李记油条(统一街店),统一街大江家院西侧198-199号1楼商铺,湖北省,武汉市,江汉区,13545886479,unknown,
baidu,6d3a1c9aff28c22836b06cc7,群琇美味小吃(统一街店),统一街196号,湖北省,武汉市,江汉区,,unknown,
baidu,a00aab585c358b92bfa82297,重庆炒饭盖饭(统一街店),统一街256号门面(江汉路地铁站G口步行320米),湖北省,武汉市,江汉区,15172353604,unknown,
baidu,71dc544f3c99c5f80ab93adf,百姓菜馆农家菜(统一街店),统一街248号,湖北省,武汉市,江汉区,15377581248,unknown,
baidu,d15fe06c8a1178cda2a93443,葡萄干发糕,武汉市江汉区花楼街大江家院,湖北省,武汉市,江汉区,15327421452,unknown,
baidu,480cb9a595d98ddb764ff1a0,台湾馄饨王(统一街店),江汉路步行街,湖北省,武汉市,江汉区,15623303862,unknown,
baidu,735d18e21d15544fb8bd63ce,正谈炸鸡(江汉路印象城店),花楼街街道民生路176号b48.49号商铺（江汉路地铁站G口步行360米）,湖北省,武汉市,江汉区,17302708311,unknown,
baidu,8b29206e1d414450fbdc8544,霏霏汉味小吃(统一街店),民权街办事处中山大道民生路统一街192号(菜场旁),湖北省,武汉市,江汉区,13971491497,unknown,
baidu,427231440e4cc88754bfff63,盛辛巴·东北炭火烤肉(宝利金店),花楼街198号附3号宝丽金底商（萍姐火锅旁）,湖北省,武汉市,江汉区,18120242124,unknown,
baidu,f3ab5d19ae94af6552e5c50a,520烧烤,民生路与花楼街交叉口东南160米,湖北省,武汉市,江汉区,,unknown,
baidu,27ba3747e1bd1bd9b2077d0e,钳多多江湖菜(江汉路店),江汉路花楼街保利金国际广场198-8号,湖北省,武汉市,江汉区,15387183062,unknown,
baidu,6c9950b0b5f4346fa9059da1,楚山牛炒饭铺(江汉统一街店),江汉路区统一街260号,湖北省,武汉市,江汉区,18971398808,unknown,
baidu,c4ae5691fa13e68ccac3dbe9,武汉德华楼餐饮管理有限公司,武汉市江汉区花楼街与民族路的交汇处广益天下二期D、F、H栋2层1号,湖北省,武汉市,江汉区,15337269395,unknown,
baidu,9eb9c69346db676ec72ba127,海底捞火锅(大洋百货中山店),花楼街道中山大道756号大洋百货(武汉中山店)F7,湖北省,武汉市,江汉区,(027)82636977,unknown,
baidu,5b94d8dca727419c0c0a701d,阿盛酒家,洪益巷77号,湖北省,武汉市,江汉区,18995658300,unknown,
baidu,1662a0003f61dc1cff0eb060,京者三文鱼(江汉印象城店),民生路176号印象城B座6号门外围一层044号,湖北省,武汉市,江汉区,17762573068,unknown,
baidu,74c933fb93c461479f82eab1,大汉口城美食城,中山大道539号,湖北省,武汉市,江汉区,13907108752,unknown,
baidu,871cc1a229b65b5b14948e3c,特色红油拉面刀削面(统一街店),武汉市江汉区统一街198号,湖北省,武汉市,江汉区,13657228144,unknown,
baidu,b00d29b80a05b4b931870aff,蜜雪冰城(万达广场店),民生路176号武汉万达商业广场B栋1层34室,湖北省,武汉市,江汉区,"15936200151,17793160003",unknown,
baidu,e0394615ecc99ab63617dc00,钰红麻辣烫(江汉路总店),民权街街道民生路79号,湖北省,武汉市,江汉区,18986247784,unknown,
baidu,8ba49a7a1a75a6d552e5c5fd,大米先生(中山大洋店),花楼街街道中山大道756号大洋百货B1,湖北省,武汉市,江汉区,17671700080,unknown,
baidu,29b158a323f2749bdf1e5234,木槿园和风料理(江汉路店),江汉路印象城B座一层117号（五号或者七号门进）,湖北省,武汉市,江汉区,18550823507,unknown,
baidu,9bc40e4913fbfb0cc26c148d,客串荆州沙市女人街串串(协兴里店),江汉区协兴里统一街295附4号1楼,湖北省,武汉市,江汉区,,unknown,
baidu,fea0761d3873f5f6e5e965f1,思念的美味,统一街214号小江家院统一街281,湖北省,武汉市,江汉区,,unknown,
baidu,63a3a274eeb2a2a213293505,百顺手工面馆(坤元里店),民生路195号(江汉路大洋百货奈雪的茶旁警务室对面),湖北省,武汉市,江汉区,18186217394,unknown,
baidu,01fe0b199f7e1bc1601809f7,江姐热干面,花楼街186号,湖北省,武汉市,江汉区,,unknown,
baidu,3e30dce9485061f1c03644f3,蟹锅小龙虾(民生路店),花楼街198号,湖北省,武汉市,江汉区,17762548878,unknown,
baidu,f565341b992414283c9a5edb,涂记粥铺·粉丝煲(江汉路店),民生路83号1楼,湖北省,武汉市,江汉区,18171390223,unknown,
baidu,2784c692dc5f49924c3a59bf,牛也烧肉(江汉路店),民生路195号（江汉路大洋百货奈雪的茶旁警务室对面）,湖北省,武汉市,江汉区,18571557500,unknown,
baidu,f30927b16d9beeb92efaa7d6,陈记炸酱面馆(黄陂街81号),黄陂街77号附2号,湖北省,武汉市,江汉区,18986269726,unknown,
baidu,c42359367c91ff21f4eafcab,荆汉大包(江汉路店),民生路西北门旁(江汉路地铁站G口步行440米),湖北省,武汉市,江汉区,13871405251,unknown,
baidu,8c28f1f84fbd5535afcb66a3,李记皖阜阳正宗老面馒头,武汉市江汉区花楼街民生社区,湖北省,武汉市,江汉区,,unknown,
baidu,31f26c3bc660d54cc9291529,美食美味·家常菜(江汉路店),花楼街街道江汉印象城B座93号1楼商铺,湖北省,武汉市,江汉区,15807122310,unknown,
baidu,477240d6f59698d3fbf0cba7,老刁大排档烧烤(江汉路店),花楼街198附47号(江汉路地铁站G口步行330米),湖北省,武汉市,江汉区,13628639013,unknown,
baidu,059cfbc921210046c0364467,周黑鸭(武汉江汉区印象城店),民生路江汉印象城B座1层41号,湖北省,武汉市,江汉区,"18120555449,18827439699",unknown,
baidu,c678a42849d91c2b40afe61c,谢记粉面馆,武汉市江汉区统一街积庆社区,湖北省,武汉市,江汉区,,unknown,
baidu,8075f8c9c86f90fe593ac82b,奈雪的茶(大洋百货店),中山大道756号大洋百货一楼,湖北省,武汉市,江汉区,13925240674,unknown,
baidu,b23f0eedd48f31115bf6bedd,口味佳菜馆,港边巷32号一楼,湖北省,武汉市,江汉区,13164655938,unknown,
baidu,9326f85a63fd043fdbeced48,襄阳幸福牛肉面馆(宝利金店),"花楼街198号宝利金国际广场1,2层127,128号",湖北省,武汉市,江汉区,,unknown,
baidu,3a34e47cbfc62dfffadc851d,江夏小炒,港边巷20号,湖北省,武汉市,江汉区,15071345003,unknown,
baidu,2f18c70227d950c59cf779a1,鲁二哥(民生路店),民生路91号,湖北省,武汉市,江汉区,"17786463930,18171293400",unknown,
baidu,75a0b3519495215680a00c9e,风雪副食小吃,武汉市江汉区花楼街大龙社区,湖北省,武汉市,江汉区,,unknown,
baidu,6ef94309b4947a3603897241,碧园黑鸭,武汉市江汉区统一街大江家院西侧,湖北省,武汉市,江汉区,,unknown,
baidu,efeeb23aaecd0d050aa8d44c,花卷店,武汉市江汉区统一街协兴里(统一街),湖北省,武汉市,江汉区,,unknown,
baidu,6c51faafee7fd65d4e554789,BARISTAR精品咖啡(民众乐园/南洋院子店),中山大道708-710号南洋院子院内1层,湖北省,武汉市,江汉区,15010809311,unknown,
baidu,3d2dfcca17c0b603bd4842fa,杭州小笼包(统一街店),民生路205号,湖北省,武汉市,江汉区,15258555702,unknown,
baidu,e5c0b2181ff6073329fc48be,川味情(民生路店),统一街278号（蔡林记旁）,湖北省,武汉市,江汉区,13349896340,unknown,
baidu,4c8e125f027ac65eb54f5476,经济食堂(汉来广场一街店),湖北省武汉市江汉区港边巷32号,湖北省,武汉市,江汉区,(027)85649793,unknown,
baidu,2131d16bf0bac176a11de9a6,鲍师傅糕点(汉口水塔店),湖北省武汉市江汉区水塔街中山大道539号(水塔)生产综合楼一楼,湖北省,武汉市,江汉区,"17771816460,18162607095",unknown,
baidu,1f2f4efe29a0c9eaf119373c,UH祐禾(江汉路店),中山大道543号（江汉路地铁F出口旁）,湖北省,武汉市,江汉区,(027)82299766,unknown,
baidu,bcbdebeacfa6e2bb25d2bb0d,茶颜悦色(武汉大汉口城店),水塔街中山大道539号(水塔)生产综合楼6第一层1-3商铺,湖北省,武汉市,江汉区,15377045828,unknown,
baidu,df410e65942a75d114948ebf,詹记桃酥(武汉江汉路店),交通路1号武汉万达商业广场C栋1层29室（路口西南角）,湖北省,武汉市,江汉区,17683879046,unknown,
baidu,cdcf1922e23c3a129c09f7c3,常青麦香园(宝利金国际广场店),湖北省武汉市江汉区中山大道756号大洋百货江汉印象城F1,湖北省,武汉市,江汉区,,unknown,
baidu,8781dd36942da259901fc940,苏记炸鸡糖水,武汉市江汉区大蔡家巷1-19号1单元103号,湖北省,武汉市,江汉区,,unknown,
baidu,4fe0001e79f607e76fc02c19,格林创意轻食(江汉印象城江汉路步行街店),武汉市江汉区民生路176号万达商业广场B栋一层151号,湖北省,武汉市,江汉区,,unknown,
baidu,421551abd871b28a774ff1e8,壹盏灯(江汉路店),中山大道539号大汉口城二层2-4号（大汉口美食城2楼江汉路地铁站F口）,湖北省,武汉市,江汉区,(027)88877799,unknown,
baidu,35443b7c3ca49e97931fc990,街电(零点相聚音乐餐厅),武汉市江汉区民生路205号长江饭店1幢3层,湖北省,武汉市,江汉区,4006868588,unknown,
baidu,9ad23a66fcdb3419bea240e9,新佳丽时尚广场,湖北省武汉市江汉区中山大道818号,湖北省,武汉市,江汉区,,unknown,
baidu,6ed3083ac83210ae2b3a9f30,沃尔玛购物广场(江汉印象城店),湖北省武汉市江汉区中山大道756号江汉印象城F1,湖北省,武汉市,江汉区,(027)82759896,unknown,
baidu,91f55c94e75f29fec056ace9,民众乐园,湖北省武汉市江汉区中山大道704号,湖北省,武汉市,江汉区,18171294779,unknown,
baidu,432e616e793632872cb96d82,大洋百货(武汉中山店),湖北省武汉市江汉区中山大道756号,湖北省,武汉市,江汉区,"(027)82450365,(027)82456916",unknown,
baidu,e50627c76b1d8492081cc7c2,江汉印象城-B座,湖北省武汉市江汉区民生路176号,湖北省,武汉市,江汉区,,unknown,
baidu,c622da7d4550d67bc51b751a,怡龙超市(花楼街店),花楼街170号,湖北省,武汉市,江汉区,15927537937,unknown,
baidu,068f6f1f0531c7f043afe67f,邦邻超市(统一街),广益天下D栋1层12号,湖北省,武汉市,江汉区,18071087002,unknown,
baidu,2386b95ff06e0191882fb562,红广益粮油超市,湖北省武汉市江汉区花楼街112号,湖北省,武汉市,江汉区,13986226890,unknown,
baidu,9f834c0135f663c1c7f50d9a,诚信平价茶批,湖北省武汉市江汉区花楼街136号,湖北省,武汉市,江汉区,,unknown,
baidu,d6767e52307a7a82dbeced0c,效合干鲜调料店,湖北省武汉市江汉区打铜街2号,湖北省,武汉市,江汉区,13260558074,unknown,
baidu,0f950bc23e4e911552e5c582,金保行珠宝,花楼街162号,湖北省,武汉市,江汉区,13627117908,unknown,
baidu,cc788fde7f2ed79388fc06da,三福(中山大道店),中山大道497号d区,湖北省,武汉市,江汉区,17771873180,unknown,
baidu,7e32dc174e33944f16a1908e,名创优品(新佳丽广场店),中山大道新佳丽时尚广场一层1-051A号,湖北省,武汉市,江汉区,13554010499,unknown,
baidu,2ad32cc395c0cb969c95de90,汉来广场,湖北省武汉市江汉区民权路98号,湖北省,武汉市,江汉区,(027)85378777,unknown,
baidu,f9cfd9683b0f29f88e772711,慕臣便利店(吉庆街店),江汉路198号宝利金国际广场A座168室,湖北省,武汉市,江汉区,13711715236,unknown,
baidu,c7db198594308d8428201a8d,女人坊(第六分店),湖北省武汉市江汉区花楼街汉来广场西北侧约30米,湖北省,武汉市,江汉区,,unknown,
baidu,28dfdb1efd879963fa42b293,日用小百货,武汉市江汉区花楼街民生社区,湖北省,武汉市,江汉区,,unknown,
baidu,bef238cb6432d1b5f7b91660,万福珠宝(统一街店),统一街230号小江家院(江汉路地铁站G口步行390米),湖北省,武汉市,江汉区,17897892332,unknown,
baidu,e43c77b60eca79d94354d74f,鑫磊茶行,湖北省武汉市江汉区统一街218号,湖北省,武汉市,江汉区,,unknown,
baidu,b07614178f16c38e40ab9a32,展业配电箱武汉办事处,湖北省武汉市江汉区汉来广场北街182-1,湖北省,武汉市,江汉区,18995601161,unknown,
baidu,feb8030a7ebaca0f90114cca,汪氏绳线批发五金箱包配件,武汉市江汉区花楼街大龙社区,湖北省,武汉市,江汉区,13308651806,unknown,
baidu,a2cb01928fbde024b817e775,胜强便民店,湖北省武汉市江汉区江汉路商圈花楼街118号,湖北省,武汉市,江汉区,,unknown,
baidu,cd5ed438408a060686420ed7,好新鲜果品超市(花楼街店),湖北省武汉市江汉区民意街道民意三路菜场旁,湖北省,武汉市,江汉区,18771945188,unknown,
baidu,a7149561957a10dfadcb66ce,立邦(横丰五金汉来广场店),湖北省武汉市江汉区民权路汉来广场北三街141号,湖北省,武汉市,江汉区,"(027)85700467,15927205619",unknown,
baidu,64a2c85faa5868ab095cb3f0,统一钢构,湖北省武汉市江汉区打铜街49号楚风格大楼1楼,湖北省,武汉市,江汉区,13628677873,unknown,
baidu,5906489eb47ea24e0c0a70c2,华强平价副食,湖北省武汉市江汉区港边巷54号,湖北省,武汉市,江汉区,,unknown,
baidu,122db2f2e664b1104d2fdf87,新欣副食(统一街店),湖北省武汉市江汉区统一街256号,湖北省,武汉市,江汉区,15327305886,unknown,
baidu,9ff54e260521ecd44d55478f,万物志,湖北省武汉市江汉区民生路坤元里15号,湖北省,武汉市,江汉区,,unknown,
baidu,f06e1750ad1608a88bb988e7,桥元副食,湖北省武汉市江汉区花楼街汉来广场北侧约220米,湖北省,武汉市,江汉区,,unknown,
baidu,1d709645a454c9c4deee8b44,永安副食(统一街店),湖北省武汉市江汉区统一街230号,湖北省,武汉市,江汉区,,unknown,
baidu,fe02516104d0b9a89fec2b24,武汉市江汉区迅发五金商店,武汉市江汉区民权路大龙社区,湖北省,武汉市,江汉区,,unknown,
baidu,41d131f672c04812b45f1ee9,正野,武汉市江汉区民权路大龙社区,湖北省,武汉市,江汉区,13971151345,unknown,
baidu,71986421107fd2b629fc486a,基蒙电器,湖北省武汉市江汉区二盛巷与民权路交叉口北100米,湖北省,武汉市,江汉区,13797048288,unknown,
baidu,fd0a8ab7333a6385f942b2f7,龙友辅料,湖北省武汉市江汉区民权街道南一街22-1号,湖北省,武汉市,江汉区,,unknown,
baidu,557cad0427954209744ff14e,打铜生鲜,打铜街49号,湖北省,武汉市,江汉区,,unknown,
baidu,e73bd2606bf7b6e8c909f0df,钱世腊肠肉丸(花楼街店),花楼街104号,湖北省,武汉市,江汉区,(027)85668695,unknown,
baidu,20cdaaf4db9b10eba2a9348a,何涛炒坊罗田板栗(江汉店),花楼街大江家院,湖北省,武汉市,江汉区,13971099091,unknown,
baidu,aae98a5a3a89bbfc2dfaa783,胖子平价水果(花楼街店),打铜街十六号,湖北省,武汉市,江汉区,15927660571,unknown,
baidu,43273e263510701bbd4842dc,甜甜水果(花楼街店),花楼街152号,湖北省,武汉市,江汉区,15927273378,unknown,
baidu,9c66b6f820cc9c41c4f02567,顺利水果,湖北省武汉市江汉区民权街街道花楼街街道花楼街142号,湖北省,武汉市,江汉区,13937398374,unknown,
baidu,b599901a3c38d1452b3a9f21,东升豆业店,湖北省武汉市江汉区花楼街122号,湖北省,武汉市,江汉区,,unknown,
baidu,3b6bd886ec0a90f7ca1b953e,花楼炒货,花楼街156号,湖北省,武汉市,江汉区,15071430819,unknown,
baidu,b0955590f9bcb0def4231044,纯粮酒,武汉市江汉区花楼街大龙社区,湖北省,武汉市,江汉区,,unknown,
baidu,1a8a59bc3e6098aca1046416,欹谷优品(花楼街店),湖北省武汉市江汉区打铜街49号,湖北省,武汉市,江汉区,18627012908,unknown,
baidu,cf003b999878156d95031998,重庆冯氏鲜面条,武汉市江汉区花楼街坤元里小区,湖北省,武汉市,江汉区,,unknown,
baidu,567a01ad5b6679ad3b221c4a,钻石魔方婚戒定制中心(中山大道店),中山大道与前进二路交汇处,湖北省,武汉市,江汉区,18602725388,unknown,
baidu,91bee6231fc3f0d80d3dda1a,中国黄金(江汉印象城店),湖北省武汉市江汉区中山大道756号江汉印象城F1,湖北省,武汉市,江汉区,17688401735,unknown,
baidu,663729a1e529652e02294f5a,汉来广场-精品灯饰馆,湖北省武汉市江汉区民权路98号,湖北省,武汉市,江汉区,(027)85378777,unknown,
baidu,559916925bf96d9440e19202,小高平价蛋行,湖北省武汉市江汉区花楼街120号,湖北省,武汉市,江汉区,"13554475778,15827408654",unknown,
baidu,f59335f11591d46aa3acc423,小潘编织店(花楼街店),湖北省武汉市江汉区花楼街168号,湖北省,武汉市,江汉区,,unknown,
baidu,05a78677414eef6baeb22a25,伊斯兰牛羊肉专卖店,花楼街78号,湖北省,武汉市,江汉区,"13628666385,18186157873",unknown,
baidu,92e081bfbca4ce04704b8736,丁记清真牛羊肉专卖店,湖北省武汉市江汉区民权街街道民权路花楼街80号,湖北省,武汉市,江汉区,"(027)85651366,13437292282",unknown,
baidu,f6f55e998fe345f2f4231004,鑫华泰电线电缆,武汉市江汉区汉来广场北二街150号,湖北省,武汉市,江汉区,"(027)85378753,13871267183",unknown,
baidu,e9b0e761a647522681a12e90,老杜家原生态土黄牛肉专卖店,广益·天下二期南门东70米,湖北省,武汉市,江汉区,"13135658382,15623306658",unknown,
baidu,74e7c821aad58a63ecdfcabf,老孙家清真牛羊肉专卖,武汉市江汉区花楼街大龙社区,湖北省,武汉市,江汉区,18827092848,unknown,
baidu,c052296e75882fc8ae31e536,汉来粮油(花楼街店),湖北省武汉市江汉区花楼街大龙社区,湖北省,武汉市,江汉区,13477700808,unknown,
baidu,4169447db613bb1871210b73,绿满园平价鲜果,湖北省武汉市江汉区民生路花楼街227号一楼,湖北省,武汉市,江汉区,13125178698,unknown,
baidu,0d95b089ba2a78a5a1046417,陈记纯粮酒坊,武汉市江汉区统一街积庆社区,湖北省,武汉市,江汉区,,unknown,
baidu,dfbc5c64aaa0073e128824a9,武汉新星线缆,湖北省武汉市江汉区民权路278号,湖北省,武汉市,江汉区,13971104479,unknown,
baidu,760677f34fd95af7c2f1cf78,潮翼金属之行,湖北省武汉市江汉区花楼街213号,湖北省,武汉市,江汉区,13871587656,unknown,
baidu,ed9750a59b9781b50f0e6bef,振兴五金水暖批发,武汉市江汉区花楼街大龙社区,湖北省,武汉市,江汉区,"(027)85673831,13476178853",unknown,
baidu,ed5c4b8b383a02eabea240ab,宏忠绳线批发销售中心,武汉市江汉区民权路大龙社区,湖北省,武汉市,江汉区,"13995675027,15342291314",unknown,
baidu,fe4b0e652bacd6b888fc0680,统一玻璃(统一街店),统一街238号,湖北省,武汉市,江汉区,(027)85377871,unknown,
baidu,90a5210c6012c7e6d8131891,欧阳劳保经营部,湖北省武汉市江汉区民权路汉来广场西侧约80米,湖北省,武汉市,江汉区,"13871525132,13971486425",unknown,
baidu,2b9f44744a454d6b2a02e184,飞腾家具,湖北省武汉市江汉区花楼街100号,湖北省,武汉市,江汉区,15527574688,unknown,
baidu,9792388aa84a903eaecb66d5,永红水暖建材批发部,湖北省武汉市江汉区花楼街132号,湖北省,武汉市,江汉区,15972078068,unknown,
baidu,8c58e260567d3d04e115f991,东林五金灯丝,武汉市江汉区花楼街大龙社区,湖北省,武汉市,江汉区,"13080668113,15527838113",unknown,
baidu,6439f47269705dd440ab9ad0,康鹰照明,武汉市江汉区民权路大龙社区,湖北省,武汉市,江汉区,15071398985,unknown,
baidu,3fc96ad32f8e2cdcd618b710,天正电气(民权路店),武汉市江汉区民权路大龙社区,湖北省,武汉市,江汉区,15327233005,unknown,
baidu,1da9653acbe79c89e8e58255,荣德照明,湖北省武汉市江汉区长堤街1301号,湖北省,武汉市,江汉区,"13071230361,18771140777",unknown,
baidu,1521ef3b227fb8c30d3dda44,宏达五金奥顿工具,武汉市江汉区民权路大龙社区,湖北省,武汉市,江汉区,15997440866,unknown,
baidu,e9bf7c913a07d3c42fb17e16,新洲五金建材批发,湖北省武汉市江汉区汉来大道55号,湖北省,武汉市,江汉区,15994205797,unknown,
baidu,6973865a8e49d30adeee8ba7,飞雕(民权路店),湖北省武汉市江汉区民权路中五金175号,湖北省,武汉市,江汉区,(027)85669799,unknown,
baidu,3d85bc19afc04fd91e3894b5,奥长岭塑料电器,湖北武汉市江汉区长提街1138号,湖北省,武汉市,江汉区,"(027)85680622,13971492500",unknown,
baidu,01cc988cde630a989ff77962,帕司特工具,武汉市江汉区民权路大龙社区,湖北省,武汉市,江汉区,,unknown,
baidu,07f7e1bd58b16b7a3586f40b,武汉市卧虎装饰装璜有限公司,武汉市江汉区民权路大龙社区,湖北省,武汉市,江汉区,,unknown,
baidu,023afb0cb440c1c5d6b74e3e,兴齐五金经营部,湖北省武汉市江汉区民权路96号,湖北省,武汉市,江汉区,"(027)85663280,13986289550",unknown,
baidu,70200c866f3861b2260bd0b9,钻石电器,武汉市江汉区民权路大龙社区,湖北省,武汉市,江汉区,"15391541876,18672353036",unknown,
baidu,d9cd2888a3e698fc843304e6,恒昌水暖批发,武汉市江汉区民权路大龙社区,湖北省,武汉市,江汉区,18971379466,unknown,
baidu,2a4a398825bb6034f4eafce3,武汉市新光明机电设备公司,武汉市江汉区汉来广场北3街202号,湖北省,武汉市,江汉区,027-85363760,unknown,
baidu,0c20acbe728ce6a6d6b74ed6,新兴福源线缆,武汉市江汉区民权路大龙社区,湖北省,武汉市,江汉区,"(027)85661473,13971229668",unknown,
baidu,bd1f733146d397ed9ff77908,岳龙电器,武汉市江汉区民权路大龙社区,湖北省,武汉市,江汉区,"(027)59507299,(027)85378385",unknown,
baidu,e00fcecc81388cb2a11de94a,文飞灯具电料,武汉市江汉区花楼街大龙社区,湖北省,武汉市,江汉区,"18602706758,18696140089",unknown,
baidu,54e6c46395596283c26c142e,光大五金工具水暖商行,武汉市江汉区民权路大龙社区,湖北省,武汉市,江汉区,"13871506815,15871491567",unknown,
baidu,69bb042bf8bec976b21e36e4,鑫宜佳五金经营部,武汉市江汉区民权路大龙社区,湖北省,武汉市,江汉区,"13260649918,13707111040,13886001503",unknown,
baidu,bb12869f14048ab01ef74d89,公共厕所,武汉市江汉区花楼街大江家院,湖北省,武汉市,江汉区,,unknown,
baidu,99276b6dbb53c8d21f38942e,港边电子商务,江汉路商圈花楼街118号,湖北省,武汉市,江汉区,,unknown,
baidu,120494650b86f4fb9e82ead6,花楼家电维修,湖北省武汉市江汉区花楼街160号,湖北省,武汉市,江汉区,13135674211,unknown,
baidu,1f941a767e73ab2bcc06a4c4,菜鸟驿站(打铜菜市场对面),民权街办事处打铜街49号,湖北省,武汉市,江汉区,,unknown,
baidu,5f676dfe803482182fe67b24,诚信装饰装潢部,武汉市江汉区花楼街大龙社区,湖北省,武汉市,江汉区,15072368916,unknown,
baidu,f2a65ec91b5efaa31d580003,李记电焊铜铝白铁制作,湖北省武汉市江汉区花楼街大洋百货(武汉中山店)南侧约200米,湖北省,武汉市,江汉区,15171413208,unknown,
baidu,a6e6bc229c225784a21de99f,公共厕所,武汉市江汉区花楼街大龙社区,湖北省,武汉市,江汉区,,unknown,
baidu,313d15f1924ff1805d0d0223,家电维修部,湖北省武汉市江汉区江汉路商圈统一街208号,湖北省,武汉市,江汉区,15072398517,unknown,
baidu,879eb202162eb098acee7a9c,殡葬全程一条龙服务,武汉市江汉区花楼街大龙社区,湖北省,武汉市,江汉区,,unknown,
baidu,e4c1ef2f5af8941dffa77851,蓝鸟影像(统一街店),湖北省武汉市江汉区统一街295号,湖北省,武汉市,江汉区,15072453355,unknown,
baidu,400325eac31947dfc42ba1bb,棉絮加工,武汉市江汉区花楼街大龙社区,湖北省,武汉市,江汉区,13277066979,unknown,
baidu,7b55045debc19f572bd7ab3d,公共厕所,武汉市江汉区统一街武汉一初学区五十一中分校东侧约30米,湖北省,武汉市,江汉区,,unknown,
baidu,e99e69786fdd8be79d9d68dd,志力房产,统一街287号(六渡桥地铁站C1口步行430米),湖北省,武汉市,江汉区,15927038173,unknown,
baidu,fe82a5283d213a7a6e20b98b,菜鸟驿站洗衣代收点(广益·天下南区店),湖北省武汉市江汉区民权街道民权路148号,湖北省,武汉市,江汉区,,unknown,
baidu,016118c54b06f86f2fe67be9,刻章广告,湖北省武汉市江汉区民生路103号,湖北省,武汉市,江汉区,,unknown,
baidu,3a24c4798a3be26f6d20b9e5,公共厕所,武汉市江汉区黄陂街大龙社区,湖北省,武汉市,江汉区,,unknown,
baidu,079392079c53160da8175adb,肖师傅改衣,统一街贤乐巷10号(六渡桥地铁站C1口步行350米),湖北省,武汉市,江汉区,13007154430,unknown,
baidu,9ac4adc1a8ffe81c400245a8,公共厕所,民生路97号,湖北省,武汉市,江汉区,,unknown,
baidu,dc144e6808084974f5c59ca5,中国福利彩票(花楼街店),广益天下E栋5号,湖北省,武汉市,江汉区,954168,unknown,
baidu,00015f9b821aa86930169b45,公共厕所(大洋百货),湖北省武汉市江汉区民生路214号,湖北省,武汉市,江汉区,,unknown,
baidu,0e714c4e7263f176c16c149e,复印打字&惠考打印社,民生路185号（江汉路地铁站G口步行320米）,湖北省,武汉市,江汉区,,unknown,
baidu,aee70d98d668956b89f15dba,吴焕成再生资源回收站,湖北省武汉市江汉区民生路97号,湖北省,武汉市,江汉区,,unknown,
baidu,a165017c25eb0326f5eafc35,洗手间,湖北省武汉市江汉区中山大道704号民众乐园F1,湖北省,武汉市,江汉区,,unknown,
baidu,bb48f434d906d7bea2d2301c,凯德新民众乐园-母婴室,湖北省武汉市江汉区中山大道704号民众乐园F3,湖北省,武汉市,江汉区,,unknown,
baidu,76b9d4729ce51347c61e51df,中国福利彩票(民生路店),湖北省武汉市江汉区民生路111号,湖北省,武汉市,江汉区,954168,unknown,
baidu,566e0e6d6ef66f826fc02c5f,小光头电脑维修,湖北省武汉市江汉区港边巷32号1层,湖北省,武汉市,江汉区,,unknown,
baidu,cbfa9b8ac035f74172455bea,公共厕所,武汉市江汉区民生路民生社区,湖北省,武汉市,江汉区,,unknown,
baidu,53707cf9690352ae70210b5f,公共厕所,武汉市江汉区中山大道凯德新民众乐园西北侧约40米,湖北省,武汉市,江汉区,,unknown,
baidu,51e106b5cc6337f8f72310ae,房屋信息中心,武汉市江汉区统一街坤元里小区,湖北省,武汉市,江汉区,,unknown,
baidu,722f7cffdbc4893c0aa8d410,直梯(货梯),湖北省武汉市江汉区中山大道756号大洋百货F1,湖北省,武汉市,江汉区,,unknown,
baidu,edf948f1e7f6faf1cbc3dbe2,公共厕所(大洋百货),中山大道悦荟广场B座,湖北省,武汉市,江汉区,,unknown,
baidu,aa4b75a62b9d1e8f167643d1,如意翡翠黄金奢侈品回收(凯德新民众乐园店),民生路176号江汉印象城F1层,湖北省,武汉市,江汉区,15935989727,unknown,
baidu,239b2dc5e01406ad09a8d479,瑞瑞萌宠,湖北省武汉市江汉区民生路73号,湖北省,武汉市,江汉区,15102738736,unknown,
baidu,079c1feabed96bb91d5800c9,美真照相,满春街道三民路13号,湖北省,武汉市,江汉区,18971655606,unknown,
baidu,53e4fbc67e276f1c9d82ea50,男洗手间(大洋百货),湖北省武汉市江汉区中山大道756号大洋百货B1,湖北省,武汉市,江汉区,,unknown,
baidu,a1c90bd4f30529e0d6b74e8d,高邦地产(民生路店),湖北省武汉市江汉区民权街街道民生路111,湖北省,武汉市,江汉区,,unknown,
baidu,35762983974c382ac51e51a5,大洋百货武汉中山店-洗手间,武汉市江汉区中山大道756号大洋百货,湖北省,武汉市,江汉区,,unknown,
baidu,3e3fe414418225598bf15df7,卫生间(大洋百货武汉中山店),湖北省武汉市江汉区中山大道756号大洋百货F2,湖北省,武汉市,江汉区,,unknown,
baidu,16f0e451fbae33b33517dc9a,殡葬一条龙服务,武汉市江汉区黄陂街大龙社区,湖北省,武汉市,江汉区,4006646558,unknown,
baidu,c47dae789c87c180ae31e5fd,公共厕所(新佳丽时尚广场),中山大道悦荟广场B座,湖北省,武汉市,江汉区,,unknown,
baidu,f2e0f81a629e12e5fbdc8505,民众乐园-洗手间,湖北省武汉市江汉区中山大道608号民众乐园2楼,湖北省,武汉市,江汉区,,unknown,
baidu,c0c67e2c841b47251ce999ab,大洋百货-服务台,湖北省武汉市江汉区中山大道756号大洋百货F7,湖北省,武汉市,江汉区,,unknown,
baidu,8ab6754c2b84c26426d2bb5d,大洋百货-贵宾厅,湖北省武汉市江汉区中山大道756号大洋百货F6,湖北省,武汉市,江汉区,(027)82450365,unknown,
baidu,b7e75544e83ce088b8bd6338,麦当劳(宝利金店)-洗手间,武汉市江汉区民生路198号宝利金国际广场入口处(近好乐迪),湖北省,武汉市,江汉区,,unknown,
baidu,490780aec752d5d82bd7ab2c,通明配送,武汉市江汉区黄陂街汉来广场,湖北省,武汉市,江汉区,13706596957,unknown,
baidu,5a2d6385628ae8a75d17c31a,大洋百货(武汉中山店)-母婴室,湖北省武汉市江汉区中山大道756号大洋百货F6,湖北省,武汉市,江汉区,,unknown,
baidu,ff2b6c66ab7238689cec2b2a,蒂凡映画·美学摄影(六渡桥店),湖北省武汉市江汉区三民路六渡桥A出口桥西创意中心9F,湖北省,武汉市,江汉区,18971698959,unknown,
baidu,3d88792bb7b8766972455b15,大洋百货-员工区,湖北省武汉市江汉区中山大道756号大洋百货F7,湖北省,武汉市,江汉区,,unknown,
baidu,a45b0922070b4982dbd891ed,大洋百货-8F服务台,湖北省武汉市江汉区中山大道756号大洋百货B1,湖北省,武汉市,江汉区,,unknown,
baidu,0d09be9bdc6bb74484330424,公共厕所,武汉市江汉区民权路民权公寓,湖北省,武汉市,江汉区,,unknown,
baidu,18b99139b2d8cf42901fc989,大洋百货-休息区,湖北省武汉市江汉区中山大道756号大洋百货F7,湖北省,武汉市,江汉区,,unknown,
baidu,1c614dd0bcbc5f349d9d689e,公共厕所(前进五路水塔店),湖北省武汉市江汉区前进五路联保里2号楼,湖北省,武汉市,江汉区,,unknown,
baidu,4b14255e8ff86d103c9a5e8b,公共厕所,武汉市江汉区江汉路地铁站内,湖北省,武汉市,江汉区,,unknown,
baidu,b9ab85d64ac827fdc336449f,直梯(客梯),湖北省武汉市江汉区中山大道756号江汉印象城B1,湖北省,武汉市,江汉区,,unknown,
baidu,7107a36aa25de5e9081cc756,直梯(客梯),湖北省武汉市江汉区中山大道756号江汉印象城B1,湖北省,武汉市,江汉区,,unknown,
baidu,2535440ea17f4e37901fc9cb,中国邮政(江汉路邮政所),中山大道553号(江汉路地铁站E口旁),湖北省,武汉市,江汉区,11185,unknown,
baidu,5b11f62009b166ac2b3a9f92,公共厕所,扬子街4号附近,湖北省,武汉市,江岸区,,unknown,
baidu,65843de4bff1c609a3acc443,武汉轮渡武汉关码头售票处,湖北省武汉市江汉区沿江大道14号,湖北省,武汉市,江汉区,,unknown,
baidu,cd9d05dd58f51fc885420e31,武汉婚纱照材城,湖北省武汉市江岸区胜利街6号(鄱阳街13号),湖北省,武汉市,江岸区,(027)82815556,unknown,
baidu,9c1c96809f2226a55d0d024f,公共厕所(水塔店),前进五路93号,湖北省,武汉市,江汉区,,unknown,
baidu,efb0d42bc779e0ce250bd0e0,洗手间(中心百货江汉路店),水塔街道江汉路129号中心百货(江汉路店)F8层,湖北省,武汉市,江汉区,,unknown,
baidu,b69a64e5e3551f6c1a11d584,武汉观光游船武汉关2号码头售票处,湖北省武汉市江汉区花楼街街道一航线(武汉关-中华路),湖北省,武汉市,江汉区,,unknown,
baidu,f52cde5808547ed9dbd89108,中国移动(迎新花楼街店),湖北省武汉市江汉区花楼街160号,湖北省,武汉市,江汉区,13607188840,unknown,
baidu,0cafc8ae04cadfaaa20464b8,怪兽充电(中意超市花楼街店),湖北省武汉市江汉区花楼街211号,湖北省,武汉市,江汉区,4006703303,unknown,
baidu,d3d1bbb0232d32224c2fdf8f,武汉橙芯气球派对,湖北省武汉市江汉区花楼街193号,湖北省,武汉市,江汉区,18827001873,unknown,
baidu,915051c0b9f9a7b2bbdf8f3c,万源房产,武汉市江汉区统一街广益·天下-一期,湖北省,武汉市,江汉区,,unknown,
baidu,986217c9706c95e9ce04ef8a,脚手架租售,武汉市江汉区民权路大龙社区,湖北省,武汉市,江汉区,,unknown,
baidu,19099a577e0401478bdb73d3,大洋车行,湖北省武汉市江汉区民生路117号,湖北省,武汉市,江汉区,,unknown,
baidu,7c9dc69e4cca7c333a13fd7c,烨然广告,湖北省武汉市江汉区江汉路商圈民生路103号,湖北省,武汉市,江汉区,15927111997,unknown,
baidu,68155147fac8dafc6c3e1b2f,江南房介,湖北武汉市江汉区港边巷32号,湖北省,武汉市,江汉区,"13667136123,13720278474",unknown,
baidu,e783cbff75c2d323f4e73b88,卓雅广告图文,湖北省武汉市江汉区江汉路商圈民生路55号,湖北省,武汉市,江汉区,15822305372,unknown,
baidu,f06a154399fc1fdb82288a00,国家电网(武汉江汉供电服务站),湖北省武汉市江汉区宝丽金中央荣御c座,湖北省,武汉市,江汉区,95598,unknown,
baidu,b0a090999e2c8a95bbbd6396,江汉印象城B座-充电宝,湖北省武汉市江汉区民生路176号江汉印象城B座F1,湖北省,武汉市,江汉区,,unknown,
baidu,7a669d48bd0935e01894c6be,怪兽充电(酷玩地带大洋百货中山大道店),湖北省武汉市江汉区中山大道756号大洋百货B1,湖北省,武汉市,江汉区,4006703303,unknown,
baidu,db4306f2bd45ee1188f15d58,润玉房产,武汉市江汉区民生路民生社区,湖北省,武汉市,江汉区,"13307113733,13385280533,15927038173",unknown,
baidu,35443b7c3ca49e97931fc990,街电(零点相聚音乐餐厅),武汉市江汉区民生路205号长江饭店1幢3层,湖北省,武汉市,江汉区,4006868588,unknown,
baidu,a37370d405f8f2aba80dd8cd,大洋百货-小电,湖北省武汉市江汉区中山大道756号大洋百货F7,湖北省,武汉市,江汉区,,unknown,
baidu,f23115dc778cffb2dad8915e,江汉印象城B座-街电,湖北省武汉市江汉区中山大道756号江汉印象城F1,湖北省,武汉市,江汉区,4006868588,unknown,
baidu,0404a28e9c125f7a6cc02c2b,大洋百货-收银台,湖北省武汉市江汉区中山大道756号大洋百货F5,湖北省,武汉市,江汉区,,unknown,
baidu,1c00a894f5fd091646572625,大洋百货-收银台,湖北省武汉市江汉区中山大道756号大洋百货F2,湖北省,武汉市,江汉区,,unknown,
baidu,3ebd2d19556e7bf81e580086,大洋百货-收银台,湖北省武汉市江汉区中山大道756号大洋百货F3,湖北省,武汉市,江汉区,,unknown,
baidu,09755a971fce023bdf1e5298,大洋百货-收银台,湖北省武汉市江汉区中山大道756号大洋百货F1,湖北省,武汉市,江汉区,,unknown,
baidu,283d53a0045733a5abf72950,大洋百货-收银台,湖北省武汉市江汉区中山大道756号大洋百货F1,湖北省,武汉市,江汉区,,unknown,
baidu,6d4da1561c99d8130e3ddac0,江汉印象城B座-怪兽充电,湖北省武汉市江汉区中山大道756号江汉印象城F1,湖北省,武汉市,江汉区,4006703303,unknown,
baidu,54791b35d9ba75b27ab55cbd,江汉印象城B座-街电,湖北省武汉市江汉区中山大道756号江汉印象城F1,湖北省,武汉市,江汉区,4006868588,unknown,
baidu,e7624b2978f3a5a80f0e6b58,按摩椅(大洋百货F2店),湖北省武汉市江汉区中山大道756号大洋百货F5,湖北省,武汉市,江汉区,,unknown,
baidu,db7a7bddb41b2ddbf90cad56,大洋百货-收银台,湖北省武汉市江汉区中山大道756号大洋百货F4,湖北省,武汉市,江汉区,,unknown,
baidu,fc106003589705517c29bdbf,大洋百货-收银台,湖北省武汉市江汉区中山大道756号大洋百货F2,湖北省,武汉市,江汉区,,unknown,
baidu,9bb551779ad557c0932ca301,大洋百货-收银台,湖北省武汉市江汉区中山大道756号大洋百货F3,湖北省,武汉市,江汉区,,unknown,
baidu,3a7c444fa618d41278dbd226,江汉印象城B座-街电,湖北省武汉市江汉区中山大道756号江汉印象城F1,湖北省,武汉市,江汉区,4006868588,unknown,
baidu,2a2b20d3c7aa577bb5147fbe,大洋百货-收银台,湖北省武汉市江汉区中山大道756号大洋百货F3,湖北省,武汉市,江汉区,,unknown,
baidu,7db810d1d98e55308f55ecdd,大洋百货-收银台,湖北省武汉市江汉区中山大道756号大洋百货F1,湖北省,武汉市,江汉区,,unknown,
baidu,9566d255d70d5b95b7265560,大洋百货-收银台,湖北省武汉市江汉区中山大道756号大洋百货F4,湖北省,武汉市,江汉区,,unknown,
baidu,c75f7eda4f4059f4d13ce3fe,大洋百货-收银台,湖北省武汉市江汉区中山大道756号大洋百货F5,湖北省,武汉市,江汉区,,unknown,
baidu,3fcf03371d43890d16764369,大洋百货-收银台,湖北省武汉市江汉区中山大道756号大洋百货F5,湖北省,武汉市,江汉区,,unknown,
baidu,1fac658b7b91764f43afe60d,大洋百货-收银台,湖北省武汉市江汉区中山大道756号大洋百货F1,湖北省,武汉市,江汉区,,unknown,
baidu,106cb79c6ec53a1307026f66,大洋百货-收银台,湖北省武汉市江汉区中山大道756号大洋百货F3,湖北省,武汉市,江汉区,,unknown,
baidu,7c03e611cbccd9bb3a13fdc4,大洋百货-收银台,湖北省武汉市江汉区中山大道756号大洋百货F2,湖北省,武汉市,江汉区,,unknown,
baidu,087b7c3835e1297a46572630,大洋百货-收银台,湖北省武汉市江汉区中山大道756号大洋百货F4,湖北省,武汉市,江汉区,,unknown,
baidu,8d4b0248629f1c08e60738f2,大洋百货-云充吧,中山大道818号,湖北省,武汉市,江汉区,4008181666,unknown,
baidu,5777514af43c68b482a12e60,大洋百货-收银台,湖北省武汉市江汉区中山大道756号大洋百货F6,湖北省,武汉市,江汉区,,unknown,
baidu,6e35b659bccbdd041894c67e,大洋百货-收银台,湖北省武汉市江汉区中山大道756号大洋百货F5,湖北省,武汉市,江汉区,,unknown,
baidu,06600312a66239def4eafc4a,丝韵国际美容健康抗衰会所(世纪·江尚店),花楼街122号,湖北省,武汉市,江汉区,(027)82283889,unknown,
baidu,5dda352febdd4b9888b98832,星靓彩耳洞吧·手穿(江汉路店),江汉路印象城B座一楼B166号,湖北省,武汉市,江汉区,13257270827,unknown,
baidu,28c41d20c02dfd470c3dda12,soleil肌肤管理奢享中心(花楼街店),江汉路宝丽金中央荣御C1座12楼,湖北省,武汉市,江汉区,"13652443657,18627003415",unknown,
baidu,bbee8e4550ce70a16fa3ccb5,HI BABY嗨宝贝皮肤管理美容SPA中心(江汉路店),中央荣御C1座,湖北省,武汉市,江汉区,,unknown,
baidu,83c93a71b29a391ac2f1cf5b,东方神韵汗蒸推拿养生馆(江汉路店),江汉路宝利金中央荣御C1座901,湖北省,武汉市,江汉区,,unknown,
baidu,d347aebd98e1c692a0d230af,HI·BABY嗨宝贝高端美甲美睫(江汉路店),民生路宝利金国际广场7座2楼,湖北省,武汉市,江汉区,13871277020,unknown,
baidu,79302217cecfe6ceeb1e97c1,妍美国际皮肤管理中心(宝利金店),花楼街道江汉路宝利金国际广场A座16楼1621室,湖北省,武汉市,江汉区,,unknown,
baidu,8cfb9921715b359b7f29bd07,妞妞美容,花楼街万达影城C座5号门正对面（射箭馆一层，苹果手机店旁巷内）,湖北省,武汉市,江汉区,"(027)85379489,15377588877",unknown,
baidu,3afe6c00161b07d8102935ee,恋尚·轻妍美甲美睫(宝丽金国际公馆店),花楼街198号宝丽金国际公馆商铺3座1层19号,湖北省,武汉市,江汉区,18120572922,unknown,
baidu,2e8a2274fffd0987c6effb52,自然美科技美肤(江汉印象城C座店),交通路1号悦荟广场C座F1层,湖北省,武汉市,江汉区,18672287301,unknown,
baidu,4614c49a93ce3df2c9e33cb6,初见·nail美甲美睫化妆(江汉印象城店),民生路悦荟B座6号门109,湖北省,武汉市,江汉区,"13476297931,13971324292",unknown,
baidu,fcc4b7c822357f2642d63ea7,指尖姐姐美甲(江汉路步行街店),江汉路14号正信大厦7楼705室,湖北省,武汉市,江岸区,,unknown,
baidu,6eb8b33a530376210c3dda39,闰迪染发(江汉路大洋百货店),中山大道中山大洋百货负一楼（江汉路地铁站G出口）,湖北省,武汉市,江汉区,19972134391,unknown,
baidu,0aaaffcddb4ac0678605bfea,有间·美舍美甲美睫(江汉印象城B座店),民生路176号万达商业广场B栋一层97号,湖北省,武汉市,江汉区,18671538309,unknown,
baidu,9fd7df39568e1450ca09f01b,恋尚美甲美睫(悦荟万达店),湖北省武汉市江汉区民生路176号江汉印象城-B座F1,湖北省,武汉市,江汉区,15827294992,unknown,
baidu,0f8da384f7f5c41a9cf779fc,秀东尼造型Hair SaIon(江汉路店),江汉路宝利金商业街2期4座2层,湖北省,武汉市,江汉区,"(027)82961068,15802724235",unknown,
baidu,0ef8b69578de05f28d1a89f1,爱慕美甲(悦荟广场店),悦荟广场B座102号爱慕美甲（B5号门）,湖北省,武汉市,江汉区,13545101933,unknown,
baidu,15abe288fab5ff59f603b8f0,万阡国际专业祛斑·祛痣·祛疤连锁(沃尔玛店),民生路176号B栋沃尔玛旁（地铁2号线江汉路站旁）,湖北省,武汉市,江汉区,15827575087,unknown,
baidu,2381398718febb16afcb66c2,美嘉美(前进二路店),湖北省武汉市江汉区前进二路13号,湖北省,武汉市,江汉区,,unknown,
baidu,543915841009688b1f3894a6,心连心剪发造型,武汉市江汉区花楼街大龙社区,湖北省,武汉市,江汉区,13472628468,unknown,
baidu,26fe6ba4ce6614ea3686f4d0,流行港形象设计(坤元里店),湖北省武汉市江汉区洪益巷90号1楼,湖北省,武汉市,江汉区,,unknown,
baidu,32f5b4ede6d66d94d0ff2346,魅韩造型,花楼街102号,湖北省,武汉市,江汉区,,unknown,
baidu,fb1f1ded3874b491a8f729ce,益康瘦身馆,武汉市江汉区花楼街广益·天下-一期,湖北省,武汉市,江汉区,,unknown,
baidu,99987bc23da3f1c5c1f1cfc8,靓点发型工作室(花楼街店),花楼街洪益巷85号(江汉路地铁站G口步行470米),湖北省,武汉市,江汉区,13871353307,unknown,
baidu,ff8257bc42abab0f8715415e,发尊(大洋百货店),中山大道756号大洋百货B1层,湖北省,武汉市,江汉区,(027)82456929,unknown,
baidu,f44ac9414bb862dddfee8b84,YESIDO椰岛造型(大汉口店),中山大道539号大汉口城二楼-2,湖北省,武汉市,江汉区,(027)82786077,unknown,
baidu,1f89e4d50b9d579a7069d32b,狼族纹身遮盖·斑痣疣·各种钉(江汉路总店),中山大道王府井百货星巴克对面（江汉路地铁站E口往回走几步就到了）,湖北省,武汉市,江汉区,18062117128,unknown,
baidu,dd0c67c0f01a80c03904b1bb,BX·Nails博肖日式美甲美睫肌的管理,花楼街198号宝利金国际公馆商铺1座栋1层16室,湖北省,武汉市,江汉区,18717177377,unknown,
baidu,27d62edf400525c22fe67bf8,May Nail私人定制美甲美睫沙龙,花楼街宝利金国际国馆商铺1座2层46-47室（江汉路中央荣誉汉口银行二楼）,湖北省,武汉市,江汉区,"18627130957,18672782016",unknown,
baidu,8672a9a5f40c391f9cec2b1b,小红花·自助美甲美睫(江汉路店),江汉路步行街中心百货1316室,湖北省,武汉市,江汉区,13125105769,unknown,
baidu,3c96c27ba889635fc61e51fb,U+nail优加奈,延昌里东北门旁（江汉路地铁站D口步行310米）,湖北省,武汉市,江汉区,18672329252,unknown,
baidu,3ebe818edd3868f6ed74f88a,YESIDO椰岛造型(江汉路璇宫店),江汉一路璇宫饭店1.5楼,湖北省,武汉市,江汉区,,unknown,
baidu,4a9e7a393a0ad1c82811d164,柒柒美学美甲美睫(江汉路店),江汉路宝利金B2座背后商铺一层（大涛配镜与覃肥叔桂林米粉中间）,湖北省,武汉市,江汉区,18327242819,unknown,
baidu,b480574c584dde7e16c905bf,Y I美甲美睫,民生路193号,湖北省,武汉市,江汉区,,unknown,
baidu,c9b0b0f7d4936616ca1b95c9,雕琢时光(江汉印象城B座店),湖北省武汉市江汉区民生路176号江汉印象城-B座F1,湖北省,武汉市,江汉区,15207162689,unknown,
baidu,01dfa09c0c23c2830289722e,超仔纹身(悦荟广场店),江汉路万达广场c座1号门荟悦广场C09,湖北省,武汉市,江汉区,13986030533,unknown,
baidu,5548829199653e7426d2bbcd,YuKi美甲美睫,万达商业广场B栋4号门和5号门之间,湖北省,武汉市,江汉区,"13545212295,13997538630",unknown,
baidu,293b8d45ba9801b36c3e1be1,艾米烫染接发沙龙(江汉路店),花楼街中央荣御宝丽金国际广场1座1层9号房（中际眼镜旁、万达影城对面）,湖北省,武汉市,江汉区,13628636497,unknown,
baidu,29fdc44b1c797f46ed74f8b5,指手画脚,江汉路步行街万达广场B座B213室,湖北省,武汉市,江汉区,19571015002,unknown,
baidu,a7b71fbd41c59eeb7069d33d,唯美造型(宝利金中央荣御店),民生路宝利金国际广场B2栋1楼2-1-1号,湖北省,武汉市,江汉区,13437120643,unknown,
baidu,583e84549a8635b271455bc1,又一日式美甲美睫,花楼街198宝丽金国际广场二楼(星巴克旁二楼商铺),湖北省,武汉市,江汉区,13627252494,unknown,
baidu,29f2a8b3d153d065c4f02511,沐一·nail自助美甲美睫(江汉路店),中心百货14楼1403号（中百商厦停车场旁进来）,湖北省,武汉市,江汉区,"18627169086,18986108263",unknown,
baidu,6b0e32860835650ab5f42fa7,星野纪·橘子家美甲美睫(江汉路店),江汉路步行街中心百货12楼1203室,湖北省,武汉市,江汉区,18107273085,unknown,
baidu,9a50b14517f76983c61e51cd,柯琳造型(江汉路中心百货直营店),江汉路中百商厦1602室（中心百货旋转门入口处上电梯）,湖北省,武汉市,江汉区,17704035556,unknown,
baidu,429e9392187ba75d626858b4,U+hair salon(中心百货店),江汉路步行街中心百货写字楼21楼2108室,湖北省,武汉市,江汉区,13077971821,unknown,
baidu,9fb64a37dc79d047eb56fae8,淘囍美甲,中山大道宝丽金中央荣誉胖记烤肉正对面,湖北省,武汉市,江汉区,13971438461,unknown,
baidu,1187a311693c42ad0869d921,天之骄指美甲美睫,武汉市江汉区黄陂街武汉航运中心,湖北省,武汉市,江汉区,,unknown,
baidu,66db18c1078ace8a0f0e6b36,MIC羽毛接发连锁,花楼街198号宝丽金国际广场2层26室,湖北省,武汉市,江汉区,,unknown,
baidu,f18fc2456630709548cc4ae8,蝶彩美甲美睫,江汉路万达广场B座,湖北省,武汉市,江汉区,"15872431930,18040555975",unknown,
baidu,dde6785a88357e2030169bdb,己悦美睫(武汉工艺大楼店),悦荟广场,湖北省,武汉市,江汉区,15871748777,unknown,
baidu,e01e27e534299d6a95f08ce3,名发世家(金宝店),友谊路电信局对面二楼,湖北省,武汉市,江汉区,(027)85827699,unknown,
baidu,ffb2f8a8a2202ef8c4f50d77,昕薇彩妆美甲纹绣,悦荟广场B座F1层256号,湖北省,武汉市,江汉区,13871123558,unknown,
baidu,8d9a534baf2c246072455bb3,初识美甲美睫(悦荟广场B座店),民生路176号悦荟广场B座F1-B136室,湖北省,武汉市,江汉区,"15926281138,18086000586",unknown,
baidu,ed91366483fe04e93f9a5e73,万紫千红美甲(江汉路店),花楼街198号宝利金国际广场二期1座1层61号,湖北省,武汉市,江汉区,15972985369,unknown,
baidu,63d90199f55cbc0be5e965a0,琉璃美甲美睫化妆半永久皮肤管理(悦荟广场B座店),花楼街悦荟广场B座B244号(3号门旁)（沃尔玛一楼2号门3号门旁）,湖北省,武汉市,江汉区,13971326419,unknown,
baidu,e0624c63717861889fec2b0f,静绣纹艺(悦荟广场店),江汉路悦荟广场C座193号（万达电影院旁边）,湖北省,武汉市,江汉区,15071222160,unknown,
baidu,50b15238ce18de2a343a7173,奈欧(江汉印象城江汉路步行街店),湖北省武汉市江汉区中山大道756号江汉印象城F1,湖北省,武汉市,江汉区,,unknown,
baidu,97838a9506140a78e812e409,甲如有你(六渡桥店),三民路33路甲如有你（地铁六号线六渡桥站A和B出口往铜人像方向直行100米）,湖北省,武汉市,江汉区,13397194047,unknown,
baidu,541ab5f73b7557a5eb1e973f,春天美甲(悦荟广场店),民生路176号悦荟广场1层,湖北省,武汉市,江汉区,15994297497,unknown,
baidu,5e86cac676e5d3bfa01de9a2,顶尚晟域脱发白发养发头皮管理(江汉路中央荣御店),湖北省武汉市江汉区花楼社区中央荣御C座2单元一楼底商,湖北省,武汉市,江汉区,,unknown,
baidu,a6809c204dede376e011039d,MY·HAIR潮色接发造型(宝利金中央荣御店),湖北省武汉市江汉区花楼街街道花楼街222号,湖北省,武汉市,江汉区,"15871716768,18062778202",unknown,
baidu,c6712eed1c7680599b68b4b4,Up Hair沙龙,武汉市江汉区花楼街中央荣御,湖北省,武汉市,江汉区,,unknown,
baidu,e14d4275dea52ada6240a993,77专业接发(江汉路店),花楼街宝利金二期中央荣御汉口银行隔壁（万达影城对面）,湖北省,武汉市,江汉区,,unknown,
baidu,cceb06a1fb64466843afe62f,YESIDO椰岛造型(武广店),解放大道696号国际会展中心西侧玻璃金字塔内,湖北省,武汉市,江汉区,(027)85816388,unknown,
baidu,c4bc80a39ec30c5a4afd3ff8,萌米美甲(王府井百货店),湖北省武汉市江汉区中山大道818号佳丽广场b1层happy站台美食购物广场a151,湖北省,武汉市,江汉区,13628659980,unknown,
baidu,469ba7e4b99be04488f15d16,川·禾CHUANHE,宝丽金国际广场B2商铺3座1楼4号,湖北省,武汉市,江汉区,"15327333030,17771440221",unknown,
baidu,53cebd501e8328782a02e14d,江汉关大楼,湖北省武汉市江岸区花楼街道沿江大道129号,湖北省,武汉市,江岸区,(027)82880866,unknown,
baidu,2905d726f4a591dd8c55ec08,咸安坊,湖北省武汉市江岸区南京路与胜利街交界处,湖北省,武汉市,江岸区,(027)82200304,unknown,
baidu,a85450346728a67cd22dd6ed,孙中山先生之像,湖北省武汉市江汉区三民路路口,湖北省,武汉市,江汉区,,unknown,
baidu,b3aa435d614ca10b1576433e,汉口水塔,湖北省武汉市江汉区中山大道539号,湖北省,武汉市,江汉区,,unknown,
baidu,9335b5b2849e016551e5c56d,棲隐寺,武汉市江汉区勤劳一街39号,湖北省,武汉市,江汉区,15307168639,unknown,
baidu,f5299906e42a1a8d49fd3f28,天主教汉口(上海路天主堂),上海路16号,湖北省,武汉市,江岸区,,unknown,
baidu,eb0007f489e29f9b94ec8445,龙王庙,武汉市江汉区汉口大兴路78号,湖北省,武汉市,江汉区,,unknown,
baidu,280c6325e2c037a99c09f785,湖北省电力博物馆,武汉市江岸区合作路22号,湖北省,武汉市,江岸区,(027)86607123,unknown,
baidu,28e700f1cc21e601095cb3cb,巴公房子旧址,武汉市江岸区鄱阳街86号,湖北省,武汉市,江岸区,,unknown,
baidu,c7aeb5e7f08ae91980a00c09,古琴号(武汉港20号码头),武汉市江岸区沿江大道南京路1号小区东南侧约160米,湖北省,武汉市,江岸区,,unknown,
baidu,ca41964f22c0d9175fd4fe94,晴川阁景区,湖北省武汉市汉阳区洗马长街86号,湖北省,武汉市,汉阳区,(027)84710887,unknown,
baidu,6ac084a3d72a3bcdcac3db73,大陆坊旧址,武汉市江岸区中山大道930号附1号,湖北省,武汉市,江岸区,,unknown,
baidu,0d9418373e0c31933a13fdb5,健康路游园,湖北省武汉市武昌区临江大道99号,湖北省,武汉市,武昌区,,unknown,
baidu,ea4a3dc9a15b502e4e55473e,武汉国民政府旧址,武汉市江汉区汉口中山大道708号,湖北省,武汉市,江汉区,(027)85663790,unknown,
baidu,33bd942873f72aa940ab9a94,武汉江滩,武汉市江岸区江滩大道汉口江滩,湖北省,武汉市,江岸区,(027)82774567,unknown,
baidu,24aa7f49e71561ab246e988d,汉口历史文化风貌区,湖北省武汉市江岸区吉庆民俗街05-105号,湖北省,武汉市,江岸区,,unknown,
baidu,eab4f016602091125fd4fefa,大智无界空中小镇,大智路50号,湖北省,武汉市,江岸区,(027)82706661,unknown,
baidu,3ed95140611306cf95f08c40,南岸嘴江滩公园,湖北省武汉市汉阳区晴川大道南岸嘴沿江(晴川桥),湖北省,武汉市,汉阳区,,unknown,
baidu,5cb0bb361ffb1e06c4f025d3,江汉关博物馆,湖北省武汉市江汉区沿江大道129号,湖北省,武汉市,江汉区,(027)82880866,unknown,
baidu,5c6a7184348756d04d776e41,樱花径,武汉市江岸区蔡锷路和沿江大道交叉口对面汉口江滩内,湖北省,武汉市,江岸区,,unknown,
baidu,8b9bbb74591205d8d8ecedaf,龙王庙-龙王阁,武汉市江汉区沿江大道江滩2号,湖北省,武汉市,江汉区,,unknown,
baidu,1b923c1223b4aa1d471a325c,观江台,武汉市江岸区蔡锷路和沿江大道交叉口对面汉口江滩内,湖北省,武汉市,江岸区,,unknown,
baidu,cf7549f54e650f2cc42ba1ac,宋庆龄汉口旧居纪念馆,武汉市江岸区沿江大道162号,湖北省,武汉市,江岸区,(027)82296617,unknown,
baidu,10d62dc628a7393af7231031,吉庆街牌坊,中山大道677号(大智路口)吉庆街内,湖北省,武汉市,江岸区,,unknown,
baidu,070021f0bab624a06d20b925,登黄鹤楼,武汉市江岸区江汉路步行街钻石大厦-城市公馆,湖北省,武汉市,江岸区,,unknown,
baidu,ccf4ce0b213bd4af0f0e6b1b,武汉中共中央机关旧址纪念馆,湖北省武汉市江岸区胜利街163号,湖北省,武汉市,江岸区,(027)88185186,unknown,
baidu,40a19d63c2801f565cbe86ac,武汉科学技术馆,武汉市江岸区沿江大道91号,湖北省,武汉市,江岸区,(027)50755500,unknown,
baidu,aa0475ab667b25bfbadf8f81,吴佩孚公馆旧址,湖北省武汉市江岸区南京路124号,湖北省,武汉市,江岸区,,unknown,
baidu,7b7ea99c3b3eff2343ab9aee,日信洋行旧址,武汉市江岸区江汉路12号,湖北省,武汉市,江岸区,,unknown,
baidu,d94154e04d55e1a11c38944d,汉口民国日报社旧址,湖北省武汉市江汉区泰宁街2号,湖北省,武汉市,江汉区,,unknown,
baidu,16f7cad14c0d5fd4eb56fa6f,长江书店旧址,湖北省武汉市江汉区中山大道779~805号温州城F1,湖北省,武汉市,江汉区,,unknown,
baidu,b722b375c8541e8026d2bb6d,汉口美国领事馆旧址,武汉市江岸区车站路1号,湖北省,武汉市,江岸区,,unknown,
baidu,beabdbf44ae276997169d397,汉口平汉铁路局旧址,武汉市江岸区胜利街174号,湖北省,武汉市,江岸区,,unknown,
baidu,fa7da3e870d6036142d63ed4,平和打包厂旧址,湖北省武汉市江岸区一元街道青岛路10号,湖北省,武汉市,江岸区,,unknown,
baidu,3f9337d6c2c354cef723101a,汉口江苏会馆旧址,武汉市江汉区前进五路115号,湖北省,武汉市,江汉区,,unknown,
baidu,35debf2947499c45a6da3954,保安洋行旧址,武汉市江岸区青岛路8号,湖北省,武汉市,江岸区,,unknown,
baidu,2c0bd6c5a2a1baab42ab9ab0,长江观景第一台,武汉市武昌区积玉桥街办事处临江大道76号蓝湾世家一楼长江观景,湖北省,武汉市,武昌区,,unknown,
baidu,69fcd6df5a46b752ca291514,华商总会旧址,武汉市江岸区江汉二路157号,湖北省,武汉市,江岸区,,unknown,
baidu,93df0dc3c9f7842b882fb5cb,汉口电话局旧址,武汉市江岸区合作路51号,湖北省,武汉市,江岸区,,unknown,
baidu,dbdd7f858f60865a57bfffc0,八七会议会址纪念馆,湖北省武汉市江岸区一元街道鄱阳街139号,湖北省,武汉市,江岸区,(027)82835088,unknown,
baidu,5211d2193a5189597dc87657,黎黄陂路街头博物馆,武汉市江岸区沿江大道162号,湖北省,武汉市,江岸区,,unknown,
baidu,3e100270cabdfb111fe99900,武汉江滩人民乐园,武汉市江岸区江滩大道21号,湖北省,武汉市,江岸区,(027)82774567,unknown,
baidu,cde9e2c7bef1c2ade91e97e7,武汉市基督教荣光堂(黄石路),黄石路26号,湖北省,武汉市,江岸区,(027)82835484,unknown,
baidu,bd404e58c7d31be9d0ff23a1,永利银行旧址,武汉市江汉区江汉路20号,湖北省,武汉市,江汉区,,unknown,
baidu,37d60a461b8a821d1e1d111a,济生路电话分局旧址,武汉市江汉区友谊路90号,湖北省,武汉市,江汉区,,unknown,
baidu,313e6d362e879ebbb54f5453,汉口东正教堂,湖北省武汉市江岸区鄱阳街38号(近天津路口),湖北省,武汉市,江岸区,,unknown,
baidu,29e4599a506fa43b364aae7c,汉口俄商新泰大楼,武汉市江岸区沿江大道158号,湖北省,武汉市,江岸区,13229981681,unknown,
baidu,14076deec4d2caf402294fca,詹天佑故居博物馆,湖北省武汉市江岸区洞庭街65号,湖北省,武汉市,江岸区,(027)82844493,unknown,
baidu,8ab0dfc45f619016d8ecedc9,汉口横滨正金银行大楼旧址,武汉市江岸区一元街办事处南京路2号汉口,湖北省,武汉市,江岸区,,unknown,
baidu,b4d4d8c2f51a8882c51e5135,珞园,武汉市江岸区兰陵路与珞珈山街交叉路口往东北约70米,湖北省,武汉市,江岸区,,unknown,
baidu,9cf31b0030771eeb38221c6b,武汉卫戍司令部军法处旧址,武汉市江岸区铭新街8号,湖北省,武汉市,江岸区,,unknown,
baidu,07c53ce238f3dcaea1d2307e,汉口江滩-芦苇滩,武汉市江岸区汉口江滩三阳路闸口,湖北省,武汉市,江岸区,,unknown,
baidu,94a70763c4e5d18a03ff2d0e,禹稷行宫,洗马长街86号晴川阁内,湖北省,武汉市,汉阳区,027-84710887,unknown,
baidu,5e0c1c99992a00052fb96d4e,Love·freedom室内露营体验店,湖北省武汉市江汉区中央荣誉c1,湖北省,武汉市,江汉区,,unknown,
baidu,1f22c55e3f650e564151c027,"武汉""一·三""惨案遗址",武汉市江汉区沿江大道江滩17号,湖北省,武汉市,江汉区,,unknown,
baidu,7388dffd44cb77e8d3ff23cb,武汉美术馆(汉口馆),湖北省武汉市江岸区保华街2号,湖北省,武汉市,江岸区,(027)82602713,unknown,
baidu,34f68ab01513740a8f55ecc9,汉口日清洋行大楼旧址,武汉市江岸区沿江大道131号,湖北省,武汉市,江岸区,,unknown,
baidu,73a79f28091f7a173310af49,武胜宫,武汉市江汉区民族路万年社区,湖北省,武汉市,江汉区,,unknown,
baidu,a5097bfa1c267163f03cbacb,汉口西门子洋行旧址,武汉市江岸区中山大道1004号,湖北省,武汉市,江岸区,,unknown,
baidu,fa38a5d31975e2a48e77270b,汉口英商电灯公司旧址,武汉市江岸区鄱阳街56号,湖北省,武汉市,江岸区,,unknown,
baidu,160dfb8995f6006bf50e7745,车站路25号旧址,武汉市江岸区车站路25号,湖北省,武汉市,江岸区,,unknown,
baidu,a3f21eeed1917a472fb17ecb,汉口俄租界巡捕房旧址,武汉市江岸区洞庭街54号,湖北省,武汉市,江岸区,,unknown,
baidu,7f2194c5bd026939d3ff2333,秀美南岸嘴,武汉市汉阳区知音大道武汉晴川假日酒店东北400米,湖北省,武汉市,汉阳区,,unknown,
baidu,6deee3080e921d6a29fc48ca,英文楚报馆旧址,武汉市江岸区胜利街77号,湖北省,武汉市,江岸区,(027)66666186,unknown,
baidu,32bcbe719062dadb213bf24e,皇宫舞厅及弹子房旧址,武汉市江岸区洞庭街97号,湖北省,武汉市,江岸区,,unknown,
baidu,4f3653b9c68de613343a7199,李凡洛夫公馆旧址,武汉市江岸区一元街办事处洞庭街90号,湖北省,武汉市,江岸区,,unknown,
baidu,2b91a4739e97b0d81f389407,法国领事馆旧址,武汉市江岸区洞庭街81号,湖北省,武汉市,江岸区,,unknown,
baidu,e7d14e82a4b86460f21937d0,宝顺洋行旧址,武汉市江岸区天津路5号,湖北省,武汉市,江岸区,,unknown,
baidu,3d6e0b0955b554990f0e6bdf,时光博物馆,湖北省武汉市江汉区俊华大厦B座19楼1906号(江汉四路南),湖北省,武汉市,江汉区,,unknown,
baidu,3810c87935d60b8b9c09f7c9,汉口景明大楼旧址,湖北省武汉市江岸区一元街道鄱阳街43,湖北省,武汉市,江岸区,,unknown,
baidu,8699b55581b8bf10e60738e9,灸心亭,武汉市江汉区中山公园内,湖北省,武汉市,江汉区,(027)85607776,unknown,
baidu,4b48a65160ef1c4051e5c550,老沙逊洋行仓库,湖北省武汉市江岸区洞庭街43号,湖北省,武汉市,江岸区,,unknown,
baidu,6a95441e96abeab32b3a9f29,聚兴诚银行,武汉市江岸区江汉路116号,湖北省,武汉市,江岸区,,unknown,
baidu,9cd6ad221c028cb4eb1e979b,禹碑亭,洗马长街86号晴川阁景区内,湖北省,武汉市,汉阳区,,unknown,
baidu,556bb326b1a2cac4c9fa5fbe,中华龙文化博物馆,武汉市江汉区大兴一路9号,湖北省,武汉市,江汉区,,unknown,
baidu,cdef4edfd1e1794f28d7ab46,上海村旧址,武汉市江岸区江汉路60号,湖北省,武汉市,江岸区,,unknown,
baidu,90267178efae90099de32148,古晴川阁古牌坊,洗马长街86号晴川阁景区内,湖北省,武汉市,汉阳区,,unknown,
baidu,7731b45b40aec9abb45f1e85,汉口中共中央宣传部旧址暨瞿秋白旧居陈列馆,吉庆街130号,湖北省,武汉市,江岸区,,unknown,
baidu,f60cca78aac3fd41c4f50d4d,亲水台,武汉市江岸区蔡锷路和沿江大道交叉口对面汉口江滩内,湖北省,武汉市,江岸区,,unknown,
baidu,5ffb18165902885d6e4760a9,中央信托局汉口分局旧址,湖北省武汉市江岸区中山大道908号,湖北省,武汉市,江岸区,,unknown,
baidu,519708ec5d94a6c396f08c16,汉口中山公园近代园林建筑(张公亭),湖北省武汉市江汉区万松园路中山公园,湖北省,武汉市,江汉区,(027)85607776,unknown,
baidu,564f978c4504fa198bb98825,汉口中华全国总工会旧址,湖北省武汉市江岸区友益街16号,湖北省,武汉市,江岸区,,unknown,
baidu,7388dffd56db6995d3ff23d4,汉口麦加利银行大楼,湖北省武汉市江岸区洞庭街41号,湖北省,武汉市,江岸区,,unknown,
baidu,77a5481af50867cef33cbace,刘少奇同志旧居,湖北省武汉市江岸区汉口友益街尚德里4号,湖北省,武汉市,江岸区,,unknown,
baidu,c5ddcc089927a2bbd8131814,南京路113号旧址,武汉市江岸区南京路113号,湖北省,武汉市,江岸区,,unknown,
baidu,22e11407453401b4d5b74eca,中华基督教信义大楼旧址,武汉市江岸区一元街办事处洞庭街77号,湖北省,武汉市,江岸区,,unknown,
baidu,a5b024eb23d2cc7db5147f37,圣约瑟女子中学旧址,湖北省武汉市江汉区自治街242号,湖北省,武汉市,江汉区,,unknown,
baidu,4b71a64d34e77cfcf03cba32,江汉区民权街科技馆,武汉市江汉区花楼街大龙社区,湖北省,武汉市,江汉区,,unknown,
baidu,75d0881a253de24d3a04b1cb,邦可花园旧址,武汉市江岸区洞庭街78号,湖北省,武汉市,江岸区,,unknown,
baidu,d82d66977a0a6aa6d518b7cb,俄租界工部局旧址,武汉市江岸区黎黄陂路36号,湖北省,武汉市,江岸区,,unknown,
baidu,95d4a9d53929b915ed74f80f,爱情墙,武汉市江岸区蔡锷路和沿江大道交叉口对面汉口江滩内,湖北省,武汉市,江岸区,,unknown,
baidu,5beba7ae58e0d800ca291563,湖北共进会旧址,武汉市江岸区胜利街123号,湖北省,武汉市,江岸区,,unknown,
baidu,56e1a9625d098f8908f5eb86,龙王庙法治文化园,湖北省武汉市江汉区万商白马南(靠近集家嘴码头),湖北省,武汉市,江汉区,,unknown,
baidu,fe0d5efa0728f28d8f1a892e,汉口领导人住地旧址,湖北省武汉市江岸区胜利街22号,湖北省,武汉市,江岸区,,unknown,
baidu,06a557522686435f077ce819,叶蓬公馆旧址,武汉市江岸区青岛路15号,湖北省,武汉市,江岸区,,unknown,
baidu,a177f3b7b0728576902ca3e8,顺丰茶栈,武汉市江岸区兰陵路8号,湖北省,武汉市,江岸区,,unknown,
baidu,bb0460989c2314c582288af0,天主堂,武汉市江岸区车站路25号,湖北省,武汉市,江岸区,,unknown,
baidu,502faf12ebf7896df6c59c76,华俄道胜银行旧址,武汉市江岸区沿江大道162号,湖北省,武汉市,江岸区,(027)82296617,unknown,
baidu,da727b81009200a351e5c59c,美国海军青年会旧址,湖北省武汉市江岸区一元街道黎黄陂路10号,湖北省,武汉市,江岸区,,unknown,
baidu,1c7a28c7b8dcfdea9cf779aa,武汉大唐陶瓷博物馆,武汉市江汉区江汉路181号俊华大厦B座31楼,湖北省,武汉市,江汉区,(027)82753852,unknown,
baidu,e93761f606a4f60d223bf252,唐生智公馆旧址,武汉市江岸区胜利街163-165号,湖北省,武汉市,江岸区,,unknown,
baidu,3e62cd7561578707f5b91655,黄兴先生之像,龟山北路88号龟山公园,湖北省,武汉市,汉阳区,(027)84713530,unknown,
baidu,befdb292ae70a1e1871541ca,顺丰洋行旧址,武汉市江岸区黎黄陂路1号,湖北省,武汉市,江岸区,,unknown,
baidu,a92f4a654f3942b5223bf2dd,万民拥戴雕塑,武汉市汉阳区滨江大道江滩19号汉阳江滩大禹神话园,湖北省,武汉市,汉阳区,,unknown,
baidu,7a9eaff46ab542efabf0cd45,水府碑,湖北省武汉市江汉区民族街道沿江大道12号,湖北省,武汉市,江汉区,,unknown,
baidu,f60a15eded8a5eecbb17e75c,辛亥首义烈士陵园(利济北路),武汉市硚口区利济北路69号1门,湖北省,武汉市,硚口区,,unknown,
baidu,05995364e0f0e2e59868b441,环球艺术家美术馆,湖北省武汉市江岸区胜利街205号,湖北省,武汉市,江岸区,,unknown,
baidu,9db30f37e362f304c1f1cfa6,和平纪念碑,湖北省武汉市江岸区沿江大道汉口江滩,湖北省,武汉市,江岸区,,unknown,
baidu,4fa8b7884ab89ff23110afe2,先锋社区主题科技馆,武汉市江岸区江汉一路96号先锋社区党群服务中心二楼,湖北省,武汉市,江岸区,,unknown,
baidu,8c1cdfd524aec5ed4f6d461b,计谋殿,湖北省武汉市汉阳区龟山北路武汉晴川假日酒店西南侧约250米,湖北省,武汉市,汉阳区,,unknown,
baidu,22702fc382d70dbf17948e6d,中共中央长江局旧址,湖北省武汉市江岸区珞珈山街12号,湖北省,武汉市,江岸区,,unknown,
baidu,ff10ced652b7eaa4fd0eb022,赑屃碑,洗马长街86号晴川阁内,湖北省,武汉市,汉阳区,,unknown,
baidu,ad73fd86dbfdbc5e5b1093d8,清真寺,湖北省武汉市江汉区民权路146号,湖北省,武汉市,江汉区,,unknown,
baidu,ca945870f999b3d94f6d460a,南洋大楼,湖北省武汉市江汉区中山大道708号,湖北省,武汉市,江汉区,(027)85663790,unknown,
baidu,d24e48ebe52c30adafee7a47,台湾银行汉口分行旧址,湖北省武汉市江汉区江汉路21号,湖北省,武汉市,江汉区,,unknown,
baidu,08fc93df1f193a919b68b4cb,东方汇理银行,武汉市江岸区沿江大道171号,湖北省,武汉市,江岸区,,unknown,
baidu,b1c556e8bc85a80cb52655a1,民意社区,中山大道293号,湖北省,武汉市,硚口区,,unknown,
baidu,a93f31d61bb8bca30f0e6be0,铁铺棋牌,武汉市江汉区花楼街大龙社区,湖北省,武汉市,江汉区,,unknown,
baidu,0565356c5eae3fdaa0acc4cd,迅通网盟·宇奇店(江汉路店),民生路205号4楼,湖北省,武汉市,江汉区,"15342258080,15342349811",unknown,
baidu,4cab02fe10e24babfb0cad8a,萤秀KTV(江汉路店),民生路176号江汉印象城B座北门第三层MB-13-07号（沃尔玛3F）,湖北省,武汉市,江汉区,,unknown,
baidu,9f72741397d84cb9bd48422e,魅KTV(大汉口城店),中山大道大汉口美食城3楼（新佳丽广场对面）,湖北省,武汉市,江汉区,13308647878,unknown,
baidu,32ce066992665ee7eddfca14,唱吧麦颂KTV(江汉路新佳丽广场店),"花楼街街道江汉路新佳丽广场7楼(横店影视城旁,地铁2、6号线H出口)",湖北省,武汉市,江汉区,,unknown,
baidu,0290fcf38a4acf0230169b37,听风沉浸式推理馆(诡计联合店),世纪江尚A-08,湖北省,武汉市,江汉区,18971119150,unknown,
baidu,1d5e416e2e1ba89d26e0a0e8,雾鸦馆·怪诞小镇密室(江汉路一店),花楼街道黄陂街30号,湖北省,武汉市,江汉区,"13339996375,15272851511",unknown,
baidu,18855cd135592e3142e19286,星聚会KTV(武汉新江汉城店),湖北省武汉市江岸区江汉路步行街新江汉城3层,湖北省,武汉市,江汉区,(027)82961788,unknown,
baidu,9e548ea229630f71f72310bd,天天棋牌台球,花楼街宝利金中央荣御B1座与B2座中间2楼（喜上眉梢隔壁）,湖北省,武汉市,江汉区,13638632200,unknown,
baidu,55eb6d5f7ca8f53d6b49f385,七彩螺儿童游乐城堡(大洋百货店),花楼街街道中山大道756号大洋百货6层(地铁2号线江汉路站),湖北省,武汉市,江汉区,,unknown,
baidu,3ee3769c31073120213bf29d,由马探案剧本杀(江汉路店),鄱阳路世纪江尚173附6B05（外滩1861招商中心隔壁）,湖北省,武汉市,江汉区,"17771847759,18702721845",unknown,
baidu,2410d357dc9060dad7851ff1,雾鸦馆沉浸式密室(世纪江尚店),世纪江尚第910栋商31,湖北省,武汉市,江汉区,13317166929,unknown,
baidu,4feb57f0048f5a52bbbd6303,Helens海伦司小酒馆(大汉口城店),中山大道大汉口城二楼豪客来隔壁,湖北省,武汉市,江汉区,(027)59268350,unknown,
baidu,e9a2da6c11bb4a69b1077d89,枫栖半山·24h自助棋牌·茶社,花楼街198宝利金国际广场中央荣御7座F4层,湖北省,武汉市,江汉区,,unknown,
baidu,8b3de671abf649eab7265565,宝利金跳舞俱乐部,花楼街198号宝利金国际广场1层108室,湖北省,武汉市,江汉区,15623277133,unknown,
baidu,e94f4244fa94bb8f43ab9a39,臻品足道(No·6南京路店),南京路180号（如家快捷酒店旁）,湖北省,武汉市,江岸区,(027)88211112,unknown,
baidu,18fe9124b8cd079bd81318c2,奈尔宝家庭中心(武汉国金店),新华路国金天地2层,湖北省,武汉市,江汉区,4008169988,unknown,
baidu,3030138aaf4db08d130daaed,波希米亚推理社·沉浸式剧本杀(江汉路店),花楼街宝利金国际公馆7座2层1室,湖北省,武汉市,江汉区,17307113915,unknown,
baidu,d9fe8607149e99a30aa8d4c7,方方足疗,湖北省武汉市江汉区花楼街与民权路交叉口东北约180米,湖北省,武汉市,江汉区,,unknown,
baidu,b0963609d513d73008ccddb3,甜甜足疗,湖北省武汉市江汉区港边巷78号76号楼,湖北省,武汉市,江汉区,,unknown,
baidu,31b87dee05a070772b11d17f,乐茶卡五星,宝丽金国际广场（麗枫酒店大堂进入）,湖北省,武汉市,江汉区,15377049729,unknown,
baidu,2afce864a58719fa15a1903b,失眠企鹅精酿酒馆(江汉路店),江汉路花楼街200号花楼美食汇1楼11号商铺（皇冠幸福里对面）,湖北省,武汉市,江汉区,,unknown,
baidu,88a2009a352bde254251c024,河马家·换装半实景沉浸剧本杀,花楼街198号宝丽金国际公馆商铺4座2层65室（江汉路步行街旁）,湖北省,武汉市,江汉区,15927067603,unknown,
baidu,180e8a292bf9aca6c356ac47,聆听采耳·禅洗头疗馆(江汉路店),"中山大道491号1楼（大洋百货正对面,近中国珠宝,近江汉路地铁G出口）",湖北省,武汉市,江汉区,17720513358,unknown,
baidu,6707b2a2db08102e3913fdcf,亦境·采耳禅洗头疗馆(江汉路店),中山大道483号1楼门店（大洋百货对面、蜜雪冰城隔壁）,湖北省,武汉市,江汉区,18612884662,unknown,
baidu,fa2b4627564022574f6d46e7,玺耳古法采耳(江汉路步行街店),花楼街198号宝利金二期中央荣御B1座1层5室（中际眼镜旁）,湖北省,武汉市,江汉区,,unknown,
baidu,205c33ba6b65f1680bf5eb20,極·恐怖真人密室逃脱(宝利金国际广场店),民生路宝利金国际广场3楼（欢乐空间楼下）,湖北省,武汉市,江汉区,,unknown,
baidu,a183e1058f8146180bf5eb9a,康乐网咖(黄陂街店),"黄陂街85号1楼,2楼201号",湖北省,武汉市,江汉区,15072959481,unknown,
baidu,f24ade2f50727304e8e5821c,广林网咖(黄陂街店),六9精品旅馆东南门旁,湖北省,武汉市,江汉区,15327214947,unknown,
baidu,672521df31dfccb53010af75,广益金鼎棋牌,湖北省武汉市江汉区统一街武汉一初学区五十一中分校东侧约90米,湖北省,武汉市,江汉区,,unknown,
baidu,1ca8e3dbc803d042f90cad1b,震鸿足浴,湖北省武汉市江汉区前进四路44号,湖北省,武汉市,江汉区,,unknown,
baidu,44660a104cb548e1c5effb34,今天棋牌茶楼(世纪江尚店),黄陂街173附8号B-03号（近世纪江尚）,湖北省,武汉市,江汉区,18064011229,unknown,
baidu,b7f50a37e3e62ff4ae31e53a,乐摩吧(新佳丽时尚广场店),湖北省武汉市江汉区中山大道818号新佳丽时尚广场F3,湖北省,武汉市,江汉区,,unknown,
baidu,20e82b003b63c1162806cee1,按摩椅(新佳丽时尚广场店),湖北省武汉市江汉区中山大道818号新佳丽时尚广场F5,湖北省,武汉市,江汉区,,unknown,
baidu,220badf7423593dd9c09f795,四喜棋牌,湖北省武汉市江汉区统一街222号,湖北省,武汉市,江汉区,,unknown,
baidu,1453c8b8c9f51a8ca2046416,御江宴KTV会所,大兴路龙王庙商贸广场B栋3区4层3-1室-2,湖北省,武汉市,江汉区,,unknown,
baidu,a0376d1cffe7d37aa5da39da,大汉口电影院(大汉口城店),水塔街中山大道539号大汉口城4楼,湖北省,武汉市,江汉区,(027)82296151,unknown,
baidu,c36d3415ed0008a8b6147fea,度世界·武漢音樂現場,解放大道南国中心二期商业B-F05-001,湖北省,武汉市,江汉区,,unknown,
baidu,4a4a84bdce8aa612223bf2b5,横店电影城(新佳丽店),"中山大道818号新佳丽广场7楼,近地铁6号线J出口,Happy站台7楼",湖北省,武汉市,江汉区,(027)82335881,unknown,
baidu,0707a2e77efd3cb60782c24e,金宝丽茶艺棋牌,宝丽金国际广场(丽风酒店3楼),湖北省,武汉市,江汉区,15243811288,unknown,
baidu,340046700b6121252cb17ecb,璇宫国际影城(江汉路店),水塔街街道江汉一路45号璇宫饭店5楼（中心百货旁）,湖北省,武汉市,江汉区,18120236100,unknown,
baidu,df2075e18d2299b8f7eafc1b,GAME-BOT深度体验密室(宝利金店),民生路花楼街198号宝丽金国际广场3楼（欢乐空间楼下）,湖北省,武汉市,江汉区,,unknown,
baidu,a527cdabe137e5a98adb735b,中百国际影城(江汉路中心百货店),水塔街道江汉路步行街129号中心百货7楼,湖北省,武汉市,江汉区,(027)82288288,unknown,
baidu,1960e4b413516b90ab059d4a,广林轩,黄陂街43号(近陈记炸酱面),湖北省,武汉市,江汉区,,unknown,
baidu,998ec3e8fac36727f219376d,惊池原创剧情密室(民生路店),江汉区黄陂街30号,湖北省,武汉市,江汉区,,unknown,
baidu,cb03e3f590721b2b8f1a8903,棋牌室,湖北省武汉市江汉区黄皮街2号,湖北省,武汉市,江汉区,,unknown,
baidu,96c94bcab4e5787397031937,三民棋牌,湖北省武汉市江汉区满春街道三民路23号,湖北省,武汉市,江汉区,18064068159,unknown,
baidu,f012a0ef334b17cc8bdb7315,大董社区-文体活动中心,武汉市江汉区大董家巷大董社区,湖北省,武汉市,江汉区,,unknown,
baidu,90612e8b3c66799dabf0cdac,温馨私享私人影院,湖北省武汉市江汉区花楼街道民生路98号,湖北省,武汉市,江汉区,,unknown,
baidu,ee8a7c54af184f1cd618b764,武汉恒新康乐网吧有限责任公司,武汉市江汉区黄陂街85号,湖北省,武汉市,江汉区,,unknown,
baidu,c27357fad3a76695740269a4,辰色酒馆(江汉路店),民生路176号印象城B座3F（3号门）,湖北省,武汉市,江汉区,19129628550,unknown,
baidu,0d5316f2d4d8d564ca2915b3,大冰的小屋(汉口店),江汉路61号上海三联2楼（近中山大道）,湖北省,武汉市,江汉区,"15827056920,18383917674",unknown,
baidu,01c5c9f1ca40eb35c7f50dc1,城市优选酒店(江汉路地铁站店),湖北省武汉市江汉区统一街307号,湖北省,武汉市,江汉区,(027)85555532,unknown,
baidu,4e284bc3f4cd142fc91b95be,武汉帝盛酒店(江汉路步行街店),湖北省武汉市江岸区江汉路118号港澳中心,湖北省,武汉市,江岸区,(027)68822666,unknown,
baidu,9439b9722c5efda1077ce8ba,城市便捷酒店(武汉江汉路佳丽广场店),前进五路4号,湖北省,武汉市,江汉区,(027)82280588,unknown,
baidu,1bb6900106ec0e8729fc4805,幸福宾馆(武汉统一街店),湖北省武汉市江汉区统一街258号,湖北省,武汉市,江汉区,"18717131034,18986030042",unknown,
baidu,c326ce6fc4cc4e3eab059d59,丽都宾馆(江汉路步行街店),统一街永广里3-10号,湖北省,武汉市,江汉区,13125154620,unknown,
baidu,868d2fbdd7c2ab11a8f0cdc3,麗枫酒店(江汉路万达广场店),湖北省武汉市江汉区花楼街220号,湖北省,武汉市,江汉区,"(027)85666066,17771473051",unknown,
baidu,004b939649d933a14e2fdfe1,武汉泰华商务宾馆(江汉路步行街店),湖北省武汉市江汉区统一街249号,湖北省,武汉市,江汉区,(027)85679308,unknown,
baidu,dda31656c2a738b0932ca3c8,星眠star美宿,武汉市花楼街198号宝利金国际广场A栋2225号,湖北省,武汉市,江汉区,18154464686,unknown,
baidu,cf6e16f27a4064173586f4b3,艺术家民宿,武汉市花楼街198号宝丽金国际广场1楼179室,湖北省,武汉市,江汉区,13554055065,unknown,
baidu,c53ec1a3daba21aac72ba10f,如家酒店·neo(武汉汉口江滩店),沿江大道141号,湖北省,武汉市,江岸区,(027)82333288,unknown,
baidu,567389f35811672c593ac86a,麗枫酒店(武汉江汉路吉庆街店),铭新街9号德润大厦1楼,湖北省,武汉市,江岸区,(027)82879588,unknown,
baidu,4420764609d23572dfee8b81,如家neo(武汉江汉路步行街店),湖北省武汉市江岸区南京路180号,湖北省,武汉市,江岸区,(027)82887766,unknown,
baidu,e53c70e00baee2df15a190b9,宜庭酒店(江汉路步行街协和医院店),前进一路110号A栋,湖北省,武汉市,江汉区,(027)85558678,unknown,
baidu,ed0ca7c646f2da4f03ec01f2,桔派S酒店(武汉江汉路步行街江滩店),水塔街道江汉三路56号,湖北省,武汉市,江汉区,"(027)86666675,15327458512",unknown,
baidu,251374c9597dc726a11de976,武汉美联假日酒店(江汉路武汉国际广场店),湖北省武汉市江汉区解放大道868号,湖北省,武汉市,江汉区,(027)85867888,unknown,
baidu,bd11be08fe35016dc6f025fc,武汉汇豪大酒店(江汉路步行街店),江汉路250号,湖北省,武汉市,江岸区,15102725589,unknown,
baidu,216ddf3e02f24d9b0f0e6b68,水云岚酒店(武汉江汉路步行街店),湖北省武汉市江汉区江汉二路2号银海商务大厦A栋1-16层,湖北省,武汉市,江汉区,(027)59335777,unknown,
baidu,8f5a13e32edecd0d1329351a,武汉江滩好百年美仑国际酒店,湖北省武汉市江岸区沿江大道131号,湖北省,武汉市,江岸区,027-82777798,unknown,
baidu,f5df5e10718acac84afd3f24,莫里安酒店(武汉江汉路地铁站店),江汉二路135号金宝大厦15楼,湖北省,武汉市,江岸区,18571891200,unknown,
baidu,3d1f2c086bcb0dbbf942b232,你好酒店(武汉汉口江滩店),黎黄陂路2号,湖北省,武汉市,江岸区,(027)88735588,unknown,
baidu,0e9fa9674a9c0fd9d81318cc,星程酒店(武汉江汉路吉庆街店),大智路28号,湖北省,武汉市,江岸区,(027)82787188,unknown,
baidu,946e2c694990f3f577026952,Lim公寓(民生路二号店),湖北省武汉市江汉区花楼街道民生路98号,湖北省,武汉市,江汉区,18071105807,unknown,
baidu,ad846ac1c92d9c835abbbcf4,武汉鑫鑫青旅,花楼街198号宝利金中央荣御B2栋504室,湖北省,武汉市,江汉区,15377028236,unknown,
baidu,517957cf7c627b06a5da39b0,武汉梧桐影院民宿,武汉江汉区宝利金国际广场B座,湖北省,武汉市,江汉区,,unknown,
baidu,994eda93790697c6725e8095,武汉PaPa公寓4(花楼街分店),武汉市江汉区民生路宝利金国际广场,湖北省,武汉市,江汉区,,unknown,
baidu,b7220a7045ffad63f6c59c52,武汉糯米公寓,武汉市江汉区宝利金国际广场-B座,湖北省,武汉市,江汉区,,unknown,
baidu,83ec040b506fcfc84f6d46a0,北京公寓a(统一街2号分店),湖北省武汉市江汉区花楼街办事处统一街270号,湖北省,武汉市,江汉区,,unknown,
baidu,c5a5ed2cc69a094d601c676f,武汉休闲小屋民宿(5号店),武汉江汉区宝利金国际广场-B座,湖北省,武汉市,江汉区,15527075742,unknown,
baidu,24c4b4c6c7e88a9951e5c5e0,武汉程平华公寓,武汉江汉区中共武汉市江汉区民权街打铜社区委员会(统一街272号),湖北省,武汉市,江汉区,,unknown,
baidu,d3376bcc52d0da55d2f49e33,武汉不二之家民宿,湖北省武汉市江汉区民生路花楼街198号宝利金国际广场,湖北省,武汉市,江汉区,,unknown,
baidu,7d81636790b9de09cac3dbbc,武汉煜居民宿,湖北省武汉市江汉区民生路128号,湖北省,武汉市,江汉区,,unknown,
baidu,40ba99ed9178ad4ee215f947,栖民宿(民生路分店),湖北省武汉市江汉区民生路宝利金国际广场(江汉路地铁站出入口步行330米),湖北省,武汉市,江汉区,,unknown,
baidu,4c0c8b0d4ff406a24e55471b,武汉宜家简约小屋民宿,湖北省武汉市江汉区民生路花楼街198号宝利金国际广场,湖北省,武汉市,江汉区,,unknown,
baidu,0e54d7693d50b9d47e29bd5b,武汉雪梨子特色民宿,武汉市江汉区民生路宝利金国际广场,湖北省,武汉市,江汉区,,unknown,
baidu,edc352762517fe3b8605bf2d,武汉美拉儿公寓(NO.3店),湖北省武汉市江汉区民生路宝利金国际广场,湖北省,武汉市,江汉区,,unknown,
baidu,843ca296ba5bb41dc2f1cff0,武汉设计师铭铭公寓(2号店),宝利金国际广场(江汉路地铁站),湖北省,武汉市,江汉区,,unknown,
baidu,7f342c13f4727e1a15c9059f,洪民权住宿,湖北省武汉市江汉区花楼街100号,湖北省,武汉市,江汉区,18717115186,unknown,
baidu,6d484e77565672cf33169b0d,武汉悠度民宿(2号店),湖北省武汉市江汉区民生路98号,湖北省,武汉市,江汉区,,unknown,
baidu,15b9d942287fa7596cc02c32,武汉海兰若涵民宿(民生路花楼街店),湖北省武汉市江汉区民生路花楼街198号宝利金国际广场B座,湖北省,武汉市,江汉区,,unknown,
baidu,23d875d282eab4732fb17ec2,乐雅武汉,武汉市宝丽金国际广场A座2419,湖北省,武汉市,江汉区,18062677304,unknown,
baidu,d32cfa2a914757f83062121b,武汉小亭子爱做梦公寓(2号店),广益·天下北区一期B栋(B栋),湖北省,武汉市,江汉区,,unknown,
baidu,e1923404b18009c6cb213d7b,武汉悠然见南山公寓(2号店),宝利金国际广场B座(江汉路地铁口150米),湖北省,武汉市,江汉区,,unknown,
baidu,9a465b215e3642165fd4fe30,武汉佩佩小熊公寓,湖北省武汉江汉区宝利金国际广场B座,湖北省,武汉市,江汉区,18665700601,unknown,
baidu,b25880519d144ef1246e983f,诗岚美宿(江汉路步行街店),武汉市花楼街198号宝利金国际广场1期1层179室(宝利金房产内),湖北省,武汉市,江汉区,13407160208,unknown,
baidu,615237850c15639802294ff2,老王家的哦民宿(民生路分店),湖北省武汉市江汉区花楼街街道民生路98号,湖北省,武汉市,江汉区,,unknown,
baidu,50ad857355865c1909b93aed,武汉Meng稀公寓,武汉市江汉区民生路花楼街198号宝利金国际广场-B座(花楼街宝丽金),湖北省,武汉市,江汉区,,unknown,
baidu,ee868bcac51ac2f449fd3fba,武汉幸福·小筑,宝利金国际广场B座,湖北省,武汉市,江汉区,,unknown,
baidu,9dabe50c8886217da0acc42e,武汉江汉路之家公寓(7号店),湖北省武汉市江汉区花楼街198号（花楼街198号）,湖北省,武汉市,江汉区,,unknown,
baidu,7b350dfe5731f969167643a0,武汉汪雄公寓,武汉江汉区花楼街198号宝利金国际广场B座,湖北省,武汉市,江汉区,,unknown,
baidu,e8e8bd52cbb9c5dbf11937c2,武汉梦栖lee公寓,武汉市江汉区民生路宝利金国际广场A1420,湖北省,武汉市,江汉区,18186245557,unknown,
baidu,9569c8dd8e60ee2a8c55ec10,武汉静觀草堂公寓(花楼街分店),武汉江汉区宝利金国际广场B座,湖北省,武汉市,江汉区,,unknown,
baidu,e90cfd66f8903b8917c8f6d3,武汉郭衍宏公寓,湖北省武汉市江汉区宝利金国际广场,湖北省,武汉市,江汉区,15997106675,unknown,
baidu,9dfad5244da5420b14c8f632,小庆公寓(文书巷分店),湖北省武汉市江汉区文书巷9号,湖北省,武汉市,江汉区,,unknown,
baidu,adc63260e6c7aa2d0482c232,武汉Aden东哥公寓(2号店),宝利金国际广场B座,湖北省,武汉市,江汉区,,unknown,
baidu,b8a71ee0878142e8ebe582d8,武汉大武汉黑姑娘公寓,湖北省武汉市江汉区民生路98号,湖北省,武汉市,江汉区,,unknown,
baidu,e02e93166791f61d0a5cb3e1,武汉清原舍公寓(4号店),湖北省武汉市江汉区民生路98号,湖北省,武汉市,江汉区,,unknown,
baidu,0c4cedfa689e17cff7eafc95,武汉江尚雅居酒店式公寓(前进五路分店),湖北省武汉市江汉区民生路98号,湖北省,武汉市,江汉区,,unknown,
baidu,3bb301047a92edb0970319f8,武汉小屁糖公寓(5号店),湖北省武汉市江汉区民生路128号,湖北省,武汉市,江汉区,,unknown,
baidu,50929e174784a77216a19034,武汉初见木槿公寓,江汉区民生路宝利金国际广场(江汉路地铁站出入口步行320米),湖北省,武汉市,江汉区,,unknown,
baidu,6cdb1bcf73f8df575d0d022b,武汉徐高兴公寓(4号店),宝利金国际广场,湖北省,武汉市,江汉区,,unknown,
baidu,465ffc50ce54a727ad31e54e,武汉sakura公寓(2号店),湖北省武汉市江汉区花楼街街道民生路98号,湖北省,武汉市,江汉区,,unknown,
baidu,a2d5f0ad172dc1acf7eafcc5,武汉顺畅速达汽车救援服务有限公司,江汉区中山大道清芬一路10号,湖北省,武汉市,江汉区,15377664561,unknown,
baidu,a6b13d8fe745492bc7f50d2e,途虎养车工场店(武汉黄兴路店),黄兴路3-11号,湖北省,武汉市,江岸区,15171459571,unknown,
baidu,3e2b729421430c28f2193709,德国马牌轮胎(铭新小区店),江岸区铭新小区3号楼一层门面,湖北省,武汉市,江岸区,18086001123,unknown,
baidu,467197e90e1cd09bc51b75a3,途虎养车工场店(武汉江汉北路店),江汉北路109号民航大酒店旁边,湖北省,武汉市,江汉区,18071538294,unknown,
baidu,e827cf5d1875fca8246e98ed,佳能特约认定快修中心,江汉路26号正信大厦603,湖北省,武汉市,江岸区,"(027)82819861,(027)82819862",unknown,
baidu,8d77c958af5b53ec2d47330a,世纪江尚销售中心,湖北省武汉市江汉区花楼街198号,湖北省,武汉市,江汉区,,unknown,
baidu,c5d6c652a46bd418d23ce36d,庆鑫汽修,湖北省武汉市江汉区三民路11-1号,湖北省,武汉市,江汉区,,unknown,
baidu,79f43927ec21f4762b3a9fc0,汽车补胎洗车,民意三路与民主街交叉口北40米,湖北省,武汉市,江汉区,13487090466,unknown,
baidu,2532ea57050b33860c0a70ca,泡沫洗车,湖北省武汉市江汉区前进二路楚宝公寓,湖北省,武汉市,江汉区,,unknown,
baidu,4f18b3b0aef521d75e0d02e5,洗车补胎,清芬一路10号(六渡桥地铁站A口步行380米),湖北省,武汉市,江汉区,13871552863,unknown,
baidu,48cf4fc154caef9ad5b74ef6,驰耐普汽车生活馆(铭新街店),铭新街200附1号（近吉庆街）,湖北省,武汉市,江岸区,18627882572,unknown,
baidu,79dceee8afd49928b320a8e4,云尚汽车美容洗车养护中心,武汉市硚口区云尚国际时尚中心地下停车场负2层B区B220-B226,湖北省,武汉市,硚口区,15007134596,unknown,
baidu,466b729282ae72a522f01755,鑫前沿汽车维修服务,湖北省武汉市武昌区积玉桥街道临江大道,湖北省,武汉市,武昌区,"13260688055,13886544060",unknown,
baidu,c9d7858e15b164cb86420e10,武汉大雍冉欣汽车销售服务有限公司(江汉分公司),猛士(武汉汉口体验店),湖北省,武汉市,江汉区,13871019104,unknown,
baidu,1e699dea0ab83e743586f40a,车镇养车,湖北省武汉市江汉区江汉路中央荣御宝丽金负二楼,湖北省,武汉市,江汉区,,unknown,
baidu,dbf4d6ee2dc06f2a6fa3ccfc,斯马特汽车美容中心,黄石路安静小区2号附2号,湖北省,武汉市,江岸区,13125124255,unknown,
baidu,d1f6d1f8e2a0e661bea2401e,汽车补胎换电瓶搭电换胎,友谊社区居委会东门旁(友谊路地铁站A口步行450米),湖北省,武汉市,江汉区,,unknown,
baidu,e820d2020186a1a611882421,车世界(京汉大道店),湖北省武汉市江汉区解放大道696号汉商武展购物中心F1,湖北省,武汉市,江汉区,13986159910,unknown,
baidu,e6626e39ebd5bfb93a13fd24,上汽奥迪(武汉国金天地都市店),湖北省武汉市江汉区精武路11号越秀国际金融汇P5栋1层,湖北省,武汉市,江汉区,(027)85577599,unknown,
baidu,a31362cad2cbab68f4e73b3d,名车汇(汉商武展购物中心店),湖北省武汉市江汉区解放大道696号汉商武展购物中心F1,湖北省,武汉市,江汉区,17771601582,unknown,
baidu,a96dd8b2ab18c0d0b817e743,玛克斯汽车生活馆(吉庆街店),吉庆街104号,湖北省,武汉市,江岸区,17771791678,unknown,
baidu,0dbbacda7dbbba17f82d61f9,蔚来中心(武汉恒隆店),京汉大道668号武汉恒隆广场F1,湖北省,武汉市,硚口区,16602189467,unknown,
baidu,6e59075950ae3569c909f0ef,小倪微型修理,湖北省武汉市硚口区崇仁第二小学斜对面,湖北省,武汉市,硚口区,13607182981,unknown,
baidu,abb5f0c770a5c7c4095cb33c,猛士(武汉汉口体验店),湖北省武汉市江汉区解放大道696号汉商武展购物中心F1,湖北省,武汉市,江汉区,"(027)87002601,13072717629",unknown,
baidu,1626be9168ab1e294e554785,腾达汽车服务奔驰宝马奥迪专修,临江大道江滩134-136号,湖北省,武汉市,武昌区,"15391525581,19537855889",unknown,
baidu,39da334323db6d6988b98852,吉庆焊接专家补胎,湖北省武汉市江岸区吉庆街57号,湖北省,武汉市,江岸区,(027)82784820,unknown,
baidu,8c5c672d23f52c0b08ccdde4,金轮汽车修理厂(补胎搭电),湖北省武汉市江岸区台北一路88号,湖北省,武汉市,江岸区,4001626998,unknown,
baidu,25a724ad7559d11302294fcc,迈科润滑油程驰汽车保养,台东路59-61号,湖北省,武汉市,江岸区,15971466939,unknown,
baidu,379e336284deb2bbe9f853c0,宽途汽车(扶轮大厦店),胜利街168号扶轮大厦F1层,湖北省,武汉市,江岸区,,unknown,
baidu,1bbaf6743b12481709a8d47b,保全汽修,湖北省武汉市武昌区临江大道江摊92号,湖北省,武汉市,武昌区,13308635738,unknown,
baidu,7d5f3a0a6a7b66482cb908d8,建华本田汽车专修店,临江大道85号附2号,湖北省,武汉市,武昌区,(027)86827846,unknown,
baidu,3142e7ea17987152cac3db17,华依雷诺,武汉市硚口区大夹街全新社区,湖北省,武汉市,硚口区,,unknown,
baidu,929438c39533260b40024509,武汉辉煌汽车维修站,湖北省武汉市武昌区临江大道85-4号,湖北省,武汉市,武昌区,13477024273,unknown,
baidu,c04813fc0e0382f43686f435,汽车遥控钥匙,武汉市江岸区解放大道1034号附8号,湖北省,武汉市,江岸区,13659859815,unknown,
baidu,8d85cf8d784032ef0ab93ae3,铭新补胎行轮胎电瓶,湖北省武汉市江岸区铭新街128号,湖北省,武汉市,江岸区,13297929466,unknown,
baidu,cc8eb30feed9f8e10f0e6b15,max汽车快修快保电瓶轮胎美容,武汉市吉庆街104号,湖北省,武汉市,江岸区,,unknown,
baidu,e37f913372526ec9077ce89e,ACE汽车养护中心(义和巷店),京汉大道885号盈安公寓1号楼1层3室,湖北省,武汉市,江岸区,,unknown,
baidu,9e0104c3d2d8a9f46fc02cc8,一嗨租车(武商MALL国广店),武汉市江汉区解放大道690号武汉国际广场,湖北省,武汉市,江汉区,,unknown,
baidu,8781125e2093cb593a13fd49,顺风车行(汉正街店),湖北省武汉市硚口区汉正街东富商城e栋1楼,湖北省,武汉市,硚口区,13135674570,unknown,
baidu,f5d117f40d6969f7b65f1e72,米其林轮胎(西马路店),湖北省武汉市江岸区西马路财政局宿舍西马路48号,湖北省,武汉市,江岸区,13647201320,unknown,
baidu,880411f10fe91aa6a7c7564c,房车商务车订制中心,武汉市江汉区武展西路武展商务酒店,湖北省,武汉市,江汉区,,unknown,
baidu,14f97b3c7138821b16a1901f,嘉科品质汽美,临江大道179号（顺丰速运旁边）,湖北省,武汉市,武昌区,13545905959,unknown,
baidu,844a750e51c6bcc462685838,德国马牌轮胎(江汉北路店),湖北省武汉市江汉区江汉北路147号附3一楼,湖北省,武汉市,江汉区,(027)85760532,unknown,
baidu,96cf70682b1718730f0a705c,BMW Studio(武商MALL国广店),湖北省武汉市江汉区解放大道690号武商MALLF5,湖北省,武汉市,江汉区,,unknown,
baidu,ee62e26c39c3886132870ada,久臣汽车,湖北省武汉市武昌区临江大道96号,湖北省,武汉市,武昌区,,unknown,
baidu,ae499e1d95ef126b46e274c4,Super fast超级快梦想车库(武昌旗舰店),湖北省武汉市武昌区临江大道大堤口江滩60号,湖北省,武汉市,武昌区,15071999999,unknown,
baidu,80b3515bf3ca6a5526e0a0f1,永利会汽车租赁,湖北省武汉市武昌区金都汉宫西北(临江大道),湖北省,武汉市,武昌区,18571518557,unknown,
baidu,9c164c91b8e36b74cafa5f6d,顶呱呱汽配,湖北省武汉市江岸区台东路23号,湖北省,武汉市,江岸区,,unknown,
baidu,511549d92022e734210220dd,江红轮胎电瓶服务中心,湖北省武汉市江岸区西马路48号48附1号,湖北省,武汉市,江岸区,(027)85741482,unknown,
baidu,2d3986ca8d5b1489b8bd6316,武汉佰车集汽车供应链有限公司,武汉市硚口区武胜路72号泰合广场5层2室,湖北省,武汉市,硚口区,,unknown,
baidu,2e6d82b068d92d76b34c49b9,神州租车(汉正街自助点店),湖北省武汉市江汉区沿河大道73号,湖北省,武汉市,江汉区,,unknown,
baidu,68151d5d35c661e679f796a7,售后维修中心二手回收置换,湖北省武汉市江岸区天津路63号,湖北省,武汉市,江岸区,15337177660,unknown,
baidu,4b79f35b801df8e30ab93a0b,帅的车行,武汉市硚口区民意四路崇仁第二小学正门斜对面,湖北省,武汉市,硚口区,,unknown,
baidu,122be4f225f78bc343ab9ace,武汉宝羿隆叉车吊车出租公司,武汉市硚口区利济北路80号财源大厦主楼24层2室,湖北省,武汉市,硚口区,4009017120,unknown,
baidu,e9eb33975f34fc891b94c603,荣胤达汽修补胎搭电拖车道路救援,武汉市江汉区新华路186号福星城市花园4号楼23层17、18号,湖北省,武汉市,江汉区,17755252183,unknown,
baidu,e235c9274326a842dc1e523a,爱恩依时叉车吊车出租公司,解放大道688号武广写字楼9楼江汉区解放大道688号武广写字楼9楼F16-1608,湖北省,武汉市,江汉区,4009239336,unknown,
baidu,a90e02b94d90eef38bdb737a,甜心世家叉车吊车出租公司,武汉市硚口区京汉大道528号1栋1单元22层2号,湖北省,武汉市,硚口区,17555224906,unknown,
baidu,535e683b9fe599dbab175a57,盛世阳光叉车吊车出租公司,武汉市硚口区泰合广场28层2室,湖北省,武汉市,硚口区,4009637283,unknown,
baidu,6e5c4c630b84c842018972aa,江汉区民族街社区卫生服务中心,湖北省武汉市江汉区民权路152号广益天下ac栋,湖北省,武汉市,江汉区,(027)85672147,unknown,
baidu,fd13a3f2474537fab1077d35,江汉宋纲训西医内科诊所,湖北省武汉市江汉区民权路花楼街100号,湖北省,武汉市,江汉区,,unknown,
baidu,0dc3d82dcf263c7575e5b60b,江汉中西医结合医院,湖北省武汉市江汉区黄陂街93号,湖北省,武汉市,江汉区,(027)85687709,unknown,
baidu,6e095257aa2bfe0e9868b4d4,牙科,湖北省武汉市江汉区港边巷47号,湖北省,武汉市,江汉区,,unknown,
baidu,e308284844e798a6b24c498a,民权街社区卫生服务中心,湖北省武汉市江汉区统一街315号,湖北省,武汉市,江汉区,,unknown,
baidu,85ecb0f28a8ffa3ab320a80b,民族街社区卫生服务中心-预防接种门诊,武汉市江汉区民权路152号(广益·天下北区C栋1层),湖北省,武汉市,江汉区,(027)85530330,unknown,
baidu,75bd31414ac5c73b3010af97,李氏养生理疗馆,武汉市江汉区花楼街大龙社区,湖北省,武汉市,江汉区,,unknown,
baidu,a1f8352cea148b9397031936,陈太乙国医馆,湖北省武汉市江汉区民族路123号,湖北省,武汉市,江汉区,,unknown,
baidu,079ed0cade7def45b9df8fbe,瑞仁康中医门诊,湖北省武汉市江汉区黄陂街171-8号世纪江尚商业街B-34号铺,湖北省,武汉市,江汉区,,unknown,
baidu,010b96c479939663bd48423d,满春街社区卫生服务中心,湖北省武汉市江汉区长堤街1123号,湖北省,武汉市,江汉区,(027)85608599,unknown,
baidu,7ccdde8aa759cc49028972f2,水塔街社区卫生服务中心预防接种门诊,江汉区前进四路74号(江汉路地铁站G口步行480米),湖北省,武汉市,江汉区,,unknown,
baidu,782bf31f6f16daed04fef54f,武汉市中心医院-行政办公楼,武汉市江岸区鄱阳街19号,湖北省,武汉市,江岸区,,unknown,
baidu,da75ac6f449927f62dfaa73e,武汉航运医院,民权路6号,湖北省,武汉市,江汉区,,unknown,
baidu,6835e3a7e8db8b30e31103d7,武汉市中心医院-泰康楼,湖北省武汉市江岸区胜利街26号,湖北省,武汉市,江岸区,,unknown,
baidu,23116913875a9ee4734b8743,江汉陶维寿口腔科诊所,湖北省武汉市江汉区民生路77号,湖北省,武汉市,江汉区,,unknown,
baidu,6f3e0aac1965ef952fb96daf,水塔街社区卫生服务中心,湖北省武汉市江汉区水塔街道前进四路74号,湖北省,武汉市,江汉区,,unknown,
baidu,dc0f0adc7c40635cf8221339,武汉市中心医院-急诊部(南京路院区),湖北武汉市江岸区胜利街26号,湖北省,武汉市,江岸区,,unknown,
baidu,d305db1f16759143932ca33f,武汉市中心医院-仁济楼,湖北省武汉市江岸区胜利街26号武汉市中心医院内,湖北省,武汉市,江岸区,,unknown,
baidu,fa835ce2a1aa14b6e812e4c9,武汉市中心医院-门诊部,湖北武汉市江岸区胜利街26号,湖北省,武汉市,江岸区,(027)82811080,unknown,
baidu,3743455b5ed9b9196ca3cca7,武汉市中心医院,武汉市江岸区胜利街26号,湖北省,武汉市,江岸区,"(027)82201780,(027)82811080",unknown,
baidu,48ef6ef480c1c0d538e4a65c,武汉市中心医院眼鼻耳喉医院,湖北省武汉市江岸区南京路17号,湖北省,武汉市,江岸区,,unknown,
baidu,2bc9c2c51f6799db902ca3ee,天济大药房(民生路店),湖北省武汉市江汉区民生路197号1层商铺,湖北省,武汉市,江汉区,4008887776,unknown,
baidu,d753605c9b60522e08ccddfa,江汉区水塔街社区卫生服务中心,湖北省武汉市江汉区江汉路129号中心百货(江汉路店)底商F1,湖北省,武汉市,江汉区,(027)82816595,unknown,
baidu,36fa60f6375dd1f4d1f49e4f,武汉市中心医院-安康楼,湖北省武汉市江岸区胜利街26号,湖北省,武汉市,江岸区,,unknown,
baidu,54d50a9b18aec39458f6befc,武汉市中心医院(南京路院区)博爱楼,武汉市江岸区扬子街与胜利街52号交叉口东100米52号,湖北省,武汉市,江岸区,,unknown,
baidu,e2ac39857b54d061c9291569,江汉李建美医内科诊所,武汉市江汉区花楼街大董社区,湖北省,武汉市,江汉区,,unknown,
baidu,4642844aaf6afec0c9fa5f57,武汉亚洲心脏病医院,武汉市江汉区京汉大道753号,湖北省,武汉市,江汉区,(027)65796888,unknown,
baidu,eafe3b8daaf2f8c31b94c681,武汉市中心医院-检验楼,湖北省武汉市江岸区花楼街武汉市中心医院南门,湖北省,武汉市,江岸区,,unknown,
baidu,b5b93897754e38e2bca822bf,江汉康九健康门诊,湖北省武汉市江汉区满春街道清芬一路62号(六渡桥地铁站A口步行250米),湖北省,武汉市,江汉区,,unknown,
baidu,fdd1f41248fff665a10464ce,君和堂,湖北省武汉市江汉区京汉大道663号,湖北省,武汉市,江汉区,(027)85861855,unknown,
baidu,417af89f7bd24923cafa5f6d,海王星辰健康药房(民生路店),湖北省武汉市江汉区民生路161号,湖北省,武汉市,江汉区,(027)83932329,unknown,
baidu,4c04058aea3c613acae33c6c,鑫欣中医门诊部,武汉市江汉区友谊南路双龙小区,湖北省,武汉市,江汉区,,unknown,
baidu,0594f0dc76a165f2223bf235,叶开泰(康得佳店),湖北省武汉市江汉区统一街226号,湖北省,武汉市,江汉区,(027)85748718,unknown,
baidu,2d5d2b76eb1680bf1ef74dea,满春街社区卫生服务中心-预防接种门诊,武汉市江汉区长堤街1123号,湖北省,武汉市,江汉区,(027)85577657,unknown,
baidu,3fd7dab74c6c98f53b221c5a,百岁人民生大药房(民生社区店),湖北省武汉市江汉区民生路127号,湖北省,武汉市,江汉区,,unknown,
baidu,ba1275e52800b2c02fb9086f,协和医院-门诊楼,湖北省武汉市江汉区解放大道1277号,湖北省,武汉市,江汉区,,unknown,
baidu,e3a7fd132d5db02f28b97c2c,协和医院-外科楼,湖北省武汉市江汉区解放大道1277号,湖北省,武汉市,江汉区,(027)85726114,unknown,
baidu,9917bc634fdd3ad3cac3dbeb,武汉市第一医院-门诊部,湖北省武汉市硚口区中山大道215号,湖北省,武汉市,硚口区,(027)85332988,unknown,
baidu,5ffb18166d877c5f6f47602d,江汉区新华街社区卫生服务中心,武汉市江汉区江汉北路77号,湖北省,武汉市,江汉区,(027)85771806,unknown,
baidu,5130618eecdfc011ed74f890,江汉李铮中医诊所,湖北省武汉市江汉区前进四路199号燕马巷1号楼A幢1层12号武大口腔门诊旁,湖北省,武汉市,江汉区,13129996226,unknown,
baidu,f5e3bcae8191c5d85e17c353,武汉市第一医院,武汉市硚口区中山大道215号,湖北省,武汉市,硚口区,(027)85860666,unknown,
baidu,ad06a048f9f9680bbd4842a1,江汉李方西医内科诊所,湖北省武汉市江汉区自治街217附2号御庭园,湖北省,武汉市,江汉区,13871215180,unknown,
baidu,b3a883e6d37a14d26b49f30d,叶开泰(黄陂街店),湖北省武汉市江汉区黄陂街6号信泰公寓107号,湖北省,武汉市,江汉区,(027)85320835,unknown,
baidu,083a55fabd6a9160246e985b,武汉市中医医院,武汉市江岸区黎黄陂路49号,湖北省,武汉市,江岸区,(027)82831403,unknown,
baidu,ceee74fc9bc48903eddfcab3,武汉市第八医院(南院区),湖北省武汉市江岸区友益街18号南院3楼,湖北省,武汉市,江岸区,,unknown,
baidu,f0ded75fcb923d022dfaa71d,益丰大药房(武汉民生路分店),湖北省武汉市江汉区民生路85号,湖北省,武汉市,江汉区,16721584485,unknown,
baidu,9ea4c110abdfa3e40b1cc71e,华中科技大学同济医学院附属协和医院,湖北省武汉市江汉区解放大道1277号,湖北省,武汉市,江汉区,"(027)85726114,(027)85726754",unknown,
baidu,f5f2380beaeb3e4d1ce9994e,益丰大药房(三民路店),湖北省武汉市江汉区清芬一路与三民路交叉路口西南约30米,湖北省,武汉市,江汉区,,unknown,
baidu,76ef7ecbdf4f3ffc07fef510,协和整形美容医院,湖北省武汉市江汉区解放大道1277号,湖北省,武汉市,江汉区,"(027)85726384,(027)85726445",unknown,
baidu,78233df86acad0d92b11d1db,满春中心公共卫生科,武汉市江汉区长堤街双龙小区,湖北省,武汉市,江汉区,,unknown,
baidu,d1675a2ee2457329343a7172,欣悦整形美容,湖北省武汉市江汉区京汉大道499号,湖北省,武汉市,江汉区,18062004701,unknown,
baidu,a0f9ebceffe3ff8a49fc8d1d,武汉市按摩医院,武汉市汉口硚口区武胜路66号,湖北省,武汉市,硚口区,(027)85831633,unknown,
baidu,f0d35d3cfa3f77a5d718b705,武汉普瑞眼科医院,武汉市硚口区中山大道179号,湖北省,武汉市,硚口区,027-50108889,unknown,
baidu,7a904474b074be1b9fec2b4e,吉安康医疗器械(胜利街店),湖北省武汉市江岸区胜利街35号,湖北省,武汉市,江岸区,18696121151,unknown,
baidu,23a035fcce9fae73cb09f058,医学美容中心,湖北省武汉市江岸区胜利街26号武汉市中心医院南京路院区门诊,湖北省,武汉市,江岸区,(027)82811080,unknown,
baidu,69c70700fd62fa3633621279,天济大药房(黄陂街店),湖北省武汉市江汉区黄陂街438号,湖北省,武汉市,江汉区,18007110046,unknown,
baidu,dfa9b387f88d4a7e4d5547d2,国药控股汉口大药房(江汉二路店),湖北省武汉市江汉区江汉二路10-16号,湖北省,武汉市,江汉区,(027)82281339,unknown,
baidu,e15d66339e85f236eb1e9715,仁益通骨疼馆,武汉市江岸区上海路南京路1号小区西南侧,湖北省,武汉市,江岸区,,unknown,
baidu,3e66ca82f82ea5c9734b87c3,益丰大药房(铜人像店),湖北省武汉市江汉区江汉路商圈长堤街1233号,湖北省,武汉市,江汉区,,unknown,
baidu,101bc61b48929fbac42ba161,高济心连心大药房(黄陂街店),湖北省武汉市江汉区黄陂路22号,湖北省,武汉市,江汉区,(027)85662636,unknown,
baidu,5b4b41c6f0d0b5cc9222e00e,老百姓大药房(民权路店),湖北省武汉市江汉区民权路14号,湖北省,武汉市,江汉区,15926428604,unknown,
baidu,81b5fa04587f8c330bf5eb9c,海王星辰健康药房(胜利街店),湖北省武汉市江岸区胜利街8号,湖北省,武汉市,江岸区,(027)82203867,unknown,
baidu,e0703c2a70161097b01e36b7,百岁人大药房(江尚店),湖北省武汉市江汉区黄陂街110号世纪江尚中心第78幢商9号,湖北省,武汉市,江汉区,13971592127,unknown,
baidu,376289a721ddbaee97ca075f,阳慷大药房(统一店),湖北省武汉市江汉区统一街42-1号,湖北省,武汉市,江汉区,,unknown,
baidu,689c99289293251bdc1e5282,老百姓大药房(前进店),湖北省武汉市江汉区前进一路110号景江华庭1层A1号,湖北省,武汉市,江汉区,13545080833,unknown,
baidu,18e4b4631d518a5ea8175a17,益丰大药房(武汉华纳分店),湖北省武汉市江汉区中山大道756号江汉印象城F1,湖北省,武汉市,江汉区,(027)83903998,unknown,
baidu,3ce6a6174ba0d480fb221348,益丰大药房(万年街店),湖北省武汉市江汉区万年街21号,湖北省,武汉市,江汉区,(027)85877399,unknown,
baidu,c7471c775469aaeb932ca38c,初开堂(温州城店),湖北省武汉市江汉区中山大道779~805号温州城F1,湖北省,武汉市,江汉区,,unknown,
baidu,a053646b3266d534d42ce257,全家康大药房(统一店),湖北省武汉市江汉区民族路104号,湖北省,武汉市,江汉区,(027)85642856,unknown,
baidu,2fd2beab775e34527adbd23a,同济堂(水塔店),湖北省武汉市江汉区三新横街18附1号,湖北省,武汉市,江汉区,13667206171,unknown,
baidu,2f80712ae6aa284a901fc9ca,天济大药房(鄱阳路店),湖北省武汉市江岸区上海路19-3号,湖北省,武汉市,江岸区,4008887776,unknown,
baidu,71f5446bca0784df93114c09,好药师大药房(健康小屋中心店),湖北省武汉市江岸区上海路19号声直大厦a座,湖北省,武汉市,江岸区,(027)82355508,unknown,
baidu,8318a8f6b56ba7ead22dd6b8,汉口大药房(黄石路店),湖北省武汉市江岸区黄石路33号,湖北省,武汉市,江岸区,"(027)82879966,13036169570",unknown,
baidu,177b4ef45c7906bd04026fcd,老百姓大药房(江汉店),湖北省武汉市江汉区前进五路109附1号,湖北省,武汉市,江汉区,18008646986,unknown,
baidu,13913cdf7b50ab23f4b9167b,叶开泰(国药商城店),湖北省武汉市江汉区中山大道549号,湖北省,武汉市,江汉区,(027)82856451,unknown,
baidu,830a1395cfe10f32d8eceda6,国大药房(胜利街店),湖北省武汉市江岸区胜利街8号附4号,湖北省,武汉市,江岸区,(027)82822109,unknown,
baidu,864e52ca93a39c0917b54bf0,武汉市中心医院-甲状腺外科2病区(核医学病房)探视区,武汉市江岸区鄱阳街鄱阳新里小区,湖北省,武汉市,江岸区,,unknown,
baidu,001b699669cdcf05306212b2,同医堂药房(民主街店),湖北省武汉市江汉区民主二街40号,湖北省,武汉市,江汉区,(027)65663607,unknown,
baidu,27b80e508c729881f6c59c32,湖北阳慷大药房连锁有限公司(统一街店),湖北省武汉市江汉区统一街42号,湖北省,武汉市,江汉区,,unknown,
baidu,7e5f4588e4f571759d9d68b8,仲德堂,武汉市江汉区前进五路7天酒店(武汉步行街店),湖北省,武汉市,江汉区,17786557964,unknown,
baidu,2e0660933e2acdd702294f1c,叮当智慧药房(民意店),湖北省武汉市江汉区民主二街2516号,湖北省,武汉市,江汉区,18163318857,unknown,
baidu,b32367c5840e3a7af72310df,诚信性保健,武汉市江汉区三民路淘房·三民公寓北侧约40米,湖北省,武汉市,江汉区,15527002824,unknown,
baidu,4869d2b72a2616e9df1e5222,千福堂大药房(民意店),湖北省武汉市江汉区民意一路19号,湖北省,武汉市,江汉区,13871593895,unknown,
baidu,aee419e75a512adac61b75ae,叶开泰(恒丰店),武汉市江岸区上海路5号,湖北省,武汉市,江岸区,(027)82962330,unknown,
baidu,8ef33390ef139ac40d3dda53,益丰大药房(胜利街分店),湖北省武汉市江岸区胜利街8号附14号,湖北省,武汉市,江岸区,13487073358,unknown,
baidu,0f0697905022085ccf06a410,LBXPHARMACY,武汉市江汉区民主一街景江华庭,湖北省,武汉市,江汉区,,unknown,
baidu,30b91b44796a297ad8d89104,益丰大药房(武汉友谊路分店),湖北省武汉市江汉区友谊路159-2号轻轨一号线友谊路站a出口马路对面,湖北省,武汉市,江汉区,(027)83959936,unknown,
baidu,0d61b569e2313cd53617dc14,金药堂大药房(友谊南路店),湖北省武汉市江汉区友谊南路27号清芬小区11号楼,湖北省,武汉市,江汉区,(027)85855068,unknown,
baidu,e946b3a8dca876e22cb17e5e,天济大药房(江汉三路店),湖北省武汉市江汉区江汉三路19号1栋101号第1-2号商铺,湖北省,武汉市,江汉区,18171514083,unknown,
baidu,aa87dfad81d4919e990050a2,同医堂药房(自治街店),湖北省武汉市江汉区自治街267号,湖北省,武汉市,江汉区,(027)82816799,unknown,
baidu,64237b57be9808ca51e5c536,益丰大药房(民主一街分店),湖北省武汉市江汉区民主一街54号,湖北省,武汉市,江汉区,,unknown,
baidu,59d014a71ac781c7354aae49,老百姓大药房(友谊路店),湖北省武汉市江汉区友谊路5号附5号,湖北省,武汉市,江汉区,13545097031,unknown,
baidu,63b307684c0571b921026261,烯范眼健康中心(武汉大兴路店),湖北省武汉市江汉区大兴路73号73附10号,湖北省,武汉市,江汉区,,unknown,
baidu,36c1677bd222ddf86e20b93a,益丰大药房(江汉四路店),湖北省武汉市江汉区江汉四路16号,湖北省,武汉市,江汉区,(027)88092329,unknown,
baidu,5c2641a8fd563e9c4e5547d5,武汉铁路局职工医保定点药房,武汉市江汉区自治街东民里,湖北省,武汉市,江汉区,(027)82816799,unknown,
baidu,c68ddd3b36f5c3f16f476025,百穗健康园(六渡桥店),湖北省武汉市江汉区民意一路40号,湖北省,武汉市,江汉区,,unknown,
baidu,c41b0ece37e6d45351e5c58e,健康理疗,湖北省武汉市江岸区上海路4号,湖北省,武汉市,江岸区,,unknown,
baidu,5b5e9c7c79f4ca853f9a5e70,卢氏理疗馆,武汉市江汉区长堤街清芬社区,湖北省,武汉市,江汉区,17362929221,unknown,
baidu,b1c556e858e77415b426555e,江汉罗咏梅口腔科诊所,湖北省武汉市江汉区民权路125号,湖北省,武汉市,江汉区,(027)85326680,unknown,
baidu,1711fefcdb3746f626d2bb54,固睿特口腔(世纪江尚店),湖北省武汉市江汉区商业街外滩1861号,湖北省,武汉市,江汉区,,unknown,
baidu,79bdbe45f32835a2c5f50d76,武汉公教口腔,湖北省武汉市江岸区一元街道洞庭街17号,湖北省,武汉市,江岸区,,unknown,
baidu,a50db36591721cdc94031959,周丽口腔,湖北省武汉市江汉区友谊路88号,湖北省,武汉市,江汉区,,unknown,
baidu,6054cb068be1e962c17da25a,医微生物,湖北省武汉市江汉区中山大道779~805号温州城F1,湖北省,武汉市,江汉区,,unknown,
baidu,13c74f7e9eb9b94a72455b96,武汉市职业病防治院,湖北省武汉市江岸区江汉北路22号,湖北省,武汉市,江岸区,(027)85787896,unknown,
baidu,0ba7ace4621e3caec26c14c8,武汉市电子信息职业技术学校(南校区),湖北省武汉市江汉区花楼街182号(江汉路地铁站G口步行470米),湖北省,武汉市,江汉区,,unknown,
baidu,fd357cee190b539a256e98de,康语儿童言语社交训练中心(武汉江汉路中心),湖北省武汉市江汉区民生路205号,湖北省,武汉市,江汉区,15060056792,unknown,
baidu,af050ee3cd119a99cf06a496,跳动全城舞蹈(汉口大洋百货店),湖北省武汉市江汉区中山大道756号大洋百货B1楼,湖北省,武汉市,江汉区,18086029579,unknown,
baidu,16d91e404bbad8042b06ce9b,江汉区百灵幼儿园,武汉市江汉区民生路与统一街交叉路口往南约120米,湖北省,武汉市,江汉区,(027)85704218,unknown,
baidu,00ff4909d9c9bb69c8213d4e,K7舞社(江汉路校区),湖北省武汉市江汉区中山大道818号c29号（平安大厦2006号）,湖北省,武汉市,江汉区,18062697673,unknown,
baidu,3c91c3980b05bfa02102620c,Level Up舞蹈工作室(江汉路店),湖北省武汉市江汉区江汉路步行街世纪江尚B27商铺,湖北省,武汉市,江汉区,15527439002,unknown,
baidu,814c1e5f264f5e6fd23ce3cb,绘乐美育(世纪江尚总校区),湖北省武汉市江汉区民生路46号世纪江尚a13号,湖北省,武汉市,江汉区,18186603021,unknown,
baidu,f8c547bec1396ae85abbbc81,小央美儿童美术(江汉路校区),湖北省武汉市江汉区花楼街片世纪江尚中心1、2、6栋,湖北省,武汉市,江汉区,"18162706082,18162706083",unknown,
baidu,5ba0e7628d1796d37369d3cf,薇佳奈儿美业培训学校(江汉印象城店),民生路沃尔玛印象城B座157号（B座7号门内15米）,湖北省,武汉市,江汉区,,unknown,
baidu,cbd50e8020ad0709b45f1e28,艺僮教育,友谊南路威宝轻纺城B座3楼,湖北省,武汉市,江汉区,18771078097,unknown,
baidu,c53ba8df0db30e58f4e73b4b,智力方教育,武汉市江汉区黄陂街汉来广场,湖北省,武汉市,江汉区,,unknown,
baidu,83203df640e753b07069d371,艺嘉艺术中心,武汉市江汉区黄陂街小学东侧,湖北省,武汉市,江汉区,,unknown,
baidu,35bb50797968fd79aeb22adc,武汉亲民教育(六渡桥校区),湖北省武汉市江汉区中山大道779~805号温州城F1,湖北省,武汉市,江汉区,(027)85511077,unknown,
baidu,1457eb439e07ba26c52ba182,江汉区教育局教研培训中心,湖北省武汉市江汉区民意一路11号,湖北省,武汉市,江汉区,,unknown,
baidu,fcd654d663e75bc19fec2b02,艺苗幼儿园,湖北省武汉市江汉区民生路花楼街188号,湖北省,武汉市,江汉区,,unknown,
baidu,82d3dc8c830552b043afe6c6,清风素质成长中心,湖北省武汉市江汉区江汉路B40号世纪江尚b44号b44,湖北省,武汉市,江汉区,18872262569,unknown,
baidu,5a9ae42f1c6b3ede1e1d1140,虎略格斗运动馆,世纪·江尚,湖北省,武汉市,江汉区,15007188342,unknown,
baidu,86eb082505a28006a1046406,亮点艺术培训,湖北省武汉市江汉区黄陂街6号信泰公寓,湖北省,武汉市,江汉区,15927337920,unknown,
baidu,15a1da3ba0f35287cbfa5f68,单色舞蹈(循礼门M+店),湖北省武汉市江汉区循礼门M加购物中心3楼,湖北省,武汉市,江汉区,13129911673,unknown,
baidu,2c0c554202da3a1d2bb97c44,武汉关小学,湖北省武汉市江汉区民生路96号(世纪江尚5栋放大门口),湖北省,武汉市,江汉区,(027)82834507,unknown,
baidu,ce68f067034d62a893114c27,黄陂街小学,湖北省武汉市江汉区清芬一路94号库玛后门,湖北省,武汉市,江汉区,(027)85664171,unknown,
baidu,aad6cfe9dffe8b9ea11de954,国子学教育,湖北省武汉市江汉区京汉大道万科金色家园一期1号楼2层8-2室,湖北省,武汉市,江汉区,17771799555,unknown,
baidu,049e8091443d91461fe99993,黄陂街幼儿园,湖北省武汉市江汉区黄陂街8号,湖北省,武汉市,江汉区,13476182311,unknown,
baidu,5e44b90878e619aab11e361d,荟育人凹凸教育(循礼门旗舰校),湖北省武汉市江汉区前进四路86号融金大楼F2,湖北省,武汉市,江汉区,17720708182,unknown,
baidu,3e8cd8dae6239263931fc927,丹扬艺术培训中心,湖北省武汉市江汉区民权路1号长江大厦8楼,湖北省,武汉市,江汉区,,unknown,
baidu,052d4e070bcb07466da3ccde,一初慧泉前进校区,湖北省武汉市江汉区前进街街道一初慧泉中学民主一街187号,湖北省,武汉市,江汉区,(027)85422522,unknown,
baidu,b95ab8556d4fce8cf8f0cb1d,武汉捌号画室,洞庭街8号(江汉路地铁站C口步行350米),湖北省,武汉市,江岸区,13100663312,unknown,
baidu,ab1814690edbf8cfc8213da1,江汉区六渡桥幼儿园,湖北省武汉市江汉区清芬一路94号库玛后门,湖北省,武汉市,江汉区,18627829105,unknown,
baidu,e009d7836e8b16944d776ee3,前进二路小学,武汉市江汉区前进二路23号(六渡桥地铁站C1口步行280米),湖北省,武汉市,江汉区,(027)85868620,unknown,
baidu,578e466da6ed6704d81318d8,北京海天时代国际教育总部,湖北省武汉市江汉区沿江大道83号世纪中心26楼,湖北省,武汉市,江汉区,,unknown,
baidu,d463deac18ec533d4bcc4a79,尚学童教育(友谊路校区),湖北省武汉市江汉区民主街30号,湖北省,武汉市,江汉区,13554188796,unknown,
baidu,56a09a6cd1559715b9df8fd5,武汉市江汉区新时代文明实践中心,武汉市江汉区友谊路多闻社区-西区,湖北省,武汉市,江汉区,,unknown,
baidu,fd13a3f2474237fab1077d34,武汉市人民中学,湖北省武汉市江汉区二盛巷93号,湖北省,武汉市,江汉区,"(027)85661958,(027)85669986",unknown,
baidu,6b445a288c2d7818c41b75e2,大兴路小学,湖北省武汉市江汉区大兴路69号,湖北省,武汉市,江汉区,(027)85663174,unknown,
baidu,0601bdf5d6ed4e08e215f9a1,IF MAKEUP化妆造型·彩妆私教(江汉路店),长盛公寓1号楼20楼2019,湖北省,武汉市,江汉区,15807170644,unknown,
baidu,d146b388bc5182de74026934,福建街小学,湖北省武汉市江汉区福建街3号,湖北省,武汉市,江汉区,,unknown,
baidu,6a7d9e4606445c1d6d20b9c7,武汉市第一中学(前进校区),湖北省武汉市江汉区民主一街187号,湖北省,武汉市,江汉区,(027)85422522,unknown,
baidu,1925cc43c73a70ccf60e772b,暖岛画室,一元街道珞珈山街17号(黎黄陂路),湖北省,武汉市,江岸区,18062775889,unknown,
baidu,b2898eb2a3a23b72e0110359,RSBL青少年篮球发展联盟(武汉m+购物中心店),湖北省武汉市江汉区江汉四路33号世纪都会商场负一楼小中庭,湖北省,武汉市,江汉区,,unknown,
baidu,140a726a7e026f9a72455b1a,青少年空间,湖北省武汉市江汉区民主一街21号(友谊路地铁站A口步行470米),湖北省,武汉市,江汉区,,unknown,
baidu,3a0fbba84d44fe3f9ee321d3,武汉市第十九初级中学(自治街校区),湖北省武汉市江汉区自治街242号,湖北省,武汉市,江汉区,,unknown,
baidu,d663724b468ca269b9df8f3f,黄陂街小学(黄陂街)-林中林教育,湖北省武汉市江汉区民权街道黄陂街11号黄陂街小学黄陂街,湖北省,武汉市,江汉区,"13625890700,18971538830",unknown,
baidu,8369be86f9802a2876e5b638,武汉市江岸区致远学校(江汉路校区),湖北省武汉市江岸区洞庭街8号,湖北省,武汉市,江岸区,18086008806,unknown,
baidu,f6138345efffeabb8a36ee95,汉口回民小学,德胜街14号,湖北省,武汉市,江汉区,(027)85664311,unknown,
baidu,b92bc9ef26df054940afe6a8,武汉市少年儿童图书馆,湖北省武汉市江岸区南京路64号汉口商业银行大楼,湖北省,武汉市,江岸区,(027)82773406,unknown,
baidu,e3a7fd13f95efc5228b97c34,武汉市友谊路中学,湖北省武汉市江汉区友谊路141号,湖北省,武汉市,江汉区,(027)85831373,unknown,
baidu,1d69ceaf184b1afcc27da2c4,江城书房,湖北省武汉市江岸区中山大道637号,湖北省,武汉市,江岸区,,unknown,
baidu,18165334a34f7004fb2d6134,江汉区红苗幼儿园,湖北省武汉市江汉区前进五路东民里16号,湖北省,武汉市,江汉区,(027)82795601,unknown,
baidu,c07ddc2e4759dc47581093b9,江汉区稚美幼儿园,湖北省武汉市江汉区民主二街71号,湖北省,武汉市,江汉区,,unknown,
baidu,60d71619a105fad7734b87d0,江汉区双龙幼儿园,湖北省武汉市江汉区友谊南路19-16号,湖北省,武汉市,江汉区,13071299330,unknown,
baidu,f1f5cac5b6da979836b06c34,武汉市江汉区华中里小学,湖北省武汉市江汉区江汉二路44号,湖北省,武汉市,江汉区,,unknown,
baidu,45e8a135c33084a87369d332,江汉区童梦幼儿园,湖北省武汉市江汉区江汉三路16号,湖北省,武汉市,江汉区,(027)82908718,unknown,
baidu,596dd43b58ed0f55b1077d02,江岸区黄陂路小学,湖北省武汉市江岸区胜利街39号（中心医院门诊对面）,湖北省,武汉市,江岸区,(027)82786983,unknown,
baidu,1ffbf4e72c14bcfa7c29bde0,武汉市江岸区图书馆,湖北省武汉市江岸区南京路63号,湖北省,武汉市,江岸区,(027)82816233,unknown,
baidu,5fb654cea450c42130169bd3,武汉BP专业舞蹈培训,湖北武汉市江岸区胜利街47号福宁阁3楼,湖北省,武汉市,江岸区,,unknown,
baidu,a3f21eee8deaae442fb17e34,武汉市电子信息职业技术学校(北校区),湖北省武汉市江汉区民主二街12号,湖北省,武汉市,江汉区,(027)85663405,unknown,
baidu,4cf8d24e1d47e2e49cf77934,武汉市第七十五中学,湖北省武汉市江汉区自治街41号,湖北省,武汉市,江汉区,,unknown,
baidu,4ea3f2f11f57faaaaecb6634,江汉区小精灵幼儿园,湖北省武汉市江汉区前进一路10号,湖北省,武汉市,江汉区,(027)85424711,unknown,
baidu,38e48037455d1349373a7134,江汉区惠康里小学,湖北省武汉市江汉区前进一路185号(友谊路地铁站A口步行350米),湖北省,武汉市,江汉区,,unknown,
baidu,4eba92b166c6138dc056ac62,九弦艺术中心琴悦校区,湖北省武汉市江岸区吉庆街66号建华大厦1203号,湖北省,武汉市,江岸区,"13297911888,13667162479",unknown,
baidu,8948131c685325b36fc02c77,文泽尔书友会图书馆,湖北省武汉市江岸区江汉路步行街22号2楼,湖北省,武汉市,江岸区,,unknown,
baidu,ad5e6dc2d6834a4b931fc9f7,南京路幼儿园,武汉市江岸区洞庭街22号一1一502室,湖北省,武汉市,江岸区,(027)82831639,unknown,
baidu,757e0544aec79e9b42d63e8c,三构医学,湖北省武汉市江岸区江汉二路135号金宝大厦A座F11,湖北省,武汉市,江岸区,,unknown,
baidu,e6984d053c443cff7ab55c32,宏康驾校,武汉市江汉区前进一路多闻社区-东区,湖北省,武汉市,江汉区,,unknown,
baidu,73708cb2b8d37145b54f54c6,贝乐幼儿园(自治街),湖北省武汉市江汉区燕马新村185号燕马小区11栋2单元,湖北省,武汉市,江汉区,,unknown,
baidu,5211d219ebb1da587dc87634,江汉区天一街小学,武汉市江汉区天一后街92号,湖北省,武汉市,江汉区,"(027)85833738,(027)85857295",unknown,
baidu,97805370e5991389e9f853b1,中国工程科技发展战略湖北研究院武汉分院,武汉市江汉区江汉路步行街7天酒店(武汉江汉路地铁站店)西北侧约50米,湖北省,武汉市,江汉区,,unknown,
baidu,549e3a3cdac05cc82fb17ea8,培智幼儿园(民主二街),武汉市江汉区友谊路50号附10号,湖北省,武汉市,江汉区,18086675668,unknown,
baidu,d16df9343c3983efeb12e4b3,武汉市电子信息职业技术学校接待中心,武汉市江汉区民主二街武汉市电子信息职业技术学校(北校区),湖北省,武汉市,江汉区,,unknown,
baidu,c7369d3a02ae5959715e8041,武汉六中上智中学(黄石路),武汉市江岸区黄石路95号附近,湖北省,武汉市,江岸区,(027)82298179,unknown,
baidu,8fa14fc3ccf3ec6ef7eafcfb,健康幼儿园,湖北省武汉市江岸区黎黄陂路5号,湖北省,武汉市,江岸区,(027)82819981,unknown,
baidu,dfc496b6ba1fc7af8936ee2f,武汉市第二十八中学,湖北省武汉市江汉区江汉北路65号(循礼门地铁站E口步行490米),湖北省,武汉市,江汉区,(027)85796704,unknown,
baidu,1d4abdc748ffc400b7f42f14,博闻之家民意街社区学校,湖北省武汉市江汉区民意一路117号,湖北省,武汉市,江汉区,,unknown,
baidu,e889a744979046b58605bf5f,武汉太平洋高级中学,湖北省武汉市硚口区顺道街64号附一（利济北路地铁站B1口步行370米）,湖北省,武汉市,硚口区,(027)83769975,unknown,
baidu,6deee3080ea21d6a29fc48fa,鄱阳街小学,湖北省武汉市江岸区鄱阳街66号,湖北省,武汉市,江岸区,(027)82808213,unknown,
baidu,1bafd1ae931de91b283a9f54,千千纸样,武汉市硚口区长堤街汉正街品牌服饰批发广场东北侧约120米,湖北省,武汉市,硚口区,,unknown,
baidu,c9c33b0cc41dbdc01e389482,武汉市江汉区星光幼儿园,武汉市江汉区友谊路天竺里39号5栋1-2层,湖北省,武汉市,江汉区,18086675668,unknown,
baidu,ba3fe043ac47d7728d55ec59,安徽街小学,湖北省武汉市硚口区六水街3号,湖北省,武汉市,硚口区,,unknown,
baidu,8d1642d366eb08ed16c8f65f,武汉市汉口辅仁小学,湖北省武汉市江汉区武展东路36号,湖北省,武汉市,江汉区,(027)85834726,unknown,
baidu,eb5f4e633cf0fa41c4f50d5a,行香子·天然植物香水DIY联合研案芬享实验室(沿江1号写字楼C座店),湖北省武汉市江汉区大兴路64号,湖北省,武汉市,江汉区,"13100717091,18062507150",unknown,
baidu,167631affbc095c3f03cba70,蒲园幼儿园(汉口旗舰园),新华街街道新华街办事处江汉北路83号东方时空1-3层,湖北省,武汉市,江汉区,"(027)83958895,18062561716",unknown,
baidu,d4034eb3947509f6c036445e,武汉市第二十九中学,湖北省武汉市硚口区利济西巷1号,湖北省,武汉市,硚口区,(027)85831202,unknown,
baidu,cacf4c9cdf86163fe507385e,武汉市江汉区红领巾精武学校,湖北省武汉市江汉区精武路4号,湖北省,武汉市,江汉区,,unknown,
baidu,cd2ffb6ffcaace126d20b9c3,武汉发展战略研究院,湖北省武汉市江岸区鄱阳街43号,湖北省,武汉市,江岸区,,unknown,
baidu,88f87e7d8baf705579b55c04,崇仁路小学(汉正校区),武汉市硚口区长堤街药王社区,湖北省,武汉市,硚口区,,unknown,
baidu,a74481d6b04f9846f503b85f,硚口区红旗村小学,湖北省武汉市硚口区中山大道189号(汉正街地铁站D口步行280米),湖北省,武汉市,硚口区,,unknown,
baidu,1497507e7b23cbcb2fb17ed2,自助图书馆(武汉科学技术馆),武汉市江岸区沿江大道91号武汉科学技术馆F2,湖北省,武汉市,江岸区,,unknown,
baidu,f9fd6062ca51ac1f0f0e6b34,江汉区大兴路幼儿园,湖北省武汉市江汉区二盛巷100号,湖北省,武汉市,江汉区,(027)85704322,unknown,
baidu,2781406f57aace4688f15d87,中国地质大学珠宝检测中心,湖北省武汉市江汉区中山大道357~359号新金珠宝大厦3楼,湖北省,武汉市,江汉区,,unknown,
baidu,e9463cfbb7e2311dcafa5f41,VOGGO沃戈·化妆造型·彩妆私教(硚口店),中山大道390号云尚国际时尚中心1号楼11层上善风尚,湖北省,武汉市,硚口区,"15527736821,17754404841",unknown,
baidu,e9835b694c91da73354aae9f,华大沿江一号幼儿园,湖北省武汉市江汉区沿江大道12号龙王庙商贸广场D5区上去2层,湖北省,武汉市,江汉区,,unknown,
baidu,70ad9131be80fe1ed52ce245,BTL人体穿刺研究所,湖北省武汉市江汉区江汉路179号俊华大厦B座2501室,湖北省,武汉市,江汉区,13308651243,unknown,
baidu,308e0aae304e90274107c1cc,中建三局建筑设计院设计二所,武汉市江汉区民权路特1号长江大厦14层,湖北省,武汉市,江汉区,,unknown,
baidu,c5eb56fe49fc5bd55d0d028b,三和裤型纸样研发中心,湖北省武汉市硚口区药帮大巷39号,湖北省,武汉市,硚口区,13971396212,unknown,
baidu,4db0ba49a6d2ac41871541e3,武汉工艺大楼-立体停车楼,武汉市江汉区中山大道744号,湖北省,武汉市,江汉区,,unknown,
baidu,2e05b6942a5dcda9eb56fa41,宝利金国际广场-地下停车场,武汉市江汉区民生路花楼街198号宝利金国际广场B2,湖北省,武汉市,江汉区,(027)82850006,unknown,
baidu,40dbe270d5e1aa3302897224,营运-月票车辆停泊区,武汉市江汉区黄陂街汉来广场,湖北省,武汉市,江汉区,,unknown,
baidu,20d97ef79627092ba21de9d0,新佳丽时尚广场-地下停车场,湖北省武汉市江汉区中山大道818号,湖北省,武汉市,江汉区,,unknown,
baidu,aeca8b5d004e8f972fb17e39,王府井百货-停车场A区,武汉市江汉区中山大道858号王府井百货B2,湖北省,武汉市,江汉区,,unknown,
baidu,ac2eff409e6a9b388605bfc5,潜龙汇24小时地上停车场,武汉市江汉区前进五路永康里东北侧约40米,湖北省,武汉市,江汉区,,unknown,
baidu,c2ef725191dd841ca3acc4b1,中山大道地铁江汉路站,1路;24路;408路内环[N408路];408路外环[W408路];581路;711路;727路;电2路,湖北省,武汉市,江汉区,,unknown,
baidu,8bf14e85ecb105e50e3ddaf4,六渡桥,地铁6号线,湖北省,武汉市,江汉区,,unknown,
baidu,66a116c3676b8dd84107c13e,武汉库玛华中珠宝交易中心(库玛商场店)-地上停车场,中山大道600号(库玛品牌服饰交易中心库玛儿童城),湖北省,武汉市,江汉区,,unknown,
baidu,9ea9c7c95ec6569df5c59c3b,江汉印象城(江汉路步行街店)-地下停车场,湖北省武汉市江汉区中山大道756号江汉印象城F1,湖北省,武汉市,江汉区,,unknown,
baidu,eba67c9efae52ffdfbf0cbba,王府井百货-停车场B区,武汉市江汉区中山大道858号王府井百货B2,湖北省,武汉市,江汉区,,unknown,
baidu,73a71f95df4a7ff0157643e3,武汉世纪中心-地下停车场,湖北省武汉市江汉区民生路武汉世纪中心,湖北省,武汉市,江汉区,,unknown,
baidu,c5bf06d0b013d04dd42ce2fb,江汉路,地铁2号线;地铁6号线,湖北省,武汉市,江汉区,,unknown,
baidu,64b4b0122bc9cf863a13fd73,民权路王家巷,7路;9路;248路;503路;523路;527路;533路;579路;581路;721路,湖北省,武汉市,江汉区,,unknown,
baidu,4587a70d4be2c2b145e274dd,达克云充电站(武汉佳丽广场充电站),平安大厦停车场中央收费处对面,湖北省,武汉市,江汉区,4006717555,unknown,
baidu,2e7e43b4129a0e915b10938b,江汉路步行街-停车场,湖北省武汉市江汉区江汉路66号,湖北省,武汉市,江汉区,,unknown,
baidu,275a7eaedb1204562fb17eb6,民众乐园-地下停车场,湖北省武汉市江汉区中山大道704号民众乐园F1,湖北省,武汉市,江汉区,,unknown,
baidu,76ab05186f193fd014b54b7a,民生路花楼街,313路;601路,湖北省,武汉市,江汉区,,unknown,
baidu,cecd4eaa2c0f317fcb1b9524,前进-停车场,武汉市江汉区民生路大洋百货(武汉中山店),湖北省,武汉市,江汉区,,unknown,
baidu,31a5e61d7a396457e6e965d1,大洋百货(中山店)-接送点,武汉市江汉区大洋百货(中山店)附近,湖北省,武汉市,江汉区,,unknown,
baidu,9134fb7af3bab5fa79dbd247,世纪江尚商业街-地下停车场,武汉市江汉区民生路和记黄埔世纪江尚,湖北省,武汉市,江汉区,,unknown,
baidu,3b2dccfc9494fb9eb21e3606,王府井百货-停车场D区,武汉市江汉区中山大道858号王府井百货B2,湖北省,武汉市,江汉区,,unknown,
baidu,700a57ff904ad2462bb97ca6,停车场(磨子桥西北),武汉市江汉区民生路民生社区,湖北省,武汉市,江汉区,,unknown,
baidu,dc42811be82e939c38e4a61f,前进一路六渡桥,9路;527路;532路;533路;553路;563路;721路;电1路,湖北省,武汉市,江汉区,,unknown,
baidu,810dd91286212982e607383a,汉口沿江十七码头,湖北省武汉市江汉区沿江大道江滩11号,湖北省,武汉市,江汉区,,unknown,
baidu,211213ba87c3ee2d90114ccb,武汉轮渡武汉关码头-地上停车场,武汉市江汉区沿江大道江滩,湖北省,武汉市,江汉区,,unknown,
baidu,0de7f99b617a800cf32d8300,江汉路步行街-停车场,湖北省武汉市江汉区民主一街192号-4号,湖北省,武汉市,江汉区,,unknown,
baidu,359c1ea3c8874b0d81a12e06,平安大厦-地下停车场,武汉市江汉区中山大道平安大厦B1层(民生路口),湖北省,武汉市,江汉区,,unknown,
baidu,ea5a3055212d2bbeb54f5475,王府井百货-停车场C区,武汉市江汉区中山大道858号王府井百货B2,湖北省,武汉市,江汉区,,unknown,
baidu,2aaa0c94e754edf6354aae0f,锦江之星酒店(江汉路地铁站大洋百货店)-立体停车楼,民生路205-附3号,湖北省,武汉市,江汉区,,unknown,
baidu,2ef74d3158a45c954d776e0b,广益天下二期-地下停车场,湖北省武汉市江汉区民权路154号,湖北省,武汉市,江汉区,,unknown,
baidu,14c7817169dd755b276e98a0,民权路花楼街,9路;248路;503路;523路;527路;533路;579路;581路;721路,湖北省,武汉市,江汉区,,unknown,
baidu,e2033d3e1fb7a48bb817e76d,民族路三民路口,7路;9路;248路;503路;523路;527路;533路;579路;581路;721路,湖北省,武汉市,江汉区,,unknown,
baidu,11c7a1a557ac77ad373a7136,武汉M+购物中心-地下停车场,武汉市江汉区江汉四路武汉M+购物中心,湖北省,武汉市,江汉区,,unknown,
baidu,fe38460289abb6c47f29bd74,武汉轮渡集家嘴码头,武汉市江汉区沿河大道42号附近,湖北省,武汉市,江汉区,,unknown,
baidu,d61f7c93f5ec9b2441d63e94,星火同益大厦-地上停车场,湖北省武汉市江汉区中山大道363号,湖北省,武汉市,江汉区,,unknown,
baidu,07b91bf122ed44840bccdd5c,路边停车场(楚宝公寓东南),武汉市江汉区温州城后门,湖北省,武汉市,江汉区,,unknown,
baidu,44c26594cdd774686c476076,停车场(磨子桥东),武汉市江汉区民生路民生社区,湖北省,武汉市,江汉区,,unknown,
baidu,50da668ab902859bf503b835,武汉港,武汉市江岸区沿江大道145号,湖北省,武汉市,江岸区,,unknown,
baidu,816ed0f17f403e22b1077dc9,中山大道地铁六渡桥站,1路;24路;408路内环[N408路];408路外环[W408路];581路;711路;727路;电2路,湖北省,武汉市,江汉区,,unknown,
baidu,08ebb5d2449d37c9843304bd,非机动车停放点,武汉市江汉区前进四路永康社区西侧约70米,湖北省,武汉市,江汉区,,unknown,
baidu,18e353eba4e29acf7c29bd06,前进四路汉寿里-停车场,武汉市江汉区前进四路汉寿里,湖北省,武汉市,江汉区,13871128616,unknown,
baidu,f68608ab8d112471cb1b9563,循礼门,地铁1号线;地铁2号线,湖北省,武汉市,江岸区,,unknown,
baidu,44b30083ce709fef8bfc06e2,武汉港23码头,武汉市江岸区沿江大道与青岛路交叉口东150米,湖北省,武汉市,江岸区,,unknown,
baidu,a8c47b16a23ff2527af79663,友谊路,地铁1号线,湖北省,武汉市,江汉区,,unknown,
baidu,5e8bc2b322555db0841541d8,吉庆民俗街-地下停车场,大智街办事处黄石路吉庆民俗街西,湖北省,武汉市,江岸区,,unknown,
baidu,2a3aa5beae9042a44251c00d,武汉工艺大楼-接送点,武汉市江汉区武汉工艺大楼附近,湖北省,武汉市,江汉区,,unknown,
baidu,dceb15b800533545e31103aa,停车场(沿江大道),武汉市江汉区沿江大道武汉航运中心,湖北省,武汉市,江汉区,,unknown,
baidu,ea950acb951b0809b4265593,港15码头,武汉市江汉区沿江大道69号,湖北省,武汉市,江汉区,,unknown,
baidu,4101e2b12feea81f11882466,民生路黄陂街,313路;601路,湖北省,武汉市,江汉区,,unknown,
baidu,7c70f04ed943ef4e1811d556,清芬片旧城改建项目房屋征收维稳指挥部-停车场,武汉市江汉区民族路万年社区,湖北省,武汉市,江汉区,,unknown,
baidu,bd12adb0ec775fb55d0d0253,汉正街,地铁6号线,湖北省,武汉市,硚口区,,unknown,
baidu,938350fa9be7ff62c07da21b,沿江大道武汉关,7路;9路;30路;119路;248路;313路;408路内环[N408路];408路外环[W408路];503路;527路;601路;606路;721路;737路;K559路,湖北省,武汉市,江汉区,,unknown,
baidu,e1af17898f5c70c3420245a5,新佳丽时尚广场-接送点,武汉市江汉区新佳丽时尚广场附近,湖北省,武汉市,江汉区,,unknown,
baidu,80885cce5b51ce1dad31e537,广益天下二期南侧停车场,武汉市江汉区民权路广益·天下-二期,湖北省,武汉市,江汉区,,unknown,
baidu,e478dbbc932361fdf5c59cc2,钻石大厦-地上停车场,武汉市江岸区鄱阳街8号江汉路32号,湖北省,武汉市,江岸区,,unknown,
baidu,0974dc2cfb68df3504026fc2,西福巷南侧停车场,武汉市江汉区民主一街西福巷南侧,湖北省,武汉市,江汉区,,unknown,
baidu,5761f72a96607a402fe67bea,长江航运中心小区-地下停车场,武汉市黄陂街14-16号长江航运中心小区,湖北省,武汉市,江汉区,,unknown,
baidu,a08f7acafb2395b53f9a5e7d,民意一路,506路,湖北省,武汉市,江汉区,,unknown,
baidu,c41a0bbacf3b3e56354aaea4,时代美博城-地下停车场,湖北省武汉市江汉区前进街街道前进一路6号,湖北省,武汉市,江汉区,,unknown,
baidu,fbc18c86756127b0ebe582bb,中山大厦北侧停车场,武汉市江汉区民族路中山大厦北侧,湖北省,武汉市,江汉区,,unknown,
baidu,41e14c3f1b85fc17b9df8f1c,信泰公寓-停车场,黄陂街6号,湖北省,武汉市,江汉区,,unknown,
baidu,938686c685cf9993fa0cadc2,港16码头,武汉市江汉区沿江大道江滩10号,湖北省,武汉市,江汉区,,unknown,
baidu,49deb7136401770fc03644aa,正信大厦-停车场,武汉市江岸区江汉路步行街正信大厦,湖北省,武汉市,江岸区,,unknown,
baidu,7ece357a04b3e2bf40e192b5,长航公安警备码头,湖北省武汉市江汉区沿江大道江滩9号,湖北省,武汉市,江汉区,,unknown,
baidu,64f2875b8eab5d4fbd4842b3,大董社区-地上停车场,武汉市江汉区花楼街武汉市人民中学,湖北省,武汉市,江汉区,,unknown,
baidu,c4e757f04142679ed13ce314,龙王庙北侧-地上停车场,湖北省武汉市江汉区江汉路商圈大兴一路13号,湖北省,武汉市,江汉区,,unknown,
baidu,b157aa100e275909110daacd,中山公园,地铁2号线,湖北省,武汉市,江汉区,,unknown,
baidu,bb6152d77101d6ad39e4a61c,沿江大道王家巷,7路;9路;30路;119路;248路;408路内环[N408路];408路外环[W408路];503路;523路;527路;606路;721路;737路;K559路,湖北省,武汉市,江汉区,,unknown,
baidu,b0f9f7c0d7ddcec6c4f025a2,哪儿充充电站(景江华庭站),民意街街道前进一路景江华庭,湖北省,武汉市,江汉区,4000273998,unknown,
baidu,c75523613e15b9881f389483,长江大厦-内部专用地下停车场,湖北省武汉市江汉区民权路1号长江大厦,湖北省,武汉市,江汉区,,unknown,
baidu,6dcda02c7766087f2fe67b2a,武汉越秀IFC国金天地-地下停车场,湖北省武汉市江汉区新华路78号,湖北省,武汉市,江汉区,,unknown,
baidu,48b2e425d398cd252fe67bc1,华中科技大学同济医学院附属协和医院-地上停车场,湖北省武汉市江汉区解放大道1277号,湖北省,武汉市,江汉区,,unknown,
baidu,fe11222ea047ad869ff7798b,武汉世纪中心-接送点,武汉市江汉区武汉世纪中心附近,湖北省,武汉市,江汉区,,unknown,
baidu,3306b45aa42dc97acd04efce,长航大厦-地上停车场,武汉市江汉区沿江大道69号长航大厦,湖北省,武汉市,江汉区,,unknown,
baidu,8040ec62bde2c0edc61e517c,耕辛里小区-停车场,江汉区前进五路67号-602室,湖北省,武汉市,江汉区,,unknown,
baidu,d8795438741c43beea1e9763,利济北路,地铁1号线,湖北省,武汉市,硚口区,,unknown,
baidu,faad88264f44783b0f0a70ec,停车场,武汉市江汉区江汉路步行街和记黄埔世纪江尚,湖北省,武汉市,江汉区,,unknown,
baidu,873494ac0df21300c61b7559,沿江一号MALLD5区-地下停车场,武汉市江汉区沿江大道1号,湖北省,武汉市,江汉区,,unknown,
baidu,a857a73842b06a59c356ac2c,中山大厦-地上停车场,武汉市江汉区民族路129号中山大厦,湖北省,武汉市,江汉区,,unknown,
baidu,67f669a50e3873a6ae31e537,泰源轻纺城B座-地下停车场,武汉市江汉区友谊南路14号泰源轻纺城北区B区B座,湖北省,武汉市,江汉区,,unknown,
baidu,9b40e60bf9f7a30d4151c0f2,济生社区-停车场,湖北省武汉市江汉区前进一路18号,湖北省,武汉市,江汉区,,unknown,
baidu,527bcf286d0e58d6f5231054,湖北航务大厦-停车场,武汉市江汉区沿江大道68号湖北航务大厦,湖北省,武汉市,江汉区,,unknown,
baidu,ee745562b358c884cf06a482,小桔充电充电站(立充-大智路充电站),湖北省武汉市江岸区车站街道大智路92,湖北省,武汉市,江岸区,4000610999,unknown,
baidu,ae61324825ba265a7369d307,大智路,地铁1号线;地铁6号线,湖北省,武汉市,江岸区,,unknown,
baidu,1a2699fcf778619758f6bed9,武胜路,地铁6号线,湖北省,武汉市,硚口区,,unknown,
baidu,55cc4163f001c7298c55ec2f,新舞台社区-西区-停车场,友谊路8号,湖北省,武汉市,江汉区,,unknown,
baidu,914ef01d66483a994051c09e,王家巷码头,轮渡君旅号商旅游船,湖北省,武汉市,江汉区,,unknown,
baidu,3b640cd095bb8fe9a5da3923,汇江大厦-地上停车场,武汉市江汉区民权路35号汇江大厦,湖北省,武汉市,江汉区,,unknown,
baidu,1d06080832065ed03310affc,民主一街前进三路,38路;520路;608路;707路;801路,湖北省,武汉市,江汉区,,unknown,
baidu,44d4fa2d6da047c29e95de6d,前进南侧临时停车点,武汉市江汉区三民路中山大厦北侧约40米,湖北省,武汉市,江汉区,,unknown,
baidu,baaf0f3f66aa4aa63b221c44,正信大厦-接送点,武汉市江岸区正信大厦附近,湖北省,武汉市,江岸区,,unknown,
baidu,0296017c55a427b23b221c2c,长江大厦-接送点,武汉市江汉区长江大厦附近,湖北省,武汉市,江汉区,,unknown,
baidu,fe6ed47efdb53bd05abbbc79,武汉公共自行车前进一路站,武汉市江汉区前进一路星火同益大厦,湖北省,武汉市,江汉区,,unknown,
baidu,9be24cadcd10a44f354aaeb9,满喜里小区-地上停车场,武汉市江汉区满喜里16满喜里小区,湖北省,武汉市,江汉区,18688848596,unknown,
baidu,69c274330ce2da28b05c6a32,汇江大厦-地下停车场,湖北省武汉市江汉区民权路37号,湖北省,武汉市,江汉区,,unknown,
baidu,431543e7a7dfc44ce60738da,武汉公共自行车武汉关站,武汉市江汉区沿江大道武汉轮渡武汉关码头,湖北省,武汉市,江汉区,,unknown,
baidu,1f5002c786fc6a97e607388d,民权公寓-地下停车场,湖北省武汉市江汉区民权路65号民权公寓,湖北省,武汉市,江汉区,,unknown,
baidu,5445fc9636df32672cb17e37,城市便捷酒店(武汉江汉路佳丽广场店)-地上停车场,武汉市江汉区前进五路城市便捷酒店(武汉江汉路佳丽广场店),湖北省,武汉市,江汉区,,unknown,
baidu,2bef23bdb0ebad72a5da3964,星火同益大厦-C座西北,武汉市江汉区前进一路同益社区,湖北省,武汉市,江汉区,,unknown,
