source,bd_uid,name,address,province,city,area,tel,poi_type,tag
baidu,fc7ae63912ef70856318098c,东关街美食广场,东关街302号,江苏省,扬州市,广陵区,(0514)87090999,unknown,
baidu,74c933fb9d6563479e82ead6,共和春(甘泉路店),甘泉路79号,江苏省,扬州市,广陵区,15105276392,unknown,
baidu,3590f94259695093fea7786c,太函春,湾子街155号,江苏省,扬州市,广陵区,"(0514)87866348,13621804144",unknown,
baidu,43cf275e618102e7e5e965e0,清真鸿兴民族饭店·烤鸡·简餐,国庆路292号,江苏省,扬州市,广陵区,"13390669563,19996626717",unknown,
baidu,983db7da4aa8061c4251c0af,冶春(东关街店),东关街270-3号,江苏省,扬州市,广陵区,(0514)85587977,unknown,
baidu,e75d1b72ac540c998bb988e1,粗茶淡饭(东关街店),东关街207号,江苏省,扬州市,广陵区,13222665833,unknown,
baidu,c256a9d2982f961172455b20,教场美食巷子(国庆路店),国庆路119号,江苏省,扬州市,广陵区,,unknown,
baidu,2c21f135c5bf7b604bfc8dad,毛牌楼(刘家人店),广陵路336号（人民商场东行100米）,江苏省,扬州市,广陵区,(0514)87358768,unknown,
baidu,d6df91c1a09b8417f6b91697,教场咸货火锅(国庆路店),国庆路教场119号,江苏省,扬州市,广陵区,18352760480,unknown,
baidu,f32a5a3587316a1b35b06c0b,茴香阁,国庆路东圈门54号,江苏省,扬州市,广陵区,18061833590,unknown,
baidu,02bbdea92daf68f85e17c360,未可营地·烧烤·酒馆(皮市街店),皮市街北口,江苏省,扬州市,广陵区,13013701317,unknown,
baidu,124a6ecd716a6ce66c3e1b7c,壶园美食·淮扬菜(东圈门店),东圈门52号,江苏省,扬州市,广陵区,13179774228,unknown,
baidu,2d994ab9d72fb8cd455726c4,扬州小酒店,莲花街坊12栋,江苏省,扬州市,广陵区,13773412986,unknown,
baidu,893287f347506e438f1a8963,双东酒店(东关街店),江苏省扬州市广陵区文昌中路366号琼花观西侧,江苏省,扬州市,广陵区,(0514)87327727,unknown,
baidu,eb6c68c57ab08a3486420e6a,刘记光大火锅鸡(国庆路店),国庆路100-4号,江苏省,扬州市,广陵区,18252735867,unknown,
baidu,01581bbf383cca006c476065,扬大酸奶,东圈门与五谷巷交叉口正东方向34米,江苏省,扬州市,广陵区,,unknown,
baidu,886f629907b48c7a2afc48e1,二当家牛肉串串火锅(广陵区国庆路店),东关街道国庆路教场119号(教场秦淮坊103),江苏省,扬州市,广陵区,13951184717,unknown,
baidu,8a825ef95d42c0aed7851f5d,独一灶铜火锅鸡(东关街国庆路店),国庆路119号-4,江苏省,扬州市,广陵区,(0514)82223387,unknown,
baidu,ec809337373b19132efaa7c2,曹疯子重庆火锅(国庆路东关街店),国庆路119号3幢105室,江苏省,扬州市,广陵区,(0514)87798111,unknown,
baidu,f0d2db1cb33e961a8605bff3,荟友园老火锅,国庆路119号7号楼113、114、115,江苏省,扬州市,广陵区,13375284868,unknown,
baidu,8388b6c70da2d6512cb17e6f,富临壶园(东关街店),文昌中路东圈门22号(长乐客栈西侧),江苏省,扬州市,广陵区,(0514)87822277,unknown,
baidu,1fbbfd807768053214948ef0,青莯_Percher Coffee Shop(皮市街店),"皮市街131号2楼（皮市街游客中心对面那栋楼,绕过公厕右转门在后面上二楼）",江苏省,扬州市,广陵区,13151117587,unknown,
baidu,0f3379214a7deffa86420ee3,luckincoffee瑞幸咖啡(扬州皮市街店),皮市街小吃中心一层4号,江苏省,扬州市,广陵区,"13800138000,13900139000",unknown,
baidu,a82eba887e7e21f7246e9872,时座西式简餐(皮市街店),皮市街131号田家炳中学向南100米,江苏省,扬州市,广陵区,13291389926,unknown,
baidu,4fafc50421d75bbaef74f8c4,小富豪餐馆(东圈门店),皮市街与文昌中路交叉口北80米,江苏省,扬州市,广陵区,(0514)82852098,unknown,
baidu,9f2104c4bbaa1f629e82ea8c,端荣烧饼,皮市街137号皮市街,江苏省,扬州市,广陵区,15952704962,unknown,
baidu,f633606ae83769570b69d9d1,大嫂美食(东关街道店),东关街观巷30号,江苏省,扬州市,广陵区,"(0514)87937877,15062832108",unknown,
baidu,a647dd9e1be0b93feb12e44e,小小梅花糕,皮市街与万寿街交叉口南20米,江苏省,扬州市,广陵区,,unknown,
baidu,ea071827ef66dc79d4851f17,星巴克(扬州茂业百货店),文昌中路396号一层F.01.031.00050铺位,江苏省,扬州市,广陵区,(0514)82890778,unknown,
baidu,00936c3d7007231921022005,皮市街大油火烧,皮市街75号（近皮市街中部新民巷入口）,江苏省,扬州市,广陵区,13665225659,unknown,
baidu,df9d28494da4d26945572638,肯德基(琼花观店),文昌中路364号,江苏省,扬州市,广陵区,"(0514)89986660,4009200715",unknown,
baidu,e2f7e9bb7368004bddee8ba3,五亭吟春茶社(国庆路店),国庆路95号,江苏省,扬州市,广陵区,(0514)87251777,unknown,
baidu,5dfd9bc24e0ba092be4842fa,蜜雪冰城(教场店),国庆路208号,江苏省,扬州市,广陵区,15252570885,unknown,
baidu,9ed5875a3b098942c336445e,浮生记(皮市街店),皮市街85号,江苏省,扬州市,广陵区,"(0514)87325187,18021329285",unknown,
baidu,125a164296b8892da8f0cde7,阿三嫂·民间淮扬菜(东关街店),东关街302号东关街美食广场8号302号东关街美食广场8号楼,江苏省,扬州市,广陵区,"(0514)87866075,15252364861",unknown,
baidu,5380ee3f19fc39e2eb12e416,黑芝麻糊(东圈门总店),东圈门43号,江苏省,扬州市,广陵区,13401297761,unknown,
baidu,abeaeb6fce4893395fd4febc,鲜芋仙(扬州东关街店),文昌中路378号银河电子城对面,江苏省,扬州市,广陵区,13616293087,unknown,
baidu,ed154b0a1cb38447c909f0f3,老四川(国庆路店),江苏省扬州市广陵区东关街道国庆路77号,江苏省,扬州市,广陵区,,unknown,
baidu,be1ea5efe3e788a614948ed0,韵香食坊(东圈门店),东圈门56号（近双东景区),江苏省,扬州市,广陵区,13511743936,unknown,
baidu,642f2f35c560e62c3ce2310b,随园·淮扬菜(国庆路店),国庆路290号（东圈门停车场对面）,江苏省,扬州市,广陵区,"(0514)87932577,18912121790",unknown,
baidu,b75d50bd499a6093b64f5482,泸溪河桃酥(广陵东域城店),国庆路290号东域城1F-018（麦当劳旁边）,江苏省,扬州市,广陵区,"18014066387,18061601297,4008271718",unknown,
baidu,a638cc14795d847cc91b9583,滋奇火锅(东关街店),文昌中路492号,江苏省,扬州市,广陵区,(0514)82369577,unknown,
baidu,258281a089913782b6147fd4,One Bagel·一个贝果(扬州皮市街店),皮市街163-2号,江苏省,扬州市,广陵区,19905271260,unknown,
baidu,a99991167dfbe72303ec014a,藕韵(东关街店),马家巷58号（东关街与马家巷交叉口东南角）,江苏省,扬州市,广陵区,18014057591,unknown,
baidu,b1c556e8585d7415b42655d0,蒋家桥饺面店(广陵路店),徐凝门路B2幢1-2轴,江苏省,扬州市,广陵区,18912122358,unknown,
baidu,91106f3c7efa1a24fadc855e,壹甘食肆·西式家庭餐厅,国庆路119号教场秦淮坊10栋底商内,江苏省,扬州市,广陵区,18652501520,unknown,
baidu,c16f50a7ffec986a4e3a5956,仒仒·bingbing,江苏省扬州市广陵区皮市街48号,江苏省,扬州市,广陵区,18652577622,unknown,
baidu,9f9e93b0f80c57b38f55ec6b,浮生记(东圈门店),东圈门44号,江苏省,扬州市,广陵区,18021329285,unknown,
baidu,3da2109baa6cb81ca5da39dc,惜春樓茶社(教场店),国庆路119号教场秦淮坊4栋105号祥威烟酒便利店旁,江苏省,扬州市,广陵区,15252555455,unknown,
baidu,64207a9d6a117e0e0a5cb38c,许可小吃(皮市街店),茂盛桥1-1号,江苏省,扬州市,广陵区,15112323337,unknown,
baidu,b6778257d1b4f28ff942b28a,緑楊蘇,皮市街116-2号,江苏省,扬州市,广陵区,,unknown,
baidu,d7fd2ad37024f74d0bccddd1,陈氏鸭血粉丝汤(渡江路店),东关街道,江苏省,扬州市,广陵区,,unknown,
baidu,90911d91c3cf07d29e82ea62,曾三仙米线(国庆路店),国庆路93号,江苏省,扬州市,广陵区,19951080777,unknown,
baidu,eaaf366b480cd11ee6e965a3,邵记烤鸭,国庆路162号附近,江苏省,扬州市,广陵区,,unknown,
baidu,4227daf6e2633f548c55ecfc,福气涮肉,皮市街75号,江苏省,扬州市,广陵区,15105279998,unknown,
baidu,0359e7f0c5aadfce354aae25,HungryPUFF泡芙饿了(教场店),国庆路119号教场·秦淮坊7-130号,江苏省,扬州市,广陵区,18796601688,unknown,
baidu,6bbd2a1e63c611e9d0ff23ec,仇记腰花面馆(国庆路店),国庆路290号,江苏省,扬州市,广陵区,18051440770,unknown,
baidu,5b25f4463dfc63f3102935d4,大麒麟阁(国庆路店),国庆路52号,江苏省,扬州市,广陵区,"(0514)87324199,(0514)87344826",unknown,
baidu,7d385bd988319883c909f0cb,馋幺妹·本草卤味(国庆南路店),东关街道文昌中路215-3号（市一中对面）,江苏省,扬州市,广陵区,13952731031,unknown,
baidu,007f7f6faf3a3f0dd42ce2d2,桔柒cafe(湾子街店),湾子街242号,江苏省,扬州市,广陵区,18012128282,unknown,
baidu,3ed012d365f7814041d63e2e,花儿与粥(东关街店),萃园路19号,江苏省,扬州市,广陵区,15105278990,unknown,
baidu,1518e81697bfce869e95def0,库迪咖啡(扬州银河电子城店),东关街道文昌中路378号地官弟33/35号(工商银行往东),江苏省,扬州市,广陵区,19962620679,unknown,
baidu,d9ee17b6b7c5df92631809aa,扬大康源乳业鲜奶吧(东关街店),东关街道文昌中路221号(琼花观正对面),江苏省,扬州市,广陵区,(0514)80787878,unknown,
baidu,b8434bc90bad19ad2dfaa755,云香阁(地官弟店),文昌中路地官第4号（汪氏小苑向东100米）,江苏省,扬州市,广陵区,(0514)87351972,unknown,
baidu,4ee46a9ca7e73faebe4842f0,起点小炭炉,东关街道雀笼巷国庆路119号7-125室,江苏省,扬州市,广陵区,15105279998,unknown,
baidu,eae0063b4f591bae17948e8b,扬州老鹅(得胜桥店),国庆路80号,江苏省,扬州市,广陵区,13852703848,unknown,
baidu,270e33715d5b8f3b128824cb,春熙谢茶(扬州国庆路店),国庆路265号-101,江苏省,扬州市,广陵区,18556131586,unknown,
baidu,feb46fdd7ca165a4f7e73b1f,鸣门鲷烧本铺(皮市街店),皮市街136号,江苏省,扬州市,广陵区,15305276686,unknown,
baidu,bd7a01cc4796e0b02bb97cdc,兰州拉面(银河店),文昌中路378号,江苏省,扬州市,广陵区,15152725233,unknown,
baidu,61e94c22d74ccdd87dc8769f,扬州药膳酥,江苏省扬州市广陵区东关街106-1号,江苏省,扬州市,广陵区,,unknown,
baidu,26720e47df8d41a025e0a07f,小城印象·小城壹锅(国庆路店),国庆路教场秦淮坊1栋101,江苏省,扬州市,广陵区,13605270028,unknown,
baidu,48d93e8ac0601fdb01294f63,扬州吃不忘卤菜(扬州总店),扬州市广陵区国庆路教场秦淮坊,江苏省,扬州市,广陵区,,unknown,
baidu,6aaddfdb9a9a346d2b11d145,佳菲猫芝士焗饭,江苏省扬州市广陵区琼花路88号,江苏省,扬州市,广陵区,13815800638,unknown,
baidu,aa2543b736291b2a047ce8b8,猫糖Cake(萃园店),萃园路19-4号,江苏省,扬州市,广陵区,13405554744,unknown,
baidu,6734db03081210e4fb2d61f5,苦萌饮品简餐,江苏省扬州市广陵区东关街道皮市街148号,江苏省,扬州市,广陵区,,unknown,
baidu,9cceaba4ae73b6cd29fc4879,龙古堂,江苏省扬州市广陵区古旗亭街76号,江苏省,扬州市,广陵区,15062820051,unknown,
baidu,2112c168c54a2a1702294f60,千葉料理·果木碳火烤肉(教场店),国庆路119号教场7幢内街,江苏省,扬州市,广陵区,13952752231,unknown,
baidu,e46240beaa603d1838221ccc,城市堡垒烧饼夹羊肉串,皮市街田家炳实验中学西南侧约30米,江苏省,扬州市,广陵区,,unknown,
baidu,7e18702ba5289ebf72455b42,城楼茶咖,东圈门路60号（东圈门城楼旁）,江苏省,扬州市,广陵区,18136557058,unknown,
baidu,35dcebe5f4076ea8bfa822cd,有幸烘焙工作室(教场店),教场·秦淮坊162号,江苏省,扬州市,广陵区,18118257828,unknown,
baidu,94df8ad75de81beb96f08c30,TAAR塔尔咖啡,观巷23号,江苏省,扬州市,广陵区,15366140602,unknown,
baidu,8a9e02a96bfe6676902ca32d,刘氏华人特色烧饼,国庆路桔子水晶酒店(文昌阁店)东南侧约60米,江苏省,扬州市,广陵区,13732308237,unknown,
baidu,e6e5e8ae8a830635bb17e7bb,couple(皮市街店),皮市街61号,江苏省,扬州市,广陵区,18652511411,unknown,
baidu,d4d48d85e3e0ea520bccdd00,茶饮铺,扬州市广陵区国庆路教场秦淮坊,江苏省,扬州市,广陵区,,unknown,
baidu,9ddfd08fb5c482f22fb17e41,方才,扬州市广陵区皮市街田家炳实验中学南侧约220米,江苏省,扬州市,广陵区,,unknown,
baidu,37be73793ab7c1b640e19297,重庆特色,扬州市广陵区国庆路北城根东巷15-4号小区东北侧约260米,江苏省,扬州市,广陵区,,unknown,
baidu,a983bddcc9d8b5e0d8eced59,百姓陈记咸货,扬州市广陵区国庆路教场秦淮坊,江苏省,扬州市,广陵区,,unknown,
baidu,07e76a69d03548d79900501c,皮市街,皮市街,江苏省,扬州市,广陵区,(0514)87237094,unknown,
baidu,5978cfe92ad04a0404fef54d,茂业百货(文昌店),扬州市广陵区文昌中路396号,江苏省,扬州市,广陵区,(0514)87022015,unknown,
baidu,a1c0e7e4b5a089669cec2b88,宏信龙超市(文昌店),扬州市广陵区文昌中路396号茂业百货F1,江苏省,扬州市,广陵区,,unknown,
baidu,01d2046f39e2c15c21022078,扬大牛奶文化站奶点,江苏扬州市广陵区湾子街155号,江苏省,扬州市,广陵区,,unknown,
baidu,08839c04f4e62efdd618b73d,瑞和祥,文昌中路319号,江苏省,扬州市,广陵区,15952769658,unknown,
baidu,b61ebd56c4ca77d84c3a5939,金羽杰(文昌中路店),文昌中路345号,江苏省,扬州市,广陵区,13813174566,unknown,
baidu,7e58ac31dcf2b3bfc51b75a3,完美视界(文昌茂业百货店),扬州市广陵区文昌中路396号茂业百货,江苏省,扬州市,广陵区,18752710895,unknown,
baidu,3801150df01bea5af80cad0b,谢馥春(东圈门店),江苏省扬州市广陵区东圈门44号楼(茂业百货西),江苏省,扬州市,广陵区,13852701727,unknown,
baidu,dd250e952817ed21740269f2,猫人(文昌中路店),江苏省扬州市广陵区东关街道文昌中路375号,江苏省,扬州市,广陵区,,unknown,
baidu,4bf5ec9e859f17ce2dfaa7c2,景泰蓝,扬州市广陵区东关街197-1号,江苏省,扬州市,广陵区,13665283504,unknown,
baidu,0bacc70a9687b6b66f476020,七叶的杂货铺,国庆路380号,江苏省,扬州市,广陵区,,unknown,
baidu,3e7299d096c651de2a02e133,中国古琴第一街,东关街花局里11号,江苏省,扬州市,广陵区,"(0514)87318676,18012311213",unknown,
baidu,5a0bf8a316616c7e593ac850,我慢杂货店(皮市街店),皮市街116-1,江苏省,扬州市,广陵区,(0514)87325187,unknown,
baidu,879e7c6176b0c8c52b11d12d,步西尼(文昌茂业百货店),扬州市广陵区文昌中路396号茂业百货F4,江苏省,扬州市,广陵区,,unknown,
baidu,a36faa5ee32ffd896140a9c3,禧爱,扬州市广陵区文昌中路莲花街坊,江苏省,扬州市,广陵区,,unknown,
baidu,088e29ea083aab2e00ff2d6a,猫人(茂业百货文昌店),扬州市广陵区文昌中路396号茂业百货F3,江苏省,扬州市,广陵区,,unknown,
baidu,38eb8810679c15a486330459,乡村振兴全国特产体验店(文昌中路店),扬州市广陵区文昌中路莲花街坊,江苏省,扬州市,广陵区,,unknown,
baidu,f7c655cf0b28c6f7912ca358,银河电子城,文昌中路255号,江苏省,扬州市,广陵区,(0514)87315580,unknown,
baidu,7b8b08f29b2d2690b64f5418,绣行天下,东关街119号,江苏省,扬州市,广陵区,,unknown,
baidu,d151f2a1467e3eb693114c1d,谷登,鑫园路3号,江苏省,扬州市,广陵区,,unknown,
baidu,5ffb181669be78236f476016,银河电子城-A区,扬州市广陵区文昌中路255号,江苏省,扬州市,广陵区,(0514)87315580,unknown,
baidu,4587df08c0c7d771715e8056,彩衣街农贸市场,江苏省扬州市广陵区彩衣街18号,江苏省,扬州市,广陵区,(0514)87358733,unknown,
baidu,5b8ce1680acf28d42fb17ee1,罗森便利店(何园店),徐凝门大街A9号楼102号,江苏省,扬州市,广陵区,"(0514)80320228,4008206390",unknown,
baidu,9e829dbb7f8ce7622fb9080b,盛丰百货商行,江苏扬州市广陵区东圈门58-1号1,江苏省,扬州市,广陵区,,unknown,
baidu,ccf8ac37a6a15bf441e192c4,罗莱家纺(文昌中路店),文昌中路393号,江苏省,扬州市,广陵区,(0514)87346648,unknown,
baidu,caf69dc36184a6a49fec2bda,方圈门农贸市场,广陵路159-1号,江苏省,扬州市,广陵区,(0514)87344446,unknown,
baidu,3bfce91b65936c2c8c1a89d1,新航程便利店,江苏省扬州市广陵区国庆路106号,江苏省,扬州市,广陵区,18994874003,unknown,
baidu,d6ee8724c946d5e3a8f0cdd2,吾中便利店,皮市街158-2号,江苏省,扬州市,广陵区,,unknown,
baidu,8db6e009c83b51d481a12e80,谢馥春(皮市街国妆研学所),江苏省扬州市广陵区皮市街87号,江苏省,扬州市,广陵区,13004390885,unknown,
baidu,b6481c5568d0305812882483,来吉奇小六子,江苏省扬州市广陵区国庆路152号,江苏省,扬州市,广陵区,,unknown,
baidu,d37d915a47873573d518b783,印象(国庆路店),江苏省扬州市广陵区国庆路122号,江苏省,扬州市,广陵区,,unknown,
baidu,9f455eeb00a1cea62afc48b4,扬州银河电子城-B区/C区,扬州市广陵区文昌中路51栋502室,江苏省,扬州市,广陵区,,unknown,
baidu,1cbeb18f1b73872d9d82eaf1,快玉隆便利店,江苏省扬州市广陵区国庆路150号,江苏省,扬州市,广陵区,13817011189,unknown,
baidu,0ea6a79c6524346ecc06a4e4,苏显科技技嘉金牌店,江苏省扬州市广陵区东关街道皮市街158-2,江苏省,扬州市,广陵区,,unknown,
baidu,fa1c52caee03d0e59e95dec7,通洋(国庆路店),江苏省扬州市广陵区东关街道国庆路112号,江苏省,扬州市,广陵区,18952784799,unknown,
baidu,231f810d252034629a00506b,GIANT捷安特(文昌中路店),文昌中路281号,江苏省,扬州市,广陵区,18952721220,unknown,
baidu,0b43b148c8a6ed96eb12e4be,边城书店(皮市街老店),江苏省扬州市广陵区皮市街111号,江苏省,扬州市,广陵区,13951431774,unknown,
baidu,629836aeb3b54738455726d1,盛荣户外(凯乐石旗舰店),江苏省扬州市广陵区东关街道文昌中路275号,江苏省,扬州市,广陵区,,unknown,
baidu,d82d6697dd33c1bfd518b7d5,三和四美酱品专卖店,东关街道国庆路132号(菜根香对面),江苏省,扬州市,广陵区,(0514)87341229,unknown,
baidu,1ee6fb3403a032b041d63eff,来伊份(文昌中路四店),文昌中路355号,江苏省,扬州市,广陵区,"(0514)82088797,(0514)87363227",unknown,
baidu,72d74ce0d0978e57b9df8fa5,丝丝新语假发(扬州旗舰店),江苏省扬州市广陵区文昌中路293号,江苏省,扬州市,广陵区,,unknown,
baidu,c61bd3053650c868c27da251,龙凤金店(文昌中路店),文昌中路363号,江苏省,扬州市,广陵区,(0514)87332015,unknown,
baidu,3264cda4aac51c6a715e803c,熙和汉服馆,东圈门26-1号,江苏省,扬州市,广陵区,17352466699,unknown,
baidu,08f1f1f52c14bbc988db73cc,声雨竹(文昌中路店),文昌中路377号,江苏省,扬州市,广陵区,,unknown,
baidu,580e6190e7bf5acb9e95dedd,芳草心花屋(文昌中路店),江苏省扬州市广陵区文昌中路295号,江苏省,扬州市,广陵区,15195583322,unknown,
baidu,77feb83bad1868cc0a5cb365,GUJIN古今(文昌中路店),江苏省扬州市广陵区东关街道文昌中路267号,江苏省,扬州市,广陵区,(0514)87352107,unknown,
baidu,dd0f526c9f9aba9b79dbd2d4,爱情草花行,江苏省扬州市广陵区文昌中路395号,江苏省,扬州市,广陵区,13373678678,unknown,
baidu,b292b3aafd8a3a4fbe484220,谢馥春(国庆路店),东关街道国庆路51号(大麒麟阁对面),江苏省,扬州市,广陵区,13291380292,unknown,
baidu,c6621632dad4ab0f01294f3b,胡顺兴刀剪老店(国庆路店),国庆路142号,江苏省,扬州市,广陵区,(0514)87345292,unknown,
baidu,850815e147c63ae543e19207,波司登(文昌中路店),文昌中路403号,江苏省,扬州市,广陵区,(0514)87930133,unknown,
baidu,f70c0bec9c6a5372aeee7aab,扬大牛奶直销点(北柳巷店),文昌中路北柳巷46号,江苏省,扬州市,广陵区,15952753681,unknown,
baidu,4b93e205e0c5ae6e32870a70,昌盛面料,江苏省扬州市广陵区文昌中路317号,江苏省,扬州市,广陵区,13270549628,unknown,
baidu,cff721df18eaea652e473321,安踏(文昌茂业百货店),扬州市广陵区文昌中路396号茂业百货F5,江苏省,扬州市,广陵区,,unknown,
baidu,d3ce2205763af1b9250bd022,金木鱼布鞋(国庆路店),江苏省扬州市广陵区东关街道国庆路158号,江苏省,扬州市,广陵区,13805258769,unknown,
baidu,6a535838038df8896c3e1b98,永兴丝绸店,江苏省扬州市广陵区文昌中路299号,江苏省,扬州市,广陵区,13222695590,unknown,
baidu,764672e50b2573b494ec84ca,戴春林(东关街店),东关街181号,江苏省,扬州市,广陵区,"(0514)87347218,13382727218",unknown,
baidu,aaa5acde8491e6b2f503b894,茉等花开(皮市街店),皮市街130-1号,江苏省,扬州市,广陵区,18762320464,unknown,
baidu,c219bcdfcf2bd512dbeced47,绿杨春茶叶店(东关街店),东关街388号,江苏省,扬州市,广陵区,(0514)87937788,unknown,
baidu,deb5ac0fbf580d1509b93a27,扬州漆器厂(东关街店),东关街200号,江苏省,扬州市,广陵区,(0514)87317831,unknown,
baidu,14529236a9be2a3dd4851fcc,零料大王,江苏省扬州市广陵区文昌中路335号,江苏省,扬州市,广陵区,15052502345,unknown,
baidu,3dc9befd0b43f415bea240cc,九牧王男装(茂业百货文昌店),文昌中路387号,江苏省,扬州市,广陵区,"(0514)87012399,13805271990",unknown,
baidu,075d8c59462a4711b23c81b8,重构十二方(东关历史文化旅游区店),江苏省扬州市广陵区东关街道地官第14号,江苏省,扬州市,广陵区,19962640422,unknown,
baidu,c2df7877d18d68597c29bd4a,肥肥品牌(集合店),国庆路208号,江苏省,扬州市,广陵区,"(0514)87900287,(0514)87901395",unknown,
baidu,071a75c0eeef44f6ede4a5f3,卡帝乐鳄鱼(文昌茂业百货店),扬州市广陵区文昌中路396号茂业百货F5,江苏省,扬州市,广陵区,,unknown,
baidu,1e4bc081b41c96f9100daa2b,裤子大王(国庆路店),国庆路160号,江苏省,扬州市,广陵区,,unknown,
baidu,080ed7c096838eb1d6851f95,LUOLAI(文昌中路店),扬州市广陵区文昌中路莲花街坊西侧约30米,江苏省,扬州市,广陵区,,unknown,
baidu,8493efd399ca2345f03cbac9,姐妹裤袜店,江苏省扬州市广陵区国庆路186号,江苏省,扬州市,广陵区,13405555088,unknown,
baidu,b4dd40d7ad59fb69441a320a,尖峰科技,文昌中路255号银河电子城a区3楼,江苏省,扬州市,广陵区,,unknown,
baidu,7739a50b4420f761a21de9f7,ASUS华硕电脑(银河电子城店),江苏省扬州市广陵区文昌中路255号银河电子城一楼B152号,江苏省,扬州市,广陵区,13013749799,unknown,
baidu,db007e9802172d2ef4eafc58,经典男装,江苏省扬州市广陵区国庆路158号,江苏省,扬州市,广陵区,,unknown,
baidu,d379bdab851eb4c91fe9990a,濛努皮草,扬州市广陵区国庆路莲花街坊西南侧约170米,江苏省,扬州市,广陵区,,unknown,
baidu,b6b03d9cc25e0cb22806ce03,森奴杭州丝绸,扬州市广陵区国庆路莲花街坊西南侧约170米,江苏省,扬州市,广陵区,,unknown,
baidu,f928e3b3a9ad2b1fcae33cc4,皮市街电脑,江苏省扬州市广陵区皮市街158-7号,江苏省,扬州市,广陵区,,unknown,
baidu,751d278bcefc9d369a0050cf,焦五三把刀商铺,扬州市广陵区国庆路桔子水晶酒店(文昌阁店)东南侧约140米,江苏省,扬州市,广陵区,,unknown,
baidu,681ee3427fdc90a0b33c81f7,紫貂特卖(欧司绒),扬州市广陵区国庆路莲花街坊西南侧约240米,江苏省,扬州市,广陵区,,unknown,
baidu,c7d4016612b3825c250bd039,佳腾数码单反专卖,江苏省扬州市广陵区扬州银河电子城A区一楼,江苏省,扬州市,广陵区,13338854711,unknown,
baidu,62c6329043416024fa42b2be,暖艺纺(莲花街坊店),江苏省扬州市广陵区文昌中路391-1号,江苏省,扬州市,广陵区,13182014333,unknown,
baidu,ed1868c3d1d8d1a7c61b7503,瑞杰科技智能电脑体验店,江苏省扬州市广陵区皮市街158-8号,江苏省,扬州市,广陵区,,unknown,
baidu,90273ead0712a9eab54f543e,绿城电脑,江苏扬州市广陵区文昌中路255号银河电子城a区1楼,江苏省,扬州市,广陵区,,unknown,
baidu,5415c04b6d3ce61585420eff,扬州漆器,扬州市广陵区国庆路桔子水晶酒店(文昌阁店)东南侧约140米,江苏省,扬州市,广陵区,,unknown,
baidu,ef6628568b8b69509a005098,龙瑞安防,江苏省扬州市广陵区皮市街158-5号,江苏省,扬州市,广陵区,,unknown,
baidu,6450e09d9a32c8f6354aae91,惠众科技,江苏省扬州市广陵区文昌中路255号银河电子城a区3层,江苏省,扬州市,广陵区,,unknown,
baidu,25feb6cf96b5a3543a04b1a6,汪泰科居室,扬州市广陵区地官第18号汪氏小苑,江苏省,扬州市,广陵区,,unknown,
baidu,c2f4841a77277ca61e580041,木岩,江苏省扬州市广陵区皮市街91号附近,江苏省,扬州市,广陵区,,unknown,
baidu,53888d0a3ef7de1f3617dc10,皮市街游客中心,江苏省扬州市广陵区东关街道皮市街158号,江苏省,扬州市,广陵区,,unknown,
baidu,e9e8d09051ee9541c72ba195,扬州市民卡服务中心,文昌中路283号,江苏省,扬州市,广陵区,,unknown,
baidu,f7906ebd6aef6f091b11d5ea,扬州市伊斯兰幼儿园爱心母婴室,江苏省扬州市卸甲桥1号,江苏省,扬州市,广陵区,,unknown,
baidu,f0531b63b33aad454bcc4a5f,工会户外劳动者服务站(中国银行扬州文昌支行),江苏省扬州市文昌中路408号,江苏省,扬州市,广陵区,(0514)87343057,unknown,
baidu,493fb11ff8aa1b2fc51e516d,农情暖域工会驿站(农行扬州广陵支行营业部),江苏省扬州市广陵区文昌中路412号,江苏省,扬州市,广陵区,,unknown,
baidu,12504c7c1db27b36bc484238,汪氏小苑售票处,江苏省-扬州市-广陵区-地官弟18,江苏省,扬州市,广陵区,,unknown,
baidu,67a1a0535233cef66140a963,千姿古装摄影,东关街224-1号,江苏省,扬州市,广陵区,13813184753,unknown,
baidu,4b86365ab52877764151c0b3,小严制衣(文昌中路店),文昌中路307号,江苏省,扬州市,广陵区,13004306510,unknown,
baidu,963dd622a49f5107c356ac31,千秋粉黛演艺剧场-售票处,扬州市广陵区东关街243号(近谢馥春)馥园千秋粉黛演艺剧场,江苏省,扬州市,广陵区,,unknown,
baidu,177a9306f293c5efd4851f1d,琼花观-售票处,扬州市广陵区文昌中路360号琼花观,江苏省,扬州市,广陵区,,unknown,
baidu,2f375d67da0c995e5cd4fef3,仁丰里游客中心,扬州市广陵区仁丰里萃园城市酒店,江苏省,扬州市,广陵区,,unknown,
baidu,4b2cdec1de237c5285420efe,电脑手机维修回收,江苏省扬州市广陵区文昌中路364号银河电子城1楼,江苏省,扬州市,广陵区,18221562692,unknown,
baidu,a57beff70251a5dcadcb6609,个园-售票处,盐阜东路10号北门,江苏省,扬州市,广陵区,(0514)87935233,unknown,
baidu,cf3a80f0a59eec35283a9f0a,扬州公益园,江苏省扬州市广陵区国庆路323-4号2楼,江苏省,扬州市,广陵区,,unknown,
baidu,2ab75f0c7d141ba8a2d230a2,个园-游客中心,扬州市广陵区花局里90号,江苏省,扬州市,广陵区,,unknown,
baidu,070df1b38fe2e2a15cd4fee0,馥园-售票处,东关街243号(近谢馥春)馥园内,江苏省,扬州市,广陵区,(0514)87313790,unknown,
baidu,de3088a2598a9604c056aca4,东关街游客服务中心,江苏省扬州市广陵区泰州路59-15,江苏省,扬州市,广陵区,,unknown,
baidu,d18c1b8216ad8026d518b732,扬州曜阳养老服务中心(国庆路),江苏省扬州市广陵区东关街道国庆路323号,江苏省,扬州市,广陵区,(0514)82880355,unknown,
baidu,713d2a06a07e6ef73310af40,东关便民中心,扬州市广陵区观巷堡尼商务大厦北门西北侧约30米,江苏省,扬州市,广陵区,,unknown,
baidu,acbe7990f2c0c86507026fb3,何园-票务中心,江苏省扬州市广陵区徐凝门大街66号,江苏省,扬州市,广陵区,(0514)87900345,unknown,
baidu,d71e81d3c0d4e130a1d23007,东关古渡游船售票处,扬州市广陵区泰州路东关古渡,江苏省,扬州市,广陵区,,unknown,
baidu,1528855b01e2ead5adcb664e,树人学校女职工爱心母婴室,扬州市广陵区南门街82号,江苏省,扬州市,广陵区,,unknown,
baidu,acdcc2ab29492f1e0d3dda2b,东关历史文化旅游区-休息亭,扬州市广陵区泰州路东关历史文化旅游区,江苏省,扬州市,广陵区,,unknown,
baidu,c5ccadb5548a53db1ef74d18,帮每家家政,扬州市广陵区广陵路方圈门农贸市场西北侧约60米,江苏省,扬州市,广陵区,,unknown,
baidu,342bdb5fee53de6c2efaa737,张玉良纪念馆-售票处,江苏省扬州市广陵区东关街358号,江苏省,扬州市,广陵区,,unknown,
baidu,7da44ec976230a291894c6b3,江苏铁塔扬州文昌中路安康爱心驿站,扬州市文昌中路,江苏省,扬州市,广陵区,,unknown,
baidu,0ae4dc772fd545ca4f6d4634,必得广告(文昌中路店),文昌中路315号,江苏省,扬州市,广陵区,13605278466,unknown,
baidu,8bd02ee95be2426eb13c819f,云舒摄影工作室,江苏省扬州市广陵区湾子街174-3号,江苏省,扬州市,广陵区,15686116075,unknown,
baidu,474f18369e024fa4471a323a,安云制衣,文昌中路347号,江苏省,扬州市,广陵区,13815820138,unknown,
baidu,e3082848150fc9c1b34c49c1,公共厕所,江苏省扬州市广陵区文昌中路皇宫金座快捷酒店(茂业百货南),江苏省,扬州市,广陵区,,unknown,
baidu,855b43a0c16cee8d82288a1e,灯草行公共厕所,江苏省扬州市广陵区文昌阁文昌中路通运南街16号民居,江苏省,扬州市,广陵区,,unknown,
baidu,e206b1ba8f62222cf503b8b2,公共厕所,江苏省扬州市广陵区皮市街158-1号,江苏省,扬州市,广陵区,,unknown,
baidu,eacc488514505540028972c6,公共厕所,扬州市广陵区灯草行莲花街坊西南侧约130米,江苏省,扬州市,广陵区,,unknown,
baidu,3c9764792991f5d103ec016b,公共厕所,江苏省扬州市广陵区国庆路176,江苏省,扬州市,广陵区,,unknown,
baidu,ffb7c5021279ce0121f017a2,公厕,江苏省扬州市广陵区文化里(茂业百货东北),江苏省,扬州市,广陵区,,unknown,
baidu,aa162b180247ecd714c8f681,洗手间,扬州市广陵区小太平巷茂业百货(文昌店)北门东侧约90米,江苏省,扬州市,广陵区,,unknown,
baidu,31f9101b0296cfc726e0a012,公共卫生间,江苏省扬州市广陵区皮市街158-1号,江苏省,扬州市,广陵区,,unknown,
baidu,1ed01aa9b04783bb57bfffa4,盛荣时光印象摄影沙龙,文昌中路273号,江苏省,扬州市,广陵区,(0514)87369122,unknown,
baidu,ce60b80e0c1a1c1b6d20b9d9,富临壶园·宴会厅,扬州市广陵区文昌中路东圈门22号,江苏省,扬州市,广陵区,(0514)87822277,unknown,
baidu,7c9c8e9bfe41baef283a9fcd,公厕,扬州市广陵区东圈门扬州东关街,江苏省,扬州市,广陵区,,unknown,
baidu,e1e0b4dd079272efe8f8539d,名匠奢侈品,文昌中路426号,江苏省,扬州市,广陵区,4009336973,unknown,
baidu,32cec6d8975154e51f389462,公厕,扬州市广陵区地官第18号汪氏小苑,江苏省,扬州市,广陵区,,unknown,
baidu,bd2e0cc3e733797bd3ff231c,卫生间,江苏省扬州市广陵区东关街,江苏省,扬州市,广陵区,,unknown,
baidu,3b802143af4ca96b41d63ef2,桔子水晶扬州东关街文昌阁酒店-大堂,江苏省扬州市广陵区国庆路119号教场秦淮坊4幢107室,江苏省,扬州市,广陵区,,unknown,
baidu,a7bea18ad114c673f2193785,桐一家房产,江苏省扬州市广陵区湾子街215-1号,江苏省,扬州市,广陵区,15050723955,unknown,
baidu,4ec9362c13dddb3b07fef5ea,中国电信(皮市街店),江苏省扬州市广陵区皮市街158号,江苏省,扬州市,广陵区,13338851984,unknown,
baidu,60eee336e8cad2fafea77850,公厕,江苏省扬州市广陵区国庆路文昌中路交叉口北边正西方向40米,江苏省,扬州市,广陵区,,unknown,
baidu,33aa6c102b369877c7f02578,公共厕所,扬州市广陵区萃园路教场秦淮坊,江苏省,扬州市,广陵区,,unknown,
baidu,147051c6c64bb53feaf85313,公共厕所,江苏省扬州市广陵区湾子街25号,江苏省,扬州市,广陵区,,unknown,
baidu,776ab8550459cc7ea0acc40d,银河票务,文昌中路257号,江苏省,扬州市,广陵区,(0514)87821141,unknown,
baidu,cd41049a33932284bd48421c,曜阳托老所(扬州市琼花观所),扬州市广陵区三祝庵28号,江苏省,扬州市,广陵区,,unknown,
baidu,299fa1110ed5f9829122e01f,长城彩印,江苏省扬州市广陵区文昌中路445号,江苏省,扬州市,广陵区,18652527766,unknown,
baidu,cf80f4425fa66cb70e3ddaaf,公厕,江苏省扬州市广陵区谢家巷1号附近,江苏省,扬州市,广陵区,,unknown,
baidu,15d91e56accae27b6cc02c6f,公厕,江苏省扬州市广陵区东关街300号,江苏省,扬州市,广陵区,,unknown,
baidu,03e7554012854692873304c9,公厕,江苏省扬州市广陵区探花巷扬州市汶河小学(北柳巷校区)东侧约230米,江苏省,扬州市,广陵区,,unknown,
baidu,8e5ea10ee0557a9a22022067,公厕,扬州市广陵区马坊巷扬州东关街,江苏省,扬州市,广陵区,,unknown,
baidu,160204f6308b8b23d3ff23ff,新时空新典图文快运(文昌中路店),江苏省扬州市广陵区文昌中路237号,江苏省,扬州市,广陵区,(0514)87364358,unknown,
baidu,77848cda64bcf09133621236,良奇标牌,江苏扬州市广陵区国庆路70号,江苏省,扬州市,广陵区,,unknown,
baidu,fb74dfdba590ec070f0a701a,公共厕所,江苏省扬州市广陵区广陵路279号,江苏省,扬州市,广陵区,,unknown,
baidu,7d580f612f1ace06f4b916df,公共厕所,江苏省扬州市广陵区广陵路336号,江苏省,扬州市,广陵区,,unknown,
baidu,ba343ddbb7d88b662102202b,公厕,扬州市广陵区观巷东关历史文化旅游区,江苏省,扬州市,广陵区,,unknown,
baidu,ee6adfddac2b7fb6b11e368d,睿邦电脑维修,文昌中路372号,江苏省,扬州市,广陵区,13665217199,unknown,
baidu,0f918a21d4104118901fc92e,公共厕所,扬州市广陵区广陵路广陵小学(宛虹桥校区)东侧约100米,江苏省,扬州市,广陵区,,unknown,
baidu,d457c359bf890ba3018972b1,公厕,扬州市广陵区观巷42号琼花园,江苏省,扬州市,广陵区,,unknown,
baidu,d23327caaeaa58e1c27da2bf,红星刻字店(国庆路店),国庆路68号,江苏省,扬州市,广陵区,,unknown,
baidu,9191f01e1f4820dfd618b7fe,卫生间,扬州市广陵区观巷东关历史文化旅游区,江苏省,扬州市,广陵区,,unknown,
baidu,7629f66085c559c9c7f025b9,公共卫生间,江苏省扬州市广陵区文昌中路189号,江苏省,扬州市,广陵区,,unknown,
baidu,9cbe4a346da29455e8e58247,公共厕所,扬州市广陵区甘泉路北城根东巷15-4号小区东侧约150米,江苏省,扬州市,广陵区,,unknown,
baidu,c5cad19cb7f25f06d8eced9f,邮电电器科技家电维修部,江苏省扬州市广陵区广陵路297号,江苏省,扬州市,广陵区,15380316869,unknown,
baidu,407ba98a82ea5ca2e856fa99,公共厕所,江苏省扬州市广陵区东关街179号,江苏省,扬州市,广陵区,,unknown,
baidu,6f5790a7f99da6a700ec01f2,公共厕所,扬州市广陵区渡江路广陵福寿公寓分寓北侧约190米,江苏省,扬州市,广陵区,,unknown,
baidu,6f8c368b47ea2288373a71e3,公共卫生间,文昌中路492号,江苏省,扬州市,广陵区,,unknown,
baidu,c6d0fd39574e195a6240a98b,中国体育彩票(扬州东关街店),国庆路283号,江苏省,扬州市,广陵区,95086,unknown,
baidu,99f284931e8c020ac056ac1b,公厕,徐凝门大街165号,江苏省,扬州市,广陵区,,unknown,
baidu,b4a40607727eaf15adb22a8e,瑞家名表维修,江苏省扬州市广陵区文昌中路427-2号(教场门牌西侧旁),江苏省,扬州市,广陵区,13365100578,unknown,
baidu,be7ba7297ed665888733044c,公厕,扬州市广陵区东关街278号,江苏省,扬州市,广陵区,,unknown,
baidu,c7a7b6f0d8f82b123ee231bc,公共厕所,江苏省扬州市广陵区安乐巷8号,江苏省,扬州市,广陵区,,unknown,
baidu,0ae78402878b345232870a8e,公厕,扬州市广陵区东关街27号,江苏省,扬州市,广陵区,,unknown,
baidu,1c8e153240df9a3279b55cf7,手机维修中心(文昌中路店),江苏省扬州市广陵区文昌中路370号,江苏省,扬州市,广陵区,,unknown,
baidu,06e831a147bedaef157643b1,工会户外劳动者服务站(中国工商银行扬州琼花支行营业室),江苏省扬州市文昌中路382号,江苏省,扬州市,广陵区,,unknown,
baidu,8248189fe5682f20c7f025bb,公共厕所,江苏省扬州市广陵区南柳巷90号,江苏省,扬州市,广陵区,,unknown,
baidu,d93c91002eee06754207c126,街电(逍遥串),扬州市广陵区国庆路119号教场2号楼,江苏省,扬州市,广陵区,4006868588,unknown,
baidu,0f42391cc0d298fd461a3220,公厕,扬州市广陵区东关街270号,江苏省,扬州市,广陵区,,unknown,
baidu,2bf01a67b744b29e9fec2b8e,街电(十八梯老重庆火锅),扬州市广陵区国庆路119号教场内3号楼,江苏省,扬州市,广陵区,4006868588,unknown,
baidu,6ddfe719f35d62a9f4b9167a,千泓奢侈品黄金回收,江苏省扬州市广陵区文昌中路423号,江苏省,扬州市,广陵区,18605221515,unknown,
baidu,f077ed03a7e350be8bdb7331,洗手间,扬州市广陵区东关街大草小区北1门南侧约80米,江苏省,扬州市,广陵区,,unknown,
baidu,c1653405656bad07ab175ae2,公共厕所,扬州市广陵区苏唱街广陵小学(宛虹桥校区)西南侧约70米,江苏省,扬州市,广陵区,,unknown,
baidu,aeaeb80bb6c2be1eab0dd8a8,公共厕所,扬州市广陵区东关街扬州东关街,江苏省,扬州市,广陵区,,unknown,
baidu,34d869ced6108cfe07026f17,公共厕所,徐凝门大街66号,江苏省,扬州市,广陵区,,unknown,
baidu,a7d02adfded17ae9aeb22a1b,扬州长乐客栈主题文化酒店-洗手间,扬州市广陵区东关街357号(馥园西侧步行约250米),江苏省,扬州市,广陵区,,unknown,
baidu,ac39a0ffe08ea56ef942b20d,广陵区建红起名咨询工作室,江苏省扬州市广陵区甘泉路17号,江苏省,扬州市,广陵区,13511750609,unknown,
baidu,e24cccd2c1859268b4265581,公共厕所,江苏省扬州市邗江区沿河街50号,江苏省,扬州市,邗江区,,unknown,
baidu,09e6f9aedf9f26b930169b84,老街房产,扬州市广陵区国庆路扬州东关街,江苏省,扬州市,广陵区,,unknown,
baidu,ace7c5d8970631ebc61b7592,西园饭店餐厅·宴会厅,丰乐上街1号西园饭店内,江苏省,扬州市,邗江区,(0514)87807888,unknown,
baidu,81bbe16a1dfef9a6901fc9c6,公共厕所,江苏省扬州市广陵区南通东路98-1号,江苏省,扬州市,广陵区,,unknown,
baidu,5670301a5a7c0a1d4f3a595f,公共厕所,江苏省扬州市广陵区汶河街道汶河北路24号,江苏省,扬州市,广陵区,,unknown,
baidu,071c913273d4925b3686f465,公共厕所,扬州市广陵区淮海路广陵区人民政府,江苏省,扬州市,广陵区,,unknown,
baidu,4e00dc25be8b2741c0364403,君亭酒店(扬州瘦西湖店)-大堂,江苏省扬州市广陵区汶河北路52号,江苏省,扬州市,广陵区,,unknown,
baidu,b63b99aba928edd9e5e96596,小香港剪吧(湾子街店),湾子街130号,江苏省,扬州市,广陵区,,unknown,
baidu,ea9f6f4700bbd087aeb22a55,蕾特恩专业祛痘国际连锁(解放桥店),东关街道文昌中路207号(市一中对面),江苏省,扬州市,广陵区,4007771020,unknown,
baidu,3eefdbd1e706d24d77026973,紫羅蘭美髪廳(国庆路店),国庆路25号（国庆路近甘泉路）,江苏省,扬州市,广陵区,(0514)87343507,unknown,
baidu,b27faa6071f7c15a6c476025,卡诗恩美发沙龙,徐凝门大街136号,江苏省,扬州市,广陵区,18752728995,unknown,
baidu,a10dbe51ef59e09b1811d53d,顶酷美容美发(广陵店),泰州路59号,江苏省,扬州市,广陵区,(0514)87211979,unknown,
baidu,6ea2e6d7a90fee59a8175a92,鑫华理发店,甘泉路南柳巷3号,江苏省,扬州市,广陵区,19975072930,unknown,
baidu,d1910b09363dd0f1ee74f86f,美妍集·诗婷美容院(文昌百汇店),毓贤街18号文昌百汇商业步行街5幢3层301号,江苏省,扬州市,广陵区,,unknown,
baidu,8cf066aa15375b5aabf729f6,御研堂专业祛斑(广陵店),文昌中路137号（张氏大药房隔壁）,江苏省,扬州市,广陵区,,unknown,
baidu,4123df97b383bfce75e5b690,洗脸熊·洗脸吧(长征路店),史可法路梅岭小学斜对面洗脸熊,江苏省,扬州市,邗江区,13665262967,unknown,
baidu,8fa06f60c645a5a972455b3d,素里问题肌·抗衰中心,马太路37号,江苏省,扬州市,邗江区,18944496338,unknown,
baidu,ca72d434dd802705bfa82270,爱尚秀烫染专业店(大东门店),大东门街59号,江苏省,扬州市,广陵区,18252739987,unknown,
baidu,21f5ba8dd33319bd892fb59c,苗方清颜专业祛痘(广陵店),文昌中路157号,江苏省,扬州市,广陵区,15949081107,unknown,
baidu,e0971a3835b058814e2fdfc9,沁缘和·皮肤管理中心,解放南路25号,江苏省,扬州市,广陵区,15190406859,unknown,
baidu,193f93aeab134e86d12dd660,达人坊发型私人定制(文昌百汇中心店),毓贤街18号文昌百汇1楼2幢110号,江苏省,扬州市,广陵区,15189874378,unknown,
baidu,ae32db29d5fc633c8415411f,自然美(高桥店),高桥路54号,江苏省,扬州市,邗江区,"(0514)87900789,18912139700",unknown,
baidu,f4643506a9b8649cd813189a,浩恩国际高科技抗衰中心(凯运天地水岸华城店),解放南路与立新路交叉口西北80米,江苏省,扬州市,广陵区,18552021922,unknown,
baidu,d863fa1850d91c659f09f75d,叶子·美甲美睫(文昌百汇店),毓贤街18号文昌百汇4-102-2,江苏省,扬州市,广陵区,18036242866,unknown,
baidu,cfbb1b6c125956ee931fc990,舒畅美容,泰州路188号(扬州经典商务广场)5-204,江苏省,扬州市,广陵区,"13390610807,15952753808",unknown,
baidu,63a6cc1f723173ec35b06c60,神草传奇植物染发馆(解放桥店),解放南路37号,江苏省,扬州市,广陵区,(0514)82877369,unknown,
baidu,e07c56181f1637c7c6effb64,国妆研学所,扬州市广陵区皮市街田家炳实验中学南侧约130米,江苏省,扬州市,广陵区,,unknown,
baidu,b4e1bf3528eb133d12882419,小友发屋,国庆路119号教场秦淮坊4幢107室东南方向120米,江苏省,扬州市,广陵区,13101855810,unknown,
baidu,88f009dab33d7ad5130daa95,金姿雅女子养生减肥,广陵路扬州市天海职业技术学校西北侧约220米,江苏省,扬州市,广陵区,,unknown,
baidu,9a17f984473503caf942b23b,澜先生工作室,东圈门36号,江苏省,扬州市,广陵区,,unknown,
baidu,5db847f9051c6b1e095cb3af,MINMIN,泰州路43号设计瑰谷B栋,江苏省,扬州市,广陵区,(0514)87195869,unknown,
baidu,e321f4078bdc9dda1f389421,DZ汉服馆,东关街宋城名都B区362号,江苏省,扬州市,广陵区,,unknown,
baidu,6be837c4d5ca9353f7eafcfe,艺峰造型(泰州路店),泰州路宋城名都59-9号,江苏省,扬州市,广陵区,13218968098,unknown,
baidu,9e6bd3d148a61aece215f992,琴音美发,广陵路122号,江苏省,扬州市,广陵区,,unknown,
baidu,35e4743cd1790da3e812e4a9,施凡美发,江苏省扬州市广陵区苏唱街68号,江苏省,扬州市,广陵区,15995113887,unknown,
baidu,f24ba805d2b9e3206f3e1b3d,朝日刺青纹身·(文昌阁店),院东街7号三幢-7号,江苏省,扬州市,广陵区,17625069934,unknown,
baidu,2c21194ad995456404026f96,圣梦美容美体会所,泰州路59号宋城名都2层,江苏省,扬州市,广陵区,,unknown,
baidu,960a7640a2b907714bcc4a0b,新兴发艺(广陵路店),广陵路114号,江苏省,扬州市,广陵区,13912125292,unknown,
baidu,4e8908eec40a745294ec84a6,聆听美美容工作室(渡江路店),扬州市广陵区渡江路61号(城南医院),江苏省,扬州市,广陵区,15161446131,unknown,
baidu,5cab72aee30ea75a38e4a644,剪吧发艺,广陵路108号,江苏省,扬州市,广陵区,15190428486,unknown,
baidu,9919f411cc64be0df02d8341,清禾美肤中心(莱茵苑店),梅岭街道西湖风景名胜区马太路39号39-102,江苏省,扬州市,邗江区,"15861318691,18136611566",unknown,
baidu,d991e1162d168c4c1e3894ba,侨友专业美容美体(盐阜路店),盐阜西路6号,江苏省,扬州市,广陵区,(0514)82898155,unknown,
baidu,23fb45aefb75b22c912ca35d,依莎美(甘泉路店),江苏省扬州市广陵区甘泉路211号,江苏省,扬州市,广陵区,,unknown,
baidu,2cdcc5ebeca1ec3591114cff,美容理发店,江苏扬州市广陵区汶河北路1号,江苏省,扬州市,广陵区,,unknown,
baidu,9a9557e6db3ec14f84420eb6,G刺青·纹身品牌连锁(文昌百汇店),汶河南路文昌百汇3-106,江苏省,扬州市,广陵区,13665222122,unknown,
baidu,87ef82270c1df26dc7f50de7,经灵精养生美容定制中心(文昌百汇店),毓贤街金鹰国际购物中心汶河南路店东南侧约160米,江苏省,扬州市,广陵区,,unknown,
baidu,7006b519c306a6584107c137,靓发艺(盐阜东路店),盐埠东路6号治淮新村6一9号,江苏省,扬州市,广陵区,,unknown,
baidu,c6cba48ac24b432d4251c04a,红人造型(南通东路),江苏省扬州市广陵区南通东路长城花园138号,江苏省,扬州市,广陵区,13852183285,unknown,
baidu,8ed42a7bf7e7f51112882478,自强美发,埂子街132号,江苏省,扬州市,广陵区,13815839791,unknown,
baidu,9bc0832897f7a8abb34c49ae,标榜造型专业养生减肥(院东街店),文昌中路十六粮店东巷内十米,江苏省,扬州市,广陵区,15380388812,unknown,
baidu,424d9c02e66e0a0c09b93a78,京港造型,江苏省扬州市广陵区甘泉路与北城根交叉口1-1号娱乐城旁,江苏省,扬州市,广陵区,15952728386,unknown,
baidu,d94ee2c2e12b143816764388,丝艺造型(扬州时代广场店),毓贤街18号文昌百汇商业街7栋109号,江苏省,扬州市,广陵区,(0514)87338646,unknown,
baidu,e57128c1376f694c2afc4876,美梳造型护肤,江苏省扬州市广陵区广陵路49号,江苏省,扬州市,广陵区,13773533770,unknown,
baidu,127973b874082e8f8c1a8962,程飞健甲(大东门店),江苏省扬州市广陵区大东门街22号,江苏省,扬州市,广陵区,15050726958,unknown,
baidu,a3b30d2c5ce8a9a971455bbf,可米造型,大草小区13号楼南边店,江苏省,扬州市,广陵区,,unknown,
baidu,452a74857a7dff6c00ff2dec,BingBing美学颜究所,文昌中路111号,江苏省,扬州市,广陵区,17501581028,unknown,
baidu,07f05a6ebbb515e080a00c43,靓安减肥(扬州总店),扬州市广陵区渡江路扬州育才实验学校(西校区)东侧约130米,江苏省,扬州市,广陵区,17791854887,unknown,
baidu,cc23cf30ee0b2bd94d5547f8,B·Y缤颜美甲美睫纹绣,文昌百汇4栋2楼,江苏省,扬州市,广陵区,13390611595,unknown,
baidu,148b61e8e292821b744ff1e1,李冰美发工作室,江苏省扬州市广陵区文昌中路318号扬州华美达凯莎大酒店一栋136号,江苏省,扬州市,广陵区,18860851588,unknown,
baidu,902600cc001d84e25abbbcea,小谭明星造型,汶河路文昌百汇7幢103室,江苏省,扬州市,广陵区,15995139782,unknown,
baidu,8cc5d408d380de9e704b872e,怡美人减肥美容美体中心,大东门街63号多维网咖西隔壁（四望亭向东200米）,江苏省,扬州市,广陵区,15052502153,unknown,
baidu,334ad65fc046dd1ab11e366c,那些年美发沙龙,曲江街道文昌中路115号(仁爱医院斜对面),江苏省,扬州市,广陵区,15189874441,unknown,
baidu,b35d4ffefb6e4442ab059d66,陈磊工作室(文昌百汇店),毓贤街18号文昌百汇商业街4幢107,江苏省,扬州市,广陵区,(0514)89882520,unknown,
baidu,4a36a5f3aab65ab749fc8d52,造名城形象,扬州市广陵区盐阜东路广储门小区西北侧约40米,江苏省,扬州市,广陵区,,unknown,
baidu,e87851023f7ef53ec03644b3,爱出色·美甲彩妆新娘跟妆,皇宫路皇宫广场15栋6号商铺,江苏省,扬州市,广陵区,18252748770,unknown,
baidu,572e515813a593143be4a6e5,星工坊Hair Salon(运河西路店),运河西路514号（中国电信正对面）,江苏省,扬州市,广陵区,15052501525,unknown,
baidu,1bf26ae4c4a4f648a3acc455,星亚美发厅,江苏省扬州市广陵区渡江南路38-1号,江苏省,扬州市,广陵区,13092006260,unknown,
baidu,a927f7f72b2a4b6361685840,匠美人(毓贤街商业区店),毓贤街文昌金座匠美人（树人文化交流中心东20米）,江苏省,扬州市,广陵区,18952780227,unknown,
baidu,97342caba6a6867facee7a6c,初曦更美生活馆(莱茵苑店),梅岭街道史可法东路50-10号,江苏省,扬州市,邗江区,13951434131,unknown,
baidu,e66d5605070eec3f93114cc2,臻品国际护肤造型养生(梅岭直营连锁店),梅岭东路9号,江苏省,扬州市,邗江区,(0514)80370886,unknown,
baidu,efce1d6d63ec5b8387330458,福匠刺青(文昌百汇店),百汇商业街4幢3楼308室,江苏省,扬州市,广陵区,17368900001,unknown,
baidu,88fcac4009308991ee74f8df,EZ微米接发·羽毛接发掉头发打结(扬州店),文昌百汇商业步行街南59-1号,江苏省,扬州市,广陵区,15151807707,unknown,
baidu,ed6c74280c5eac8d9ff779db,DK潮牌·全国连锁(大学北路店),文昌中路扬州时代广场1楼,江苏省,扬州市,邗江区,17374757137,unknown,
baidu,dc0bf53692aa900fd4851f14,尤司男士国潮理发馆(扬州华懋店),大学北路华懋购物中心B座一楼沿街商铺（环球雅思·雅思托福成人英语隔壁）,江苏省,扬州市,邗江区,19848261690,unknown,
baidu,29b39682deea37cbabf729d0,肯定发艺(瘦西湖路店),瘦西湖路39号,江苏省,扬州市,邗江区,13813172700,unknown,
baidu,51d5bff89e511a8ad8ecedf4,译墨堂刺青,扬州市邗江区史可法路39号小区东北侧,江苏省,扬州市,邗江区,18913207993,unknown,
baidu,092477c800ee7d27afee7a2e,3am HAIR SALON烫发染发接发(中集商业中心店),文昌中路618号中集文昌商业中心2-104B,江苏省,扬州市,邗江区,13815825649,unknown,
baidu,9b2b17436a91058fab059dea,Good造型养生会所(形象店),江苏省扬州市广陵区荷花池路99号,江苏省,扬州市,广陵区,15205274138,unknown,
baidu,b1c265529978d52cdbeced00,苌小姐美学生活馆,扬州市广陵区汶河北路皇宫花园西南侧约40米,江苏省,扬州市,广陵区,,unknown,
baidu,72e57fd7f15c98aff8dc8557,个园,扬州市广陵区盐阜东路10号,江苏省,扬州市,广陵区,"(0514)87361638,(0514)87935233",unknown,
baidu,0dc3d82dcd21326f75e5b628,何园,扬州市广陵区徐凝门大街66号,江苏省,扬州市,广陵区,(0514)87239626,unknown,
baidu,80f5ee4face1b38c51e5c509,东关历史文化旅游区,扬州市广陵区泰州路,江苏省,扬州市,广陵区,(0514)87366222,unknown,
baidu,40d11d0f016351ad882fb53e,小盘谷,江苏省扬州市广陵区丁家湾大树巷42号,江苏省,扬州市,广陵区,,unknown,
baidu,e17e4c6b5b3c98b26f476001,湾子街210号民居,扬州市广陵区湾子街210号,江苏省,扬州市,广陵区,,unknown,
baidu,680fb7033e26b59c8bb98857,琼花观(文昌中路),扬州市广陵区文昌中路360号,江苏省,扬州市,广陵区,,unknown,
baidu,fb9d5c519bb00fa472455b7c,东关古渡,江苏省扬州市广陵区泰州路,江苏省,扬州市,广陵区,,unknown,
baidu,f7e50509579d0949d4b74e95,大水湾街区,江苏省扬州市广陵区南通东路128号,江苏省,扬州市,广陵区,,unknown,
baidu,c58efe43ebf084189c09f7a4,中国淮扬菜博物馆,江苏省扬州市广陵区康山街22号,江苏省,扬州市,广陵区,(0514)87907197,unknown,
baidu,e85e25276553545395f08c57,文昌阁,江苏省扬州市广陵区汶河南路71号,江苏省,扬州市,广陵区,,unknown,
baidu,2527be1e7fa299b34afc8d57,汪氏小苑,扬州市广陵区东圈门地官第18号,江苏省,扬州市,广陵区,(0514)82999066,unknown,
baidu,be54cde9038ac55878f79657,朱自清故居,江苏省扬州市广陵区安乐巷27号,江苏省,扬州市,广陵区,(0514)87331925,unknown,
baidu,bd5046e823dc8558d62ce2fb,馥园,扬州市广陵区东关街243号(近谢馥春),江苏省,扬州市,广陵区,(0514)87313790,unknown,
baidu,2edf6a1831bb998c3b04b1b6,南河下历史文化街区,江苏省扬州市广陵区徐凝门大街4号,江苏省,扬州市,广陵区,,unknown,
baidu,61bec58579b52d694e3a5962,贾氏庭园,扬州市广陵区大武城巷1～5号,江苏省,扬州市,广陵区,,unknown,
baidu,8d96925c4204a738c0f1cf91,四望亭,江苏省扬州市广陵区四望亭路与汶河北路交汇处,江苏省,扬州市,广陵区,,unknown,
baidu,04bdf4a30635a832354aae00,宋井,扬州市广陵区文昌中路349号,江苏省,扬州市,广陵区,,unknown,
baidu,811bb723df5bb0eb83288afd,蔚圃,扬州市风箱巷6号,江苏省,扬州市,广陵区,,unknown,
baidu,7cecb32418881ed98bfc069e,大水湾公园,扬州市广陵区江阳东路与施井路交叉路口往北约90米,江苏省,扬州市,广陵区,,unknown,
baidu,7fd72311b85ef49f5cbe8657,东门遗址,扬州市广陵区东关街道东关街与泰州路交叉口西北50米,江苏省,扬州市,广陵区,(0514)87330290,unknown,
baidu,273fe079b6c83d6d04fef5ce,双东历史街区,扬州市广陵区斗鸡场23号,江苏省,扬州市,广陵区,(0514)87330290,unknown,
baidu,698381e4559a62fa902ca315,卢氏盐商住宅,康山街22号（近康山文化园）,江苏省,扬州市,广陵区,(0514)87907197,unknown,
baidu,eb3675039c45a80200ec014b,仙鹤寺,扬州市广陵区南门街111号,江苏省,扬州市,广陵区,,unknown,
baidu,6deee308e9f6b86929fc4823,逸圃,扬州市广陵区东关街356号(长乐客栈对面),江苏省,扬州市,广陵区,,unknown,
baidu,3aff44176ab01072e9f8538c,二分明月楼,江苏省扬州市广陵区广陵路263号,江苏省,扬州市,广陵区,,unknown,
baidu,ad2432b027f64445c5effbfa,两淮都转盐运使司衙署门厅,扬州市广陵区国庆路255号,江苏省,扬州市,广陵区,,unknown,
baidu,704b2946dc759489b020a8e0,刘庄,扬州市广陵区广陵路272号,江苏省,扬州市,广陵区,,unknown,
baidu,6ee010203e7e15f652e5c54b,荷花池公园,扬州市广陵区大学南路105号,江苏省,扬州市,广陵区,(0514)87883790,unknown,
baidu,637df60a429c186b40afe64b,扬州大运河文化旅游度假区·史可法纪念馆,广储门外街24号,江苏省,扬州市,邗江区,(0514)87341311,unknown,
baidu,a54aefb435d0ca1de812e4b9,清漪亭,扬州市广陵区盐阜东路10号个园内,江苏省,扬州市,广陵区,,unknown,
baidu,4ba515945c02def4095cb3b7,清真寺旧址,扬州市广陵区马家巷34号,江苏省,扬州市,广陵区,,unknown,
baidu,2e00c5dd6693e661d7851f00,中国扬州书院博物馆,江苏省扬州市广陵区广陵路248号,江苏省,扬州市,广陵区,17705278890,unknown,
baidu,32599d5d9026256349fd3f6b,个园-怡情,东关街3002-9号附近,江苏省,扬州市,广陵区,(0514)87358470,unknown,
baidu,2848ffd66bbd090c48cc4a23,武当行宫,扬州市广陵区东关街300号(长乐客栈对面),江苏省,扬州市,广陵区,(0514)87366222,unknown,
baidu,27e5990ef8d9f4fce9f8533a,马监巷,江苏省扬州市广陵区马监巷(茂业百货东北100米),江苏省,扬州市,广陵区,,unknown,
baidu,8371ec4080e84214c16c143a,马可波罗纪念馆,扬州市广陵区泰州路102号,江苏省,扬州市,广陵区,(0514)87346618,unknown,
baidu,a1cab1b256459eaf6e20b9b4,宜雨轩,扬州市广陵区盐阜东路10号个园内,江苏省,扬州市,广陵区,(0514)87347428,unknown,
baidu,2eb80375603ebb7c31f71dfb,山陕会馆,扬州市广陵区东关街252号,江苏省,扬州市,广陵区,(0514)87366222,unknown,
baidu,4cf8d24ea49b4bfd9cf7794b,扬州大运河文化旅游度假区·御马头,扬州市邗江区丰乐下街8号,江苏省,扬州市,邗江区,(0514)87351000,unknown,
baidu,c9a84dbc251a1b82bbbd63c5,三清殿,扬州市广陵区文昌中路360号,江苏省,扬州市,广陵区,,unknown,
baidu,78e36d318087a857a1046444,妙觉禅院,江苏省扬州市广陵区保安巷与崇德巷交叉口西南50米,江苏省,扬州市,广陵区,,unknown,
baidu,1a15c2f936a43fde5b109383,春景,扬州市广陵区盐阜东路10号个园内,江苏省,扬州市,广陵区,(0514)87347428,unknown,
baidu,b407e0db4e9a756da1d23038,丛书楼,扬州市广陵区盐阜东路10号个园内,江苏省,扬州市,广陵区,(0514)87347428,unknown,
baidu,4ff37a7a045a17b01288240d,仁丰里历史文化街区民俗非遗文化微型博物馆,扬州市广陵区旌忠巷2号,江苏省,扬州市,广陵区,,unknown,
baidu,a3e8341c1baff48c4afd3f4b,扬州八怪纪念馆,江苏省扬州市广陵区汶河街道驼岭巷18号,江苏省,扬州市,广陵区,(0514)87340275,unknown,
baidu,f22ec8ccffa1122a8c55ec0b,扬州教案旧址,皮市街147~149号,江苏省,扬州市,广陵区,,unknown,
baidu,ad54e153eb2cbc4952e5c53a,马坊巷,江苏省扬州市广陵区长乐客栈(广储门街东),江苏省,扬州市,广陵区,,unknown,
baidu,f25c0aa8ad117c04400245e9,揖翠山房,扬州市东关街420号,江苏省,扬州市,广陵区,17761985277,unknown,
baidu,fa75105eb61d8ad9626858b8,四季假山园林区,扬州市广陵区盐阜东路10号个园内,江苏省,扬州市,广陵区,,unknown,
baidu,cb84bd5cbebf9c125cbe8622,勤博堂,扬州市广陵区盐阜东路10号个园中路建筑内,江苏省,扬州市,广陵区,,unknown,
baidu,8a6d3e700e610fb9f942b2bd,书房洞天,扬州市广陵区小双巷7号,江苏省,扬州市,广陵区,,unknown,
baidu,cc0849a0260b6e499403194b,马监井,扬州市广陵区汪氏小苑旁,江苏省,扬州市,广陵区,,unknown,
baidu,8fee9a1cffbbd45d626858b3,斗鸡场,江苏省扬州市广陵区东关街357号长乐客栈,江苏省,扬州市,广陵区,(0514)87993333,unknown,
baidu,c9cdb5cafd8f6e450782c2f3,九遂堂艺术馆,江苏省扬州市广陵区皮市街96号,江苏省,扬州市,广陵区,,unknown,
baidu,5d5134c46b7c3c8cb6147fd4,熊成基故居,扬州市广陵区韦家井6号,江苏省,扬州市,广陵区,(0514)87337639,unknown,
baidu,8b5153f782399e80bea24024,四岸公所,扬州市广陵区丁家湾118号,江苏省,扬州市,广陵区,,unknown,
baidu,3634f96bc6851eb3adcb6608,门房,扬州市广陵区盐阜东路10号个园内,江苏省,扬州市,广陵区,,unknown,
baidu,e2938a446ac0000df4eafc2e,竹西佳处,扬州市广陵区盐阜东路10号个园内,江苏省,扬州市,广陵区,,unknown,
baidu,582d495f7c35a7a2b54f5416,五福巷,扬州市广陵区东关历史文化旅游区内,江苏省,扬州市,广陵区,,unknown,
baidu,fa61b181f88cbe9140e1920f,风箱巷官井,扬州市广陵区皮市街广陵小学(宛虹桥校区)东北侧约210米,江苏省,扬州市,广陵区,,unknown,
baidu,c3883f1b8b28ce3f30169bdc,非遗文化集中展示区,扬州市广陵区东关街243号(近谢馥春)馥园,江苏省,扬州市,广陵区,,unknown,
baidu,18165334ee783d79fb2d6100,曹起溍故居,江苏省扬州市广陵区东关街338号,江苏省,扬州市,广陵区,,unknown,
baidu,6892c713e8bdaf6dd1f49ead,同仁医院旧址,扬州市广陵区北柳巷60号,江苏省,扬州市,广陵区,,unknown,
baidu,bc1c3505b417af1304fef549,张玉良纪念馆,江苏省扬州市广陵区东关街358号,江苏省,扬州市,广陵区,(0514)87366222,unknown,
baidu,c225b77249863f6fd4851f6e,真武殿,扬州市广陵区东关街武当行宫,江苏省,扬州市,广陵区,,unknown,
baidu,45a9241d62479e65c9fa5fd1,红楼,扬州市广陵区东关街243号(近谢馥春)馥园,江苏省,扬州市,广陵区,,unknown,
baidu,c4f2de7fcdd289236e20b9ff,树德堂,扬州市广陵区地官第18号汪氏小苑,江苏省,扬州市,广陵区,,unknown,
baidu,d5ae27a8bd812f2196f08cb1,广储门遗址,扬州市广陵区盐阜东路13号,江苏省,扬州市,广陵区,,unknown,
baidu,51fcbe5a8bd63b8f276e98d2,东关街叠秀山房,扬州市广陵区金桂圆巷扬州东关街334号,江苏省,扬州市,广陵区,,unknown,
baidu,928fcc73033bf02a9cf779a5,谢馥春传统工艺展示区,扬州市广陵区东关街243号(近谢馥春)馥园,江苏省,扬州市,广陵区,,unknown,
baidu,d13f0394d2f97596c056ace5,透风漏月,扬州市广陵区盐阜东路10号个园内,江苏省,扬州市,广陵区,(0514)87358470,unknown,
baidu,bb2393b913bf61a88733045f,小姐绣房,扬州市广陵区盐阜东路10号个园内,江苏省,扬州市,广陵区,,unknown,
baidu,08a9c399665c7aee14b54bba,诸姓盐商住宅,扬州市广陵区国庆路346-1号,江苏省,扬州市,广陵区,,unknown,
baidu,adccc86ac985f9e7c8213de9,刘文淇刘师培故居,江苏省扬州市广陵区东关街道东圈门14号,江苏省,扬州市,广陵区,,unknown,
baidu,08b5b5c8246992f4c17da24e,盛世岩关,扬州市广陵区东关街396号,江苏省,扬州市,广陵区,,unknown,
baidu,df021b03f177f2c9c61e5187,玉勾井,扬州市广陵区观巷42号琼花园,江苏省,扬州市,广陵区,,unknown,
baidu,fdd27eb8c322348815a19059,古运河风光带,江苏省扬州市邗江区高桥南路20号便益门广场,江苏省,扬州市,邗江区,(0514)87321666,unknown,
baidu,f07ab45462c21d5ab05c6abe,个园史料馆之三阮元与个园,扬州市广陵区盐阜东路10号个园中路建筑内,江苏省,扬州市,广陵区,,unknown,
baidu,16616053f1b2c3423c9a5eae,谢氏老宅,江苏省扬州市广陵区东关街,江苏省,扬州市,广陵区,,unknown,
baidu,9dd137d8dfbc3651e5e965c2,粉黛楼,扬州市广陵区东关街243号(近谢馥春)馥园,江苏省,扬州市,广陵区,,unknown,
baidu,3587e6c4b65c796681a12ef5,觅句廊,扬州市广陵区盐阜东路10号个园内四季假山园林区,江苏省,扬州市,广陵区,,unknown,
baidu,0eaf3370f56bf2ce601809ca,臣止马桥,扬州市广陵区东关街304号,江苏省,扬州市,广陵区,,unknown,
baidu,2c5cebe2a15374512ce67b53,琼花台,扬州市广陵区观巷42号琼花园,江苏省,扬州市,广陵区,,unknown,
baidu,63f1009c1185085cbb17e799,清溪旧屋刘宅,扬州市广陵区东圈门14号,江苏省,扬州市,广陵区,(0514)87366222,unknown,
baidu,c0f3ce25380c30e2b75f1eda,布业会馆遗址,扬州市广陵区文昌中路416号,江苏省,扬州市,广陵区,,unknown,
baidu,7ce88fff9d095bc5892fb5b7,苏北治淮总指挥部旧址,扬州市广陵区东关街282号,江苏省,扬州市,广陵区,,unknown,
baidu,6ae9091b6b1e3dc938221c73,林氏故居,扬州市广陵区东关街295号,江苏省,扬州市,广陵区,,unknown,
baidu,50766d7690ff5ca70b1cc70d,江都县文化界救亡协会旧址,扬州市广陵区谢家巷13号,江苏省,扬州市,广陵区,,unknown,
baidu,e60e3d2a3792ea2f471a32f0,小姐居室,扬州市广陵区地官第18号汪氏小苑,江苏省,扬州市,广陵区,,unknown,
baidu,8c0c7ddf5d4b537c8415411f,清颂堂,扬州市广陵区盐阜东路10号个园西路建筑内,江苏省,扬州市,广陵区,,unknown,
baidu,b1ed6331ac51f37c1ce9998e,西火巷古井,扬州市广陵区盐阜东路10号个园内,江苏省,扬州市,广陵区,,unknown,
baidu,2d678c2b0c1db4bc2811d1df,清美堂,扬州市广陵区盐阜东路10号个园东路建筑内,江苏省,扬州市,广陵区,,unknown,
baidu,8348d220a044403e38221c19,春晖室,扬州市广陵区地官第18号汪氏小苑,江苏省,扬州市,广陵区,,unknown,
baidu,b54166be9de777f8d22dd691,胭脂井,扬州市广陵区东关街243号(近谢馥春)馥园,江苏省,扬州市,广陵区,,unknown,
baidu,742c5c3639334ed2c16c14d6,轿房,扬州市广陵区地官第18号汪氏小苑,江苏省,扬州市,广陵区,,unknown,
baidu,f2005b730fa76edadb13185d,火星庙遗址,扬州市广陵区三祝庵6号,江苏省,扬州市,广陵区,,unknown,
baidu,e74cd44a4ed9aec446e274a0,汪泰阶居室,扬州市广陵区地官第18号汪氏小苑,江苏省,扬州市,广陵区,,unknown,
baidu,4c9cb46daf6e92914bcc4a7d,财神殿,扬州市广陵区东关街扬州东来客栈东关街店东南侧约60米,江苏省,扬州市,广陵区,,unknown,
baidu,4b0aaa7f90a96b24fbdc85da,中华姓氏文化馆,扬州市广陵区东关街178号,江苏省,扬州市,广陵区,,unknown,
baidu,408962ae6246e4cc15a19048,李涵秋故居,扬州市广陵区五谷巷21号,江苏省,扬州市,广陵区,,unknown,
baidu,3dfa9c8e6ece9068b42655a9,东路建筑,扬州市广陵区盐阜东路10号个园内,江苏省,扬州市,广陵区,,unknown,
baidu,1be95121530752c0028972fa,拂云,扬州市广陵区盐阜东路10号个园内,江苏省,扬州市,广陵区,,unknown,
baidu,ae6f09c79008d06c400245e7,文杏楼,扬州市广陵区观巷42号琼花园,江苏省,扬州市,广陵区,,unknown,
baidu,2fab70e8913c5b70715e8098,个园史料馆之一黄氏家史,扬州市广陵区盐阜东路10号个园西路建筑内,江苏省,扬州市,广陵区,,unknown,
baidu,4932cbda634f399e4f6d4621,住秋阁,扬州市广陵区盐阜东路10号个园内,江苏省,扬州市,广陵区,(0514)87347428,unknown,
baidu,84e8245aa2ad0ddaa6da3926,邱氏园,扬州市广陵区广陵路292号,江苏省,扬州市,广陵区,,unknown,
baidu,da2754ad674c40e1f1193788,山门殿,扬州市广陵区文昌中路360号,江苏省,扬州市,广陵区,,unknown,
baidu,3c5c945df7a3158e047ce879,求己堂,扬州市广陵区斗鸡场4号,江苏省,扬州市,广陵区,,unknown,
baidu,19c1b1066e3c497728201a64,李长乐故居,扬州市广陵区斗鸡场18号,江苏省,扬州市,广陵区,,unknown,
baidu,fe385f02592eaeb609a8d48b,楠木厅,扬州市广陵区盐阜东路10号个园东路建筑内,江苏省,扬州市,广陵区,,unknown,
baidu,10fd229ca45825990482c233,黄至筠起居室,扬州市广陵区盐阜东路10号个园西路建筑内,江苏省,扬州市,广陵区,,unknown,
baidu,f546d0bc1093a4ab0b1cc7de,仙苑亭,扬州市广陵区观巷42号琼花园,江苏省,扬州市,广陵区,,unknown,
baidu,e871fbb89abb04e7ea12e45c,西路建筑,扬州市广陵区盐阜东路10号个园内,江苏省,扬州市,广陵区,,unknown,
baidu,4cca826cbb90a2f10b1cc774,盐务会馆,江苏省扬州市广陵区东关街396号,江苏省,扬州市,广陵区,,unknown,
baidu,5cd0a69ecdac8e5152e5c5c8,玉立亭,扬州市广陵区观巷42号琼花园,江苏省,扬州市,广陵区,,unknown,
baidu,a3064493bf1d8499d7b74e5c,谢公祠遗址,江苏省扬州市广陵区文昌中路458号,江苏省,扬州市,广陵区,,unknown,
baidu,55a5b10b68bb107df8f0cb6c,轻松园,扬州市广陵区东关历史文化旅游区内,江苏省,扬州市,广陵区,,unknown,
baidu,fafea2934be4cf1541d63e9f,知足斋,扬州市广陵区盐阜东路10号个园内,江苏省,扬州市,广陵区,,unknown,
baidu,0df96c04fe4bce401ce9992c,王者兰故居,扬州市广陵区五谷巷21号,江苏省,扬州市,广陵区,,unknown,
baidu,1c7779f18cd5e04c2fb90815,东恒盐栈遗址,江苏省扬州市广陵区花局里与扬州东关街交叉口西南方向60米,江苏省,扬州市,广陵区,,unknown,
baidu,cde86717c818c8c38a36ee0c,苏北行政公署旧址,扬州市广陵区东关街309号,江苏省,扬州市,广陵区,,unknown,
baidu,c44054731ebbdf3cd0ff2337,冬景,扬州市广陵区盐阜东路10号个园内,江苏省,扬州市,广陵区,"(0514)87347428,(0514)89795899",unknown,
baidu,b43aa4a99e354532d7851f23,广陵书院遗址,江苏省扬州市广陵区安家巷与扬州东关街交叉口西南方向20米,江苏省,扬州市,广陵区,,unknown,
baidu,7b6ad01a282b43704c3a59a4,灵官殿,扬州市广陵区东关街300号(长乐客栈对面)武当行宫内,江苏省,扬州市,广陵区,,unknown,
baidu,b1475f09eecc39f96240a9e7,三清宝殿,扬州市广陵区东关街300号武当行宫(长乐客栈对面),江苏省,扬州市,广陵区,,unknown,
baidu,422ff286293c5e66eb56fa53,胡氏宅第,扬州市广陵区东关街312号,江苏省,扬州市,广陵区,,unknown,
baidu,f452b18978f01e5ed4851fc3,慈航宝殿,扬州市广陵区东关街300号武当行宫(长乐客栈对面),江苏省,扬州市,广陵区,,unknown,
baidu,5eefb27d06b4771e9df779ad,金桂圆巷,扬州市广陵区东关街338号,江苏省,扬州市,广陵区,,unknown,
baidu,af5cc3943a86d9a733169b7f,包世臣故居,扬州市广陵区观巷27号,江苏省,扬州市,广陵区,,unknown,
baidu,07382580b930d77f441a32e2,彩衣街,江苏省扬州市广陵区东关街道东关街440号,江苏省,扬州市,广陵区,,unknown,
baidu,138060b69490b0c1f942b2da,古三义阁,扬州市广陵区三义阁巷12号,江苏省,扬州市,广陵区,,unknown,
baidu,29f0d1b28b07c557f92d611d,扬州运河画院联络处,扬州市广陵区三祝庵8号,江苏省,扬州市,广陵区,,unknown,
baidu,10b183a7b487cb599b68b420,广陵区康尔乐足部按摩服务部,通运街16号,江苏省,扬州市,广陵区,,unknown,
baidu,9f97b1c5936ac31fb64f5475,蓝色水岸休闲逸栈,文昌中路279号银河商务,江苏省,扬州市,广陵区,(0514)87366750,unknown,
baidu,5ffb18168c50df466f476057,陆琴脚艺(珍园店),汶河街道文昌中路492号(近文昌阁),江苏省,扬州市,广陵区,(0514)87360505,unknown,
baidu,3910ff87d09aa95c2811d173,真诚足艺工作室,地官第37号,江苏省,扬州市,广陵区,,unknown,
baidu,65b67cfefe5f1fe74f3a5942,仇氏祖传扬州足艺(东圈门店),东圈门59号（文昌中路北边东圈门城门楼东60米）,江苏省,扬州市,广陵区,,unknown,
baidu,c67453e8a23006c25b10931d,陆姐足艺,东关街道观巷30号,江苏省,扬州市,广陵区,"13665277877,15396786867",unknown,
baidu,ed8eaedae034142fe81e9721,包足堂,江苏省扬州市广陵区东关街道国庆路22号,江苏省,扬州市,广陵区,,unknown,
baidu,2cc3c8e8bffa30cf4d2fdf33,SPA·印象足道养生(大运河度假区四望亭店),四望亭路28号3楼（近淮海路）,江苏省,扬州市,广陵区,(0514)87316748,unknown,
baidu,09ada05003e8fa196e20b991,玉玲足艺,东关街道广陵路207号(梅花书院对面),江苏省,扬州市,广陵区,13092007132,unknown,
baidu,2cdf6bd1c48d28d395ca07f7,春旺足艺店,东关街道东关街62号(紧靠东关东门遗址),江苏省,扬州市,广陵区,13305256931,unknown,
baidu,1bf2deb85d39c0fcb13c81e8,扬州足艺坊,国庆路293号,江苏省,扬州市,广陵区,13852782829,unknown,
baidu,a3f1aa97997325448bfc0658,江湖(东关街店),东关街302号东关街美食广场内（京东小院旁）,江苏省,扬州市,广陵区,,unknown,
baidu,fd13a3f2f5aa85e3b0077db7,老街足艺(东关街店),东关街139号（绣娘丝绸隔壁）,江苏省,扬州市,广陵区,,unknown,
baidu,38000b22f5ead09df4eafc9e,时晴山房(东圈门店),薛家巷2号,江苏省,扬州市,广陵区,13179772699,unknown,
baidu,c9d26f078fd0755388db730c,方圈门浴场,东关街道广陵路159号(农贸市场旁),江苏省,扬州市,广陵区,(0514)87225888,unknown,
baidu,d296ca013458323b72210bf1,观巷茶馆,观巷31号,江苏省,扬州市,广陵区,18952721973,unknown,
baidu,53591a05cc95c53395f08ccc,扬州大运河文化旅游度假区-虹桥坊温泉,瘦西湖路48号,江苏省,扬州市,邗江区,(0514)82819089,unknown,
baidu,73373ce157ffb684ca29153d,高歌录音棚(何园店),徐凝门大街173号,江苏省,扬州市,广陵区,"13773521566,18605207666",unknown,
baidu,e1dd10d163143e93f7231018,曼顿小酒馆(珍园店),珍园扬州特支旧址,江苏省,扬州市,广陵区,18112149175,unknown,
baidu,1974b137e6fe58579d9d6893,扬州搓背馆(运河旗舰店),泰州路188号3-210,江苏省,扬州市,广陵区,(0514)82228311,unknown,
baidu,dada4e6d90b4428e260bd0c0,秉司春茶社,皮市街135号,江苏省,扬州市,广陵区,19962503337,unknown,
baidu,bcaebff8c117e24dc9e33c52,易德养生会馆,江阳东路1号（近电信公司）,江苏省,扬州市,广陵区,"(0514)82962666,(0514)82962888",unknown,
baidu,ad172fe5ae1ab6ab26d2bb69,永宁泉浴室,三义阁68号,江苏省,扬州市,广陵区,,unknown,
baidu,e3e3d84d51e416061d1d115a,琼花水会,扬州市广陵区文昌中路扬州蜜桔水晶酒店(扬州东关街店),江苏省,扬州市,广陵区,,unknown,
baidu,b8d6f5d31a61113a4c6d46b3,洪荒精酿Foreworld Brewing,国庆路119号,江苏省,扬州市,广陵区,18352799399,unknown,
baidu,5bd6b8eaff76d735b35c6a0e,古城足艺(东关街店),东关街270号-2（谢馥春对面）,江苏省,扬州市,广陵区,,unknown,
baidu,787aa71ef8ece60a51e5c54b,红叶经络养生(国庆路店),江苏省扬州市广陵区东关街道国庆路283号,江苏省,扬州市,广陵区,(0514)87367481,unknown,
baidu,576a4924c86f954df2193717,吉祥手作,浮生记(皮市街店)103号,江苏省,扬州市,广陵区,,unknown,
baidu,2e03482ac2ed8ebc2e473368,皮市·BABY自制玩偶,东圈门与观巷交叉口正南方向160米左右,江苏省,扬州市,广陵区,,unknown,
baidu,01adb24f0399624175e5b632,富足按摩采耳,扬州市广陵区国庆路桔子水晶酒店(文昌阁店)南侧约110米,江苏省,扬州市,广陵区,13951057127,unknown,
baidu,1209ebbe2779677cc42ba1ca,扬州福乐足艺,国庆路119号,江苏省,扬州市,广陵区,,unknown,
baidu,7a440a3eebbb4606d4851fdc,筱倪足疗,扬州市广陵区广陵路广陵小学(宛虹桥校区)西北侧约270米,江苏省,扬州市,广陵区,,unknown,
baidu,f82065d731e0b1401df74dd3,黛霞茶店,观巷59号,江苏省,扬州市,广陵区,18918086702,unknown,
baidu,098e2cf52b30f6bc047ce816,吴勾酒坊(东关街店),东关街道东关街283号(近武当行宫),江苏省,扬州市,广陵区,15195573890,unknown,
baidu,8f6880a43cebbb66eddfcaac,苏北电影院,东关街道,江苏省,扬州市,广陵区,,unknown,
baidu,43d0b4fd5dc0c90b018972a5,春川茶寮,江苏省扬州市广陵区东关街道东关街309号,江苏省,扬州市,广陵区,15062818799,unknown,
baidu,fe4269388350cf7d3310af80,486广场,江苏省扬州市邗江区梅岭街道玉器街扬州玉文化景区东,江苏省,扬州市,邗江区,,unknown,
baidu,9fae531c182aa31b73455b46,广陵嫂足艺,街南书屋北门旁,江苏省,扬州市,广陵区,,unknown,
baidu,d577230d0713c0c783288a9c,扬州印锦春(皮市街店),皮市街北端西侧楼南起8-9间,江苏省,扬州市,广陵区,18936276839,unknown,
baidu,a5010939c7fb0e3696ca078a,千秋粉黛演艺剧场,扬州市广陵区东关街243号(近谢馥春)馥园,江苏省,扬州市,广陵区,(0514)87313790,unknown,
baidu,874753b08daf29a55a3ac886,老扬州足艺,东圈门40号,江苏省,扬州市,广陵区,,unknown,
baidu,62e76a4d1f350ff34557261a,漫步足艺,"东关街419号（东关街西门进门口50米,体育彩票对面）",江苏省,扬州市,广陵区,,unknown,
baidu,7d19882dbd0223bc246e9823,老街足道馆,国庆路305号,江苏省,扬州市,广陵区,,unknown,
baidu,0574d72e07be4272adcb663d,普茶斋,江苏省扬州市广陵区皮市街125号,江苏省,扬州市,广陵区,,unknown,
baidu,2c40a260d0d7cdac3686f4cc,卢意茶园,南通东路132号意园（中国淮扬菜博物馆内）,江苏省,扬州市,广陵区,15152748490,unknown,
baidu,9a8673ed179e68054afd3f91,浅浅似颜绘,东关街224-1号,江苏省,扬州市,广陵区,18952727377,unknown,
baidu,3977c8f66220881872455bf7,吾足堂足艺,观巷84号,江苏省,扬州市,广陵区,18651449498,unknown,
baidu,87f7fe91da08c0b572455b79,扬州好人广场,江苏省扬州市广陵区东关街300号北90米,江苏省,扬州市,广陵区,,unknown,
baidu,faab6dfebe69e695da2f2834,淮一刀扬州足艺(东关街2号分店),东关街219号,江苏省,扬州市,广陵区,,unknown,
baidu,9f3e7cfeb766785ac7f025d0,客满堂棋牌室,国庆路桔子水晶酒店(文昌阁店)南侧,江苏省,扬州市,广陵区,,unknown,
baidu,70d75d368a97fc6cd8d89147,扬州采耳,东关街106-2（东关街城门向西50米）,江苏省,扬州市,广陵区,,unknown,
baidu,d7ca58ee61347adfcbc3dbab,地下广场,江苏扬州市广陵区文昌中路255号银河电子城a区,江苏省,扬州市,广陵区,,unknown,
baidu,b051ba8b70123b8585420ea2,少爷起居室,扬州市广陵区盐阜东路10号个园内,江苏省,扬州市,广陵区,,unknown,
baidu,5bed23e5d87da92a5fd4fe00,芳菲足艺,扬州市广陵区北柳巷扬州东关街,江苏省,扬州市,广陵区,13585235866,unknown,
baidu,81b683f04cc4947076e5b61b,周大师足艺,观巷70号,江苏省,扬州市,广陵区,,unknown,
baidu,d03e297e040ac65bdbd8911c,贵足阁,江苏省扬州市广陵区观巷32,江苏省,扬州市,广陵区,,unknown,
baidu,418719a158811518ca1b9592,扬州市文艺家活动中心,扬州市广陵区观巷42号,江苏省,扬州市,广陵区,,unknown,
baidu,fd9979756fd00b6f41d63ea2,永莱养生大师足疗,东关街199-2号（粗茶淡饭隔壁）,江苏省,扬州市,广陵区,,unknown,
baidu,3e9e15cb742ff43b9d82ea50,静竹楼,江苏省扬州市广陵区文昌中路356号,江苏省,扬州市,广陵区,,unknown,
baidu,db1f39d4a4e82f76f5c59c52,柳湖茶坊(柳湖南苑店),四望亭路185号扬州美食街(近大学北路),江苏省,扬州市,邗江区,(0514)87317045,unknown,
baidu,20054127e643e4eb4051c099,网鱼电竞(扬州邗江大学北路店),文昌中路618号中集文昌商业中心1号楼2层205号,江苏省,扬州市,邗江区,17798957155,unknown,
baidu,518e451fbcac55be99005083,杰瑞电竞,江苏扬州市广陵区东关街道银河电子城A区二楼,江苏省,扬州市,广陵区,,unknown,
baidu,f14f453783c30b1d475726b0,竹隐茶舍,江苏省扬州市广陵区东关街道西营55-1号,江苏省,扬州市,广陵区,18952745758,unknown,
baidu,d38b68b4ac7bef1476e5b6ce,梓桐坊,个园花局里7号,江苏省,扬州市,广陵区,,unknown,
baidu,5f4fcab255cb53a7cafa5fd0,东关戏台,江苏省扬州市广陵区东关街扬州东关街,江苏省,扬州市,广陵区,,unknown,
baidu,882a0aff7a7809c778f7962a,一当功夫茶室,江苏省扬州市广陵区东关街179-1号,江苏省,扬州市,广陵区,,unknown,
baidu,1d64cee7288486211d389422,梅兰茶苑,甘泉路17号李氏住宅,江苏省,扬州市,广陵区,,unknown,
baidu,e2ccf04f923cea92c6effb3e,华贸网络,江苏省扬州市广陵区文昌中路255号银河电子城a区2楼,江苏省,扬州市,广陵区,,unknown,
baidu,68438d7dcab69d5074026924,街南书屋,东关街309号,江苏省,扬州市,广陵区,(0514)87993333,unknown,
baidu,3c30dd3e13f74b4df32d83f2,世龙世家手足健康护理连锁(文昌中路店),文昌中路301号银河电子城向西200米,江苏省,扬州市,广陵区,15152726652,unknown,
baidu,fa12c660b08f8e23dbeced54,芍药园子书场(东关街店),江苏省扬州市广陵区东关街357号长乐客栈棲凤堂内,江苏省,扬州市,广陵区,18796619005,unknown,
baidu,689d60b9a304d35014948e64,螺丝结顶,广陵路螺丝结顶,江苏省,扬州市,广陵区,,unknown,
baidu,3bda652f89cc0b9c2d4733d4,晏然轩(个园花局里店),江苏省扬州市广陵区盐阜东路花局里53号,江苏省,扬州市,广陵区,"13905275585,15952709938",unknown,
baidu,4552ba77b1120a3200ec01ca,原启空间咖啡工作室(观巷店),"观巷38号(堡尼商务大厦北50米,临东关街)",江苏省,扬州市,广陵区,17761814966,unknown,
baidu,c6cf059333efdf91d8d891f9,盛园茶社(淮扬私房店),甘泉路202号(华思商行对面进)（如家酒店停车场里）,江苏省,扬州市,广陵区,19975050123,unknown,
baidu,99e161f1a4965d1a276e983e,糕兴堂茶舍,江苏省扬州市广陵区东关街318号,江苏省,扬州市,广陵区,18652546077,unknown,
baidu,5ee8db729701ccbc09a8d41f,街南书屋-咖啡馆,扬州市广陵区东关街扬州东关街,江苏省,扬州市,广陵区,(0514)87993333,unknown,
baidu,74bdbd8d85828835b31e3614,欢声笑语娱乐室,扬州市广陵区国庆路桔子水晶酒店(文昌阁店)东南侧约140米,江苏省,扬州市,广陵区,,unknown,
baidu,d811013f3f06a5b729fc48ba,蜜桔水晶酒店(扬州皮市街东关街店),文昌中路279号,江苏省,扬州市,广陵区,(0514)87511666,unknown,
baidu,240a15d17cff8a2dc056acab,扬州星烁客栈(东关街店),古旗亭街63号,江苏省,扬州市,广陵区,(0514)87315469,unknown,
baidu,604a8e3c5c5df1a41e5800dd,全季酒店(扬州东关街汶河南路店),江苏省扬州市广陵区汶河南路59号,江苏省,扬州市,广陵区,(0514)82227088,unknown,
baidu,2b81f245e518f2a422f01794,如家精选酒店(扬州东关街东圈门店),江苏省扬州市广陵区国庆路290号如家精选酒店,江苏省,扬州市,广陵区,"(0514)87577111,19352738111",unknown,
baidu,e9086501585227ec5d0d0268,扬州帝家驿栈宾馆(东关街店),文昌中路279号,江苏省,扬州市,广陵区,(0514)80920077,unknown,
baidu,c3141dedfe8923aba1d23069,扬州东关街美居酒店(东关街店),扬州市广陵区泰州路91号,江苏省,扬州市,广陵区,(0514)89797666,unknown,
baidu,70b1b4ee7b078e356f3e1bee,全季酒店(扬州瘦西湖东关街店),江苏省扬州市邗江区沿河街52号,江苏省,扬州市,邗江区,(0514)87331222,unknown,
baidu,1020060f1f5feebf1994c6ec,扬州东关街凯莎华美达广场酒店,江苏省扬州市广陵区文昌中路318号,江苏省,扬州市,广陵区,(0514)87800000,unknown,
baidu,b348c1ca32963fb82b06ce17,布丁酒店(扬州文昌阁东关街店),江苏省扬州市广陵区国庆路119号教场秦淮坊1幢105室,江苏省,扬州市,广陵区,(0514)82289666,unknown,
baidu,2658e4e07f2884c2d12dd67e,扬州东关街个园漫心酒店,国庆路290号小灯笼巷,江苏省,扬州市,广陵区,(0514)87634888,unknown,
baidu,0ce65c2dee11f8402c4733ec,智选假日酒店(文昌阁店),江苏省扬州市广陵区汶河北路75号,江苏省,扬州市,广陵区,(0514)87979788,unknown,
baidu,dcd5ed59eb403799b020a8ce,两厢和民宿(扬州东关街皮市街店),马家巷13号,江苏省,扬州市,广陵区,13605270179,unknown,
baidu,d3fdfcb383854fa36c3e1b83,闲云箫舍特色民宿(灯草行2号分店),扬州市广陵区灯草行26号,江苏省,扬州市,广陵区,13013711075,unknown,
baidu,20d1ac48f1342681ca1b955a,巷往民宿(东关街皮市街店),湾子街168号,江苏省,扬州市,广陵区,13852712388,unknown,
baidu,902d71239d16dbc30782c2a7,星程酒店(扬州文昌阁东关街店),国庆路292号,江苏省,扬州市,广陵区,"(0514)82169988,19102537919",unknown,
baidu,a3e8341c0f3b808c4afd3fd7,扬州大运河文化旅游度假区·扬州迎宾馆,江苏省扬州市邗江区瘦西湖路48号,江苏省,扬州市,邗江区,(0514)87809888,unknown,
baidu,4d20040a5f43493ef32d83b9,扬州何丰阁民宿,广陵路306-2号,江苏省,扬州市,广陵区,"13852571055,15205277991",unknown,
baidu,3a0a78bdf40b7287631809e3,扬州东关街长乐客栈,东关街357号（馥园西侧步行约250米）,江苏省,扬州市,广陵区,"(0514)87807986,(0514)87993333,0514-87807985",unknown,
baidu,b654362a05078df249fd3ffb,扬州东关街何园方寸客栈,皮市街与广陵路交叉口北180米,江苏省,扬州市,广陵区,"(0514)82828088,15358519063",unknown,
baidu,8293276befe865181ce999dd,扬州瘦西湖君亭酒店,江苏省扬州市广陵区汶河北路52号,江苏省,扬州市,广陵区,"(0514)82773666,(0514)85770996",unknown,
baidu,0523a141f0b8ce04b33c81ec,扬州萃园城市酒店,文昌中路459号,江苏省,扬州市,广陵区,(0514)87800878,unknown,
baidu,e2c734e40a04544414a190ec,扬州广源丁山大酒店,南通西路79号,江苏省,扬州市,广陵区,(0514)87330777,unknown,
baidu,f921e15fc39cb4d197031910,瘦西湖中集行政公寓酒店,文昌中路618号扬州中集行政公寓4楼,江苏省,扬州市,邗江区,(0514)82760888,unknown,
baidu,f757e6ee6b60f20e260bd00a,东园饭店(立新路店),立新路25号,江苏省,扬州市,广陵区,(0514)82895877,unknown,
baidu,60d01cb52ff076671229355f,玲珑轩民宿(皮市街分店),江苏省扬州市广陵区皮市街田家炳实验中学西北侧,江苏省,扬州市,广陵区,,unknown,
baidu,c1e12128e3a97acd33169b6b,万斐·新空间酒店(扬州瘦西湖东关街店),汶河北路42号蓝天大厦,江苏省,扬州市,广陵区,(0514)87360000,unknown,
baidu,281d21144a29fd462e473351,扬州古巷人家青年旅舍,扬州市广陵区东关街道皮市街新民巷12-1号,江苏省,扬州市,广陵区,15861358302,unknown,
baidu,7f73d1bfbd9aa8127c29bd57,结庐王浩特色民宿(东圈门分店),江苏省扬州市广陵区三祝庵街30号文化里14号楼,江苏省,扬州市,广陵区,,unknown,
baidu,d1d1bba7b082a367276e9828,66号民宿,江苏省扬州市广陵区玉井巷66-2号,江苏省,扬州市,广陵区,13852705423,unknown,
baidu,9bc4ab03e678af63b05c6a5e,皮市街民宿(皮市街分店),扬州市广陵区东关街道皮市街103号,江苏省,扬州市,广陵区,,unknown,
baidu,881e9d07cd058d65f33cba95,桔柒民宿(湾子街分店),扬州市广陵区湾子街242号,江苏省,扬州市,广陵区,18012128282,unknown,
baidu,04992f5341ac906f9d9d68f9,扬州一楼客栈,江苏省扬州市广陵区东关街马监巷32号,江苏省,扬州市,广陵区,15952594004,unknown,
baidu,be11ee7f2cefbbf2ab175ac2,小隐琴庐客栈(马家巷分店),江苏扬州广陵区马家巷东关街(扬州市)汪氏小苑后面,江苏省,扬州市,广陵区,,unknown,
baidu,ca9d31d87328e60c465726a2,漫居度假别墅(皮市街1号分店),江苏省扬州市广陵区东关街道皮市街79号,江苏省,扬州市,广陵区,15751049871,unknown,
baidu,b1435b708db5bc71c91b95d1,扬州闲云小院,扬州市广陵区灯草行广陵小学(宛虹桥校区)北侧约220米,江苏省,扬州市,广陵区,,unknown,
baidu,c3ff3cbb5f9370ab0ab93ad4,扬州皇宫金座快捷酒店,江苏省扬州市广陵区文昌中路345号3层(茂业百货对面),江苏省,扬州市,广陵区,(0514)87315918,unknown,
baidu,dc0b72dd8653f823faf0cb8b,扬州途掌柜103728民宿,扬州市广陵区皮市街田家炳实验中学南侧约100米,江苏省,扬州市,广陵区,18944494766,unknown,
baidu,56e9e038d5d1339c09b93a83,古风美宿特色民宿(罗甸巷分店),江苏省扬州市广陵区东关街道湾子街79号,江苏省,扬州市,广陵区,,unknown,
baidu,4a73d6e8531173e5a80dd87a,秦家小院(西营小井巷分店),江苏省扬州市广陵区东关街道西营小井巷9号,江苏省,扬州市,广陵区,,unknown,
baidu,22e19af20b477b124d6d4654,静居客栈(国庆路1号分店),江苏省扬州市广陵区国庆路莲花街坊西南侧约230米,江苏省,扬州市,广陵区,,unknown,
baidu,103810333116b2626040a954,扬州皮市街独立小院(湾子街分店),扬州广陵区路灯台14-1号,江苏省,扬州市,广陵区,,unknown,
baidu,241a385728fded2e276e98f3,扬州韦华公寓,江苏省扬州市广陵区文昌中路357,江苏省,扬州市,广陵区,,unknown,
baidu,d763b077cafcea0ffa42b256,珍园,江苏省扬州市广陵区文昌中路492号(近文昌阁),江苏省,扬州市,广陵区,"(0514)82882148,0514-87361787",unknown,
baidu,bf7a944ae53ef355c8213d84,扬州东关街个园亚朵酒店,解放南路92号,江苏省,扬州市,广陵区,19962640760,unknown,
baidu,5025fd3e2e9319b48bdb73e4,扬州橙子客栈(罗甸巷分店),扬州广陵区刘氏盐商住宅(雲栖堂),江苏省,扬州市,广陵区,,unknown,
baidu,2795daea51e4d6d9eddfcaf0,半亩方糖酒店东关街店,扬州市东关街道东圈门22号-1,江苏省,扬州市,广陵区,(0514)89333999,unknown,
baidu,36462359d0ecdf8a95f08cb3,扬州择一居,江苏省扬州市广陵区皮市街新民巷16号,江苏省,扬州市,广陵区,,unknown,
baidu,191cfbd760e821bce856fad5,扬州银杏宾馆,中国江苏扬州文昌中路416号,江苏省,扬州市,广陵区,(0514)87930030,unknown,
baidu,109206ab91db4694220262c5,德国马牌轮胎(南通东路店),南通东路88-1号,江苏省,扬州市,广陵区,13511768123,unknown,
baidu,5ef4608ef73be2bc45e2745f,扬州九州智行汽车服务有限公司,江苏省扬州市广陵区泰州路59-14号,江苏省,扬州市,广陵区,,unknown,
baidu,50b2212689dd68b73be4a67d,交友洗车坊,史可法路梅岭小学向北200米,江苏省,扬州市,邗江区,13270003095,unknown,
baidu,d6ee872451353d9da8f0cd38,老兵汽车美容维修中心,解放南路39号,江苏省,扬州市,广陵区,17752685739,unknown,
baidu,a18c01d2d9dfd5b03a13fd96,宏兴汽车养护,扬州市广陵区解放南路立新路5号小区西侧约40米,江苏省,扬州市,广陵区,,unknown,
baidu,980299a6bdb424d814948ea1,永丰汽车装潢服务部(南通东路店),南通东路68号,江苏省,扬州市,广陵区,15358461162,unknown,
baidu,dd7e994f20dd692579b55cb1,曹氏汽车维修中心,江苏省扬州市广陵区解放南路凯运烧烤旁,江苏省,扬州市,广陵区,,unknown,
baidu,396b7c14611adcf6077ce8f4,补胎洗车电瓶搭火,扬州市广陵区荷花池支路江苏省苏北人民医院-宿舍,江苏省,扬州市,广陵区,,unknown,
baidu,89edd130af01c60d1ef74d94,比佛利(雨薇)汽车美容中心(江都路店),江苏省扬州市广陵区江都路228-5号,江苏省,扬州市,广陵区,13151511861,unknown,
baidu,0d56c9b33c3e470685420ef5,顺源汽车服务中心,江苏省扬州市邗江区漕河路99-6号,江苏省,扬州市,邗江区,13901457580,unknown,
baidu,8d9f6904dcddfe7421f01769,福康汽车服务中心,扬州市广陵区江都路名都华庭北侧约40米,江苏省,扬州市,广陵区,15312847774,unknown,
baidu,890fee5adef96e826140a903,一嗨租车(扬州东关街店),江苏扬州市广陵区文昌中路320-2号,江苏省,扬州市,广陵区,(0514)87557311,unknown,
baidu,d8a7d51043ac6ad0a4c75642,保养洗车,江苏省扬州市广陵区东关街道泰州路14号,江苏省,扬州市,广陵区,,unknown,
baidu,81ee749b49c0adbb2b201af9,美洁屋车饰,江苏省扬州市邗江区长征路1号,江苏省,扬州市,邗江区,13511764436,unknown,
baidu,70bc7ba40ab3012e3a13fd84,洗相逢汽车养护,江都路228-1号,江苏省,扬州市,广陵区,13301453736,unknown,
baidu,f1aeecbab2db9b3276e5b669,宝沃汽车(扬州文昌阁城市展厅),江苏省扬州市广陵区汶河南路41-2号,江苏省,扬州市,广陵区,4006881919,unknown,
baidu,d9c2b74ee1e93b483a04b173,国金汽车服务有限公司,梅岭东路58-13号,江苏省,扬州市,邗江区,15852888249,unknown,
baidu,ca0248595a736800eee4a5e0,帝亿车工场(东区店),江苏省扬州市广陵区东关街道南通东路128号(运河公馆旁),江苏省,扬州市,广陵区,18061160333,unknown,
baidu,5e227cd35e0c550cf82213e0,咔咔汽车养护中心,莱茵苑莱茵小镇沿河街16号ー2号,江苏省,扬州市,邗江区,"15252555026,18936460183",unknown,
baidu,285fe41413ab6039ebe5829e,洗来乐汽车服务中心,万福西路13号,江苏省,扬州市,邗江区,13773592922,unknown,
baidu,16a934bca805e87b61685828,正宝汽车美容,扬州市邗江区万福西路玉器街103号小区-四幢,江苏省,扬州市,邗江区,,unknown,
baidu,87367be63776585f3b221c1b,扬州市卜记汽车维修服务中心,东花园东路7号,江苏省,扬州市,广陵区,,unknown,
baidu,ac39baa0afc271dd94ec84fa,政凯名车(中集文昌商业中心店),江苏省扬州市邗江区文昌中路618号中集文昌商业中心负一层,江苏省,扬州市,邗江区,15380387585,unknown,
baidu,bd2152b19dcfd40495ec84b7,途虎养车工场店(扬州老虎山路店),江苏省扬州市邗江区老虎山路11-5号,江苏省,扬州市,邗江区,17798963448,unknown,
baidu,f0833270549cedde81a00ca5,荣阳汽车之家(老虎山东路店),老虎山路13-6号,江苏省,扬州市,邗江区,13815830246,unknown,
baidu,62f973e515c376282fe67b89,小付汽车养护,江苏省扬州市广陵区渡江南路2-3号,江苏省,扬州市,广陵区,17798957282,unknown,
baidu,b34fef29295ce620f7c59c42,亮之彩汽车漆,扬州市广陵区江阳东路园丁苑,江苏省,扬州市,广陵区,,unknown,
baidu,5c764ab858700678c2f1cf9b,百援精养(帝亿店),江苏省扬州市广陵区南通东路128号康山文化园8号,江苏省,扬州市,广陵区,18061160333,unknown,
baidu,da1e1e0a4b18f070a6da39d5,扬州吉姆汽车服务有限公司,江苏省扬州市广陵区渡江南路96号,江苏省,扬州市,广陵区,15380303377,unknown,
baidu,9430087fcbe19df4b75f1e42,鲁源汽修24小时道路救援换电瓶轮胎,江苏省扬州市广陵区施井路17号,江苏省,扬州市,广陵区,,unknown,
baidu,3397d85f1c2d204c2bd7ab17,文达汽修补胎搭电换电瓶,江苏省扬州市邗江区马太巷1-3号,江苏省,扬州市,邗江区,18061290397,unknown,
baidu,5bf04a4924600ce1f90cad56,骏达车业,江苏省扬州市广陵区汶河街道荷花池南街69号扬州汶河文化产业园3楼,江苏省,扬州市,广陵区,,unknown,
baidu,eaf460cff4a0c9959900503f,高见汽修,老虎山路13-3号,江苏省,扬州市,邗江区,13801451252,unknown,
baidu,31fa73a1fa28101a901fc909,佳鹏汽修服务中心,江苏省扬州市广陵区曲江街道江都路276号,江苏省,扬州市,广陵区,,unknown,
baidu,f43c1affb3d59d6cb21e36c2,小许汽车服务中心,江苏省扬州市邗江区老虎山路3-3号,江苏省,扬州市,邗江区,15952720750,unknown,
baidu,dac28032aff8a55d20f017b2,正源汽配(万福西路店),江苏省扬州市邗江区漕河路99号,江苏省,扬州市,邗江区,13952574141,unknown,
baidu,89fe194d616e0f1b32f71d6f,品誉汽车会所,东花园东路38号,江苏省,扬州市,广陵区,18351058909,unknown,
baidu,a377c7d0b9a611df2e4733d8,倍耐力轮胎(江都路店),江苏省扬州市广陵区江都路228-5号,江苏省,扬州市,广陵区,13151511861,unknown,
baidu,5f9e44c95ed4c850e5e965c2,卡佰年汽车美容会所(五台山店),梅岭街道高桥路128号(阳光水岸东门),江苏省,扬州市,邗江区,,unknown,
baidu,65ba42eeee8765772fe67ba0,成康汽修,瘦西湖风景名胜区老虎山路11号—4、11—5,江苏省,扬州市,邗江区,"13375279009,18852756678",unknown,
baidu,6e571a098f84bf7926d2bbea,小车修理部,扬州市广陵区城东路江苏省武警总队医院西南侧约50米,江苏省,扬州市,广陵区,,unknown,
baidu,76b0694616395e90c8213dbf,孟派装饰,江苏省扬州市广陵区江阳东路125号铂宫公寓1层,江苏省,扬州市,广陵区,(0514)87221333,unknown,
baidu,d5f66f005ad9d837bd48422c,小叶汽修搭电补胎换电瓶拖车救援,江苏省扬州市广陵区曲江街道施井路1号,江苏省,扬州市,广陵区,18061290397,unknown,
baidu,3b1a6c6864b9e16dbda24001,德国马牌轮胎(万福西路店),江苏省扬州市邗江区梅岭街道漕河西路13号,江苏省,扬州市,邗江区,13773592922,unknown,
baidu,bb16f1653dfa9ef4cafa5f57,大能美车养护中心(途虎养车店),江苏省扬州市邗江区老虎山东路23号,江苏省,扬州市,邗江区,18852588808,unknown,
baidu,20657e72c7e2dd4625d2bbad,油品荟,扬州市广陵区荷花池步行街,江苏省,扬州市,广陵区,,unknown,
baidu,6b125151f083c943b020a862,沈记车行,江苏省扬州市邗江区老虎山路7号-101室,江苏省,扬州市,邗江区,18205252622,unknown,
baidu,2df82186aa2d0cdf8936ee9c,靖江叉车,江苏省扬州市广陵区江阳中路33号中江嘉荷苑1号楼,江苏省,扬州市,广陵区,,unknown,
baidu,58a8075115ae941f97ec8477,MK汽车租赁,扬州市广陵区东花园东路东方丽景北侧约60米,江苏省,扬州市,广陵区,13196685251,unknown,
baidu,faca861db39ffa2f52e5c528,杜邦汽车漆(扬州总代理),江苏省扬州市广陵区荷花池步行街荷花池南门苑5栋5号,江苏省,扬州市,广陵区,(0514)87870363,unknown,
baidu,be7aa29046a727b3f03cbaf8,汽车美容,扬州市广陵区文峰路文峰苑西北侧约100米,江苏省,扬州市,广陵区,,unknown,
baidu,b92922f906b7033cfaf0cb8a,祥盛钣金通风,江苏省扬州市广陵区曲江街道施井路25-6,江苏省,扬州市,广陵区,13585237692,unknown,
baidu,75e095e02c700cf74c6d461f,佳通轮胎(桑园北村东区店),江苏省扬州市广陵区漕河万福西路桑园北村14栋,江苏省,扬州市,广陵区,(0514)87226148,unknown,
baidu,a4da70ca5ae354d29e09f71b,电动修理,扬州市广陵区东花园东路施井西苑东侧约80米,江苏省,扬州市,广陵区,,unknown,
baidu,051956ec9cb5a30721f017a0,扬州市广陵区大祥汽车配件经营部,江苏省扬州市广陵区五台山路15-24,江苏省,扬州市,广陵区,(0514)87226148,unknown,
baidu,1651d24cff3316da5c17c355,永昌车行修理铺(江阳东路店),江阳东路87号,江苏省,扬州市,广陵区,13645272623,unknown,
baidu,0a97c34c4a07496a770269c4,小丁汽车电器空调电瓶,江苏省扬州市邗江区玉器街103号4幢,江苏省,扬州市,邗江区,13013708349,unknown,
baidu,324de588a778e98a08f5eb0e,扬州大学附属医院,扬州市广陵区泰州路45号,江苏省,扬州市,广陵区,"(0514)82099009,(0514)82209111,(0514)82981199",unknown,
baidu,c1a50f006c0e29e6e856fa3d,扬州大学附属医院东区医院(北院)-门诊,泰州路45号扬州大学附属医院东区医院北院1号楼,江苏省,扬州市,广陵区,,unknown,
baidu,6129dc08344f4e30a21de93e,扬州市广陵区中医院,扬州市广陵区广陵路71号,江苏省,扬州市,广陵区,(0514)80987099,unknown,
baidu,b95469e0fc6d2ea19cec2bbf,扬州大学附属医院东区医院(北院)-健康管理中心,扬州市广陵区泰州路45号5号楼3楼,江苏省,扬州市,广陵区,,unknown,
baidu,2c31018cca008a70eb1e97dc,扬州市第一人民医院南区,泰州路41号,江苏省,扬州市,广陵区,"82099009,82209111",unknown,
baidu,34cf4b5f1c9b6b8a601809bd,汶河社区卫生服务中心,江苏省扬州市广陵区旧城六巷7号,江苏省,扬州市,广陵区,,unknown,
baidu,cd07833e780d1ffd9403196b,扬州市华塑卫生所,江苏省扬州市广陵区文昌中路346号,江苏省,扬州市,广陵区,"(0514)87344201,(0514)87347309",unknown,
baidu,60808ccaf3923af9a8059dfc,扬州大学附属医院-医技楼,泰州路45号扬州大学附属医院东区医院北院6号楼,江苏省,扬州市,广陵区,,unknown,
baidu,49a02a7a824cc63d2b201a3f,扬州市第一人民医院-急诊,江苏省扬州市广陵区泰州路45号扬州市第一人民医院1号楼,江苏省,扬州市,广陵区,,unknown,
baidu,55fa2c0b8c42a4501ce99915,扬州大学附属医院-眼科,泰州路45号扬州市第一人民医院7号楼2层,江苏省,扬州市,广陵区,,unknown,
baidu,fa7da3e8bd4cc46242d63e50,广陵区张俊口腔诊所,江苏省扬州市广陵区泰州路22号,江苏省,扬州市,广陵区,,unknown,
baidu,d2363fb0f80aa9569e95defd,扬州市广陵区李惠仁中医诊所,江苏省扬州市广陵区广陵路354号2楼,江苏省,扬州市,广陵区,(0514)87310381,unknown,
baidu,b0a29610bd53ac4a58109307,东关街道社区卫生服务中心(新院区),江苏省扬州市广陵区盐阜东路36号,江苏省,扬州市,广陵区,,unknown,
baidu,381025274f498a0a9cec2bc6,扬州大学附属医院-皮肤科,泰州路45号扬州市第一人民医院7号楼2层,江苏省,扬州市,广陵区,,unknown,
baidu,952741cdce975b827dc876a1,李飞中医诊所,扬州市广陵区广陵路广陵小学(宛虹桥校区)西侧约260米,江苏省,扬州市,广陵区,(0514)87310381,unknown,
baidu,d1c032e46d6afd327c29bd8a,城中卫生院,江苏省扬州市广陵区甘泉路24号,江苏省,扬州市,广陵区,,unknown,
baidu,977bc5a2524703525d0d026e,扬州市第一人民医院急救医疗分站,泰州路45,江苏省,扬州市,广陵区,,unknown,
baidu,e524b9466007299a2bd7abdb,青少年近视管理中心,扬州市广陵区东圈门东域城东北门西侧约60米,江苏省,扬州市,广陵区,,unknown,
baidu,c863f1ae75a709154251c0f5,扬州广陵周正荣诊所,扬州市广陵区彩衣街彩衣苑北门西侧约80米,江苏省,扬州市,广陵区,(0514)87317441,unknown,
baidu,c7eca12b6c0de137e115f957,扬州市口腔医院,江苏省扬州市广陵区汶河南路94号,江苏省,扬州市,广陵区,(0514)80826330,unknown,
baidu,a9f64203fc19d5c22c473337,百信缘大药房(广陵店),江苏省扬州市广陵区文昌中路357号,江苏省,扬州市,广陵区,80367998,unknown,
baidu,fb5ac187ebf70c0bfea77868,扬州大学附属医院-针灸科,泰州路45号扬州市第一人民医院6号楼5楼,江苏省,扬州市,广陵区,,unknown,
baidu,b1b8d99a45eacf79b1077d0a,扬州市级机关门诊部,江苏省扬州市广陵区盐阜东路11号,江苏省,扬州市,广陵区,,unknown,
baidu,ef5e0888fd17c1ababf0cd88,扬州市渡江医院,扬州市广陵区引市街广陵福寿公寓分寓东南侧约220米,江苏省,扬州市,广陵区,,unknown,
baidu,ded9522f632b7deb4107c14b,扬州京城皮肤病医院,江苏省扬州市广陵区南通西路6号,江苏省,扬州市,广陵区,0514-82198888,unknown,
baidu,0254892b3307cabb2902e136,扬州大学附属医院东区住院处,扬州市广陵区泰州路扬州大学附属医院,江苏省,扬州市,广陵区,,unknown,
baidu,3a1285bf69a0a2cda8f729e0,扬州大学附属医院-呼吸科,泰州路45号扬州市第一人民医院7号楼4层,江苏省,扬州市,广陵区,,unknown,
baidu,efc8ac90df9b2c06cd04ef4c,扬州市妇幼保健院-门诊部,国庆路397-1号,江苏省,扬州市,广陵区,,unknown,
baidu,26377080ddf8024c58f6bebd,扬州市第一人民医院-骨伤科,泰州路45号扬州市第一人民医院7号楼1层,江苏省,扬州市,广陵区,,unknown,
baidu,4d86a9efe4463071bca822e2,扬州市妇幼保健院-西区,扬州市广陵区国庆路397号,江苏省,扬州市,广陵区,,unknown,
baidu,801108e8a68d6a3b03ec0135,扬州大学附属医院东区医院(北院)-户外吸烟区,江苏省扬州市广陵区泰州路45号扬州大学附属医院东区医院(北院),江苏省,扬州市,广陵区,,unknown,
baidu,4c70c986a425845a29201a60,惠耳听力助听器(银河电子城店),江苏省扬州市广陵区文昌中路289号(茂业百货必胜客对面),江苏省,扬州市,广陵区,0514--82182138,unknown,
baidu,7e471e48bfdcaa9dab059d49,大德生(国庆路店),江苏省扬州市广陵区国庆路128号,江苏省,扬州市,广陵区,13218968383,unknown,
baidu,2d8fdb2e3db75d2997ec8470,扬州市妇幼保健院-放射科,扬州市妇幼保健院9号楼,江苏省,扬州市,广陵区,,unknown,
baidu,a527d9bae0e8f0b52902e160,江苏省苏北人民医院,扬州市广陵区南通西路98号,江苏省,扬州市,广陵区,(0514)87373114,unknown,
baidu,5dbd3db6791c9cf148fc8d68,安蕴诚诊所,江苏省扬州市广陵区南通东路128号3幢,江苏省,扬州市,广陵区,,unknown,
baidu,658eb2e9c04286d6c27da2bc,江苏省武警总队医院,扬州市广陵区江都南路8号,江苏省,扬州市,广陵区,,unknown,
baidu,875a6b26e0c37f6240afe672,江苏省苏北人民医院-门诊,江苏省扬州市广陵区南通西路98号,江苏省,扬州市,广陵区,,unknown,
baidu,dd3c638d8ac228f5b6147fc8,扬州市第一人民医院-泌尿外科,泰州路45号扬州市第一人民医院4号楼5层,江苏省,扬州市,广陵区,,unknown,
baidu,8e2c5e41bca109c382288aeb,扬州大学附属医院东区医院(北院)-食堂综合楼,泰州路45号扬州大学附属医院东区医院北院5号楼,江苏省,扬州市,广陵区,,unknown,
baidu,3c5d4c4756c421d85d17c3d6,扬州市第一人民医院-外科,泰州路45号扬州市第一人民医院7号楼1层,江苏省,扬州市,广陵区,,unknown,
baidu,6bb843cf9bb9d9e48733047e,扬州市第一人民医院-肺功能室,泰州路45号扬州市第一人民医院东区医院7号楼4层,江苏省,扬州市,广陵区,,unknown,
baidu,fe27ae9e2e7cd3981894c616,刘先春口腔诊所,江苏省扬州市广陵区盐阜东路12号,江苏省,扬州市,广陵区,(0514)87352355,unknown,
baidu,108a5770f2ed1a807ec87604,扬州市第一人民医院-B超检查室,泰州路45号扬州市第一人民医院6号楼3楼,江苏省,扬州市,广陵区,,unknown,
baidu,d6296b63188d41340d3dda44,东花苑医院,江苏省扬州市广陵区联谊路22号,江苏省,扬州市,广陵区,,unknown,
baidu,22946bd3f9f585718c1a8900,广陵区曲江街道社区卫生服务中心,江苏省扬州市广陵区运河西路156号,江苏省,扬州市,广陵区,(0514)87231325,unknown,
baidu,899bba108a2fa339f50e7734,扬州市第一人民医院-新生儿重症监病房,泰州路45号扬州市第一人民医院7号楼6层,江苏省,扬州市,广陵区,,unknown,
baidu,4d6a215f63df031d00ff2de1,金博堂,江苏省扬州市广陵区泰州路9号,江苏省,扬州市,广陵区,(0514)87153135,unknown,
baidu,0d68858237728221f33cba3b,扬州市第一人民医院-理疗科,泰州路45号扬州市第一人民医院6号楼5楼,江苏省,扬州市,广陵区,,unknown,
baidu,504f30a293ffcacdad31e5ff,扬州市第一人民医院-新生儿病区,泰州路45号扬州市第一人民医院7号楼6层,江苏省,扬州市,广陵区,,unknown,
baidu,044322359e7625cc1894c6c4,同参堂大药房,江苏省扬州市广陵区国庆路1号一楼北侧(工商银行正对面),江苏省,扬州市,广陵区,18061159596,unknown,
baidu,0d27e26f7a1a1b1bed74f81f,灰指甲,江苏省扬州市广陵区大东门街22号,江苏省,扬州市,广陵区,,unknown,
baidu,72641a71cf18b828b020a89e,扬州市第一人民医院-乳腺外科,泰州路45号扬州市第一人民医院东区医院4号楼4层,江苏省,扬州市,广陵区,,unknown,
baidu,2e087471d0035daa43afe61e,老百姓(文昌中路店),扬州市广陵区文昌中路中国农业银行(扬州广陵支行)南门东侧约50米,江苏省,扬州市,广陵区,,unknown,
baidu,bd5558b168d7ccf9d7851fa6,郑俊谦中医儿科门诊部,扬州市广陵区皇宫路皇宫花园,江苏省,扬州市,广陵区,,unknown,
baidu,ed2a73400239072df02d83ec,广陵区疾病预防控制中心健康体检服务大厅,扬州市广陵区大草巷扬州市广陵区疾病预防控制中心,江苏省,扬州市,广陵区,,unknown,
baidu,94df54fa90a0ef2191114cf8,扬州水建医院,扬州市广陵区江都路与文昌中路交口北50米路东,江苏省,扬州市,广陵区,(0514)85828567,unknown,
baidu,54c1bea18eb7eeb53be4a6e7,扬州市第一人民医院-抽血处,泰州路45号扬州市第一人民医院1号楼,江苏省,扬州市,广陵区,,unknown,
baidu,5ac017a87a58a0554e776e33,扬州大学附属医院东区医院(北院)-肠道门诊,江苏省扬州市广陵区泰州路45号扬州大学附属医院东区医院(北院)F1,江苏省,扬州市,广陵区,,unknown,
baidu,c6637916ba48238f04fef5c5,扬州市妇幼保健院-行政办公楼,扬州市妇幼保健院7号楼,江苏省,扬州市,广陵区,,unknown,
baidu,deb9e29b8ebaa920990050f6,红十字救护站,扬州市广陵区新古一巷东关街27号,江苏省,扬州市,广陵区,,unknown,
baidu,ddf7528a4220d1de3517dcee,江苏省苏北人民医院-中医馆,扬州市广陵区荷花池支路与荷花池路交汇处西行50米,江苏省,扬州市,广陵区,,unknown,
baidu,46d098cbbe8e8e9c04fef57d,国大药房大德生(康桥药店),江苏省扬州市广陵区皮市街8-8号,江苏省,扬州市,广陵区,(0514)87212060,unknown,
baidu,4c92d7938ae0cf186e20b983,文峰街道社区卫生服务中心,江苏省扬州市广陵区宜园路32号,江苏省,扬州市,广陵区,,unknown,
baidu,08fc93dfa0169f929b68b4c9,广陵区疾病预防控制中心,扬州市广陵区便益门大街103号,江苏省,扬州市,广陵区,(0514)80826158,unknown,
baidu,e6a3ef05920079b2d8ecedff,存济药局,扬州市广陵区观巷27号,江苏省,扬州市,广陵区,,unknown,
baidu,2218cad52aa821ed7dc876c9,扬州市妇幼保健院-发热门诊,扬州市妇幼保健院18号楼,江苏省,扬州市,广陵区,(0514)87937307,unknown,
baidu,840aa16727508ff8f4b91630,扬州大音大药房,江苏省扬州市广陵区东关街道东关街410号,江苏省,扬州市,广陵区,,unknown,
baidu,909d15a82d712b336849f3de,扬州市宫颈癌综合防治一体化门诊,扬州市广陵区国庆路397号扬州市妇幼保健院门诊楼三层,江苏省,扬州市,广陵区,,unknown,
baidu,171c4fad9417ba9438e4a6af,国大药房鉴真大药房(扬州鉴真大药房),江苏省扬州市广陵区文昌中路201-1号,江苏省,扬州市,广陵区,(0514)87360513,unknown,
baidu,6bf66624f5fac2b7f4eafcd8,扬州市妇幼保健院爱心献血屋,江苏省扬州市广陵区国庆路395号(国庆路与盐阜西路交叉口西南角),江苏省,扬州市,广陵区,,unknown,
baidu,5619bf0aa913d0b059bbbc5f,扬州市医学遗传中心,扬州市妇幼保健院6号楼,江苏省,扬州市,广陵区,,unknown,
baidu,e6ee2fd220e42a482b11d151,百信缘大药房(国庆路店),江苏省扬州市广陵区国庆路452号2层,江苏省,扬州市,广陵区,(0514)80367938,unknown,
baidu,16d5c44bb5bddc602a06ce42,扬州精诚圣博康复中心,江苏省扬州市广陵区桑园路48号晶典星城2栋,江苏省,扬州市,广陵区,19962566822,unknown,
baidu,270436b8707fe086725e807e,目中明视力养护(免费体验中心),扬州市广陵区泰州路扬州经典商务广场5幢210室,江苏省,扬州市,广陵区,13773575767,unknown,
baidu,c15f83aff837a61ef50e77a8,扬州市妇幼保健院-放射楼,扬州市妇幼保健院9号楼,江苏省,扬州市,广陵区,,unknown,
baidu,e967fb9da57700a88c1a89fd,达康大药房(何园平价店),江苏省扬州市广陵区徐凝门大街145号,江苏省,扬州市,广陵区,(0514)87219211,unknown,
baidu,f6fd327702edf6adede4a5bf,扬州大学附属医院东区医院(北院)-儿童医学中心,文昌中路183、185号,江苏省,扬州市,广陵区,,unknown,
baidu,665f0f3452e04b4dbb17e727,方圈门大药房,江苏省扬州市广陵区广陵路方圈门菜场18号-2,江苏省,扬州市,广陵区,18505220523,unknown,
baidu,cf1ff2b3e9f275e6ad31e592,联环健康大药房(渡江路店),江苏省扬州市广陵区渡江路181号,江苏省,扬州市,广陵区,(0514)82093699,unknown,
baidu,9f4830ac4168c120fe0eb0cb,百草堂大药房(徐凝门大街店),江苏省扬州市广陵区东关街道徐凝门大街90号,江苏省,扬州市,广陵区,(0514)87506823,unknown,
baidu,8492a8532983d1f29868b444,耳聪听力连锁(文昌一店),江苏省扬州市广陵区文昌中路219号,江苏省,扬州市,广陵区,(0514)87229009,unknown,
baidu,f0db6781f8e0cb86901fc922,国药控股专业药房(第一新特药房),江苏省扬州市广陵区文昌中路175号,江苏省,扬州市,广陵区,(0514)87259736,unknown,
baidu,5aa19140ee88005457bffff1,同松参号药店旧址,江苏省扬州市广陵区广陵路352号1-12号,江苏省,扬州市,广陵区,,unknown,
baidu,0f5a08c7c960b2a82e47332d,百姓药业(甘泉路店),江苏省扬州市广陵区东关街道甘泉路27号,江苏省,扬州市,广陵区,(0514)87367120,unknown,
baidu,6069a20f6d970608ff0eb007,扬州白玉兰大药房,江苏省扬州市广陵区汶河街道文昌中路511号,江苏省,扬州市,广陵区,(0514)87333088,unknown,
baidu,de6a91a2d3969847abf729c1,海之声助听器(解放桥旗舰店),江苏省扬州市广陵区文昌中路173号,江苏省,扬州市,广陵区,(0514)87138108,unknown,
baidu,1477f7fba8cf245b32870a40,众成堂医药连锁公司众成堂大药房(四望亭路店),江苏省扬州市广陵区四望亭路53号,江苏省,扬州市,广陵区,4001197266,unknown,
baidu,a5ca0e235a3d0b889e9d684a,恒辰大药房,江苏省扬州市邗江区北门外街503-101号,江苏省,扬州市,邗江区,(0514)85070487,unknown,
baidu,c03f26fff584121da2a93434,扬州市第一人民医院-B超,泰州路45号扬州市第一人民医院1号楼,江苏省,扬州市,广陵区,,unknown,
baidu,d43ec183a97d66e6c4f02558,扬州市儿童保健中心,江苏省扬州市广陵区盐阜西路2号,江苏省,扬州市,广陵区,,unknown,
baidu,0d23f51640dc33222efaa7a1,孙氏推拿理疗馆,江苏省扬州市广陵区天宁门街31号,江苏省,扬州市,广陵区,18652756750,unknown,
baidu,611cb504df776388c7f0259f,雨希健康管理,扬州市广陵区解放南路凯运天地,江苏省,扬州市,广陵区,13665238213,unknown,
baidu,bf9b57f4cddba86188fc0620,扬州市第一人民医院东区医院-影像诊断教研室,泰州路45号扬州市第一人民医院东区医院6号楼2层,江苏省,扬州市,广陵区,,unknown,
baidu,de831eaba9887a861c389446,扬州市第一人民医院东区医院-MR检查室,泰州路45号扬州市第一人民医院东区医院6号楼1层,江苏省,扬州市,广陵区,,unknown,
baidu,186dbc3d74cbbdf94bcc4a79,扬州市第一人民医院东区医院-电子支气管镜室,泰州路45号扬州市第一人民医院东区医院6号楼4层,江苏省,扬州市,广陵区,,unknown,
baidu,3d8998aed384a4eb4c6d465e,时旭医疗美容(文昌中路华美达部),文昌中路318号华美达凯莎酒店广场南1幢,江苏省,扬州市,广陵区,17361819592,unknown,
baidu,34b0b559354c68a73913fd5a,美国斯达克助听器(茂业百货对面店),扬州市广陵区文昌中路莲花街坊北5门东北侧约90米,江苏省,扬州市,广陵区,(0514)82182138,unknown,
baidu,329717f058ef6cb52202622b,瑞士峰力助听器(扬州茂业百货对面店),江苏省扬州市广陵区文昌中路388号,江苏省,扬州市,广陵区,(0514)82182138,unknown,
baidu,510d0f1080259666167643ca,佳宁口腔,江苏省扬州市邗江区高桥路74号,江苏省,扬州市,邗江区,(0514)87600586,unknown,
baidu,4899dd2aea43a6f72b06cecf,扬州市第一人民医院肌电室-多普勒室,泰州路45号扬州市第一人民医院6号楼4楼,江苏省,扬州市,广陵区,,unknown,
baidu,2eb42c3df567b910d618b758,扬州市第一人民医院-心电图检查室,江苏省扬州市广陵区泰州路45号扬大附属医院东区6号楼,江苏省,扬州市,广陵区,,unknown,
baidu,9dc82f3f3544ec119cf779c1,城东口腔,江苏省扬州市广陵区运河西路135号,江苏省,扬州市,广陵区,,unknown,
baidu,4883755692181b19ede4a5ac,青少年近视防控中心,江苏省扬州市广陵区泰州路188号扬州经典商务广场5幢2层211室,江苏省,扬州市,广陵区,,unknown,
baidu,877375462fd2946bf942b2e0,上元教育·技能考证考研培训(广陵分校),江苏省扬州市广陵区汶河北路21号一楼,江苏省,扬州市,广陵区,15050723265,unknown,
baidu,f633fd392e7bb27b1fe999f8,艺立方艺术体操俱乐部,江苏省扬州市广陵区国庆路119号教场街区9号楼,江苏省,扬州市,广陵区,13375272290,unknown,
baidu,e1ca64fd6d35a7100482c21e,锦程数学,江苏省扬州市广陵区东关街道文昌中路446号,江苏省,扬州市,广陵区,,unknown,
baidu,a6125edcd301ebbd09a8d42d,扬州市培智学校,江苏省扬州市广陵区东关街道广陵路北河下67号,江苏省,扬州市,广陵区,(0514)87226498,unknown,
baidu,9fe7b0d418dfd86b33621254,朗沁培训中心,江苏省扬州市广陵区广陵路283号邮政局大院内20米右拐,江苏省,扬州市,广陵区,15380362223,unknown,
baidu,708304d7d945132e2fe67bd9,扬州君熙未来教育培训中心(文昌校区),江苏省扬州市广陵区国庆路290号,江苏省,扬州市,广陵区,,unknown,
baidu,fed4a14a88efb848306212eb,鼎好职业培训学校,江苏省扬州市广陵区国庆路292号4楼,江苏省,扬州市,广陵区,18936272419,unknown,
baidu,04d496b5b6f501ead8d891eb,彤源书画,江苏省扬州市广陵区三祝巷9-2号,江苏省,扬州市,广陵区,,unknown,
baidu,59c5e593ba9d2c7132f71db5,同同音乐培训中心,东圈门26-1号,江苏省,扬州市,广陵区,,unknown,
baidu,9d8a89ba286872168733045e,华立培训,江苏省扬州市广陵区文昌中路360号,江苏省,扬州市,广陵区,(0514)89785808,unknown,
baidu,6d6f50979f11e3932806ce6a,三霞蓓蕾书画教育(徐凝门校区),江苏省扬州市广陵区徐凝门大街147号,江苏省,扬州市,广陵区,(0514)87217812,unknown,
baidu,74d343d3d7581fd2c3364468,汉韵书院,江苏省扬州市广陵区毓贤街18号文昌百汇11幢101号,江苏省,扬州市,广陵区,18652780122,unknown,
baidu,9536c41870b10e9671455beb,中国美术学院,扬州市广陵区东关街扬州东关街,江苏省,扬州市,广陵区,,unknown,
baidu,aa2a4fcf4c89d240ad31e5f1,扬州市吉他学会,扬州市广陵区文昌中路与皮市街交叉路口往东北约100米(琼花观),江苏省,扬州市,广陵区,,unknown,
baidu,8d8e1e0a1f408b54c9fa5fd0,无形画室(扬州分校),江苏省扬州市广陵区毓贤街18号文昌百汇7栋202室,江苏省,扬州市,广陵区,"18556133986,4000400308",unknown,
baidu,bbd8affee4e055ae28b97ce2,夏恩英语学校(东关古渡校区),江苏省扬州市广陵区泰州路扬州经典商务广场6幢,江苏省,扬州市,广陵区,(0514)87338078,unknown,
baidu,1ab3910cb5d287a5f6c59c11,墨农画室,江苏省扬州市广陵区东关街91号,江苏省,扬州市,广陵区,,unknown,
baidu,4083e2fb8fc39a9754bfff76,博佳机器人编程中心(文昌百汇店),江苏省扬州市广陵区毓贤街18号文昌百汇10栋301号,江苏省,扬州市,广陵区,15051963809,unknown,
baidu,00f1c7fba164b31cc056acc5,扬州市广陵区行政学校,江苏省扬州市广陵区东关街道北河下23号,江苏省,扬州市,广陵区,,unknown,
baidu,db68d962a9891d63f4eafcf2,星航儿童潜能发展中心,江苏省扬州市广陵区东关街道文昌中路34号,江苏省,扬州市,广陵区,,unknown,
baidu,33459fb48bc842e21329358a,名尚化妆培训·专业化妆美甲美睫半永久彩妆培训,泰州路15号二楼,江苏省,扬州市,广陵区,18952789288,unknown,
baidu,abc894178b035d230969d940,孟涛吉他,江苏省扬州市广陵区泰州路7号,江苏省,扬州市,广陵区,15852879505,unknown,
baidu,52ef0b58c1cf5fb217b54bc9,群英跆拳道(解放桥校区),解放南路108号解放桥农贸市场2层,江苏省,扬州市,广陵区,18762323616,unknown,
baidu,937e8e500c89c5a0df1e52f6,同法艺术空间,江苏省扬州市广陵区仁丰里74号,江苏省,扬州市,广陵区,17351360129,unknown,
baidu,69130523d898c90b725e80c5,田家炳实验中学,江苏省扬州市广陵区皮市街158号,江苏省,扬州市,广陵区,(0514)87234040,unknown,
baidu,3fde5c8b6e58b61c7c29bdc4,海韵艺术工作室,江苏省扬州市广陵区治淮新村23栋1号,江苏省,扬州市,广陵区,,unknown,
baidu,a3b2caf1360e15353c9a5ede,飞雯陶笛培训中心(扬州店),江苏省扬州市广陵区毓贤街8号108室,江苏省,扬州市,广陵区,17715837337,unknown,
baidu,bd5f9c635807eb10c1f1cfa4,美域书画,江苏省扬州市广陵区文昌中路492号珍园佐思佳3楼,江苏省,扬州市,广陵区,13373682196,unknown,
baidu,56f2f6965de1d1fc0ba8d4b9,东关小学,江苏省扬州市广陵区东关街道文昌中路241号,江苏省,扬州市,广陵区,(0514)87349638,unknown,
baidu,97943719ef331f63c909f0c2,扬州市机关第一幼儿园,江苏省扬州市广陵区运司公廨44号,江苏省,扬州市,广陵区,(0514)87342225,unknown,
baidu,850815e1350fd49b43e19253,扬州市第一中学,江苏省扬州市广陵区文昌中路358号,江苏省,扬州市,广陵区,(0514)87349178,unknown,
baidu,fa9af5ca2dac647c213bf24d,琢诣艺术课堂,江苏省扬州市广陵区泰州路宋城名都B楼255号,江苏省,扬州市,广陵区,13151515251,unknown,
baidu,5c64cb5cb4cad6f041afe688,扬州书画艺术城,扬州市广陵区花局里46号,江苏省,扬州市,广陵区,,unknown,
baidu,4fd979058ddbee1ca0acc44c,悦课机器人编程中心(四望亭店),江苏省扬州市广陵区汶河街道汶河北路27号,江苏省,扬州市,广陵区,(0514)87977261,unknown,
baidu,4ebaccd94172629b49fc8dcb,优韵琴坊,花局里26号,江苏省,扬州市,广陵区,,unknown,
baidu,0b1fdca52e120efd774ff1fd,城市书房(东关历史文化旅游区),大东门街东关街玲珑馆旁,江苏省,扬州市,广陵区,18005275950,unknown,
baidu,cd4825700353009cf6c59c46,同生公益大讲堂,江苏省扬州市广陵区皮市街8-1号,江苏省,扬州市,广陵区,18118251127,unknown,
baidu,cd4b32c8eda468d582a12ecd,三千书院,江苏省扬州市广陵区广陵路70号,江苏省,扬州市,广陵区,13064886828,unknown,
baidu,4854d6cff30dbcd840024561,陈慧舞蹈艺术培训(文昌百汇店),江苏省扬州市广陵区毓贤街18号文昌百汇2幢三楼301凯希国际旁,江苏省,扬州市,广陵区,13511743555,unknown,
baidu,5e36b9a986ec28b6725e8002,凤凰教育,扬州市广陵区皇宫路万家福商城北侧约40米,江苏省,扬州市,广陵区,,unknown,
baidu,600ef1b448b3bdaffb2d615c,严风美术,江苏省扬州市邗江区沿河街50号工艺坊a区3楼486,江苏省,扬州市,邗江区,,unknown,
baidu,39d43f828482f986a8059d53,扬州老年大学,江苏省扬州市广陵区盐阜东路11号,江苏省,扬州市,广陵区,,unknown,
baidu,3f68d3ab462d30a670210b6b,缘林音乐工作室,江苏省扬州市广陵区泰州路188号扬州经典商务广场7幢101室,江苏省,扬州市,广陵区,18796611644,unknown,
baidu,a87a4a82306723482bd7abd8,花开仲夏研习馆(仁丰里店),仁丰里71号,江苏省,扬州市,广陵区,17768611927,unknown,
baidu,e8c81b2af24a3f0c1811d544,凯运培训中心(凯运壹位广场店),运河西路558号凯运壹位广场F1,江苏省,扬州市,广陵区,(0514)87909289,unknown,
baidu,8770eb93125f87892bd7ab1a,扬州技师学院(东校区)西区,江苏省扬州市广陵区江都路558号,江苏省,扬州市,广陵区,"(0514)87214351,(0514)87246221",unknown,
baidu,d26eb3d06b8be893f7eafceb,优瑞英语(扬州文昌阁校区),江苏省扬州市广陵区毓贤街18号文昌百汇10栋1楼,江苏省,扬州市,广陵区,(0514)82201616,unknown,
baidu,267205bb0d03ba5d8936eee1,扬州市天海职业技术学校,江苏省扬州市广陵区苏唱街28号,江苏省,扬州市,广陵区,,unknown,
baidu,699cf7646f86b16035b06c1d,江苏油田技师学院,江苏省扬州市邗江区老虎山路20号,江苏省,扬州市,邗江区,(0514)87763329,unknown,
baidu,8e03ef36f48c0d7e3a13fdea,金音艺术,江苏省扬州市广陵区汶河街道汶河北路7号,江苏省,扬州市,广陵区,,unknown,
baidu,be54cde90396c55878f79653,扬州中学教育集团树人学校,江苏省扬州市广陵区南门街82号,江苏省,扬州市,广陵区,(0514)87367028,unknown,
baidu,435c4c43bb6d6b05f4b91685,扬州市汶河小学-正谊书院,江苏省扬州市广陵区北柳巷97号,江苏省,扬州市,广陵区,,unknown,
baidu,0915ca6e7cd5b69cf03cba40,七二三所北区,江苏省扬州市广陵区泰州路43号,江苏省,扬州市,广陵区,,unknown,
baidu,7fd0f2dcc1bb4089d9ecedf4,言熙书法,江苏省扬州市广陵区毓贤街18号文昌百汇4栋216室,江苏省,扬州市,广陵区,,unknown,
baidu,f64c9bf836fb98bc2b11d138,扬州育才实验学校(西校区),江苏省扬州市广陵区东关街道南通西路24号,江苏省,扬州市,广陵区,(0514)87349711,unknown,
baidu,3d016aa562cf9ee4b34c49a5,仁丰里城市书房,扬州市广陵区仁丰里83号,江苏省,扬州市,广陵区,(0514)82182819,unknown,
baidu,82db1b37e8e2158c2b02e184,育才小学,江苏省扬州市广陵区南通西路58号,江苏省,扬州市,广陵区,"(0514)80780906,(0514)80780908",unknown,
baidu,d82d66972a651adbd518b72b,江苏省扬州中学(淮海路),江苏省扬州市广陵区汶河街道淮海路20号,江苏省,扬州市,广陵区,"(0514)87931373,(0514)87931778",unknown,
baidu,67a03f812dd16495cb213d45,扬州市科学技术情报研究所,江苏省扬州市广陵区文昌中路403号,江苏省,扬州市,广陵区,,unknown,
baidu,1bce8a7b09fe7991220220c3,边城书院,江苏省扬州市广陵区皮市街111号,江苏省,扬州市,广陵区,,unknown,
baidu,c8b5cdef7942307e130daa03,江苏省扬州旅游商贸学校,江苏省扬州市邗江区史可法西路15号,江苏省,扬州市,邗江区,(0514)87234061,unknown,
baidu,dffd631c2a4bdfbc39221c84,梅岭中学,江苏省扬州市邗江区梅岭东路19号,江苏省,扬州市,邗江区,(0514)87930350,unknown,
baidu,9f97b1c57bf96b7ab74f548f,扬州大学-附属中学,江苏省扬州市广陵区淮海路180号,江苏省,扬州市,广陵区,"(0514)87342175,(0514)87342182",unknown,
baidu,f44f7b8f8d896f642bb97cd7,扬州市汶河小学(石塔校区),江苏省扬州市广陵区文昌中路558号,江苏省,扬州市,广陵区,(0514)87325020,unknown,
baidu,2015d6aaa348488c9d82ea3a,西门街小学,四望亭路16号,江苏省,扬州市,广陵区,(0514)87341788,unknown,
baidu,8f93b7e93555ba4045e27416,平安培训大会场,江苏省扬州市广陵区南通东路澜亭禧悦客栈5楼,江苏省,扬州市,广陵区,,unknown,
baidu,cdf893669d089c7653e5c5d1,扬州市和谐校园,江苏省扬州市广陵区广陵路267号,江苏省,扬州市,广陵区,,unknown,
baidu,cc0849a04c66d45095031984,扬州大学-第一幼儿园,江苏省扬州市邗江区大虹桥路10号,江苏省,扬州市,邗江区,(0514)87978428,unknown,
baidu,1f4ea6d9f0df698321f017f4,扬州育才实验学校(北校区),江苏省扬州市邗江区史可法西路13号,江苏省,扬州市,邗江区,(0514)80828556,unknown,
baidu,148832923a3e8b9b0b1cc700,扬州大学(文汇路校区),甘泉街道文昌中路567号,江苏省,扬州市,邗江区,(0514)87971858,unknown,
baidu,90fb7d2ca85fd2350582c243,扬州市广陵区常青幼儿园,江苏省扬州市广陵区卸甲桥1号,江苏省,扬州市,广陵区,,unknown,
baidu,231169137ffae6fe734b87c5,文津中学,江苏省扬州市广陵区江都南路15号,江苏省,扬州市,广陵区,(0514)87240999,unknown,
baidu,3465a2dcf7bbd3882ce67b3d,八维学院,江苏省扬州市广陵区文昌中路328号,江苏省,扬州市,广陵区,4000080987,unknown,
baidu,30f042bfdcf7c7840f0a7022,扬州大学(瘦西湖校区),江苏省扬州市邗江区四望亭路180号,江苏省,扬州市,邗江区,(0514)87975452,unknown,
baidu,02e0402d6de79aa11ef74da3,扬州市图书馆南河下城市书房,渡江路28号2楼,江苏省,扬州市,广陵区,(0514)82182840,unknown,
baidu,cc3a7fd14fed89e36ca3cc11,江苏省水利科学研究院材料结构研究所(石子街一巷),盐阜东路工人二村150号,江苏省,扬州市,邗江区,,unknown,
baidu,564d1469e1b3082ca5da3904,扬州建筑设计研究院有限公司第九设计研究所,江苏省扬州市广陵区泰州路43号,江苏省,扬州市,广陵区,,unknown,
baidu,f15539f1cf8627b5d518b7b9,扬州阮元文化研究中心,江苏省扬州市广陵区汶河街道仁丰里2号,江苏省,扬州市,广陵区,,unknown,
baidu,f8ec3aae59f7c1b5cac3db2c,小时候东关街小学,扬州市广陵区东关街扬州东关街,江苏省,扬州市,广陵区,,unknown,
baidu,7b77528c33f239026ca3cc0c,扬州市东花园小学,江苏省扬州市广陵区东花园路中段（银泰雅苑西侧约110米）,江苏省,扬州市,广陵区,(0514)87012219,unknown,
baidu,d52831f938cd7fa62efaa7ce,沙口小学,江苏省扬州市广陵区江都南路13号,江苏省,扬州市,广陵区,"(0514)87206053,(0514)87247592",unknown,
baidu,aeba49b6fcf6f55459bbbc3f,中国扬州装裱研究院,江苏省扬州市广陵区东关街道彩衣街126号,江苏省,扬州市,广陵区,15205270028,unknown,
baidu,0c13ba323ae53d805bf6be0a,缤果研究所,扬州市广陵区东关街扬州东关街,江苏省,扬州市,广陵区,,unknown,
baidu,8672f18beae188d928d7ab26,扬州八怪研究院,江苏省扬州市广陵区盐阜东路9号,江苏省,扬州市,广陵区,,unknown,
baidu,e5d0c7bca72331e5583ac858,中国科学院心理研究所,扬州市广陵区迎春巷文昌百汇商业步行街,江苏省,扬州市,广陵区,,unknown,
baidu,965bc0436575a2a7734b878a,扬州吴越文化艺术研究院,江苏省扬州市邗江区沿河街56号,江苏省,扬州市,邗江区,,unknown,
baidu,11cdf21399dfa4c8b9df8fe3,扬州市平民中学,江苏省扬州市广陵区汶河街道毓贤街9幢,江苏省,扬州市,广陵区,,unknown,
baidu,3d3f54989472091b5fbe8656,雅舍(扬州府八雅传统文化研究院),江苏省扬州市广陵区仁丰里28号,江苏省,扬州市,广陵区,13196683388,unknown,
baidu,15a998d7bbe38520acee7a54,花想容技术研发中心,江苏省扬州市广陵区毓贤街3栋,江苏省,扬州市,广陵区,,unknown,
baidu,f56f9208e37313135810931a,江苏省涉外办学许可证,江苏扬州市广陵区文昌中路240号,江苏省,扬州市,广陵区,,unknown,
baidu,32e6fcd12734404e72455b9c,何园读书楼,扬州市广陵区徐凝门大街66号何园内,江苏省,扬州市,广陵区,,unknown,
baidu,b135a195b9585b5c364aae02,江苏省平安校园,江苏扬州市广陵区南城根小三巷7号,江苏省,扬州市,广陵区,,unknown,
baidu,ec5d082e36de4010abf7293e,护学岗,江苏省扬州市广陵区南城根小三巷7号,江苏省,扬州市,广陵区,,unknown,
baidu,6e92e274a443b777a6da3927,弘扬搏击,泰州路188号5号楼负一楼,江苏省,扬州市,广陵区,15952777274,unknown,
baidu,cdb9976cfe223f92f33cba2e,郭坚忍办学处,扬州市广陵区广储门街32-38号,江苏省,扬州市,广陵区,,unknown,
baidu,ff0cb274e7bf9cbaf50e773a,何氏学堂,徐凝门大街66号何园,江苏省,扬州市,广陵区,,unknown,
baidu,e83d85d02bcd8638130daa3d,彩妆造型培训机构,扬州市广陵区汶河南路文昌百汇商业步行街,江苏省,扬州市,广陵区,,unknown,
baidu,497fd897b12362f89d9d68ef,继学轩,扬州市广陵区盐阜东路6-1号准提寺,江苏省,扬州市,广陵区,,unknown,
baidu,6672beeccb5a7e92d0ff234a,青芝堂中医药研究院,江苏省扬州市广陵区甘泉路221号,江苏省,扬州市,广陵区,13270571368,unknown,
baidu,d4dc49bda8b9a760b1077dc0,茂业百货(文昌店)-地上停车场,扬州市广陵区文昌中路396号茂业百货F1,江苏省,扬州市,广陵区,,unknown,
baidu,33e813d714eb480deee4a568,东域城-东侧地上停车场,江苏省扬州市广陵区文昌中路114号,江苏省,扬州市,广陵区,,unknown,
baidu,9139b0bea783605794ec842b,琼花观(皮市街),18路;18路晚班;26路;26路晚班;32路;32路专线;86路;88路;88路晚班;89路;K1路;Z6路;古城微巴2号线,江苏省,扬州市,广陵区,,unknown,
baidu,f45f481db63722a98f7727ac,中国工商银行(扬州琼花支行)-停车场,扬州市广陵区文昌中路382号,江苏省,扬州市,广陵区,,unknown,
baidu,f8e74cd5c6721bf9e812e4c3,人民商场(国庆路店)南侧-停车场,江苏省扬州市广陵区国庆路1号,江苏省,扬州市,广陵区,,unknown,
baidu,264d3f976f727650db131870,珍园(萃园),18路;18路晚班;26路;26路晚班;32路;32路专线;86路;88路;88路晚班;89路;K1路;Z6路;古城微巴2号线,江苏省,扬州市,广陵区,,unknown,
baidu,bbda9ca052222d9c095cb3d4,珍园-地下停车场,江苏省扬州市广陵区文昌中路492号,江苏省,扬州市,广陵区,(0514)87349663,unknown,
baidu,09e2511734252b761ef74de9,个园-北门地上停车场,扬州市广陵区盐阜东路个园北门,江苏省,扬州市,广陵区,,unknown,
baidu,b006b4a64e6117ebc91b95ea,特来电充电站(扬州何园停车楼快充站),江苏省扬州市广陵区东关街道广陵路195号何园停车楼,江苏省,扬州市,广陵区,4001300001,unknown,
baidu,833b03dc01778ee42efaa7fe,何园-地上停车场,江苏省扬州市广陵区徐凝门大街66号,江苏省,扬州市,广陵区,,unknown,
baidu,96be3544b51c925fa8f729dd,中国建设银行(扬州分行营业部)-停车场,扬州市广陵区文昌中路400号,江苏省,扬州市,广陵区,,unknown,
baidu,d5b599c23b92854ef60e7727,扬州东关街文昌阁桔子水晶酒店(扬州萃园路店)-地上停车场,扬州市广陵区文昌中路492号,江苏省,扬州市,广陵区,,unknown,
baidu,9e837560f3bf4d872a06ce54,东关历史文化旅游区-东门地上停车场,扬州市广陵区东关街大草小区北1门南侧约90米,江苏省,扬州市,广陵区,,unknown,
baidu,cc280446d02aa9626849f392,扬州市妇幼保健院-地上停车场,国庆路397号扬州市妇幼保健院内,江苏省,扬州市,广陵区,,unknown,
baidu,5aa7e53e92c463d7471a328e,莲花街坊西侧停车场,扬州市广陵区古旗亭街莲花街坊西侧约40米,江苏省,扬州市,广陵区,,unknown,
baidu,76d8cb5f04c2051488b9884c,莲花街坊-停车场,扬州市广陵区文昌中路莲花街坊,江苏省,扬州市,广陵区,,unknown,
baidu,0bf27035d19e86b91e1d11d3,扬州市夹剪桥11号,扬州市古旗亭街莲花街坊西南侧约120米,江苏省,扬州市,广陵区,,unknown,
baidu,3d6923ce0ee90c02b5147f33,东域城西南侧停车场,江苏省扬州市广陵区文昌中路492号,江苏省,扬州市,广陵区,,unknown,
baidu,5ae9f287581a8a54c6effbf9,教场,古城微巴1号线,江苏省,扬州市,广陵区,,unknown,
baidu,0fd3ebbebc0acc56b54f54d2,万家福商城-地上停车场,扬州市广陵区文昌中路万家福商城,江苏省,扬州市,广陵区,,unknown,
baidu,17a55212b3ddd7a70b69d92c,人民商场(国庆路店)东侧-停车场,江苏省扬州市广陵区国庆路1号,江苏省,扬州市,广陵区,,unknown,
baidu,140eb58a5be38ec4f4231037,救护车专用车位1号,扬州市广陵区泰州路扬州大学附属医院,江苏省,扬州市,广陵区,,unknown,
baidu,b7ed2157d6abe5452cb90884,赞化巷立体停车场,江苏省扬州市广陵区汶河南路41号,江苏省,扬州市,广陵区,,unknown,
baidu,c412ed3aad5d086ff72310b6,486广场-地下停车场,扬州市邗江区石狮子一巷扬州486非物质文化遗产集聚区,江苏省,扬州市,邗江区,,unknown,
baidu,7ae9eb709937a39d8bfc06ba,朋克芭蕾轻旅行酒店(扬州东关街何园店)东侧-停车场,扬州市广陵区徐凝门大街朋克芭蕾轻旅行酒店(东关街何园店)东侧约30米,江苏省,扬州市,广陵区,,unknown,
baidu,0760be9b225d16e89ff77989,中国农业银行(扬州广陵支行营业部)-停车场,江苏省扬州市广陵区文昌中路412号,江苏省,扬州市,广陵区,,unknown,
baidu,372d41efbcdf87867069d328,大东门桥,扬州市广陵区彩衣街146号,江苏省,扬州市,广陵区,,unknown,
baidu,5c4cf249332056725e0d02e8,安乐街坊-停车场,扬州市广陵区文昌中路安乐街坊,江苏省,扬州市,广陵区,,unknown,
baidu,fe2ade33468ab6d3b1077da9,扬州大学附属医院东区医院(北院)-非机动停放点,扬州市广陵区泰州路扬州大学附属医院,江苏省,扬州市,广陵区,,unknown,
baidu,46e86fdd7be1db6fd03ce384,老北门桥,江苏省扬州市广陵区梅岭老北门桥(凤凰桥北门外街),江苏省,扬州市,广陵区,,unknown,
baidu,0e0d324bc372e956d6b74e6e,东圈门,古城微巴1号线,江苏省,扬州市,广陵区,,unknown,
baidu,39a7200e137d5cde4c3a598a,扬州大运河文化旅游度假区·西园饭店-停车场,江苏省扬州市邗江区丰乐上街1号,江苏省,扬州市,邗江区,(0514)87807888,unknown,
baidu,683d0d92ad86f07e2e47338c,停车场,江苏省扬州市广陵区松风巷,江苏省,扬州市,广陵区,,unknown,
baidu,1b2606537a0a277adbecede6,绿杨旅社(富春茶社),古城微巴1号线,江苏省,扬州市,广陵区,,unknown,
baidu,645d5aef77ef2747c5effb28,梅花书院(二分明月楼),古城微巴2号线,江苏省,扬州市,广陵区,,unknown,
baidu,9ae816ef1e55c9cd8415417e,红杉树酒店-地上停车场,扬州市广陵区文昌中路499号,江苏省,扬州市,广陵区,,unknown,
baidu,f021304d21a096dbf90cad1d,东关历史文化旅游区-非机动车停车场,扬州市广陵区泰州路59-15号,江苏省,扬州市,广陵区,,unknown,
baidu,e1a8ed152170a3e08505bf5c,跃进桥,25路;25路区间;26路;26路晚班;86路;古城微巴1号线;古城微巴2号线;旅游观光巴士;游1路,江苏省,扬州市,广陵区,,unknown,
baidu,6a154c5bd43da50ff6c59c6b,治淮新村-停车场,扬州市广陵区盐阜东路6号,江苏省,扬州市,广陵区,,unknown,
baidu,3e05328ac44135f0932ca3c3,吴道台府(第一人民医院),25路;25路区间;26路;26路晚班;86路;古城微巴1号线;古城微巴2号线;旅游观光巴士;游1路,江苏省,扬州市,广陵区,,unknown,
baidu,9ac3686964cc5aa5130daa77,东关街(彩衣街),古城微巴1号线,江苏省,扬州市,广陵区,,unknown,
baidu,4f7e988a5651a570c7f025da,文昌阁,6路;6路区间;17路;20路;20路晚;23路;23路晚班;27路;29路;29路晚班;30路;37路;51路晚班;56路;59路晚班;60路晚班;62路;70路;128路;扬镇旅游专线;游2路;游2线,江苏省,扬州市,广陵区,,unknown,
baidu,53aaa5da94da4d8fa1d230f0,南门遗址码头,江苏省扬州市广陵区汶河街道荷花池路南门马头,江苏省,扬州市,广陵区,,unknown,
baidu,baac89a09d834531fa0cad70,石塔寺,1路;1路晚班;5路;17路;18路;18路晚班;26路;26路晚班;27路;30路;40路;51路晚班;55路晚班;59路晚班;66路;70路;86路;88路;88路晚班;89路;K1路;K7路;Z6路;扬镇旅游专线;游2路,江苏省,扬州市,广陵区,,unknown,
baidu,34cfe9db9bce9aed3a04b17b,特来电充电站(扬州蓝海现代城快充站),江苏省扬州市广陵区曲江街道解放南路蓝海现代城,江苏省,扬州市,广陵区,4001300001,unknown,
baidu,75b87c75b1a8fe392fe67b17,荷花池公园-地下停车场,扬州市广陵区荷花池支路荷花池公园,江苏省,扬州市,广陵区,(0514)85088058,unknown,
baidu,4b205828fe6d1e63a1a934d6,江苏省苏北人民医院-地下停车场,扬州市广陵区南通西路98号,江苏省,扬州市,广陵区,,unknown,
baidu,c74a5c93ac5c16dec356acde,徐凝门大街(皮市街南),古城微巴1号线;古城微巴2号线,江苏省,扬州市,广陵区,,unknown,
baidu,158a0affde4470c51f38941f,古运河游船码头,扬州市邗江区高桥路南街20号,江苏省,扬州市,邗江区,(0514)87321666,unknown,
baidu,7524cb4fe916423404026f50,扬州市城市照明管理处-地下停车场,扬州市广陵区文昌中路413号～415号附近,江苏省,扬州市,广陵区,,unknown,
baidu,212ec1ce9c015dc52fb90878,扬州大学附属医院-地下停车场,江苏省扬州市广陵区泰州路45号,江苏省,扬州市,广陵区,,unknown,
baidu,49d9446bc7946c7a82a12e6b,冶春园西北侧-停车场,扬州市邗江区北门外大街玉带河小区-南区东南侧约40米,江苏省,扬州市,邗江区,,unknown,
baidu,43835cfe72e6dd3721f0170f,流水桥15号,扬州市广陵区花井南巷4号附近,江苏省,扬州市,广陵区,,unknown,
baidu,4b39d99a0bfee1342cb17e9b,广陵医院,古城微巴1号线;古城微巴2号线,江苏省,扬州市,广陵区,,unknown,
baidu,47dfbf69577cf73f59bbbcdb,广陵公安分局东关派出所-地上停车场,江苏省扬州市广陵区文昌中路416号,江苏省,扬州市,广陵区,,unknown,
baidu,e15dbc81eca578982b11d1dc,扬州市妇幼保健院-地下停车场,扬州市广陵区国庆路397号,江苏省,扬州市,广陵区,,unknown,
baidu,b8974b32c57bf742276e9830,市政府东大院公共自行车租赁点,文昌中路466号,江苏省,扬州市,广陵区,,unknown,
baidu,89a215f0291d716ced74f86a,玉器街路东侧临时停车点,扬州市邗江区玉器街工人二村151号小区西南侧约70米,江苏省,扬州市,邗江区,,unknown,
baidu,2fd498fd504e87688505bf4d,个园,27路;古城微巴1号线;旅游观光巴士;游1路;游3路,江苏省,扬州市,广陵区,,unknown,
baidu,3f2f748eee995268a5da3999,出租车停靠站点,文昌中路360-1号附近,江苏省,扬州市,广陵区,,unknown,
baidu,5b0b4ac7df9e21b316c8f64e,扬州大运河文化旅游度假区·虹桥坊酒店-地上停车场,江苏省扬州市邗江区瘦西湖路20-5号附近,江苏省,扬州市,邗江区,,unknown,
baidu,d740e7fac9325c5c95ca0765,广储门小区-停车场,扬州市广陵区盐阜东路13号,江苏省,扬州市,广陵区,,unknown,
baidu,269bbd2b171be8c99f95de43,扬州大运河文化旅游度假区虹桥坊温泉-地下停车场,江苏省扬州市邗江区大虹桥路18号,江苏省,扬州市,邗江区,,unknown,
baidu,8755ac0f249c47f51811d58e,何园,古城微巴1号线;旅游观光巴士,江苏省,扬州市,广陵区,,unknown,
baidu,7ebd0813d5996e66a9f0cd88,滨河苑南侧临时停车点,扬州市广陵区广陵路滨河苑南侧约40米,江苏省,扬州市,广陵区,,unknown,
baidu,6e2cc3fe372090e0455726cb,停车场,扬州市广陵区南河下七二三所住宅小区东北侧约150米,江苏省,扬州市,广陵区,,unknown,
baidu,62561639ce0324278bdb73d1,广陵路,古城微巴2号线,江苏省,扬州市,广陵区,,unknown,
baidu,9f9627969003754a81288af5,妇幼保健院,古城微巴1号线,江苏省,扬州市,广陵区,,unknown,
baidu,73171d4a41b0e7cb157643f1,渡江桥北,古城微巴1号线,江苏省,扬州市,广陵区,,unknown,
baidu,28121fdc4f47872a03294fa7,扬州大学附属医院东区医院(北院)-停车场,扬州市广陵区泰州路扬州大学附属医院,江苏省,扬州市,广陵区,,unknown,
baidu,b6c9f64b07dec7f4d8eced92,吴氏宅第-停车场,泰州路44号吴氏宅第,江苏省,扬州市,广陵区,,unknown,
baidu,a66be28a44ed6862f50e7734,公共自行车租赁点(文昌中路),江苏省扬州市广陵区第一中学(文昌中路),江苏省,扬州市,广陵区,,unknown,
baidu,afda6846b5324dc616c9052f,观光巴士何园上客站,扬州市广陵区徐凝门大街78号,江苏省,扬州市,广陵区,,unknown,
baidu,3b22cd8088b8d78378f7969b,苏唱街,古城微巴1号线,江苏省,扬州市,广陵区,,unknown,
baidu,999830fcbacd033c3517dc38,公共自行车租赁点,扬州市广陵区泰州路韵和园(泰州路)东侧,江苏省,扬州市,广陵区,,unknown,
baidu,5e7b241072db0c4b79dbd267,韵和园(泰州路)-停车场,扬州市广陵区泰州路40号,江苏省,扬州市,广陵区,,unknown,
baidu,d81f7f81f9c2d19532870a52,公园桥,扬州市广陵区公园巷5号,江苏省,扬州市,广陵区,,unknown,
baidu,c0ad91d0cb6c5cda9de3217a,共和春(甘泉路店),古城微巴2号线,江苏省,扬州市,广陵区,,unknown,
baidu,6c529fdcf7a849ead13ce317,扬州市民政局停车场,扬州市广陵区文昌中路460号,江苏省,扬州市,广陵区,,unknown,
baidu,94b3ce54a7eaacb10bf5eba8,何园自行车租赁点,扬州市广陵区徐凝门大街朋克芭蕾轻旅行酒店(东关街何园店)东南侧,江苏省,扬州市,广陵区,,unknown,
baidu,32d70c18364f15d82bd7ab46,十八家7号,扬州市徐凝门大街扬州市广陵区中医院南侧约200米,江苏省,扬州市,广陵区,,unknown,
baidu,38cf2020a5bf91cf41d63e6d,滨河苑-停车场,扬州市广陵区泰州路18号,江苏省,扬州市,广陵区,,unknown,
baidu,baba8735792ad7ff5d17c314,扬州大学附属医院-地上停车场,江苏省扬州市广陵区泰州路45号,江苏省,扬州市,广陵区,,unknown,
